{"type": "FeatureCollection", "features": [{"type": "Feature", "geometry": {"type": "Point", "coordinates": [98.9526727, 18.7957718]}, "properties": {"id": "cm-osm-way-1130917276", "name": "401", "nameTh": null, "nameEn": "401", "cat": ["business"], "province": "cm"}}, {"type": "Feature", "geometry": {"type": "Point", "coordinates": [98.9854274, 18.7673866]}, "properties": {"id": "cm-osm-node-11498882632", "name": "AT Business & Law", "nameTh": null, "nameEn": "AT Business & Law", "cat": ["business"], "province": "cm"}}, {"type": "Feature", "geometry": {"type": "Point", "coordinates": [98.9791643, 18.7885805]}, "properties": {"id": "cm-osm-way-1208209252", "name": "Alt_ChiangMai", "nameTh": "ออลท์ เชียงใหม่", "nameEn": "Alt_ChiangMai", "cat": ["business"], "province": "cm"}}, {"type": "Feature", "geometry": {"type": "Point", "coordinates": [98.9659684, 18.7967948]}, "properties": {"id": "cm-osm-node-4596413943", "name": "Bibie", "nameTh": null, "nameEn": "Bibie", "cat": ["business"], "province": "cm"}}, {"type": "Feature", "geometry": {"type": "Point", "coordinates": [98.9841306, 18.7895311]}, "properties": {"id": "cm-osm-node-5613364523", "name": "Brain awake coworking space", "nameTh": null, "nameEn": "Brain awake coworking space", "cat": ["business", "food"], "province": "cm"}}, {"type": "Feature", "geometry": {"type": "Point", "coordinates": [98.9667012, 18.8023074]}, "properties": {"id": "cm-osm-node-2692460179", "name": "C.A.M.P.", "nameTh": null, "nameEn": "C.A.M.P.", "cat": ["business"], "province": "cm"}}, {"type": "Feature", "geometry": {"type": "Point", "coordinates": [98.9738747, 18.8131573]}, "properties": {"id": "cm-osm-node-13411824166", "name": "CNTSA", "nameTh": null, "nameEn": "CNTSA", "cat": ["business"], "province": "cm"}}, {"type": "Feature", "geometry": {"type": "Point", "coordinates": [99.0405402, 18.7704648]}, "properties": {"id": "cm-osm-node-11499334713", "name": "Chiang Mai Vinyl", "nameTh": null, "nameEn": "Chiang Mai Vinyl", "cat": ["business"], "province": "cm"}}, {"type": "Feature", "geometry": {"type": "Point", "coordinates": [99.0028907, 18.8086406]}, "properties": {"id": "cm-osm-node-3394777456", "name": "Co-working cafe", "nameTh": null, "nameEn": "Co-working cafe", "cat": ["business"], "province": "cm"}}, {"type": "Feature", "geometry": {"type": "Point", "coordinates": [99.0054932, 18.765594]}, "properties": {"id": "cm-osm-node-12092875878", "name": "Fellowship Cafe & Co-working", "nameTh": null, "nameEn": "Fellowship Cafe & Co-working", "cat": ["business", "food"], "province": "cm"}}, {"type": "Feature", "geometry": {"type": "Point", "coordinates": [98.9733615, 18.7670646]}, "properties": {"id": "cm-osm-node-12484086694", "name": "GO Wholesale Chiang Mai", "nameTh": null, "nameEn": "GO Wholesale Chiang Mai", "cat": ["business"], "province": "cm"}}, {"type": "Feature", "geometry": {"type": "Point", "coordinates": [98.9733528, 18.7670129]}, "properties": {"id": "cm-osm-way-275275540", "name": "GO Wholesale Chiang Mai", "nameTh": null, "nameEn": "GO Wholesale Chiang Mai", "cat": ["business"], "province": "cm"}}, {"type": "Feature", "geometry": {"type": "Point", "coordinates": [98.9653831, 18.7957496]}, "properties": {"id": "cm-osm-node-4596413945", "name": "Guru Box", "nameTh": null, "nameEn": "Guru Box", "cat": ["business"], "province": "cm"}}, {"type": "Feature", "geometry": {"type": "Point", "coordinates": [98.995543, 18.7776871]}, "properties": {"id": "cm-osm-node-6160991685", "name": "Heartwork the Sharing Space", "nameTh": null, "nameEn": "Heartwork the Sharing Space", "cat": ["business", "food"], "province": "cm"}}, {"type": "Feature", "geometry": {"type": "Point", "coordinates": [99.0691149, 18.7852626]}, "properties": {"id": "cm-osm-way-380990719", "name": "Home Mart", "nameTh": null, "nameEn": "Home Mart", "cat": ["business"], "province": "cm"}}, {"type": "Feature", "geometry": {"type": "Point", "coordinates": [98.9608163, 18.7998903]}, "properties": {"id": "cm-osm-way-529378775", "name": "Hub 53 Coworking & Coliving", "nameTh": null, "nameEn": "Hub53 Coworking  & Coliving", "cat": ["business", "hotel"], "province": "cm"}}, {"type": "Feature", "geometry": {"type": "Point", "coordinates": [98.9685237, 18.8689404]}, "properties": {"id": "cm-osm-node-11527311761", "name": "Interpack", "nameTh": null, "nameEn": "Interpack", "cat": ["business"], "province": "cm"}}, {"type": "Feature", "geometry": {"type": "Point", "coordinates": [98.9655479, 18.7966803]}, "properties": {"id": "cm-osm-node-4477015475", "name": "Mana Coworking Space", "nameTh": null, "nameEn": "Mana Coworking Space", "cat": ["business"], "province": "cm"}}, {"type": "Feature", "geometry": {"type": "Point", "coordinates": [99.0136985, 18.8835197]}, "properties": {"id": "cm-osm-node-11617782871", "name": "Metal stockholders", "nameTh": null, "nameEn": "Metal stockholders", "cat": ["business"], "province": "cm"}}, {"type": "Feature", "geometry": {"type": "Point", "coordinates": [98.9956863, 18.8072826]}, "properties": {"id": "cm-osm-node-11622002123", "name": "Metalwork shop", "nameTh": null, "nameEn": "Metalwork shop", "cat": ["business"], "province": "cm"}}, {"type": "Feature", "geometry": {"type": "Point", "coordinates": [98.9722509, 18.7935111]}, "properties": {"id": "cm-osm-node-2505598103", "name": "Punspace Nimman", "nameTh": "ปันสเปซ สาขานิมมาน", "nameEn": "Punspace Nimman", "cat": ["business"], "province": "cm"}}, {"type": "Feature", "geometry": {"type": "Point", "coordinates": [98.9913378, 18.7866271]}, "properties": {"id": "cm-osm-node-3164000393", "name": "Punspace Tha Phae Gate", "nameTh": "ปันสเปซ สาขาประตูท่าแพ", "nameEn": "Punspace Tha Phae Gate", "cat": ["business"], "province": "cm"}}, {"type": "Feature", "geometry": {"type": "Point", "coordinates": [98.9866868, 18.793513]}, "properties": {"id": "cm-osm-node-6077929085", "name": "Punspace Wiang Kaew", "nameTh": null, "nameEn": "Co-working space with garden", "cat": ["business"], "province": "cm"}}, {"type": "Feature", "geometry": {"type": "Point", "coordinates": [99.0162904, 18.7961617]}, "properties": {"id": "cm-curated-starwork", "name": "StarWork Chiangmai", "nameTh": "สตาร์เวิร์ค เชียงใหม่", "nameEn": "StarWork Chiangmai", "cat": ["business"], "province": "cm"}}, {"type": "Feature", "geometry": {"type": "Point", "coordinates": [98.9746636, 18.7990971]}, "properties": {"id": "cm-osm-node-13437706095", "name": "Thai Visa Services", "nameTh": null, "nameEn": "Thai Visa Services", "cat": ["business"], "province": "cm"}}, {"type": "Feature", "geometry": {"type": "Point", "coordinates": [99.0328765, 18.838042]}, "properties": {"id": "cm-osm-node-11409264204", "name": "Thaiwatsadu", "nameTh": null, "nameEn": "Thaiwatsadu", "cat": ["business"], "province": "cm"}}, {"type": "Feature", "geometry": {"type": "Point", "coordinates": [98.9729886, 18.79282]}, "properties": {"id": "cm-osm-node-12217381902", "name": "The Brick Coworking", "nameTh": null, "nameEn": "The Brick Coworking", "cat": ["business"], "province": "cm"}}, {"type": "Feature", "geometry": {"type": "Point", "coordinates": [98.9786553, 18.7930217]}, "properties": {"id": "cm-osm-way-623146142", "name": "The Peaberry Cafe & Coworking", "nameTh": null, "nameEn": "The Peaberry Cafe & Coworking", "cat": ["business", "food"], "province": "cm"}}, {"type": "Feature", "geometry": {"type": "Point", "coordinates": [98.9792086, 18.7921707]}, "properties": {"id": "cm-osm-way-361121944", "name": "The Social Club - Coliving & Coworking Space", "nameTh": null, "nameEn": "The Social Club - coliving & coworking space", "cat": ["business", "hotel"], "province": "cm"}}, {"type": "Feature", "geometry": {"type": "Point", "coordinates": [98.9987439, 18.7884256]}, "properties": {"id": "cm-osm-node-11237661639", "name": "The Story 106 Cafe and Coworking", "nameTh": null, "nameEn": "The Story 106 Cafe and Coworking", "cat": ["business", "food"], "province": "cm"}}, {"type": "Feature", "geometry": {"type": "Point", "coordinates": [98.9973079, 18.8576261]}, "properties": {"id": "cm-osm-node-11607173084", "name": "Ucon", "nameTh": null, "nameEn": "Ucon", "cat": ["business"], "province": "cm"}}, {"type": "Feature", "geometry": {"type": "Point", "coordinates": [98.9860092, 18.77612]}, "properties": {"id": "cm-osm-way-1214610838", "name": "Weave Artisan Society", "nameTh": null, "nameEn": "Weave Artisan Society", "cat": ["business"], "province": "cm"}}, {"type": "Feature", "geometry": {"type": "Point", "coordinates": [99.0121923, 18.8370477]}, "properties": {"id": "cm-osm-node-13031377338", "name": "Wing Learn space & craft", "nameTh": null, "nameEn": "Wing Learn space & craft", "cat": ["business"], "province": "cm"}}, {"type": "Feature", "geometry": {"type": "Point", "coordinates": [98.9678384, 18.7987754]}, "properties": {"id": "cm-curated-yellow", "name": "Yellow Coworking", "nameTh": "เยลโล่ โคเวิร์กกิ้ง", "nameEn": "Yellow Coworking", "cat": ["business"], "province": "cm"}}, {"type": "Feature", "geometry": {"type": "Point", "coordinates": [99.1410218, 18.6646479]}, "properties": {"id": "cm-osm-way-547918299", "name": "นิรุตติ๋ค้าไม้เรือนเก่า", "nameTh": "นิรุตติ๋ค้าไม้เรือนเก่า", "nameEn": "Nirut Used House Wood Seller", "cat": ["business"], "province": "cm"}}, {"type": "Feature", "geometry": {"type": "Point", "coordinates": [99.0034443, 18.8319263]}, "properties": {"id": "cm-osm-way-643597825", "name": "บจก. เชียงใหม่วีระชัย วิศวกร", "nameTh": "บจก. เชียงใหม่วีระชัย วิศวกร", "nameEn": "Chiang Mai Virachai Engineering, Co. Ltd", "cat": ["business"], "province": "cm"}}, {"type": "Feature", "geometry": {"type": "Point", "coordinates": [98.9855414, 18.8048508]}, "properties": {"id": "cm-osm-node-3392193895", "name": "พาณิชย์วิบูลย์", "nameTh": "พาณิชย์วิบูลย์", "nameEn": "Phanit Wibun", "cat": ["business"], "province": "cm"}}, {"type": "Feature", "geometry": {"type": "Point", "coordinates": [98.9963072, 18.7953354]}, "properties": {"id": "cm-osm-way-672587607", "name": "ศูนย์สร้างสรรค์งานออกแบบ เชียงใหม่", "nameTh": "ศูนย์สร้างสรรค์งานออกแบบ เชียงใหม่", "nameEn": "TCDC Chiang Mai", "cat": ["business", "sights"], "province": "cm"}}, {"type": "Feature", "geometry": {"type": "Point", "coordinates": [98.9874131, 18.7810036]}, "properties": {"id": "cm-osm-node-11231325285", "name": "หจก. เชียงใหม่วีระกิจ", "nameTh": "หจก. เชียงใหม่วีระกิจ", "nameEn": null, "cat": ["business"], "province": "cm"}}, {"type": "Feature", "geometry": {"type": "Point", "coordinates": [98.9528268, 18.795715]}, "properties": {"id": "cm-osm-way-1130917249", "name": "ห้องพักนักศึกษา", "nameTh": "ห้องพักนักศึกษา", "nameEn": null, "cat": ["business"], "province": "cm"}}, {"type": "Feature", "geometry": {"type": "Point", "coordinates": [98.9523043, 18.8989156]}, "properties": {"id": "cm-osm-way-217504686", "name": "แม็คโคร", "nameTh": "แม็คโคร", "nameEn": "Makro", "cat": ["business"], "province": "cm"}}, {"type": "Feature", "geometry": {"type": "Point", "coordinates": [99.0139126, 18.8436374]}, "properties": {"id": "cm-osm-way-774916995", "name": "ไทยแซทเชียงใหม่", "nameTh": "ไทยแซทเชียงใหม่", "nameEn": null, "cat": ["business"], "province": "cm"}}]}