{"type": "FeatureCollection", "features": [{"type": "Feature", "geometry": {"type": "Point", "coordinates": [98.9694562, 18.7975274]}, "properties": {"id": "cm-osm-node-12570333922", "name": "25 Beauty & Spa", "cat": ["beauty"], "province": "cm"}}, {"type": "Feature", "geometry": {"type": "Point", "coordinates": [98.9667368, 18.7972471]}, "properties": {"id": "cm-osm-node-10104752317", "name": "56 Barber", "cat": ["beauty"], "province": "cm"}}, {"type": "Feature", "geometry": {"type": "Point", "coordinates": [98.9915852, 18.8089017]}, "properties": {"id": "cm-osm-node-12603693596", "name": "A Little Cut Studio", "cat": ["beauty"], "province": "cm"}}, {"type": "Feature", "geometry": {"type": "Point", "coordinates": [98.9778137, 18.7935826]}, "properties": {"id": "cm-osm-node-2638748031", "name": "Absolute Care Clinic", "cat": ["beauty"], "province": "cm"}}, {"type": "Feature", "geometry": {"type": "Point", "coordinates": [98.9954111, 18.7667358]}, "properties": {"id": "cm-osm-node-12709479901", "name": "Again Hair Salon", "cat": ["beauty"], "province": "cm"}}, {"type": "Feature", "geometry": {"type": "Point", "coordinates": [99.052522, 18.7778794]}, "properties": {"id": "cm-osm-node-4557811609", "name": "Akshaya E Centre", "cat": ["beauty"], "province": "cm"}}, {"type": "Feature", "geometry": {"type": "Point", "coordinates": [98.9707591, 18.7970576]}, "properties": {"id": "cm-osm-node-1797031150", "name": "Alina nail spa", "cat": ["beauty"], "province": "cm"}}, {"type": "Feature", "geometry": {"type": "Point", "coordinates": [98.998206, 18.7895303]}, "properties": {"id": "cm-osm-node-5611451022", "name": "Amazing Local Hairdresser", "cat": ["beauty"], "province": "cm"}}, {"type": "Feature", "geometry": {"type": "Point", "coordinates": [98.9845751, 18.7895372]}, "properties": {"id": "cm-osm-node-11369981746", "name": "Asian Phytoceuticals Public Company Limited", "cat": ["beauty"], "province": "cm"}}, {"type": "Feature", "geometry": {"type": "Point", "coordinates": [98.9763752, 18.8028468]}, "properties": {"id": "cm-osm-node-6915364985", "name": "B-begin salon", "cat": ["beauty"], "province": "cm"}}, {"type": "Feature", "geometry": {"type": "Point", "coordinates": [98.9914901, 18.7918081]}, "properties": {"id": "cm-osm-node-7033502869", "name": "Backstreet Barber Shop", "cat": ["beauty"], "province": "cm"}}, {"type": "Feature", "geometry": {"type": "Point", "coordinates": [98.9914677, 18.7916743]}, "properties": {"id": "cm-osm-node-7295643885", "name": "Backstreet Barber Shop", "cat": ["beauty"], "province": "cm"}}, {"type": "Feature", "geometry": {"type": "Point", "coordinates": [99.0177977, 18.8077061]}, "properties": {"id": "cm-osm-node-2865817401", "name": "Bangkok Clinic", "cat": ["beauty"], "province": "cm"}}, {"type": "Feature", "geometry": {"type": "Point", "coordinates": [98.9896603, 18.7741584]}, "properties": {"id": "cm-osm-node-4813290121", "name": "Barber", "cat": ["beauty"], "province": "cm"}}, {"type": "Feature", "geometry": {"type": "Point", "coordinates": [98.9857325, 18.7935931]}, "properties": {"id": "cm-osm-node-4974709127", "name": "Barber", "cat": ["beauty"], "province": "cm"}}, {"type": "Feature", "geometry": {"type": "Point", "coordinates": [99.0207279, 18.7845951]}, "properties": {"id": "cm-osm-node-13991350701", "name": "Barber Shop", "cat": ["beauty"], "province": "cm"}}, {"type": "Feature", "geometry": {"type": "Point", "coordinates": [98.990631, 18.7853136]}, "properties": {"id": "cm-osm-node-5531545448", "name": "Barber Shop", "cat": ["beauty"], "province": "cm"}}, {"type": "Feature", "geometry": {"type": "Point", "coordinates": [99.0171566, 18.7339675]}, "properties": {"id": "cm-osm-node-6290121274", "name": "Barber Shot", "cat": ["beauty"], "province": "cm"}}, {"type": "Feature", "geometry": {"type": "Point", "coordinates": [98.9930585, 18.789893]}, "properties": {"id": "cm-osm-node-5328427821", "name": "Barber by DON'S", "cat": ["beauty"], "province": "cm"}}, {"type": "Feature", "geometry": {"type": "Point", "coordinates": [99.0298996, 18.8881054]}, "properties": {"id": "cm-osm-node-4574417289", "name": "BarberShop", "cat": ["beauty"], "province": "cm"}}, {"type": "Feature", "geometry": {"type": "Point", "coordinates": [98.9947445, 18.7841505]}, "properties": {"id": "cm-osm-node-820812644", "name": "Be 1st Salon", "cat": ["beauty"], "province": "cm"}}, {"type": "Feature", "geometry": {"type": "Point", "coordinates": [98.9484785, 18.7762308]}, "properties": {"id": "cm-osm-node-11806619444", "name": "BeALLA Craft Skincare", "cat": ["beauty"], "province": "cm"}}, {"type": "Feature", "geometry": {"type": "Point", "coordinates": [98.9928455, 18.7853837]}, "properties": {"id": "cm-osm-node-3385473022", "name": "Beauty & Barber", "cat": ["beauty"], "province": "cm"}}, {"type": "Feature", "geometry": {"type": "Point", "coordinates": [98.9729502, 18.703787]}, "properties": {"id": "cm-osm-node-11954890285", "name": "Beauty Hair", "cat": ["beauty"], "province": "cm"}}, {"type": "Feature", "geometry": {"type": "Point", "coordinates": [98.9974202, 18.7994043]}, "properties": {"id": "cm-osm-node-4536308807", "name": "Beauty Point", "cat": ["beauty"], "province": "cm"}}, {"type": "Feature", "geometry": {"type": "Point", "coordinates": [99.0178055, 18.8077705]}, "properties": {"id": "cm-osm-node-2865817402", "name": "Beyond The Sea Clinic", "cat": ["beauty"], "province": "cm"}}, {"type": "Feature", "geometry": {"type": "Point", "coordinates": [99.0865217, 18.7727051]}, "properties": {"id": "cm-osm-node-1541935063", "name": "Bosang Barber", "cat": ["beauty"], "province": "cm"}}, {"type": "Feature", "geometry": {"type": "Point", "coordinates": [98.9826573, 18.7888392]}, "properties": {"id": "cm-osm-node-11407178345", "name": "Bright Nail & Spa", "cat": ["beauty"], "province": "cm"}}, {"type": "Feature", "geometry": {"type": "Point", "coordinates": [98.9815574, 18.7838404]}, "properties": {"id": "cm-osm-node-13584277801", "name": "By. Paiwanbarber", "cat": ["beauty"], "province": "cm"}}, {"type": "Feature", "geometry": {"type": "Point", "coordinates": [99.0085912, 18.7874174]}, "properties": {"id": "cm-osm-node-4584155904", "name": "CNX Haircutz", "cat": ["beauty"], "province": "cm"}}, {"type": "Feature", "geometry": {"type": "Point", "coordinates": [99.0060315, 18.7835465]}, "properties": {"id": "cm-osm-node-3395098032", "name": "CNX Professional Salon", "cat": ["beauty"], "province": "cm"}}, {"type": "Feature", "geometry": {"type": "Point", "coordinates": [98.9997613, 18.7805383]}, "properties": {"id": "cm-osm-node-3727889754", "name": "Chanok Beauty Salon", "cat": ["beauty"], "province": "cm"}}, {"type": "Feature", "geometry": {"type": "Point", "coordinates": [98.9673858, 18.8700731]}, "properties": {"id": "cm-osm-node-12222064418", "name": "Chao Barbershop", "cat": ["beauty"], "province": "cm"}}, {"type": "Feature", "geometry": {"type": "Point", "coordinates": [98.9924956, 18.7919567]}, "properties": {"id": "cm-osm-node-10726988005", "name": "Chiang Mai", "cat": ["beauty"], "province": "cm"}}, {"type": "Feature", "geometry": {"type": "Point", "coordinates": [98.9876305, 18.7815367]}, "properties": {"id": "cm-osm-node-7426498830", "name": "Chiang Mai Direct", "cat": ["beauty"], "province": "cm"}}, {"type": "Feature", "geometry": {"type": "Point", "coordinates": [98.9856985, 18.7905253]}, "properties": {"id": "cm-osm-node-4788941122", "name": "Chiang mai d'Oman correctional institution vocational (massage/spa)", "cat": ["beauty"], "province": "cm"}}, {"type": "Feature", "geometry": {"type": "Point", "coordinates": [98.9984854, 18.7845285]}, "properties": {"id": "cm-osm-node-4846822621", "name": "ChiangMai Barber", "cat": ["beauty"], "province": "cm"}}, {"type": "Feature", "geometry": {"type": "Point", "coordinates": [98.9324012, 18.7018372]}, "properties": {"id": "cm-osm-node-3476187593", "name": "City Nail", "cat": ["beauty"], "province": "cm"}}, {"type": "Feature", "geometry": {"type": "Point", "coordinates": [98.9783041, 18.7871336]}, "properties": {"id": "cm-osm-node-2466299697", "name": "City Nail Chiangmai", "cat": ["beauty"], "province": "cm"}}, {"type": "Feature", "geometry": {"type": "Point", "coordinates": [98.9773962, 18.8053198]}, "properties": {"id": "cm-osm-node-10865560108", "name": "Ck perfect", "cat": ["beauty"], "province": "cm"}}, {"type": "Feature", "geometry": {"type": "Point", "coordinates": [98.9888036, 18.7818429]}, "properties": {"id": "cm-osm-node-13335770901", "name": "Coach Whold Day", "cat": ["beauty"], "province": "cm"}}, {"type": "Feature", "geometry": {"type": "Point", "coordinates": [99.0177775, 18.8074709]}, "properties": {"id": "cm-osm-node-2865816301", "name": "Cut & Curl", "cat": ["beauty"], "province": "cm"}}, {"type": "Feature", "geometry": {"type": "Point", "coordinates": [99.0170844, 18.7977224]}, "properties": {"id": "cm-osm-node-4326366990", "name": "Cut 'm all", "cat": ["beauty"], "province": "cm"}}, {"type": "Feature", "geometry": {"type": "Point", "coordinates": [98.9815944, 18.7834968]}, "properties": {"id": "cm-osm-node-5702387254", "name": "Cutlers Barber", "cat": ["beauty"], "province": "cm"}}, {"type": "Feature", "geometry": {"type": "Point", "coordinates": [98.9950344, 18.7847535]}, "properties": {"id": "cm-osm-node-13607272320", "name": "Daily Nails", "cat": ["beauty"], "province": "cm"}}, {"type": "Feature", "geometry": {"type": "Point", "coordinates": [98.9896776, 18.777794]}, "properties": {"id": "cm-osm-node-5318153821", "name": "Dang", "cat": ["beauty"], "province": "cm"}}, {"type": "Feature", "geometry": {"type": "Point", "coordinates": [99.0097372, 18.8239154]}, "properties": {"id": "cm-osm-node-10067723190", "name": "Dara Cosmetics", "cat": ["beauty"], "province": "cm"}}, {"type": "Feature", "geometry": {"type": "Point", "coordinates": [98.9918944, 18.7829396]}, "properties": {"id": "cm-osm-node-6265198591", "name": "Dee Dee Massage", "cat": ["beauty"], "province": "cm"}}, {"type": "Feature", "geometry": {"type": "Point", "coordinates": [98.9999116, 18.7860093]}, "properties": {"id": "cm-osm-node-4875218021", "name": "Devarana Spa", "cat": ["beauty"], "province": "cm"}}, {"type": "Feature", "geometry": {"type": "Point", "coordinates": [99.0071081, 18.7846611]}, "properties": {"id": "cm-osm-way-582870947", "name": "Do D Salon", "cat": ["beauty"], "province": "cm"}}, {"type": "Feature", "geometry": {"type": "Point", "coordinates": [98.9617864, 18.7992214]}, "properties": {"id": "cm-osm-node-4596394519", "name": "DoDee Hair", "cat": ["beauty"], "province": "cm"}}, {"type": "Feature", "geometry": {"type": "Point", "coordinates": [98.979311, 18.7980271]}, "properties": {"id": "cm-osm-node-3298148751", "name": "Don Hair Stylist", "cat": ["beauty"], "province": "cm"}}, {"type": "Feature", "geometry": {"type": "Point", "coordinates": [98.9925158, 18.7888465]}, "properties": {"id": "cm-osm-node-11135208905", "name": "Don's Barber Shop", "cat": ["beauty"], "province": "cm"}}, {"type": "Feature", "geometry": {"type": "Point", "coordinates": [98.9997642, 18.7804503]}, "properties": {"id": "cm-osm-node-4870810723", "name": "Dreadlock Chiangmai", "cat": ["beauty"], "province": "cm"}}, {"type": "Feature", "geometry": {"type": "Point", "coordinates": [99.1113951, 18.7495622]}, "properties": {"id": "cm-osm-node-13711279934", "name": "Dream Catcher Barber and Tattoo", "cat": ["beauty"], "province": "cm"}}, {"type": "Feature", "geometry": {"type": "Point", "coordinates": [98.9401244, 18.7237693]}, "properties": {"id": "cm-osm-node-4569111190", "name": "Duo Hair Station", "cat": ["beauty"], "province": "cm"}}, {"type": "Feature", "geometry": {"type": "Point", "coordinates": [98.995543, 18.7845982]}, "properties": {"id": "cm-osm-node-4585145705", "name": "Euphoria", "cat": ["beauty"], "province": "cm"}}, {"type": "Feature", "geometry": {"type": "Point", "coordinates": [98.9921351, 18.7843094]}, "properties": {"id": "cm-osm-node-3385473027", "name": "Fai Beauty Salon", "cat": ["beauty"], "province": "cm"}}, {"type": "Feature", "geometry": {"type": "Point", "coordinates": [98.9627889, 18.7901077]}, "properties": {"id": "cm-osm-node-4360073026", "name": "H Salon", "cat": ["beauty"], "province": "cm"}}, {"type": "Feature", "geometry": {"type": "Point", "coordinates": [98.9987721, 18.7710472]}, "properties": {"id": "cm-osm-node-1923572206", "name": "Hair & Beauty", "cat": ["beauty"], "province": "cm"}}, {"type": "Feature", "geometry": {"type": "Point", "coordinates": [98.9731199, 18.8037619]}, "properties": {"id": "cm-osm-node-3311221862", "name": "Hair 2 Style", "cat": ["beauty"], "province": "cm"}}, {"type": "Feature", "geometry": {"type": "Point", "coordinates": [98.9765866, 18.8052604]}, "properties": {"id": "cm-osm-node-3311577705", "name": "Hair Beauty", "cat": ["beauty"], "province": "cm"}}, {"type": "Feature", "geometry": {"type": "Point", "coordinates": [99.0055983, 18.7679256]}, "properties": {"id": "cm-osm-node-1173899520", "name": "Hair Cut", "cat": ["beauty"], "province": "cm"}}, {"type": "Feature", "geometry": {"type": "Point", "coordinates": [98.9769285, 18.7715735]}, "properties": {"id": "cm-osm-node-4977925648", "name": "Hair Desing by Nana", "cat": ["beauty"], "province": "cm"}}, {"type": "Feature", "geometry": {"type": "Point", "coordinates": [98.9846095, 18.8055914]}, "properties": {"id": "cm-osm-node-3298054765", "name": "Hair Extra", "cat": ["beauty"], "province": "cm"}}, {"type": "Feature", "geometry": {"type": "Point", "coordinates": [98.9703365, 18.7916601]}, "properties": {"id": "cm-osm-node-3369589472", "name": "Hairdo", "cat": ["beauty"], "province": "cm"}}, {"type": "Feature", "geometry": {"type": "Point", "coordinates": [98.9843327, 18.7932037]}, "properties": {"id": "cm-osm-node-3927204600", "name": "Hairdresser", "cat": ["beauty"], "province": "cm"}}, {"type": "Feature", "geometry": {"type": "Point", "coordinates": [98.9863674, 18.7970523]}, "properties": {"id": "cm-osm-node-6961332008", "name": "Hairdresser", "cat": ["beauty"], "province": "cm"}}, {"type": "Feature", "geometry": {"type": "Point", "coordinates": [99.0177625, 18.8072541]}, "properties": {"id": "cm-osm-node-2865816101", "name": "Harley It", "cat": ["beauty"], "province": "cm"}}, {"type": "Feature", "geometry": {"type": "Point", "coordinates": [98.967188, 18.8114438]}, "properties": {"id": "cm-osm-node-2144917735", "name": "JimBee Studio", "cat": ["beauty"], "province": "cm"}}, {"type": "Feature", "geometry": {"type": "Point", "coordinates": [98.9924237, 18.7926855]}, "properties": {"id": "cm-osm-node-6486154088", "name": "Joy's Hair Salon", "cat": ["beauty"], "province": "cm"}}, {"type": "Feature", "geometry": {"type": "Point", "coordinates": [98.9991563, 18.7767717]}, "properties": {"id": "cm-osm-node-7183745585", "name": "Ju's nail salon", "cat": ["beauty"], "province": "cm"}}, {"type": "Feature", "geometry": {"type": "Point", "coordinates": [98.9985444, 18.7695315]}, "properties": {"id": "cm-osm-node-3298760882", "name": "Kae Hair", "cat": ["beauty"], "province": "cm"}}, {"type": "Feature", "geometry": {"type": "Point", "coordinates": [98.9708579, 18.7938681]}, "properties": {"id": "cm-osm-node-3421257553", "name": "Kamikaze", "cat": ["beauty"], "province": "cm"}}, {"type": "Feature", "geometry": {"type": "Point", "coordinates": [98.9553375, 18.7509603]}, "properties": {"id": "cm-osm-node-10313079209", "name": "Krai barber", "cat": ["beauty"], "province": "cm"}}, {"type": "Feature", "geometry": {"type": "Point", "coordinates": [98.9930095, 18.7931275]}, "properties": {"id": "cm-osm-node-5197377721", "name": "Kung - Robin Beauty & Barber", "cat": ["beauty"], "province": "cm"}}, {"type": "Feature", "geometry": {"type": "Point", "coordinates": [98.9682348, 18.7959031]}, "properties": {"id": "cm-osm-node-13392872391", "name": "LA PLURAL Nails & Spa", "cat": ["beauty"], "province": "cm"}}, {"type": "Feature", "geometry": {"type": "Point", "coordinates": [98.9597824, 18.8037667]}, "properties": {"id": "cm-osm-node-8829267935", "name": "Lamour Haircut", "cat": ["beauty"], "province": "cm"}}, {"type": "Feature", "geometry": {"type": "Point", "coordinates": [99.0007628, 18.7805014]}, "properties": {"id": "cm-osm-node-4870810621", "name": "Lanna Come Spa", "cat": ["beauty"], "province": "cm"}}, {"type": "Feature", "geometry": {"type": "Point", "coordinates": [98.9676372, 18.798801]}, "properties": {"id": "cm-osm-node-6114608986", "name": "Le Nant", "cat": ["beauty"], "province": "cm"}}, {"type": "Feature", "geometry": {"type": "Point", "coordinates": [98.9649144, 18.8074869]}, "properties": {"id": "cm-osm-node-4402122096", "name": "Loft Barber shop", "cat": ["beauty"], "province": "cm"}}, {"type": "Feature", "geometry": {"type": "Point", "coordinates": [98.9827912, 18.8053424]}, "properties": {"id": "cm-osm-node-3298047308", "name": "Love At Home Beauty", "cat": ["beauty"], "province": "cm"}}, {"type": "Feature", "geometry": {"type": "Point", "coordinates": [98.9984909, 18.7839314]}, "properties": {"id": "cm-osm-node-2655161208", "name": "Love's Nail", "cat": ["beauty"], "province": "cm"}}, {"type": "Feature", "geometry": {"type": "Point", "coordinates": [99.0185955, 18.8078562]}, "properties": {"id": "cm-osm-node-2865834101", "name": "MOGA International", "cat": ["beauty"], "province": "cm"}}, {"type": "Feature", "geometry": {"type": "Point", "coordinates": [98.9944531, 18.7880512]}, "properties": {"id": "cm-osm-node-3619775502", "name": "Machita Clinic", "cat": ["beauty"], "province": "cm"}}, {"type": "Feature", "geometry": {"type": "Point", "coordinates": [98.9939262, 18.7849088]}, "properties": {"id": "cm-osm-node-3652690335", "name": "Masako", "cat": ["beauty"], "province": "cm"}}, {"type": "Feature", "geometry": {"type": "Point", "coordinates": [98.9750749, 18.7969301]}, "properties": {"id": "cm-osm-node-2985729443", "name": "Masumi Spa", "cat": ["beauty"], "province": "cm"}}, {"type": "Feature", "geometry": {"type": "Point", "coordinates": [98.9708704, 18.7961404]}, "properties": {"id": "cm-osm-node-3420974156", "name": "Maxim Hair", "cat": ["beauty"], "province": "cm"}}, {"type": "Feature", "geometry": {"type": "Point", "coordinates": [98.9905934, 18.7854893]}, "properties": {"id": "cm-osm-way-243115815", "name": "MayjicNails", "cat": ["beauty"], "province": "cm"}}, {"type": "Feature", "geometry": {"type": "Point", "coordinates": [98.9659129, 18.8030613]}, "properties": {"id": "cm-osm-node-8032506046", "name": "Meet Hair Studio", "cat": ["beauty"], "province": "cm"}}, {"type": "Feature", "geometry": {"type": "Point", "coordinates": [98.9953732, 18.7776918]}, "properties": {"id": "cm-osm-node-7232781086", "name": "Men' Barbershop", "cat": ["beauty"], "province": "cm"}}, {"type": "Feature", "geometry": {"type": "Point", "coordinates": [99.0158541, 18.8082008]}, "properties": {"id": "cm-osm-node-10110426953", "name": "My Beauty Studio", "cat": ["beauty"], "province": "cm"}}, {"type": "Feature", "geometry": {"type": "Point", "coordinates": [98.9902487, 18.7870488]}, "properties": {"id": "cm-osm-node-4784119225", "name": "Nails & Brows by Ying", "cat": ["beauty"], "province": "cm"}}, {"type": "Feature", "geometry": {"type": "Point", "coordinates": [98.9628185, 18.8038803]}, "properties": {"id": "cm-osm-node-10804259651", "name": "Narin Nail", "cat": ["beauty"], "province": "cm"}}, {"type": "Feature", "geometry": {"type": "Point", "coordinates": [98.9709364, 18.7981908]}, "properties": {"id": "cm-osm-node-3927203450", "name": "Never Say Cutz", "cat": ["beauty"], "province": "cm"}}, {"type": "Feature", "geometry": {"type": "Point", "coordinates": [98.9670408, 18.8059797]}, "properties": {"id": "cm-osm-node-3318014990", "name": "New Hair", "cat": ["beauty"], "province": "cm"}}, {"type": "Feature", "geometry": {"type": "Point", "coordinates": [98.9681016, 18.7965396]}, "properties": {"id": "cm-osm-node-5126132325", "name": "New York, New York", "cat": ["beauty"], "province": "cm"}}, {"type": "Feature", "geometry": {"type": "Point", "coordinates": [98.9622121, 18.8049238]}, "properties": {"id": "cm-osm-node-5126142321", "name": "Nice Nails since 2002", "cat": ["beauty"], "province": "cm"}}, {"type": "Feature", "geometry": {"type": "Point", "coordinates": [98.9712426, 18.79875]}, "properties": {"id": "cm-osm-node-11612597268", "name": "Nine Kim", "cat": ["beauty"], "province": "cm"}}, {"type": "Feature", "geometry": {"type": "Point", "coordinates": [98.9775133, 18.773058]}, "properties": {"id": "cm-osm-node-5006956034", "name": "Nine Salon", "cat": ["beauty"], "province": "cm"}}, {"type": "Feature", "geometry": {"type": "Point", "coordinates": [98.9550139, 18.8084261]}, "properties": {"id": "cm-osm-node-6255529249", "name": "No 1. Beauty", "cat": ["beauty"], "province": "cm"}}, {"type": "Feature", "geometry": {"type": "Point", "coordinates": [98.9699384, 18.7973154]}, "properties": {"id": "cm-osm-node-1797019204", "name": "O-B-One", "cat": ["beauty"], "province": "cm"}}, {"type": "Feature", "geometry": {"type": "Point", "coordinates": [98.975202, 18.7991647]}, "properties": {"id": "cm-osm-node-11135208805", "name": "OH Barber Shop", "cat": ["beauty"], "province": "cm"}}, {"type": "Feature", "geometry": {"type": "Point", "coordinates": [98.9623745, 18.7885022]}, "properties": {"id": "cm-osm-node-4360062574", "name": "Oops! Hair Salon", "cat": ["beauty"], "province": "cm"}}, {"type": "Feature", "geometry": {"type": "Point", "coordinates": [98.9824929, 18.7871204]}, "properties": {"id": "cm-osm-node-11407178350", "name": "Open Barber", "cat": ["beauty"], "province": "cm"}}, {"type": "Feature", "geometry": {"type": "Point", "coordinates": [98.9984856, 18.7843932]}, "properties": {"id": "cm-osm-node-2655193276", "name": "POLA ร้านเสริมสวย", "cat": ["beauty"], "province": "cm"}}, {"type": "Feature", "geometry": {"type": "Point", "coordinates": [98.9676162, 18.802541]}, "properties": {"id": "cm-osm-node-13724435301", "name": "Phoenix Hair Salon, 3rd Floor", "cat": ["beauty"], "province": "cm"}}, {"type": "Feature", "geometry": {"type": "Point", "coordinates": [99.0008894, 18.783831]}, "properties": {"id": "cm-osm-node-3417022297", "name": "Plaza Hair Salon", "cat": ["beauty"], "province": "cm"}}, {"type": "Feature", "geometry": {"type": "Point", "coordinates": [98.9740586, 18.8186769]}, "properties": {"id": "cm-osm-node-3207146917", "name": "Pon Beauty Salon", "cat": ["beauty"], "province": "cm"}}, {"type": "Feature", "geometry": {"type": "Point", "coordinates": [98.9830449, 18.7855236]}, "properties": {"id": "cm-osm-node-3384100283", "name": "Ponsarin", "cat": ["beauty"], "province": "cm"}}, {"type": "Feature", "geometry": {"type": "Point", "coordinates": [98.9806084, 18.8061257]}, "properties": {"id": "cm-osm-node-3240859775", "name": "Porn Barber", "cat": ["beauty"], "province": "cm"}}, {"type": "Feature", "geometry": {"type": "Point", "coordinates": [98.9661368, 18.7971727]}, "properties": {"id": "cm-osm-node-3417321897", "name": "Prima Donna", "cat": ["beauty"], "province": "cm"}}, {"type": "Feature", "geometry": {"type": "Point", "coordinates": [98.9925118, 18.7920273]}, "properties": {"id": "cm-osm-node-10726995205", "name": "Robin Beauty & Barber", "cat": ["beauty"], "province": "cm"}}, {"type": "Feature", "geometry": {"type": "Point", "coordinates": [99.0185524, 18.8075261]}, "properties": {"id": "cm-osm-node-2865838703", "name": "Rue Royal", "cat": ["beauty"], "province": "cm"}}, {"type": "Feature", "geometry": {"type": "Point", "coordinates": [98.9808441, 18.8419192]}, "properties": {"id": "cm-osm-way-701980383", "name": "Salon Nails Spa & Massage", "cat": ["beauty"], "province": "cm"}}, {"type": "Feature", "geometry": {"type": "Point", "coordinates": [99.0010871, 18.786134]}, "properties": {"id": "cm-osm-node-4518518589", "name": "Sam Tattoo", "cat": ["beauty"], "province": "cm"}}, {"type": "Feature", "geometry": {"type": "Point", "coordinates": [98.9818231, 18.7830242]}, "properties": {"id": "cm-osm-node-10137413217", "name": "Samlaan Barber", "cat": ["beauty"], "province": "cm"}}, {"type": "Feature", "geometry": {"type": "Point", "coordinates": [98.9820786, 18.8058151]}, "properties": {"id": "cm-osm-node-3298013690", "name": "Sara", "cat": ["beauty"], "province": "cm"}}, {"type": "Feature", "geometry": {"type": "Point", "coordinates": [99.0089506, 18.7491597]}, "properties": {"id": "cm-osm-way-544261405", "name": "Serene Spa", "cat": ["beauty"], "province": "cm"}}, {"type": "Feature", "geometry": {"type": "Point", "coordinates": [98.9717951, 18.7990544]}, "properties": {"id": "cm-osm-node-3304475328", "name": "Skill Barber", "cat": ["beauty"], "province": "cm"}}, {"type": "Feature", "geometry": {"type": "Point", "coordinates": [99.0185896, 18.8077906]}, "properties": {"id": "cm-osm-node-2865834201", "name": "Slim Up Center", "cat": ["beauty"], "province": "cm"}}, {"type": "Feature", "geometry": {"type": "Point", "coordinates": [98.9814045, 18.802339]}, "properties": {"id": "cm-osm-node-11124423605", "name": "SoDa Hair", "cat": ["beauty"], "province": "cm"}}, {"type": "Feature", "geometry": {"type": "Point", "coordinates": [99.0090529, 18.7519558]}, "properties": {"id": "cm-osm-node-3870202775", "name": "Sopin Hair Design", "cat": ["beauty"], "province": "cm"}}, {"type": "Feature", "geometry": {"type": "Point", "coordinates": [99.0177937, 18.8076374]}, "properties": {"id": "cm-osm-node-2865816501", "name": "SparSha", "cat": ["beauty"], "province": "cm"}}, {"type": "Feature", "geometry": {"type": "Point", "coordinates": [99.0201802, 18.8174199]}, "properties": {"id": "cm-osm-node-4142714311", "name": "Star Cut", "cat": ["beauty"], "province": "cm"}}, {"type": "Feature", "geometry": {"type": "Point", "coordinates": [98.9906301, 18.7906507]}, "properties": {"id": "cm-osm-node-7183656885", "name": "Sweeney Todds - Barber Shop", "cat": ["beauty"], "province": "cm"}}, {"type": "Feature", "geometry": {"type": "Point", "coordinates": [98.9906435, 18.7905777]}, "properties": {"id": "cm-osm-node-7295644585", "name": "Sweeney Todd‘s Barber Shop", "cat": ["beauty"], "province": "cm"}}, {"type": "Feature", "geometry": {"type": "Point", "coordinates": [98.9953386, 18.806929]}, "properties": {"id": "cm-osm-node-3897646558", "name": "TCC Barber", "cat": ["beauty"], "province": "cm"}}, {"type": "Feature", "geometry": {"type": "Point", "coordinates": [98.9939073, 18.7904477]}, "properties": {"id": "cm-osm-node-4406939199", "name": "Tattoolism", "cat": ["beauty"], "province": "cm"}}, {"type": "Feature", "geometry": {"type": "Point", "coordinates": [98.9970315, 18.7830798]}, "properties": {"id": "cm-osm-node-3416934974", "name": "The Best Salon", "cat": ["beauty"], "province": "cm"}}, {"type": "Feature", "geometry": {"type": "Point", "coordinates": [99.017792, 18.8075499]}, "properties": {"id": "cm-osm-node-2865816401", "name": "The Essence", "cat": ["beauty"], "province": "cm"}}, {"type": "Feature", "geometry": {"type": "Point", "coordinates": [98.9767839, 18.7743866]}, "properties": {"id": "cm-osm-node-6992284885", "name": "The Essence", "cat": ["beauty"], "province": "cm"}}, {"type": "Feature", "geometry": {"type": "Point", "coordinates": [98.9935209, 18.7872197]}, "properties": {"id": "cm-osm-node-7416638349", "name": "The Nail & Massage", "cat": ["beauty"], "province": "cm"}}, {"type": "Feature", "geometry": {"type": "Point", "coordinates": [98.9741716, 18.8136016]}, "properties": {"id": "cm-osm-node-13411824169", "name": "The Nails", "cat": ["beauty"], "province": "cm"}}, {"type": "Feature", "geometry": {"type": "Point", "coordinates": [98.9576142, 18.8472529]}, "properties": {"id": "cm-osm-node-12768098450", "name": "Thicha beauty studio", "cat": ["beauty"], "province": "cm"}}, {"type": "Feature", "geometry": {"type": "Point", "coordinates": [98.9768702, 18.7743642]}, "properties": {"id": "cm-osm-node-6992284985", "name": "Thorfun Clinic", "cat": ["beauty"], "province": "cm"}}, {"type": "Feature", "geometry": {"type": "Point", "coordinates": [98.9952468, 18.8057059]}, "properties": {"id": "cm-osm-node-3184683029", "name": "Thunder Cut", "cat": ["beauty"], "province": "cm"}}, {"type": "Feature", "geometry": {"type": "Point", "coordinates": [98.9652585, 18.794719]}, "properties": {"id": "cm-osm-node-2523247094", "name": "Tom Laycut", "cat": ["beauty"], "province": "cm"}}, {"type": "Feature", "geometry": {"type": "Point", "coordinates": [98.9998367, 18.7867365]}, "properties": {"id": "cm-osm-node-13607389397", "name": "Victoria Hair", "cat": ["beauty"], "province": "cm"}}, {"type": "Feature", "geometry": {"type": "Point", "coordinates": [98.9992396, 18.7803959]}, "properties": {"id": "cm-osm-node-4869760225", "name": "Vintage Cutting", "cat": ["beauty"], "province": "cm"}}, {"type": "Feature", "geometry": {"type": "Point", "coordinates": [98.9936559, 18.7881278]}, "properties": {"id": "cm-osm-node-3414107294", "name": "Wan", "cat": ["beauty"], "province": "cm"}}, {"type": "Feature", "geometry": {"type": "Point", "coordinates": [98.9775355, 18.7374434]}, "properties": {"id": "cm-osm-node-4471388089", "name": "Wanmai", "cat": ["beauty"], "province": "cm"}}, {"type": "Feature", "geometry": {"type": "Point", "coordinates": [98.9861646, 18.7915743]}, "properties": {"id": "cm-osm-node-4788936623", "name": "Women's massage center", "cat": ["beauty"], "province": "cm"}}, {"type": "Feature", "geometry": {"type": "Point", "coordinates": [99.0178223, 18.8079182]}, "properties": {"id": "cm-osm-node-2865821501", "name": "Wuttisak Clinic", "cat": ["beauty"], "province": "cm"}}, {"type": "Feature", "geometry": {"type": "Point", "coordinates": [98.9826137, 18.7837283]}, "properties": {"id": "cm-osm-node-3388725141", "name": "Ya-Yee", "cat": ["beauty"], "province": "cm"}}, {"type": "Feature", "geometry": {"type": "Point", "coordinates": [98.9708486, 18.7936354]}, "properties": {"id": "cm-osm-node-3421257555", "name": "You-2", "cat": ["beauty"], "province": "cm"}}, {"type": "Feature", "geometry": {"type": "Point", "coordinates": [98.9790652, 18.792927]}, "properties": {"id": "cm-osm-node-3385507281", "name": "Your Hair", "cat": ["beauty"], "province": "cm"}}, {"type": "Feature", "geometry": {"type": "Point", "coordinates": [98.974571, 18.8056311]}, "properties": {"id": "cm-osm-node-3311596471", "name": "Z-All", "cat": ["beauty"], "province": "cm"}}, {"type": "Feature", "geometry": {"type": "Point", "coordinates": [98.982002, 18.7914212]}, "properties": {"id": "cm-osm-node-9784520720", "name": "barber", "cat": ["beauty"], "province": "cm"}}, {"type": "Feature", "geometry": {"type": "Point", "coordinates": [98.9557777, 18.7510484]}, "properties": {"id": "cm-osm-node-12240544619", "name": "hair beauty and barber", "cat": ["beauty"], "province": "cm"}}, {"type": "Feature", "geometry": {"type": "Point", "coordinates": [98.9851854, 18.8048925]}, "properties": {"id": "cm-osm-node-3298064155", "name": "i-Beauty", "cat": ["beauty"], "province": "cm"}}, {"type": "Feature", "geometry": {"type": "Point", "coordinates": [98.9529359, 18.7928995]}, "properties": {"id": "cm-osm-node-4360894092", "name": "o hair", "cat": ["beauty"], "province": "cm"}}, {"type": "Feature", "geometry": {"type": "Point", "coordinates": [99.1020884, 18.8377756]}, "properties": {"id": "cm-osm-node-4495125556", "name": "กรกนก บิวตี้", "cat": ["beauty"], "province": "cm"}}, {"type": "Feature", "geometry": {"type": "Point", "coordinates": [98.9791002, 18.7841686]}, "properties": {"id": "cm-osm-node-3388711772", "name": "จัสมิน", "cat": ["beauty"], "province": "cm"}}, {"type": "Feature", "geometry": {"type": "Point", "coordinates": [98.9705883, 18.8074599]}, "properties": {"id": "cm-osm-node-3318055305", "name": "ชิงหลิว", "cat": ["beauty"], "province": "cm"}}, {"type": "Feature", "geometry": {"type": "Point", "coordinates": [98.9721709, 18.794538]}, "properties": {"id": "cm-osm-node-3421207457", "name": "ชุ่ม บาร์เบอร์", "cat": ["beauty"], "province": "cm"}}, {"type": "Feature", "geometry": {"type": "Point", "coordinates": [98.9616871, 18.7992229]}, "properties": {"id": "cm-osm-node-4596374049", "name": "ณัฏฐ์บิวตี้ซาลอน", "cat": ["beauty"], "province": "cm"}}, {"type": "Feature", "geometry": {"type": "Point", "coordinates": [98.9976231, 18.7919354]}, "properties": {"id": "cm-osm-node-2655280744", "name": "ตัดผมชาย บรรจงเกศา", "cat": ["beauty"], "province": "cm"}}, {"type": "Feature", "geometry": {"type": "Point", "coordinates": [98.9780959, 18.8018069]}, "properties": {"id": "cm-osm-node-12372820542", "name": "ตัดแหลก-haircut (Tat Laek)", "cat": ["beauty"], "province": "cm"}}, {"type": "Feature", "geometry": {"type": "Point", "coordinates": [99.0086891, 18.7904158]}, "properties": {"id": "cm-osm-node-8715598999", "name": "นกแฮร์ดู แอนด์ คิ้วสวย", "cat": ["beauty"], "province": "cm"}}, {"type": "Feature", "geometry": {"type": "Point", "coordinates": [98.9846142, 18.7958764]}, "properties": {"id": "cm-osm-node-3317900349", "name": "นครเชียงใหม่บาร์เบอร์", "cat": ["beauty"], "province": "cm"}}, {"type": "Feature", "geometry": {"type": "Point", "coordinates": [98.9847714, 18.8047041]}, "properties": {"id": "cm-osm-node-3298074476", "name": "นันทการ บิวตี้", "cat": ["beauty"], "province": "cm"}}, {"type": "Feature", "geometry": {"type": "Point", "coordinates": [99.008372, 18.7970901]}, "properties": {"id": "cm-osm-node-8715552308", "name": "นิตยา บิ้วตี้ ซาลอน", "cat": ["beauty"], "province": "cm"}}, {"type": "Feature", "geometry": {"type": "Point", "coordinates": [98.979767, 18.789551]}, "properties": {"id": "cm-osm-node-3385510725", "name": "นุชนรี", "cat": ["beauty"], "province": "cm"}}, {"type": "Feature", "geometry": {"type": "Point", "coordinates": [99.0146591, 18.8651962]}, "properties": {"id": "cm-osm-way-244657361", "name": "บ้านฮักเกศา barber&coffee", "cat": ["beauty"], "province": "cm"}}, {"type": "Feature", "geometry": {"type": "Point", "coordinates": [98.9984715, 18.7842565]}, "properties": {"id": "cm-osm-node-2655179707", "name": "ปิง&ปาม", "cat": ["beauty"], "province": "cm"}}, {"type": "Feature", "geometry": {"type": "Point", "coordinates": [98.9853096, 18.8012348]}, "properties": {"id": "cm-osm-node-3298106603", "name": "ป๊อปแป๊ป ซาลอน", "cat": ["beauty"], "province": "cm"}}, {"type": "Feature", "geometry": {"type": "Point", "coordinates": [98.989715, 18.7739615]}, "properties": {"id": "cm-osm-node-6261700912", "name": "พนิดา", "cat": ["beauty"], "province": "cm"}}, {"type": "Feature", "geometry": {"type": "Point", "coordinates": [98.9801906, 18.7876426]}, "properties": {"id": "cm-osm-node-3388703901", "name": "พรบาร์เบอร์", "cat": ["beauty"], "province": "cm"}}, {"type": "Feature", "geometry": {"type": "Point", "coordinates": [98.98541, 18.8002298]}, "properties": {"id": "cm-osm-node-3312097861", "name": "พรินส์", "cat": ["beauty"], "province": "cm"}}, {"type": "Feature", "geometry": {"type": "Point", "coordinates": [98.9790112, 18.7897899]}, "properties": {"id": "cm-osm-node-5859336192", "name": "ฟอร์จูน แฮร์คัท", "cat": ["beauty"], "province": "cm"}}, {"type": "Feature", "geometry": {"type": "Point", "coordinates": [98.9815758, 18.7828287]}, "properties": {"id": "cm-osm-way-406928384", "name": "มะซาลอน", "cat": ["beauty"], "province": "cm"}}, {"type": "Feature", "geometry": {"type": "Point", "coordinates": [99.013193, 18.745553]}, "properties": {"id": "cm-osm-node-4149452617", "name": "มายด์บิวตี้", "cat": ["beauty"], "province": "cm"}}, {"type": "Feature", "geometry": {"type": "Point", "coordinates": [98.9791366, 18.7863352]}, "properties": {"id": "cm-osm-node-3388707632", "name": "ยุ้ยบิวตี้", "cat": ["beauty"], "province": "cm"}}, {"type": "Feature", "geometry": {"type": "Point", "coordinates": [98.9767806, 18.7660589]}, "properties": {"id": "cm-osm-node-13115616776", "name": "ร้านตัดผม", "cat": ["beauty"], "province": "cm"}}, {"type": "Feature", "geometry": {"type": "Point", "coordinates": [98.9519375, 18.7977678]}, "properties": {"id": "cm-osm-node-3182200360", "name": "ร้านตัดผม", "cat": ["beauty"], "province": "cm"}}, {"type": "Feature", "geometry": {"type": "Point", "coordinates": [98.9546853, 18.7985163]}, "properties": {"id": "cm-osm-node-3182205866", "name": "ร้านตัดผม Seven แฮร์ สไตล์", "cat": ["beauty"], "province": "cm"}}, {"type": "Feature", "geometry": {"type": "Point", "coordinates": [98.952103, 18.7975453]}, "properties": {"id": "cm-osm-node-3167944778", "name": "ร้านตัดผม haircut beauty shop", "cat": ["beauty"], "province": "cm"}}, {"type": "Feature", "geometry": {"type": "Point", "coordinates": [98.9555555, 18.7985112]}, "properties": {"id": "cm-osm-node-3182206321", "name": "ร้านตัดผม กอล์ฟแฮร์ดีไซน์ 2", "cat": ["beauty"], "province": "cm"}}, {"type": "Feature", "geometry": {"type": "Point", "coordinates": [98.9546318, 18.7981644]}, "properties": {"id": "cm-osm-node-3182205829", "name": "ร้านตัดผม คิเรเนะ", "cat": ["beauty"], "province": "cm"}}, {"type": "Feature", "geometry": {"type": "Point", "coordinates": [98.9554458, 18.7981376]}, "properties": {"id": "cm-osm-node-3182206731", "name": "ร้านตัดผม แฮร์ดู", "cat": ["beauty"], "province": "cm"}}, {"type": "Feature", "geometry": {"type": "Point", "coordinates": [99.0216838, 18.8668639]}, "properties": {"id": "cm-osm-node-4358542677", "name": "ร้านทำผมน้องเบียร์", "cat": ["beauty"], "province": "cm"}}, {"type": "Feature", "geometry": {"type": "Point", "coordinates": [98.9991926, 18.7889502]}, "properties": {"id": "cm-osm-node-2655274614", "name": "ร้านเครื่องสำอาง", "cat": ["beauty"], "province": "cm"}}, {"type": "Feature", "geometry": {"type": "Point", "coordinates": [99.1366411, 18.869376]}, "properties": {"id": "cm-osm-node-4542031824", "name": "วัตรดอยสะเก็ดบาร์เบอร์", "cat": ["beauty"], "province": "cm"}}, {"type": "Feature", "geometry": {"type": "Point", "coordinates": [98.9673107, 18.7893387]}, "properties": {"id": "cm-osm-node-4356144483", "name": "สวนดอกบาร์เบอร์", "cat": ["beauty"], "province": "cm"}}, {"type": "Feature", "geometry": {"type": "Point", "coordinates": [98.9590504, 18.7914048]}, "properties": {"id": "cm-osm-node-4359589496", "name": "สาขาหลังมอ", "cat": ["beauty"], "province": "cm"}}, {"type": "Feature", "geometry": {"type": "Point", "coordinates": [98.9720086, 18.8449372]}, "properties": {"id": "cm-osm-node-12768069594", "name": "สุเทพบาร์เบอร์", "cat": ["beauty"], "province": "cm"}}, {"type": "Feature", "geometry": {"type": "Point", "coordinates": [98.975296, 18.8054004]}, "properties": {"id": "cm-osm-node-3311586949", "name": "ส้มบิวตี้", "cat": ["beauty"], "province": "cm"}}, {"type": "Feature", "geometry": {"type": "Point", "coordinates": [98.9800855, 18.7889533]}, "properties": {"id": "cm-osm-node-3388700580", "name": "หนุ่ยซาลอน", "cat": ["beauty"], "province": "cm"}}, {"type": "Feature", "geometry": {"type": "Point", "coordinates": [98.9857962, 18.7893546]}, "properties": {"id": "cm-osm-node-3176625064", "name": "อรนุช", "cat": ["beauty"], "province": "cm"}}, {"type": "Feature", "geometry": {"type": "Point", "coordinates": [98.9973853, 18.7994208]}, "properties": {"id": "cm-osm-node-4536308809", "name": "เมืองใหม่บาร์เบอร์", "cat": ["beauty"], "province": "cm"}}, {"type": "Feature", "geometry": {"type": "Point", "coordinates": [98.9954214, 18.7915807]}, "properties": {"id": "cm-osm-node-1491430102", "name": "เสริมสวย", "cat": ["beauty"], "province": "cm"}}, {"type": "Feature", "geometry": {"type": "Point", "coordinates": [98.979711, 18.787685]}, "properties": {"id": "cm-osm-node-3388705278", "name": "เสริมสวย คุณผู้หญิง อ.อู๊ด", "cat": ["beauty"], "province": "cm"}}, {"type": "Feature", "geometry": {"type": "Point", "coordinates": [98.9972394, 18.7896561]}, "properties": {"id": "cm-osm-node-3418938994", "name": "เสริมสวย ฉัตรสุฎา", "cat": ["beauty"], "province": "cm"}}, {"type": "Feature", "geometry": {"type": "Point", "coordinates": [99.1357047, 18.8691217]}, "properties": {"id": "cm-osm-node-3412084439", "name": "เสริมสวย ดาราวรรณ", "cat": ["beauty"], "province": "cm"}}, {"type": "Feature", "geometry": {"type": "Point", "coordinates": [99.0138817, 18.8854205]}, "properties": {"id": "cm-osm-node-4358577151", "name": "เสริมสวย บิวตี้ & ซาลอน", "cat": ["beauty"], "province": "cm"}}, {"type": "Feature", "geometry": {"type": "Point", "coordinates": [99.0164022, 18.9052929]}, "properties": {"id": "cm-osm-node-4594071059", "name": "เสริมสวย ศิริภรณ์", "cat": ["beauty"], "province": "cm"}}, {"type": "Feature", "geometry": {"type": "Point", "coordinates": [98.9798433, 18.7895474]}, "properties": {"id": "cm-osm-node-5859346225", "name": "เสริมสวย อารีย์", "cat": ["beauty"], "province": "cm"}}, {"type": "Feature", "geometry": {"type": "Point", "coordinates": [99.0265153, 18.816772]}, "properties": {"id": "cm-osm-node-10766218621", "name": "เสริมสวยดาว", "cat": ["beauty"], "province": "cm"}}, {"type": "Feature", "geometry": {"type": "Point", "coordinates": [98.9847974, 18.9617058]}, "properties": {"id": "cm-osm-node-4608401656", "name": "เสริมสวยมาลี", "cat": ["beauty"], "province": "cm"}}, {"type": "Feature", "geometry": {"type": "Point", "coordinates": [98.9798732, 18.7878955]}, "properties": {"id": "cm-osm-node-3388698122", "name": "เสริมสวยอิงอร", "cat": ["beauty"], "province": "cm"}}, {"type": "Feature", "geometry": {"type": "Point", "coordinates": [98.9361162, 18.6238943]}, "properties": {"id": "cm-osm-node-4438827793", "name": "เอกบาร์เบอร์ช็อป", "cat": ["beauty"], "province": "cm"}}, {"type": "Feature", "geometry": {"type": "Point", "coordinates": [98.9802188, 18.7879382]}, "properties": {"id": "cm-osm-node-3388701191", "name": "แอนบิวตี้-ซาลอน", "cat": ["beauty"], "province": "cm"}}, {"type": "Feature", "geometry": {"type": "Point", "coordinates": [99.1274674, 18.7409426]}, "properties": {"id": "cm-osm-node-8639585397", "name": "โจ้ บาร์เบอร์", "cat": ["beauty"], "province": "cm"}}]}