{"type": "FeatureCollection", "features": [{"type": "Feature", "geometry": {"type": "Point", "coordinates": [98.99114, 18.78966]}, "properties": {"id": "cm-osm-node-3015620954", "name": "Asia Scenic Thai Cooking School", "nameTh": null, "nameEn": "Asia Scenic Thai Cooking School", "cat": ["cooking", "school"], "province": "cm", "slug": "asia-scenic-thai-cooking-school-3015620954", "rank": 3}}, {"type": "Feature", "geometry": {"type": "Point", "coordinates": [98.99103, 18.78909]}, "properties": {"id": "cm-osm-node-3864197357", "name": "Baan Thai Cookery School", "nameTh": null, "nameEn": "Baan Thai Cookery School", "cat": ["cooking", "school"], "province": "cm", "slug": "baan-thai-cookery-school-3864197357", "rank": 1}}, {"type": "Feature", "geometry": {"type": "Point", "coordinates": [98.98954, 18.78736]}, "properties": {"id": "cm-osm-node-5640397222", "name": "BaanThai Cookery School", "nameTh": "บ้านไทยสอนทำอาหาร", "nameEn": "BaanThai Cookery School", "cat": ["cooking", "school"], "province": "cm", "slug": "baanthai-cookery-school-5640397222", "rank": 3}}, {"type": "Feature", "geometry": {"type": "Point", "coordinates": [98.98925, 18.77908]}, "properties": {"id": "cm-osm-node-5382558821", "name": "Chang cooking & restaurant", "nameTh": null, "nameEn": "Chang cooking & restaurant", "cat": ["cooking", "food"], "province": "cm", "slug": "chang-cooking-restaurant-5382558821", "rank": 1}}, {"type": "Feature", "geometry": {"type": "Point", "coordinates": [98.99236, 18.78909]}, "properties": {"id": "cm-osm-node-3385473023", "name": "Cooking Love", "nameTh": null, "nameEn": "Cooking Love", "cat": ["cooking", "food"], "province": "cm", "slug": "cooking-love-3385473023", "rank": 1}}, {"type": "Feature", "geometry": {"type": "Point", "coordinates": [98.99157, 18.79219]}, "properties": {"id": "cm-osm-node-7106483588", "name": "Cooking love", "nameTh": null, "nameEn": "Cooking love", "cat": ["cooking", "food"], "province": "cm", "slug": "cooking-love-7106483588", "rank": 1}}, {"type": "Feature", "geometry": {"type": "Point", "coordinates": [99.12247, 18.75056]}, "properties": {"id": "cm-osm-node-3440864916", "name": "Cooking@home", "nameTh": null, "nameEn": "Cooking@home", "cat": ["cooking", "school"], "province": "cm", "slug": "cooking-home-3440864916", "rank": 2}}, {"type": "Feature", "geometry": {"type": "Point", "coordinates": [98.93126, 18.91481]}, "properties": {"id": "cm-osm-way-305818862", "name": "Four Seasons Resort", "nameTh": null, "nameEn": "Four Seasons Resort", "cat": ["cooking", "hotel"], "province": "cm", "slug": "four-seasons-resort-305818862", "rank": 1}}, {"type": "Feature", "geometry": {"type": "Point", "coordinates": [98.95816, 18.78699]}, "properties": {"id": "cm-osm-node-2292084254", "name": "Gap-s Thai Culinary Art School", "nameTh": null, "nameEn": "Gap-s Thai Culinary Art School", "cat": ["cooking", "school"], "province": "cm", "slug": "gap-s-thai-culinary-art-school-2292084254", "rank": 1}}, {"type": "Feature", "geometry": {"type": "Point", "coordinates": [99.00642, 18.78885]}, "properties": {"id": "cm-osm-node-12500290176", "name": "May Kaidee vegan cooking classes", "nameTh": null, "nameEn": "May Kaidee vegan cooking classes", "cat": ["cooking", "food"], "province": "cm", "slug": "may-kaidee-vegan-cooking-classes-12500290176", "rank": 4}}, {"type": "Feature", "geometry": {"type": "Point", "coordinates": [98.9944, 18.78972]}, "properties": {"id": "cm-osm-node-4529653891", "name": "May Kaidee's Restaurant & Cooking School (Thai Vegetarian, Vegan Food)", "nameTh": null, "nameEn": "May Kaidee's Restaurant & Cooking School (Thai Vegetarian, Vegan Food)", "cat": ["cooking", "food"], "province": "cm", "slug": "may-kaidee-s-restaurant-cooking-school-thai-vegetarian-vegan-4529653891", "rank": 4}}, {"type": "Feature", "geometry": {"type": "Point", "coordinates": [98.93229, 18.74916]}, "properties": {"id": "cm-osm-node-3337859200", "name": "Pantawan Cooking", "nameTh": null, "nameEn": "Pantawan Cooking", "cat": ["cooking", "food"], "province": "cm", "slug": "pantawan-cooking-3337859200", "rank": 3}}, {"type": "Feature", "geometry": {"type": "Point", "coordinates": [99.00333, 18.78149]}, "properties": {"id": "cm-osm-node-3326560612", "name": "Pum Thai Restaurant & Cooking School", "nameTh": null, "nameEn": "Pum Thai Restaurant & Cooking School", "cat": ["cooking", "school"], "province": "cm", "slug": "pum-thai-restaurant-cooking-school-3326560612", "rank": 1}}, {"type": "Feature", "geometry": {"type": "Point", "coordinates": [99.06529, 18.87604]}, "properties": {"id": "cm-osm-node-4515456789", "name": "Sammy's Organic Thai Cooking", "nameTh": null, "nameEn": "Sammy's Organic Thai Cooking", "cat": ["cooking", "school"], "province": "cm", "slug": "sammy-s-organic-thai-cooking-4515456789", "rank": 1}}, {"type": "Feature", "geometry": {"type": "Point", "coordinates": [98.94332, 18.7701]}, "properties": {"id": "cm-osm-node-4664813189", "name": "Siam Rice - Thai cookery school", "nameTh": null, "nameEn": "Siam Rice - Thai cookery school", "cat": ["cooking", "repair"], "province": "cm", "slug": "siam-rice-thai-cookery-school-4664813189", "rank": 1}}, {"type": "Feature", "geometry": {"type": "Point", "coordinates": [98.98005, 18.79095]}, "properties": {"id": "cm-osm-node-4233633591", "name": "Thai Akha Cooking School", "nameTh": null, "nameEn": "Thai Akha Cooking School", "cat": ["cooking", "food"], "province": "cm", "slug": "thai-akha-cooking-school-4233633591", "rank": 1}}, {"type": "Feature", "geometry": {"type": "Point", "coordinates": [98.99185, 18.79403]}, "properties": {"id": "cm-osm-node-4391653340", "name": "Thai Farm Cooking Class", "nameTh": null, "nameEn": "Thai Farm Cooking Class", "cat": ["cooking", "school"], "province": "cm", "slug": "thai-farm-cooking-class-4391653340", "rank": 3}}, {"type": "Feature", "geometry": {"type": "Point", "coordinates": [99.06946, 18.88074]}, "properties": {"id": "cm-osm-way-961802207", "name": "Thai Secret Cooking School & Organic Garden Farm", "nameTh": null, "nameEn": "Thai Secret Cooking School & Organic Garden Farm", "cat": ["cooking", "school"], "province": "cm", "slug": "thai-secret-cooking-school-organic-garden-farm-961802207", "rank": 3}}, {"type": "Feature", "geometry": {"type": "Point", "coordinates": [98.99488, 18.7841]}, "properties": {"id": "cm-osm-node-6303089086", "name": "Thaï kitchen cookery center", "nameTh": null, "nameEn": "Thaï kitchen cookery center", "cat": ["cooking", "school"], "province": "cm", "slug": "tha-kitchen-cookery-center-6303089086", "rank": 1}}, {"type": "Feature", "geometry": {"type": "Point", "coordinates": [98.98381, 18.79484]}, "properties": {"id": "cm-osm-way-623146079", "name": "Zabb-E-Lee Thai Cooking School", "nameTh": null, "nameEn": "Zabb-E-Lee Thai Cooking School", "cat": ["cooking", "food"], "province": "cm", "slug": "zabb-e-lee-thai-cooking-school-623146079", "rank": 2}}, {"type": "Feature", "geometry": {"type": "Point", "coordinates": [99.04601, 18.90487]}, "properties": {"id": "cm-osm-node-4573410090", "name": "สยามการ์เด้นคุ้กกิ้งสคูล", "nameTh": "สยามการ์เด้นคุ้กกิ้งสคูล", "nameEn": "Siam Garden Cooking School", "cat": ["cooking", "food"], "province": "cm", "slug": "siam-garden-cooking-school-4573410090", "rank": 6}}]}