{"type": "FeatureCollection", "features": [{"type": "Feature", "geometry": {"type": "Point", "coordinates": [98.96631, 18.79565]}, "properties": {"id": "cm-osm-way-1358959179", "name": "4seas Nimman", "nameTh": null, "nameEn": "4seas Nimman", "cat": ["community"], "province": "cm", "slug": "4seas-nimman-1358959179", "rank": 3}}, {"type": "Feature", "geometry": {"type": "Point", "coordinates": [98.95463, 18.80342]}, "properties": {"id": "cm-osm-node-5591495429", "name": "American Corner Chiang Mai", "nameTh": null, "nameEn": "American Corner Chiang Mai", "cat": ["community"], "province": "cm", "slug": "american-corner-chiang-mai-5591495429", "rank": 2}}, {"type": "Feature", "geometry": {"type": "Point", "coordinates": [98.9245, 18.95938]}, "properties": {"id": "cm-osm-node-2773248547", "name": "Baan Yuu Suk, The Children's Organization of Southeast Asia", "nameTh": null, "nameEn": "Baan Yuu Suk, The Children's Organization of Southeast Asia", "cat": ["community"], "province": "cm", "slug": "baan-yuu-suk-the-children-s-organization-of-southeast-asia-2773248547", "rank": 1}}, {"type": "Feature", "geometry": {"type": "Point", "coordinates": [98.99386, 18.82381]}, "properties": {"id": "cm-osm-node-7194925090", "name": "Baan dol sook", "nameTh": "บ้านดลสุข", "nameEn": "Baan dol sook", "cat": ["community"], "province": "cm", "slug": "baan-dol-sook-7194925090", "rank": 2}}, {"type": "Feature", "geometry": {"type": "Point", "coordinates": [99.00196, 18.79365]}, "properties": {"id": "cm-osm-node-13138185003", "name": "Bitcoin Learning Center", "nameTh": null, "nameEn": "Bitcoin Learning Center", "cat": ["community"], "province": "cm", "slug": "bitcoin-learning-center-13138185003", "rank": 3}}, {"type": "Feature", "geometry": {"type": "Point", "coordinates": [98.98909, 18.79065]}, "properties": {"id": "cm-osm-node-11282092025", "name": "CM. Go Club", "nameTh": null, "nameEn": "CM. Go Club", "cat": ["community"], "province": "cm", "slug": "cm-go-club-11282092025", "rank": 1}}, {"type": "Feature", "geometry": {"type": "Point", "coordinates": [98.9858, 18.77892]}, "properties": {"id": "cm-osm-node-8736670003", "name": "Chiang Mai Orphanage Foundation", "nameTh": null, "nameEn": "Chiang Mai Orphanage Foundation", "cat": ["community"], "province": "cm", "slug": "chiang-mai-orphanage-foundation-8736670003", "rank": 1}}, {"type": "Feature", "geometry": {"type": "Point", "coordinates": [98.94778, 18.7781]}, "properties": {"id": "cm-newsletter-kindred-studio", "name": "Kindred Studio", "nameTh": null, "nameEn": "Kindred Studio", "cat": ["community"], "province": "cm", "slug": "kindred-studio-cmnewsletterkindredstudio", "rank": 2}}, {"type": "Feature", "geometry": {"type": "Point", "coordinates": [98.99172, 18.78651]}, "properties": {"id": "cm-osm-node-3887490951", "name": "MakerSpace", "nameTh": null, "nameEn": "MakerSpace", "cat": ["community"], "province": "cm", "slug": "makerspace-3887490951", "rank": 1}}, {"type": "Feature", "geometry": {"type": "Point", "coordinates": [98.99188, 18.78467]}, "properties": {"id": "cm-newsletter-mitt-studio", "name": "Mitt Studio", "nameTh": null, "nameEn": "Mitt Studio", "cat": ["community"], "province": "cm", "slug": "mitt-studio-cmnewslettermittstudio", "rank": 3}}, {"type": "Feature", "geometry": {"type": "Point", "coordinates": [98.97614, 18.84007]}, "properties": {"id": "cm-osm-node-13071783701", "name": "Philanthropy Connections Foundation", "nameTh": "มูลนิธิฟิลันโทรปี คอนเนคชั่นส์", "nameEn": "Philanthropy Connections Foundation", "cat": ["community"], "province": "cm", "slug": "philanthropy-connections-foundation-13071783701", "rank": 6}}, {"type": "Feature", "geometry": {"type": "Point", "coordinates": [98.99534, 18.68319]}, "properties": {"id": "cm-osm-node-8915860499", "name": "Projects For Asia", "nameTh": null, "nameEn": "Projects For Asia", "cat": ["community"], "province": "cm", "slug": "projects-for-asia-8915860499", "rank": 2}}, {"type": "Feature", "geometry": {"type": "Point", "coordinates": [98.94936, 18.7708]}, "properties": {"id": "cm-osm-node-5956250105", "name": "Roastwood", "nameTh": null, "nameEn": "Roastwood", "cat": ["community"], "province": "cm", "slug": "roastwood-5956250105", "rank": 2}}, {"type": "Feature", "geometry": {"type": "Point", "coordinates": [98.94752, 18.79351]}, "properties": {"id": "cm-osm-node-11513439400", "name": "Roi Dvarapala Ban Devalaya", "nameTh": null, "nameEn": "Roi Dvarapala Ban Devalaya", "cat": ["community"], "province": "cm", "slug": "roi-dvarapala-ban-devalaya-11513439400", "rank": 1}}, {"type": "Feature", "geometry": {"type": "Point", "coordinates": [98.88816, 18.67483]}, "properties": {"id": "cm-newsletter-sacred-grounds-cnx", "name": "Sacred Grounds CNX", "nameTh": null, "nameEn": "Sacred Grounds CNX", "cat": ["community"], "province": "cm", "slug": "sacred-grounds-cnx-cmnewslettersacredgroundscnx", "rank": 2}}, {"type": "Feature", "geometry": {"type": "Point", "coordinates": [98.97749, 18.79625]}, "properties": {"id": "cm-newsletter-seven-fountains", "name": "Seven Fountains Jesuit Retreat Center", "nameTh": null, "nameEn": "Seven Fountains Jesuit Retreat Center", "cat": ["community"], "province": "cm", "slug": "seven-fountains-jesuit-retreat-center-cmnewslettersevenfountains", "rank": 2}}, {"type": "Feature", "geometry": {"type": "Point", "coordinates": [99.00652, 18.73407]}, "properties": {"id": "cm-osm-node-3868706670", "name": "Skill Center Chiang Mai", "nameTh": null, "nameEn": "Skill Center Chiang Mai", "cat": ["community"], "province": "cm", "slug": "skill-center-chiang-mai-3868706670", "rank": 2}}, {"type": "Feature", "geometry": {"type": "Point", "coordinates": [99.0288, 18.79122]}, "properties": {"id": "cm-osm-way-756152050", "name": "St. Andrew's Community Learning Centre", "nameTh": null, "nameEn": "St. Andrew's Community Learning Centre", "cat": ["community"], "province": "cm", "slug": "st-andrew-s-community-learning-centre-756152050", "rank": 1}}, {"type": "Feature", "geometry": {"type": "Point", "coordinates": [99.00977, 18.69923]}, "properties": {"id": "cm-osm-node-13644831474", "name": "THE UNKNOWN FACYORY", "nameTh": null, "nameEn": "THE UNKNOWN FACYORY", "cat": ["community"], "province": "cm", "slug": "the-unknown-facyory-13644831474", "rank": 1}}, {"type": "Feature", "geometry": {"type": "Point", "coordinates": [98.9817, 18.86758]}, "properties": {"id": "cm-osm-way-1240060436", "name": "ชมรมการขับขี่มอเตอรไซค์เพื่อการท่องเที่ยวและมิตรภาพ", "nameTh": "ชมรมการขับขี่มอเตอรไซค์เพื่อการท่องเที่ยวและมิตรภาพ", "nameEn": null, "cat": ["community"], "province": "cm", "slug": "1240060436", "rank": 3}}, {"type": "Feature", "geometry": {"type": "Point", "coordinates": [98.98574, 18.77925]}, "properties": {"id": "cm-osm-node-8736670004", "name": "มูลนิธิ บ้านกิ่งแก้ว วิบูลสันติ", "nameTh": "มูลนิธิ บ้านกิ่งแก้ว วิบูลสันติ", "nameEn": "Ban Kingkaew Wibun Santi Foundation", "cat": ["community"], "province": "cm", "slug": "ban-kingkaew-wibun-santi-foundation-8736670004", "rank": 2}}, {"type": "Feature", "geometry": {"type": "Point", "coordinates": [98.96049, 18.85031]}, "properties": {"id": "cm-curated-prostheses-foundation", "name": "มูลนิธิขาเทียม ในสมเด็จพระศรีนครินทราบรมราชชนนี", "nameTh": "มูลนิธิขาเทียม ในสมเด็จพระศรีนครินทราบรมราชชนนี", "nameEn": "The Prostheses Foundation of H.R.H. the Princess Mother", "cat": ["medical", "community"], "province": "cm", "slug": "the-prostheses-foundation-of-h-r-h-the-princess-mother-cmcuratedprosthesesfoundation", "rank": 6}}, {"type": "Feature", "geometry": {"type": "Point", "coordinates": [98.89041, 18.69121]}, "properties": {"id": "cm-osm-node-2670840911", "name": "มูลนิธิบ้านร่มไทร", "nameTh": "มูลนิธิบ้านร่มไทร", "nameEn": "Ban Rom Sai", "cat": ["community"], "province": "cm", "slug": "ban-rom-sai-2670840911", "rank": 2}}, {"type": "Feature", "geometry": {"type": "Point", "coordinates": [99.02062, 18.77532]}, "properties": {"id": "cm-osm-node-5127484221", "name": "ศาลาชุมชนต้นขามสามัคคี", "nameTh": "ศาลาชุมชนต้นขามสามัคคี", "nameEn": "Sala Chumchon Ton Kam Samaggi", "cat": ["community"], "province": "cm", "slug": "sala-chumchon-ton-kam-samaggi-5127484221", "rank": 2}}, {"type": "Feature", "geometry": {"type": "Point", "coordinates": [99.05728, 18.89656]}, "properties": {"id": "cm-osm-node-4591440681", "name": "ศาลารวมใจ บ้านเกษตรพัฒนา ม.15", "nameTh": "ศาลารวมใจ บ้านเกษตรพัฒนา ม.15", "nameEn": "Ban Kaset Phatthana Community Hall", "cat": ["community"], "province": "cm", "slug": "ban-kaset-phatthana-community-hall-4591440681", "rank": 2}}, {"type": "Feature", "geometry": {"type": "Point", "coordinates": [99.04342, 18.90741]}, "properties": {"id": "cm-osm-node-6467547786", "name": "ศูนย์ชุมชนบ้านศรีบุญเรือง", "nameTh": "ศูนย์ชุมชนบ้านศรีบุญเรือง", "nameEn": "Ban Sri Boon Ruang village center", "cat": ["community"], "province": "cm", "slug": "ban-sri-boon-ruang-village-center-6467547786", "rank": 2}}, {"type": "Feature", "geometry": {"type": "Point", "coordinates": [98.9074, 18.98523]}, "properties": {"id": "cm-osm-node-6474174285", "name": "ศูนย์ชุมชนบ้านหัวฝาย", "nameTh": "ศูนย์ชุมชนบ้านหัวฝาย", "nameEn": "Bam Hua Fai village center", "cat": ["community"], "province": "cm", "slug": "bam-hua-fai-village-center-6474174285", "rank": 2}}, {"type": "Feature", "geometry": {"type": "Point", "coordinates": [98.83614, 19.01188]}, "properties": {"id": "cm-osm-node-6477324590", "name": "ศูนย์ชุมชนบ้านห้วยส้มสุก", "nameTh": "ศูนย์ชุมชนบ้านห้วยส้มสุก", "nameEn": "Ban Huai Som Suk village center", "cat": ["community"], "province": "cm", "slug": "ban-huai-som-suk-village-center-6477324590", "rank": 2}}, {"type": "Feature", "geometry": {"type": "Point", "coordinates": [98.87379, 19.03018]}, "properties": {"id": "cm-osm-node-7663300488", "name": "ศูนย์ปฏิบัติการ อพปร.", "nameTh": "ศูนย์ปฏิบัติการ อพปร.", "nameEn": null, "cat": ["community"], "province": "cm", "slug": "7663300488", "rank": 1}}, {"type": "Feature", "geometry": {"type": "Point", "coordinates": [98.96246, 18.78911]}, "properties": {"id": "cm-osm-node-13717806001", "name": "ศูนย์สุขภาพ แคร์แมท CAREMAT", "nameTh": "ศูนย์สุขภาพ แคร์แมท CAREMAT", "nameEn": null, "cat": ["community"], "province": "cm", "slug": "caremat-13717806001", "rank": 4}}, {"type": "Feature", "geometry": {"type": "Point", "coordinates": [98.96447, 18.78889]}, "properties": {"id": "cm-osm-node-13717807501", "name": "ศูนย์สุขภาพ แคร์แมท CAREMAT", "nameTh": "ศูนย์สุขภาพ แคร์แมท CAREMAT", "nameEn": null, "cat": ["community"], "province": "cm", "slug": "caremat-13717807501", "rank": 4}}, {"type": "Feature", "geometry": {"type": "Point", "coordinates": [98.99746, 18.93465]}, "properties": {"id": "cm-osm-node-6471356388", "name": "สนามบาสเก็ตบอล", "nameTh": "สนามบาสเก็ตบอล", "nameEn": "Basketball cort", "cat": ["community"], "province": "cm", "slug": "basketball-cort-6471356388", "rank": 2}}, {"type": "Feature", "geometry": {"type": "Point", "coordinates": [98.97942, 18.78808]}, "properties": {"id": "cm-osm-node-3388703737", "name": "สมาคมศิษย์เก่ายุพราชวิทยาลัย", "nameTh": "สมาคมศิษย์เก่ายุพราชวิทยาลัย", "nameEn": "Yupparaj Wittayalai Alumni Association", "cat": ["community"], "province": "cm", "slug": "yupparaj-wittayalai-alumni-association-3388703737", "rank": 2}}, {"type": "Feature", "geometry": {"type": "Point", "coordinates": [99.00106, 18.76482]}, "properties": {"id": "cm-osm-way-141212725", "name": "สมาคมฮากกาเชียงใหม่", "nameTh": "สมาคมฮากกาเชียงใหม่", "nameEn": "Hakka Chiang Mai Association", "cat": ["community"], "province": "cm", "slug": "hakka-chiang-mai-association-141212725", "rank": 2}}, {"type": "Feature", "geometry": {"type": "Point", "coordinates": [99.13261, 18.73869]}, "properties": {"id": "cm-osm-node-8639620148", "name": "สำนักงานชุมชน - หมู่บ้าน", "nameTh": "สำนักงานชุมชน - หมู่บ้าน", "nameEn": "Community Office", "cat": ["community"], "province": "cm", "slug": "community-office-8639620148", "rank": 2}}, {"type": "Feature", "geometry": {"type": "Point", "coordinates": [98.99047, 18.79162]}, "properties": {"id": "cm-osm-way-695925440", "name": "สำนักงานเหล่ากาชาดจังหวัดเชียงใหม่", "nameTh": "สำนักงานเหล่ากาชาดจังหวัดเชียงใหม่", "nameEn": "Chinag Mai Red Cross", "cat": ["community"], "province": "cm", "slug": "chinag-mai-red-cross-695925440", "rank": 2}}, {"type": "Feature", "geometry": {"type": "Point", "coordinates": [98.97749, 18.79625]}, "properties": {"id": "cm-newsletter-cmu-auditorium", "name": "หอประชุมมหาวิทยาลัยเชียงใหม่", "nameTh": "หอประชุมมหาวิทยาลัยเชียงใหม่", "nameEn": "Chiang Mai University Auditorium", "cat": ["community"], "province": "cm", "slug": "chiang-mai-university-auditorium-cmnewslettercmuauditorium", "rank": 4}}, {"type": "Feature", "geometry": {"type": "Point", "coordinates": [98.95283, 18.79578]}, "properties": {"id": "cm-osm-node-10539762457", "name": "ห้องธุรการ", "nameTh": "ห้องธุรการ", "nameEn": null, "cat": ["community"], "province": "cm", "slug": "10539762457", "rank": 1}}, {"type": "Feature", "geometry": {"type": "Point", "coordinates": [98.95283, 18.79577]}, "properties": {"id": "cm-osm-way-1130917280", "name": "ห้องธุรการ", "nameTh": "ห้องธุรการ", "nameEn": null, "cat": ["community"], "province": "cm", "slug": "1130917280", "rank": 1}}, {"type": "Feature", "geometry": {"type": "Point", "coordinates": [98.99707, 18.7881]}, "properties": {"id": "cm-newsletter-rong-sa-dang", "name": "โรงแสดง", "nameTh": "โรงแสดง", "nameEn": "Rong Sa Dang", "cat": ["community"], "province": "cm", "slug": "rong-sa-dang-cmnewsletterrongsadang", "rank": 4}}]}