{"type": "FeatureCollection", "features": [{"type": "Feature", "geometry": {"type": "Point", "coordinates": [98.99029, 18.78823]}, "properties": {"id": "cm-curated-baanchang-elephant-park", "name": "Baanchang Elephant Park", "nameTh": null, "nameEn": "Baanchang Elephant Park", "cat": ["chang"], "province": "cm", "slug": "baanchang-elephant-park-cmcuratedbaanchangelephantpark", "rank": 4}}, {"type": "Feature", "geometry": {"type": "Point", "coordinates": [98.60898, 18.69023]}, "properties": {"id": "cm-osm-node-4933896022", "name": "Doiinthanon Elephant park", "nameTh": null, "nameEn": "Doiinthanon Elephant park", "cat": ["chang"], "province": "cm", "slug": "doiinthanon-elephant-park-4933896022", "rank": 3}}, {"type": "Feature", "geometry": {"type": "Point", "coordinates": [98.81637, 19.22509]}, "properties": {"id": "cm-osm-node-6251299685", "name": "Elephant Adventure Sanctuary", "nameTh": null, "nameEn": "Elephant Adventure Sanctuary", "cat": ["chang"], "province": "cm", "slug": "elephant-adventure-sanctuary-6251299685", "rank": 1}}, {"type": "Feature", "geometry": {"type": "Point", "coordinates": [98.62507, 18.62396]}, "properties": {"id": "cm-osm-node-4407716589", "name": "Elephant Camp Chi", "nameTh": null, "nameEn": "Elephant Camp Chi", "cat": ["chang"], "province": "cm", "slug": "elephant-camp-chi-4407716589", "rank": 1}}, {"type": "Feature", "geometry": {"type": "Point", "coordinates": [98.56137, 18.65864]}, "properties": {"id": "cm-curated-elephant-freedom-village", "name": "Elephant Freedom Village", "nameTh": null, "nameEn": "Elephant Freedom Village", "cat": ["chang"], "province": "cm", "slug": "elephant-freedom-village-cmcuratedelephantfreedomvillage", "rank": 4}}, {"type": "Feature", "geometry": {"type": "Point", "coordinates": [98.99867, 18.78833]}, "properties": {"id": "cm-curated-elephant-jungle-sanctuary", "name": "Elephant Jungle Sanctuary", "nameTh": null, "nameEn": "Elephant Jungle Sanctuary", "cat": ["chang"], "province": "cm", "slug": "elephant-jungle-sanctuary-cmcuratedelephantjunglesanctuary", "rank": 4}}, {"type": "Feature", "geometry": {"type": "Point", "coordinates": [98.86149, 19.21479]}, "properties": {"id": "cm-curated-elephant-nature-park", "name": "Elephant Nature Park", "nameTh": null, "nameEn": "Elephant Nature Park", "cat": ["chang"], "province": "cm", "slug": "elephant-nature-park-cmcuratedelephantnaturepark", "rank": 5}}, {"type": "Feature", "geometry": {"type": "Point", "coordinates": [98.99225, 18.87069]}, "properties": {"id": "cm-curated-elephant-parade-house", "name": "Elephant Parade House", "nameTh": null, "nameEn": "Elephant Parade House", "cat": ["chang"], "province": "cm", "slug": "elephant-parade-house-cmcuratedelephantparadehouse", "rank": 4}}, {"type": "Feature", "geometry": {"type": "Point", "coordinates": [98.93167, 18.92556]}, "properties": {"id": "cm-osm-node-4264568393", "name": "Elephant Poopoopaper Park", "nameTh": null, "nameEn": "Elephant Poopoopaper Park", "cat": ["chang", "museums-galleries"], "province": "cm", "slug": "elephant-poopoopaper-park-4264568393", "rank": 1}}, {"type": "Feature", "geometry": {"type": "Point", "coordinates": [98.96906, 19.24778]}, "properties": {"id": "cm-curated-chiang-dao-elephant-training-centre", "name": "Elephant Training Center Chiang Dao", "nameTh": "ศูนย์ฝึกช้างเชียงดาว", "nameEn": "Elephant Training Center Chiang Dao", "cat": ["chang"], "province": "cm", "slug": "elephant-training-center-chiang-dao-cmcuratedchiangdaoelephanttrainingcentre", "rank": 4}}, {"type": "Feature", "geometry": {"type": "Point", "coordinates": [98.8563, 19.03536]}, "properties": {"id": "cm-osm-node-4154575589", "name": "Elephant retirement park", "nameTh": null, "nameEn": "Elephant retirement park", "cat": ["chang"], "province": "cm", "slug": "elephant-retirement-park-4154575589", "rank": 3}}, {"type": "Feature", "geometry": {"type": "Point", "coordinates": [98.68795, 18.64886]}, "properties": {"id": "cm-osm-node-6062427848", "name": "Ghok Dee Elephant Camp", "nameTh": null, "nameEn": "Ghok Dee Elephant Camp", "cat": ["chang"], "province": "cm", "slug": "ghok-dee-elephant-camp-6062427848", "rank": 1}}, {"type": "Feature", "geometry": {"type": "Point", "coordinates": [98.85564, 19.20691]}, "properties": {"id": "cm-curated-happy-elephant-home", "name": "Happy Elephant Home", "nameTh": null, "nameEn": "Happy Elephant Home", "cat": ["chang"], "province": "cm", "slug": "happy-elephant-home-cmcuratedhappyelephanthome", "rank": 3}}, {"type": "Feature", "geometry": {"type": "Point", "coordinates": [98.65327, 18.66802]}, "properties": {"id": "cm-osm-node-6062446116", "name": "Hug Elephant Sanctuary", "nameTh": null, "nameEn": "Hug Elephant Sanctuary", "cat": ["chang"], "province": "cm", "slug": "hug-elephant-sanctuary-6062446116", "rank": 1}}, {"type": "Feature", "geometry": {"type": "Point", "coordinates": [98.98553, 18.80386]}, "properties": {"id": "cm-curated-into-the-wild-elephant-camp", "name": "Into the Wild Elephant Camp", "nameTh": null, "nameEn": "Into the Wild Elephant Camp", "cat": ["chang"], "province": "cm", "slug": "into-the-wild-elephant-camp-cmcuratedintothewildelephantcamp", "rank": 3}}, {"type": "Feature", "geometry": {"type": "Point", "coordinates": [98.86881, 19.21421]}, "properties": {"id": "cm-osm-way-374649694", "name": "Jamlearn Elephant Camp & Rafting", "nameTh": null, "nameEn": "Jamlearn Elephant Camp & Rafting", "cat": ["chang"], "province": "cm", "slug": "jamlearn-elephant-camp-rafting-374649694", "rank": 1}}, {"type": "Feature", "geometry": {"type": "Point", "coordinates": [98.8953, 19.11022]}, "properties": {"id": "cm-osm-node-5786047555", "name": "Kanta Elephant Sanctuary", "nameTh": null, "nameEn": "Kanta Elephant Sanctuary", "cat": ["chang"], "province": "cm", "slug": "kanta-elephant-sanctuary-5786047555", "rank": 1}}, {"type": "Feature", "geometry": {"type": "Point", "coordinates": [98.68261, 18.6553]}, "properties": {"id": "cm-curated-kerchor-elephant-eco-park", "name": "Kerchor Elephant Eco Park", "nameTh": null, "nameEn": "Kerchor Elephant Eco Park", "cat": ["chang"], "province": "cm", "slug": "kerchor-elephant-eco-park-cmcuratedkerchorelephantecopark", "rank": 4}}, {"type": "Feature", "geometry": {"type": "Point", "coordinates": [98.87549, 18.8998]}, "properties": {"id": "cm-curated-maesa-elephant-camp", "name": "Maesa Elephant Camp", "nameTh": "ปางช้างแม่สา", "nameEn": "Maesa Elephant Camp", "cat": ["chang"], "province": "cm", "slug": "maesa-elephant-camp-cmcuratedmaesaelephantcamp", "rank": 5}}, {"type": "Feature", "geometry": {"type": "Point", "coordinates": [98.88658, 19.19825]}, "properties": {"id": "cm-curated-maetaeng-elephant-park", "name": "Maetaeng Elephant Park & Clinic", "nameTh": null, "nameEn": "Maetaeng Elephant Park & Clinic", "cat": ["chang"], "province": "cm", "slug": "maetaeng-elephant-park-clinic-cmcuratedmaetaengelephantpark", "rank": 4}}, {"type": "Feature", "geometry": {"type": "Point", "coordinates": [98.89566, 19.19408]}, "properties": {"id": "cm-osm-node-13579977701", "name": "New Elephant Home", "nameTh": null, "nameEn": "New Elephant Home", "cat": ["chang"], "province": "cm", "slug": "new-elephant-home-13579977701", "rank": 2}}, {"type": "Feature", "geometry": {"type": "Point", "coordinates": [98.84415, 18.80068]}, "properties": {"id": "cm-curated-patara-elephant-farm", "name": "Patara Elephant Farm", "nameTh": null, "nameEn": "Patara Elephant Farm", "cat": ["chang"], "province": "cm", "slug": "patara-elephant-farm-cmcuratedpataraelephantfarm", "rank": 5}}, {"type": "Feature", "geometry": {"type": "Point", "coordinates": [98.88889, 19.20347]}, "properties": {"id": "cm-curated-thai-elephant-home", "name": "Thai Elephant Home", "nameTh": null, "nameEn": "Thai Elephant Home", "cat": ["chang"], "province": "cm", "slug": "thai-elephant-home-cmcuratedthaielephanthome", "rank": 4}}, {"type": "Feature", "geometry": {"type": "Point", "coordinates": [98.54982, 18.68094]}, "properties": {"id": "cm-osm-node-9830593117", "name": "elephant Freedom", "nameTh": null, "nameEn": "elephant Freedom", "cat": ["chang"], "province": "cm", "slug": "elephant-freedom-9830593117", "rank": 1}}, {"type": "Feature", "geometry": {"type": "Point", "coordinates": [98.54735, 18.65965]}, "properties": {"id": "cm-osm-node-5794209153", "name": "แอลแฟ่น ไพร์ด แซงชัวรี่", "nameTh": "แอลแฟ่น ไพร์ด แซงชัวรี่", "nameEn": "elephant pride sanctuary", "cat": ["chang"], "province": "cm", "slug": "elephant-pride-sanctuary-5794209153", "rank": 4}}]}