{"type": "FeatureCollection", "features": [{"type": "Feature", "geometry": {"type": "Point", "coordinates": [99.01528, 18.87147]}, "properties": {"id": "cm-osm-node-3340980793", "name": "AFM", "nameTh": null, "nameEn": "AFM", "cat": ["home-services"], "province": "cm", "slug": "afm-3340980793", "rank": 1}}, {"type": "Feature", "geometry": {"type": "Point", "coordinates": [98.99595, 18.80736]}, "properties": {"id": "cm-osm-node-13600539514", "name": "Fertiliser shop", "nameTh": null, "nameEn": "Fertiliser shop", "cat": ["home-services"], "province": "cm", "slug": "fertiliser-shop-13600539514", "rank": 1}}, {"type": "Feature", "geometry": {"type": "Point", "coordinates": [98.99765, 18.80719]}, "properties": {"id": "cm-osm-node-13599916890", "name": "Grassyland", "nameTh": null, "nameEn": "Grassyland", "cat": ["home-services"], "province": "cm", "slug": "grassyland-13599916890", "rank": 1}}, {"type": "Feature", "geometry": {"type": "Point", "coordinates": [98.99577, 18.80751]}, "properties": {"id": "cm-osm-node-4225751216", "name": "จักรวาล", "nameTh": "จักรวาล", "nameEn": "Jakawan", "cat": ["home-services"], "province": "cm", "slug": "jakawan-4225751216", "rank": 3}}, {"type": "Feature", "geometry": {"type": "Point", "coordinates": [98.99846, 18.80646]}, "properties": {"id": "cm-osm-way-423030639", "name": "ตลาดคำเที่ยง", "nameTh": "ตลาดคำเที่ยง", "nameEn": "Khamtiang Flower Market", "cat": ["home-services"], "province": "cm", "slug": "khamtiang-flower-market-423030639", "rank": 3}}, {"type": "Feature", "geometry": {"type": "Point", "coordinates": [98.9832, 18.81449]}, "properties": {"id": "cm-curated-unipest", "name": "บริษัท ยูนิเพสท์ จำกัด", "nameTh": "บริษัท ยูนิเพสท์ จำกัด", "nameEn": "Unipest", "cat": ["home-services"], "province": "cm", "slug": "unipest-cmcuratedunipest", "rank": 7}}, {"type": "Feature", "geometry": {"type": "Point", "coordinates": [99.04694, 18.79078]}, "properties": {"id": "cm-curated-happy-house-pest", "name": "บริษัท แฮปปี้ เฮาส์ จำกัด", "nameTh": "บริษัท แฮปปี้ เฮาส์ จำกัด", "nameEn": "Happy House", "cat": ["home-services"], "province": "cm", "slug": "happy-house-cmcuratedhappyhousepest", "rank": 6}}, {"type": "Feature", "geometry": {"type": "Point", "coordinates": [99.11385, 18.74829]}, "properties": {"id": "cm-osm-node-8639519984", "name": "ร้าน อี้ดธนโชค", "nameTh": "ร้าน อี้ดธนโชค", "nameEn": "Ran It Thanachok", "cat": ["home-services"], "province": "cm", "slug": "ran-it-thanachok-8639519984", "rank": 2}}, {"type": "Feature", "geometry": {"type": "Point", "coordinates": [98.93705, 18.73544]}, "properties": {"id": "cm-osm-node-8972390778", "name": "ร้านรุ่งเรืองกิจเกษตร", "nameTh": "ร้านรุ่งเรืองกิจเกษตร", "nameEn": "Ran Rungrueang Kit Kaset", "cat": ["home-services"], "province": "cm", "slug": "ran-rungrueang-kit-kaset-8972390778", "rank": 2}}]}