{"type": "FeatureCollection", "features": [{"type": "Feature", "geometry": {"type": "Point", "coordinates": [98.9526726, 18.7958446]}, "properties": {"id": "cm-osm-way-1130917240", "name": "402", "cat": ["learn"], "province": "cm"}}, {"type": "Feature", "geometry": {"type": "Point", "coordinates": [98.9528038, 18.7958521]}, "properties": {"id": "cm-osm-way-1130917223", "name": "403", "cat": ["learn"], "province": "cm"}}, {"type": "Feature", "geometry": {"type": "Point", "coordinates": [98.9530629, 18.7956942]}, "properties": {"id": "cm-osm-way-1130917234", "name": "411", "cat": ["learn"], "province": "cm"}}, {"type": "Feature", "geometry": {"type": "Point", "coordinates": [98.9530627, 18.7955561]}, "properties": {"id": "cm-osm-way-1130917221", "name": "412", "cat": ["learn"], "province": "cm"}}, {"type": "Feature", "geometry": {"type": "Point", "coordinates": [98.9529054, 18.7954791]}, "properties": {"id": "cm-osm-way-1130917274", "name": "413A", "cat": ["learn"], "province": "cm"}}, {"type": "Feature", "geometry": {"type": "Point", "coordinates": [98.9526726, 18.7957715]}, "properties": {"id": "cm-osm-way-1130917242", "name": "501", "cat": ["learn"], "province": "cm"}}, {"type": "Feature", "geometry": {"type": "Point", "coordinates": [98.9526724, 18.7958445]}, "properties": {"id": "cm-osm-way-1130917284", "name": "502", "cat": ["learn"], "province": "cm"}}, {"type": "Feature", "geometry": {"type": "Point", "coordinates": [98.9530627, 18.7956581]}, "properties": {"id": "cm-osm-way-1130917204", "name": "516", "cat": ["learn"], "province": "cm"}}, {"type": "Feature", "geometry": {"type": "Point", "coordinates": [98.9529453, 18.795479]}, "properties": {"id": "cm-osm-way-1130917212", "name": "518", "cat": ["learn"], "province": "cm"}}, {"type": "Feature", "geometry": {"type": "Point", "coordinates": [98.9528284, 18.7955901]}, "properties": {"id": "cm-osm-way-1130917205", "name": "521", "cat": ["learn"], "province": "cm"}}, {"type": "Feature", "geometry": {"type": "Point", "coordinates": [99.0168256, 18.7585519]}, "properties": {"id": "cm-osm-way-333769662", "name": "Asia Technological College", "cat": ["learn"], "province": "cm"}}, {"type": "Feature", "geometry": {"type": "Point", "coordinates": [99.0090055, 18.7957625]}, "properties": {"id": "cm-osm-way-367745510", "name": "British Council", "cat": ["learn"], "province": "cm"}}, {"type": "Feature", "geometry": {"type": "Point", "coordinates": [98.9537849, 18.8021044]}, "properties": {"id": "cm-osm-way-320664125", "name": "CB1", "cat": ["learn"], "province": "cm"}}, {"type": "Feature", "geometry": {"type": "Point", "coordinates": [98.8885834, 18.845127]}, "properties": {"id": "cm-osm-node-2774687795", "name": "CMU Faculty of Agriculture, Khunchangkhian", "cat": ["learn"], "province": "cm"}}, {"type": "Feature", "geometry": {"type": "Point", "coordinates": [98.9906622, 18.8000768]}, "properties": {"id": "cm-osm-way-665826712", "name": "Institute of Physical Education Chiangmai", "cat": ["learn"], "province": "cm"}}, {"type": "Feature", "geometry": {"type": "Point", "coordinates": [98.9672575, 18.7938441]}, "properties": {"id": "cm-osm-way-539200937", "name": "International College of Digital Innovation", "cat": ["learn"], "province": "cm"}}, {"type": "Feature", "geometry": {"type": "Point", "coordinates": [98.9728248, 18.8110084]}, "properties": {"id": "cm-osm-way-200702327", "name": "Lanna Commercial College", "cat": ["learn"], "province": "cm"}}, {"type": "Feature", "geometry": {"type": "Point", "coordinates": [98.9939688, 18.7929826]}, "properties": {"id": "cm-osm-node-1617076525", "name": "NES Institute of Languages", "cat": ["learn"], "province": "cm"}}, {"type": "Feature", "geometry": {"type": "Point", "coordinates": [98.9924454, 18.8176692]}, "properties": {"id": "cm-osm-way-313552107", "name": "Nava School of English", "cat": ["learn"], "province": "cm"}}, {"type": "Feature", "geometry": {"type": "Point", "coordinates": [98.9475306, 18.8013096]}, "properties": {"id": "cm-osm-node-6014826895", "name": "คณะการสื่อสารมวลชน", "cat": ["learn"], "province": "cm"}}, {"type": "Feature", "geometry": {"type": "Point", "coordinates": [98.9680066, 18.7900252]}, "properties": {"id": "cm-osm-node-12779208407", "name": "คณะทันตแพทยศาสตร์ มหาวิทยาลัยเชียงใหม่", "cat": ["learn"], "province": "cm"}}, {"type": "Feature", "geometry": {"type": "Point", "coordinates": [98.9481352, 18.8047649]}, "properties": {"id": "cm-osm-node-6014798842", "name": "คณะนิติศาสตร์", "cat": ["learn"], "province": "cm"}}, {"type": "Feature", "geometry": {"type": "Point", "coordinates": [98.9754463, 18.7908332]}, "properties": {"id": "cm-osm-node-4681342960", "name": "คณะพยาบาลศาสตร์", "cat": ["learn"], "province": "cm"}}, {"type": "Feature", "geometry": {"type": "Point", "coordinates": [98.9508751, 18.803955]}, "properties": {"id": "cm-osm-node-3322985561", "name": "คณะมนุษยศาสตร์", "cat": ["learn"], "province": "cm"}}, {"type": "Feature", "geometry": {"type": "Point", "coordinates": [98.9547675, 18.8031483]}, "properties": {"id": "cm-osm-node-5591475899", "name": "คณะรัฐศาสตร์และรัฐประศาสนศาสตร์", "cat": ["learn"], "province": "cm"}}, {"type": "Feature", "geometry": {"type": "Point", "coordinates": [98.9529401, 18.8009661]}, "properties": {"id": "cm-osm-node-6012344207", "name": "คณะวิทยาศาสตร์", "cat": ["learn"], "province": "cm"}}, {"type": "Feature", "geometry": {"type": "Point", "coordinates": [98.9487144, 18.7984486]}, "properties": {"id": "cm-osm-node-12856048975", "name": "คณะสถาปัตยกรรมศาสตร์", "cat": ["learn"], "province": "cm"}}, {"type": "Feature", "geometry": {"type": "Point", "coordinates": [98.9499749, 18.8025771]}, "properties": {"id": "cm-osm-node-6012268592", "name": "คณะสังคมศาสตร์", "cat": ["learn"], "province": "cm"}}, {"type": "Feature", "geometry": {"type": "Point", "coordinates": [99.0180517, 18.9150877]}, "properties": {"id": "cm-osm-way-93044355", "name": "คณะสัตวศาสตร์และเทคโนโลยี", "cat": ["learn"], "province": "cm"}}, {"type": "Feature", "geometry": {"type": "Point", "coordinates": [98.9598574, 18.7934047]}, "properties": {"id": "cm-osm-node-6014812269", "name": "คณะเกษตรศาสตร์", "cat": ["learn"], "province": "cm"}}, {"type": "Feature", "geometry": {"type": "Point", "coordinates": [98.9752034, 18.7897775]}, "properties": {"id": "cm-osm-node-4681342961", "name": "คณะเทคนิคการแพทย์", "cat": ["learn"], "province": "cm"}}, {"type": "Feature", "geometry": {"type": "Point", "coordinates": [98.9496142, 18.8017341]}, "properties": {"id": "cm-osm-node-6012370690", "name": "คณะเศรษฐศาสตร์", "cat": ["learn"], "province": "cm"}}, {"type": "Feature", "geometry": {"type": "Point", "coordinates": [98.9736549, 18.7898551]}, "properties": {"id": "cm-osm-node-725689597", "name": "คณะแพทยศาสตร์", "cat": ["learn"], "province": "cm"}}, {"type": "Feature", "geometry": {"type": "Point", "coordinates": [98.9266961, 19.0210242]}, "properties": {"id": "cm-osm-node-10593235382", "name": "ภาควิชาคหกรรมศาสตร์ (อาคาร SCI11)", "cat": ["learn"], "province": "cm"}}, {"type": "Feature", "geometry": {"type": "Point", "coordinates": [98.9261221, 19.021582]}, "properties": {"id": "cm-osm-node-10593235384", "name": "ภาควิชาคอมพิวเตอร์ / ภาควิชาคณิตศาสตร์และสถิติ (SCI9)", "cat": ["learn"], "province": "cm"}}, {"type": "Feature", "geometry": {"type": "Point", "coordinates": [98.9259719, 19.0211713]}, "properties": {"id": "cm-osm-node-10593235381", "name": "ภาควิชาชีววิทยา (อาคาร SCI8)", "cat": ["learn"], "province": "cm"}}, {"type": "Feature", "geometry": {"type": "Point", "coordinates": [98.9255052, 19.0213488]}, "properties": {"id": "cm-osm-node-10593235385", "name": "ภาควิชาฟิสิกส์และวิทยาศาสตร์ทั่วไป (อาคาร SCI7)", "cat": ["learn"], "province": "cm"}}, {"type": "Feature", "geometry": {"type": "Point", "coordinates": [98.9269428, 19.021364]}, "properties": {"id": "cm-osm-node-10593235383", "name": "ภาควิชาสาธารณสุขศาสตร์/ภาควิชาวิทยาศาสตร์สิ่งแวดล้อม (อาคาร SCI10)", "cat": ["learn"], "province": "cm"}}, {"type": "Feature", "geometry": {"type": "Point", "coordinates": [98.9253818, 19.0207503]}, "properties": {"id": "cm-osm-node-10593235380", "name": "ภาควิชาเคมี (อาคาร SCI6)", "cat": ["learn"], "province": "cm"}}, {"type": "Feature", "geometry": {"type": "Point", "coordinates": [98.9137955, 18.662653]}, "properties": {"id": "cm-osm-node-2685552559", "name": "มหาวิทยาลัยนอร์ท - เชียงใหม่", "cat": ["learn"], "province": "cm"}}, {"type": "Feature", "geometry": {"type": "Point", "coordinates": [99.0327199, 18.7961921]}, "properties": {"id": "cm-osm-way-122522956", "name": "มหาวิทยาลัยพายัพ", "cat": ["learn"], "province": "cm"}}, {"type": "Feature", "geometry": {"type": "Point", "coordinates": [99.0403212, 18.7985377]}, "properties": {"id": "cm-osm-way-199755350", "name": "มหาวิทยาลัยพายัพ", "cat": ["learn"], "province": "cm"}}, {"type": "Feature", "geometry": {"type": "Point", "coordinates": [99.0092469, 18.7990831]}, "properties": {"id": "cm-osm-way-186277293", "name": "มหาวิทยาลัยพายัพ เขตแก้วนวรัฐ", "cat": ["learn"], "province": "cm"}}, {"type": "Feature", "geometry": {"type": "Point", "coordinates": [98.9750451, 18.7710935]}, "properties": {"id": "cm-osm-way-200889789", "name": "มหาวิทยาลัยฟาร์อีสเทอร์น", "cat": ["learn"], "province": "cm"}}, {"type": "Feature", "geometry": {"type": "Point", "coordinates": [98.972679, 18.7113601]}, "properties": {"id": "cm-osm-way-473730250", "name": "มหาวิทยาลัยฟาร์อีสเทอร์น", "cat": ["learn"], "province": "cm"}}, {"type": "Feature", "geometry": {"type": "Point", "coordinates": [98.9223502, 19.0235248]}, "properties": {"id": "cm-osm-node-2611287874", "name": "มหาวิทยาลัยราชภัฏเชียงใหม่", "cat": ["learn"], "province": "cm"}}, {"type": "Feature", "geometry": {"type": "Point", "coordinates": [98.9264415, 19.0209258]}, "properties": {"id": "cm-osm-way-204109676", "name": "มหาวิทยาลัยราชภัฏเชียงใหม่", "cat": ["learn"], "province": "cm"}}, {"type": "Feature", "geometry": {"type": "Point", "coordinates": [98.986851, 18.8072994]}, "properties": {"id": "cm-osm-way-329234389", "name": "มหาวิทยาลัยราชภัฏเชียงใหม่", "cat": ["learn"], "province": "cm"}}, {"type": "Feature", "geometry": {"type": "Point", "coordinates": [98.9539181, 18.8009284]}, "properties": {"id": "cm-osm-way-189632187", "name": "มหาวิทยาลัยเชียงใหม่", "cat": ["learn"], "province": "cm"}}, {"type": "Feature", "geometry": {"type": "Point", "coordinates": [99.0144929, 18.8971068]}, "properties": {"id": "cm-osm-way-97522878", "name": "มหาวิทยาลัยแม่โจ้", "cat": ["learn"], "province": "cm"}}, {"type": "Feature", "geometry": {"type": "Point", "coordinates": [98.9505913, 18.8007052]}, "properties": {"id": "cm-osm-node-7116881509", "name": "วิทยาลัยศิลปะ สื่อ และเทคโนโลยี", "cat": ["learn"], "province": "cm"}}, {"type": "Feature", "geometry": {"type": "Point", "coordinates": [98.9939578, 18.813853]}, "properties": {"id": "cm-osm-way-200374589", "name": "วิทยาลัยเทคโนโลยีโปลิเทคนิคลานนา", "cat": ["learn"], "province": "cm"}}, {"type": "Feature", "geometry": {"type": "Point", "coordinates": [98.9229809, 19.0220517]}, "properties": {"id": "cm-osm-node-10593235387", "name": "สำนักงานคณะครุศาสตร์", "cat": ["learn"], "province": "cm"}}, {"type": "Feature", "geometry": {"type": "Point", "coordinates": [98.9239887, 19.0215224]}, "properties": {"id": "cm-osm-node-10593235376", "name": "สำนักงานคณะวิทยาศาสตร์และเทคโนโลยี", "cat": ["learn"], "province": "cm"}}, {"type": "Feature", "geometry": {"type": "Point", "coordinates": [98.9233259, 19.0243225]}, "properties": {"id": "cm-osm-node-10593235393", "name": "สำนักดิจิทัลเพื่อการศึกษา / สำนักหอสมุด", "cat": ["learn"], "province": "cm"}}, {"type": "Feature", "geometry": {"type": "Point", "coordinates": [98.9218321, 19.0232305]}, "properties": {"id": "cm-osm-node-10593235388", "name": "หอประชุมคณะครุศาสตร์", "cat": ["learn"], "province": "cm"}}, {"type": "Feature", "geometry": {"type": "Point", "coordinates": [98.922654, 19.020555]}, "properties": {"id": "cm-osm-node-10593235391", "name": "หอพักนักศึกษาคณะครุศาสตร์", "cat": ["learn"], "province": "cm"}}, {"type": "Feature", "geometry": {"type": "Point", "coordinates": [98.9243953, 19.0218145]}, "properties": {"id": "cm-osm-node-10593235375", "name": "ห้องพักอาจารย์คณะวิทยาศาสตร์และเทคโนโลยี", "cat": ["learn"], "province": "cm"}}, {"type": "Feature", "geometry": {"type": "Point", "coordinates": [98.9214983, 19.0227448]}, "properties": {"id": "cm-osm-node-10593235392", "name": "อาคาร C", "cat": ["learn"], "province": "cm"}}, {"type": "Feature", "geometry": {"type": "Point", "coordinates": [98.9226867, 19.0227979]}, "properties": {"id": "cm-osm-node-10593235389", "name": "อาคารพวงคราม 1", "cat": ["learn"], "province": "cm"}}, {"type": "Feature", "geometry": {"type": "Point", "coordinates": [98.9220002, 19.0223564]}, "properties": {"id": "cm-osm-node-10593235390", "name": "อาคารพวงคราม 2", "cat": ["learn"], "province": "cm"}}, {"type": "Feature", "geometry": {"type": "Point", "coordinates": [98.9255678, 19.0180388]}, "properties": {"id": "cm-osm-node-10593235395", "name": "อาคารวิศวกรรมและก่อสร้าง", "cat": ["learn"], "province": "cm"}}, {"type": "Feature", "geometry": {"type": "Point", "coordinates": [98.9261282, 19.0189439]}, "properties": {"id": "cm-osm-node-10593235394", "name": "อาคารเทคโนโลยีเซรามิค", "cat": ["learn"], "province": "cm"}}, {"type": "Feature", "geometry": {"type": "Point", "coordinates": [98.9245503, 19.0206692]}, "properties": {"id": "cm-osm-node-10593235379", "name": "อาคารเรียนรวม C (SCI5)", "cat": ["learn"], "province": "cm"}}, {"type": "Feature", "geometry": {"type": "Point", "coordinates": [98.9243947, 19.0211104]}, "properties": {"id": "cm-osm-node-10593235378", "name": "อาคารเรียนรวมและหอประชุมคณะวิทยาศาสตร์และเทคโนโลยี(SCI4)", "cat": ["learn"], "province": "cm"}}, {"type": "Feature", "geometry": {"type": "Point", "coordinates": [98.9247973, 19.0191691]}, "properties": {"id": "cm-osm-node-10593235396", "name": "โรงฝึกงานอุตสาหกรรมศิลป์", "cat": ["learn"], "province": "cm"}}, {"type": "Feature", "geometry": {"type": "Point", "coordinates": [98.922682, 19.0215793]}, "properties": {"id": "cm-osm-node-10593235386", "name": "โรงอาหารคณะครุศาสตร์", "cat": ["learn"], "province": "cm"}}, {"type": "Feature", "geometry": {"type": "Point", "coordinates": [98.9240741, 19.0223103]}, "properties": {"id": "cm-osm-node-10593235377", "name": "โรงอาหารและสโมสรนักศึกษาคณะวิทยาศาสตร์และเทคโนโลยี (SCI3)", "cat": ["learn"], "province": "cm"}}, {"type": "Feature", "geometry": {"type": "Point", "coordinates": [98.9828373, 18.7876734]}, "properties": {"id": "cm-osm-node-5859371681", "name": "โรงเรียนภาษาญี่ปุ่นเชียงใหม่", "cat": ["learn"], "province": "cm"}}, {"type": "Feature", "geometry": {"type": "Point", "coordinates": [98.9818538, 18.7950612]}, "properties": {"id": "cm-osm-node-1614999243", "name": "โรงเรียนภาษาเยอรมันเชียงใหม่", "cat": ["learn"], "province": "cm"}}, {"type": "Feature", "geometry": {"type": "Point", "coordinates": [98.9914765, 18.7880424]}, "properties": {"id": "cm-osm-node-336234381", "name": "โรงเรียนสถานสอนภาษาสมาคมนักเรียนเก่าสหรัฐอเมริกา", "cat": ["learn"], "province": "cm"}}]}