{"type": "FeatureCollection", "features": [{"type": "Feature", "geometry": {"type": "Point", "coordinates": [98.9640875, 18.80795]}, "properties": {"id": "cm-osm-way-314669369", "name": "7ยอดพลาซ่า", "nameTh": "7ยอดพลาซ่า", "nameEn": "Jet Yod Plaza", "cat": ["market"], "province": "cm"}}, {"type": "Feature", "geometry": {"type": "Point", "coordinates": [98.9824309, 18.8151281]}, "properties": {"id": "cm-osm-way-421103334", "name": "Boreboom Market", "nameTh": null, "nameEn": "Boreboom Market", "cat": ["market"], "province": "cm"}}, {"type": "Feature", "geometry": {"type": "Point", "coordinates": [99.0004409, 18.7847788]}, "properties": {"id": "cm-osm-way-22981272", "name": "Chiang Mai Night Bazaar", "nameTh": null, "nameEn": "Chiang Mai Night Bazaar", "cat": ["market"], "province": "cm"}}, {"type": "Feature", "geometry": {"type": "Point", "coordinates": [99.1372162, 18.872912]}, "properties": {"id": "cm-osm-node-694991740", "name": "Doi Saket Market", "nameTh": null, "nameEn": "Doi Saket Market", "cat": ["market"], "province": "cm"}}, {"type": "Feature", "geometry": {"type": "Point", "coordinates": [98.9598351, 18.7914812]}, "properties": {"id": "cm-osm-node-12224171159", "name": "Farmers market", "nameTh": null, "nameEn": "Farmers market", "cat": ["market"], "province": "cm"}}, {"type": "Feature", "geometry": {"type": "Point", "coordinates": [98.883285, 18.8164898]}, "properties": {"id": "cm-osm-way-392674040", "name": "Handcraft Market", "nameTh": null, "nameEn": "Handcraft Market", "cat": ["market"], "province": "cm"}}, {"type": "Feature", "geometry": {"type": "Point", "coordinates": [98.9949166, 18.8079408]}, "properties": {"id": "cm-osm-way-232645469", "name": "Jing Jai Market", "nameTh": null, "nameEn": "Jing Jai Market", "cat": ["market"], "province": "cm"}}, {"type": "Feature", "geometry": {"type": "Point", "coordinates": [98.9564895, 18.7213996]}, "properties": {"id": "cm-osm-node-4879593593", "name": "Kad Khwan Wieng", "nameTh": null, "nameEn": "Kad Khwan Wieng", "cat": ["market"], "province": "cm"}}, {"type": "Feature", "geometry": {"type": "Point", "coordinates": [98.9899861, 18.7751699]}, "properties": {"id": "cm-osm-way-668805958", "name": "Kad Kom", "nameTh": null, "nameEn": "Kad Kom", "cat": ["market"], "province": "cm"}}, {"type": "Feature", "geometry": {"type": "Point", "coordinates": [98.9794091, 18.7708876]}, "properties": {"id": "cm-osm-way-712015513", "name": "Kad Manee market", "nameTh": null, "nameEn": "Kad Manee market", "cat": ["market"], "province": "cm"}}, {"type": "Feature", "geometry": {"type": "Point", "coordinates": [98.9971243, 18.7950639]}, "properties": {"id": "cm-osm-way-307968587", "name": "Kad Muang Mai", "nameTh": null, "nameEn": "Kad Muang Mai", "cat": ["market"], "province": "cm"}}, {"type": "Feature", "geometry": {"type": "Point", "coordinates": [98.9874494, 18.7190869]}, "properties": {"id": "cm-osm-way-1330519318", "name": "Kad Pa Ngio", "nameTh": null, "nameEn": "Kad Pa Ngio", "cat": ["market"], "province": "cm"}}, {"type": "Feature", "geometry": {"type": "Point", "coordinates": [99.0003117, 18.7867823]}, "properties": {"id": "cm-osm-way-260054567", "name": "Lannatique market", "nameTh": null, "nameEn": "Lannatique market", "cat": ["market"], "province": "cm"}}, {"type": "Feature", "geometry": {"type": "Point", "coordinates": [98.9642669, 18.7944704]}, "properties": {"id": "cm-osm-node-13361566722", "name": "MORe Space", "nameTh": null, "nameEn": "MORe Space", "cat": ["market"], "province": "cm"}}, {"type": "Feature", "geometry": {"type": "Point", "coordinates": [98.9812694, 18.9769207]}, "properties": {"id": "cm-osm-way-207990382", "name": "Mae Faek Mai Market", "nameTh": null, "nameEn": "Mae Faek Mai Market", "cat": ["market"], "province": "cm"}}, {"type": "Feature", "geometry": {"type": "Point", "coordinates": [98.9831741, 18.7979]}, "properties": {"id": "cm-osm-node-13296932101", "name": "Memories of Chiang Mai", "nameTh": null, "nameEn": "Memories of Chiang Mai", "cat": ["market"], "province": "cm"}}, {"type": "Feature", "geometry": {"type": "Point", "coordinates": [99.0413337, 18.8217885]}, "properties": {"id": "cm-osm-way-1421481385", "name": "Meta Mall", "nameTh": null, "nameEn": "Meta Mall", "cat": ["market"], "province": "cm"}}, {"type": "Feature", "geometry": {"type": "Point", "coordinates": [98.9929643, 18.7915942]}, "properties": {"id": "cm-osm-way-858139971", "name": "Ming Muang market", "nameTh": null, "nameEn": "Ming Muang market", "cat": ["market"], "province": "cm"}}, {"type": "Feature", "geometry": {"type": "Point", "coordinates": [98.9827107, 18.6799184]}, "properties": {"id": "cm-osm-way-204522239", "name": "Nam Tong Market", "nameTh": null, "nameEn": "Nam Tong Market", "cat": ["market"], "province": "cm"}}, {"type": "Feature", "geometry": {"type": "Point", "coordinates": [98.9491815, 18.9080863]}, "properties": {"id": "cm-osm-way-317528874", "name": "Night Market", "nameTh": null, "nameEn": "Night Market", "cat": ["market"], "province": "cm"}}, {"type": "Feature", "geometry": {"type": "Point", "coordinates": [99.0132116, 18.7862788]}, "properties": {"id": "cm-osm-node-5358848510", "name": "Night market", "nameTh": null, "nameEn": "Night market", "cat": ["market"], "province": "cm"}}, {"type": "Feature", "geometry": {"type": "Point", "coordinates": [98.9772579, 18.7720215]}, "properties": {"id": "cm-osm-way-249381419", "name": "Nim City Community Mall", "nameTh": "นิ่ม ซิต๊้", "nameEn": "Nim City Community Mall", "cat": ["market"], "province": "cm"}}, {"type": "Feature", "geometry": {"type": "Point", "coordinates": [98.9822057, 18.8660129]}, "properties": {"id": "cm-osm-way-329824433", "name": "Pa Koi Tai Market", "nameTh": null, "nameEn": "Pa Koi Tai Market", "cat": ["market"], "province": "cm"}}, {"type": "Feature", "geometry": {"type": "Point", "coordinates": [98.9528911, 18.6164382]}, "properties": {"id": "cm-osm-way-1263934278", "name": "Prasong Farm Fresh Market", "nameTh": null, "nameEn": "Prasong Farm Fresh Market", "cat": ["market"], "province": "cm"}}, {"type": "Feature", "geometry": {"type": "Point", "coordinates": [98.8890309, 18.6029346]}, "properties": {"id": "cm-osm-node-1445523544", "name": "San Pa Tong Buffalo Market", "nameTh": null, "nameEn": "San Pa Tong Buffalo Market", "cat": ["market"], "province": "cm"}}, {"type": "Feature", "geometry": {"type": "Point", "coordinates": [98.8678176, 19.0448789]}, "properties": {"id": "cm-osm-way-390214242", "name": "San Payang Market", "nameTh": null, "nameEn": "San Payang Market", "cat": ["market"], "province": "cm"}}, {"type": "Feature", "geometry": {"type": "Point", "coordinates": [98.9808545, 18.7748561]}, "properties": {"id": "cm-osm-node-9775461917", "name": "Saturday Walking Street", "nameTh": null, "nameEn": "Saturday Walking Street", "cat": ["market"], "province": "cm"}}, {"type": "Feature", "geometry": {"type": "Point", "coordinates": [98.9850533, 18.8041965]}, "properties": {"id": "cm-osm-node-11121901005", "name": "Siri-Wattana market", "nameTh": null, "nameEn": "Siri-Wattana market", "cat": ["market"], "province": "cm"}}, {"type": "Feature", "geometry": {"type": "Point", "coordinates": [98.9930819, 18.7914976]}, "properties": {"id": "cm-osm-node-766631271", "name": "Sompet Market", "nameTh": null, "nameEn": "Sompet Market", "cat": ["market"], "province": "cm"}}, {"type": "Feature", "geometry": {"type": "Point", "coordinates": [98.9889213, 18.7881436]}, "properties": {"id": "cm-osm-node-11088497117", "name": "Sukphorpiang", "nameTh": "สุขพอเพียง", "nameEn": "Sukphorpiang", "cat": ["market"], "province": "cm"}}, {"type": "Feature", "geometry": {"type": "Point", "coordinates": [98.9645969, 18.7942297]}, "properties": {"id": "cm-osm-node-9394453317", "name": "Thae Market CNX", "nameTh": null, "nameEn": "Night market", "cat": ["market"], "province": "cm"}}, {"type": "Feature", "geometry": {"type": "Point", "coordinates": [99.0091726, 18.7860104]}, "properties": {"id": "cm-osm-way-301656795", "name": "Thalat San Pa Khoi", "nameTh": null, "nameEn": "Thalat San Pa Khoi", "cat": ["market"], "province": "cm"}}, {"type": "Feature", "geometry": {"type": "Point", "coordinates": [99.0015497, 18.7906904]}, "properties": {"id": "cm-osm-way-205596702", "name": "Ton Lam Yai Flower Market", "nameTh": null, "nameEn": "Ton Lam Yai Flower Market", "cat": ["market"], "province": "cm"}}, {"type": "Feature", "geometry": {"type": "Point", "coordinates": [98.9538809, 18.7932685]}, "properties": {"id": "cm-osm-node-4430178975", "name": "University Gate Food Market", "nameTh": null, "nameEn": "University Gate Food Market", "cat": ["market"], "province": "cm"}}, {"type": "Feature", "geometry": {"type": "Point", "coordinates": [99.0015828, 18.7473319]}, "properties": {"id": "cm-osm-node-3152325311", "name": "กาดมั่ว", "nameTh": "กาดมั่ว", "nameEn": null, "cat": ["market"], "province": "cm"}}, {"type": "Feature", "geometry": {"type": "Point", "coordinates": [99.0114889, 18.8255341]}, "properties": {"id": "cm-osm-way-1099753572", "name": "กาดรวมโชค", "nameTh": "กาดรวมโชค", "nameEn": "Kad Ruam Chok", "cat": ["market"], "province": "cm"}}, {"type": "Feature", "geometry": {"type": "Point", "coordinates": [99.0112697, 18.8249999]}, "properties": {"id": "cm-osm-way-94694436", "name": "กาดรวมโชค", "nameTh": "กาดรวมโชค", "nameEn": "Kad Ruam Chok", "cat": ["market"], "province": "cm"}}, {"type": "Feature", "geometry": {"type": "Point", "coordinates": [99.0786033, 18.7660545]}, "properties": {"id": "cm-osm-way-220574456", "name": "กาดอุ๊ยทา", "nameTh": "กาดอุ๊ยทา", "nameEn": "Kat Ui Tha", "cat": ["market"], "province": "cm"}}, {"type": "Feature", "geometry": {"type": "Point", "coordinates": [98.9765596, 18.8341109]}, "properties": {"id": "cm-osm-way-217506410", "name": "กาดแม่หยวก", "nameTh": "กาดแม่หยวก", "nameEn": "Kat Mae Yuak", "cat": ["market"], "province": "cm"}}, {"type": "Feature", "geometry": {"type": "Point", "coordinates": [98.9524159, 18.7748029]}, "properties": {"id": "cm-osm-node-4681878089", "name": "ข่วงเกษตรอินทรีย์ เชียงใหม่", "nameTh": "ข่วงเกษตรอินทรีย์ เชียงใหม่", "nameEn": "organic famers market", "cat": ["market"], "province": "cm"}}, {"type": "Feature", "geometry": {"type": "Point", "coordinates": [99.1200981, 18.7448998]}, "properties": {"id": "cm-osm-node-8639553987", "name": "ตลาด ประชารัฐคนไทยยิ้มได้", "nameTh": "ตลาด ประชารัฐคนไทยยิ้มได้", "nameEn": "Pracha Rat Khon Thai Yim Dai Market", "cat": ["market"], "province": "cm"}}, {"type": "Feature", "geometry": {"type": "Point", "coordinates": [99.1200894, 18.7451548]}, "properties": {"id": "cm-osm-node-13299514831", "name": "ตลาดกลางคืน สันกำแพง", "nameTh": "ตลาดกลางคืน สันกำแพง", "nameEn": "San Kamphaeng Saturday Walking Street", "cat": ["market"], "province": "cm"}}, {"type": "Feature", "geometry": {"type": "Point", "coordinates": [98.9971379, 18.8061599]}, "properties": {"id": "cm-osm-node-13299514983", "name": "ตลาดคำเที่ยง", "nameTh": "ตลาดคำเที่ยง", "nameEn": "Kham Thiang Flower Market", "cat": ["market"], "province": "cm"}}, {"type": "Feature", "geometry": {"type": "Point", "coordinates": [99.0746397, 18.8445481]}, "properties": {"id": "cm-osm-node-2524397320", "name": "ตลาดค้าเจริญ", "nameTh": "ตลาดค้าเจริญ", "nameEn": "Kha Charoen Market", "cat": ["market"], "province": "cm"}}, {"type": "Feature", "geometry": {"type": "Point", "coordinates": [98.9858276, 18.796239]}, "properties": {"id": "cm-osm-way-103814235", "name": "ตลาดช้างเผือก", "nameTh": "ตลาดช้างเผือก", "nameEn": "Changpuak Market", "cat": ["market"], "province": "cm"}}, {"type": "Feature", "geometry": {"type": "Point", "coordinates": [99.0013968, 18.7904303]}, "properties": {"id": "cm-osm-way-385577703", "name": "ตลาดต้นลำไย", "nameTh": "ตลาดต้นลำไย", "nameEn": "Ton Lam Yai Market", "cat": ["market"], "province": "cm"}}, {"type": "Feature", "geometry": {"type": "Point", "coordinates": [99.008358, 18.7855353]}, "properties": {"id": "cm-osm-way-454365817", "name": "ตลาดทองคำ", "nameTh": "ตลาดทองคำ", "nameEn": "Thongkham Market", "cat": ["market"], "province": "cm"}}, {"type": "Feature", "geometry": {"type": "Point", "coordinates": [99.0218356, 18.8670134]}, "properties": {"id": "cm-osm-way-438103463", "name": "ตลาดท่าเกวียน", "nameTh": "ตลาดท่าเกวียน", "nameEn": null, "cat": ["market"], "province": "cm"}}, {"type": "Feature", "geometry": {"type": "Point", "coordinates": [98.9846611, 18.8044625]}, "properties": {"id": "cm-osm-way-97710779", "name": "ตลาดธานินท์", "nameTh": "ตลาดธานินท์", "nameEn": "Thalat Thannin", "cat": ["market"], "province": "cm"}}, {"type": "Feature", "geometry": {"type": "Point", "coordinates": [99.0019923, 18.7662359]}, "properties": {"id": "cm-osm-way-1236837315", "name": "ตลาดนัด วันอังคาร , วันพฤหัส", "nameTh": "ตลาดนัด วันอังคาร , วันพฤหัส", "nameEn": "Tuesday, Thursday Market", "cat": ["market"], "province": "cm"}}, {"type": "Feature", "geometry": {"type": "Point", "coordinates": [99.0132791, 18.8609864]}, "properties": {"id": "cm-osm-way-389174447", "name": "ตลาดน้ำนครพิงค์", "nameTh": "ตลาดน้ำนครพิงค์", "nameEn": "Nakhon Ping Floating Market", "cat": ["market"], "province": "cm"}}, {"type": "Feature", "geometry": {"type": "Point", "coordinates": [99.0819848, 18.8477895]}, "properties": {"id": "cm-osm-way-333377118", "name": "ตลาดบ่อหิน", "nameTh": "ตลาดบ่อหิน", "nameEn": "Bo Hin Market", "cat": ["market"], "province": "cm"}}, {"type": "Feature", "geometry": {"type": "Point", "coordinates": [98.9883114, 18.7812591]}, "properties": {"id": "cm-osm-node-4430138378", "name": "ตลาดประตูเชียงใหม่", "nameTh": "ตลาดประตูเชียงใหม่", "nameEn": "Chiang Mai Gate Food Market", "cat": ["market"], "province": "cm"}}, {"type": "Feature", "geometry": {"type": "Point", "coordinates": [98.9883928, 18.7817928]}, "properties": {"id": "cm-osm-way-107940199", "name": "ตลาดประตูเชียงใหม่", "nameTh": "ตลาดประตูเชียงใหม่", "nameEn": "Chiang Mai Gate Market", "cat": ["market"], "province": "cm"}}, {"type": "Feature", "geometry": {"type": "Point", "coordinates": [99.000739, 18.7909384]}, "properties": {"id": "cm-osm-node-5606185823", "name": "ตลาดผลไม้ (กาดหลวง)", "nameTh": "ตลาดผลไม้ (กาดหลวง)", "nameEn": "Fruit market", "cat": ["market"], "province": "cm"}}, {"type": "Feature", "geometry": {"type": "Point", "coordinates": [99.0269315, 18.8886424]}, "properties": {"id": "cm-osm-node-2587300826", "name": "ตลาดรวยโชค", "nameTh": "ตลาดรวยโชค", "nameEn": "Ruai Chok Market", "cat": ["market"], "province": "cm"}}, {"type": "Feature", "geometry": {"type": "Point", "coordinates": [99.0143414, 18.8617693]}, "properties": {"id": "cm-osm-way-385422805", "name": "ตลาดรุ่งเจริญ", "nameTh": "ตลาดรุ่งเจริญ", "nameEn": "Rung Charoen Market", "cat": ["market"], "province": "cm"}}, {"type": "Feature", "geometry": {"type": "Point", "coordinates": [99.0037938, 18.6223016]}, "properties": {"id": "cm-osm-way-541037810", "name": "ตลาดวัดประตูป่า", "nameTh": "ตลาดวัดประตูป่า", "nameEn": "Wat Phratu Pa Market", "cat": ["market"], "province": "cm"}}, {"type": "Feature", "geometry": {"type": "Point", "coordinates": [99.0005254, 18.7902246]}, "properties": {"id": "cm-osm-way-89039067", "name": "ตลาดวโรรส", "nameTh": "ตลาดวโรรส", "nameEn": "Warorot Market", "cat": ["market"], "province": "cm"}}, {"type": "Feature", "geometry": {"type": "Point", "coordinates": [98.9450557, 18.9157086]}, "properties": {"id": "cm-osm-node-2611016355", "name": "ตลาดศรีนวล", "nameTh": "ตลาดศรีนวล", "nameEn": "Si Nuan Market", "cat": ["market"], "province": "cm"}}, {"type": "Feature", "geometry": {"type": "Point", "coordinates": [98.9895614, 18.8371775]}, "properties": {"id": "cm-osm-way-528423923", "name": "ตลาดสด ชุมชนวัดบ้านท่อ", "nameTh": "ตลาดสด ชุมชนวัดบ้านท่อ", "nameEn": "Talatsot Chumchon Wat Ban Tho", "cat": ["market"], "province": "cm"}}, {"type": "Feature", "geometry": {"type": "Point", "coordinates": [99.1243262, 18.885111]}, "properties": {"id": "cm-osm-node-3329495293", "name": "ตลาดสดชุมชน SML กาดลื้อ", "nameTh": "ตลาดสดชุมชน SML กาดลื้อ", "nameEn": "Chumchon SML Kat Lue Freshmarket", "cat": ["market"], "province": "cm"}}, {"type": "Feature", "geometry": {"type": "Point", "coordinates": [98.8215506, 18.600091]}, "properties": {"id": "cm-osm-node-3382919995", "name": "ตลาดสดบ้านกาด(อุ๊ยคำ)", "nameTh": "ตลาดสดบ้านกาด(อุ๊ยคำ)", "nameEn": "Ban Kat Freshmarket", "cat": ["market"], "province": "cm"}}, {"type": "Feature", "geometry": {"type": "Point", "coordinates": [99.1416513, 18.7969977]}, "properties": {"id": "cm-osm-way-313029860", "name": "ตลาดสดบ้านม่วงโตน", "nameTh": "ตลาดสดบ้านม่วงโตน", "nameEn": "Ban Muang Ton Freshmarket", "cat": ["market"], "province": "cm"}}, {"type": "Feature", "geometry": {"type": "Point", "coordinates": [99.0061828, 18.7641634]}, "properties": {"id": "cm-osm-way-121651778", "name": "ตลาดสดหนองหอย", "nameTh": "ตลาดสดหนองหอย", "nameEn": "Nong Hoi Fresh Market", "cat": ["market"], "province": "cm"}}, {"type": "Feature", "geometry": {"type": "Point", "coordinates": [98.9205541, 18.689596]}, "properties": {"id": "cm-osm-way-142599123", "name": "ตลาดสดเทศบาลตำบลหางดง", "nameTh": "ตลาดสดเทศบาลตำบลหางดง", "nameEn": "Hang Dong Freshmarket", "cat": ["market"], "province": "cm"}}, {"type": "Feature", "geometry": {"type": "Point", "coordinates": [98.9419257, 18.7477179]}, "properties": {"id": "cm-osm-way-318022580", "name": "ตลาดสดแม่เหียะ", "nameTh": "ตลาดสดแม่เหียะ", "nameEn": "Mae Hia Fresh Market", "cat": ["market"], "province": "cm"}}, {"type": "Feature", "geometry": {"type": "Point", "coordinates": [99.0054994, 18.9011407]}, "properties": {"id": "cm-osm-way-70257785", "name": "ตลาดสดแม่โจ้", "nameTh": "ตลาดสดแม่โจ้", "nameEn": "Mae Jo Market", "cat": ["market"], "province": "cm"}}, {"type": "Feature", "geometry": {"type": "Point", "coordinates": [99.0278324, 18.8110934]}, "properties": {"id": "cm-osm-way-543610654", "name": "ตลาดสามแยก", "nameTh": "ตลาดสามแยก", "nameEn": "Sam Yaek Market", "cat": ["market"], "province": "cm"}}, {"type": "Feature", "geometry": {"type": "Point", "coordinates": [98.9614025, 18.7902816]}, "properties": {"id": "cm-osm-way-200239783", "name": "ตลาดสุเทพ", "nameTh": "ตลาดสุเทพ", "nameEn": "Suthep Market", "cat": ["market"], "province": "cm"}}, {"type": "Feature", "geometry": {"type": "Point", "coordinates": [99.0015064, 18.7825659]}, "properties": {"id": "cm-osm-way-494956275", "name": "ตลาดอนุสาร", "nameTh": "ตลาดอนุสาร", "nameEn": "Anusarn Market", "cat": ["market"], "province": "cm"}}, {"type": "Feature", "geometry": {"type": "Point", "coordinates": [99.0260672, 18.7639662]}, "properties": {"id": "cm-osm-way-97717415", "name": "ตลาดอ้อมเมือง", "nameTh": "ตลาดอ้อมเมือง", "nameEn": "Om Mueang Market", "cat": ["market"], "province": "cm"}}, {"type": "Feature", "geometry": {"type": "Point", "coordinates": [99.0447639, 18.6967354]}, "properties": {"id": "cm-osm-way-372941082", "name": "ตลาดเก้าแสน", "nameTh": "ตลาดเก้าแสน", "nameEn": "Kao Saen Market", "cat": ["market"], "province": "cm"}}, {"type": "Feature", "geometry": {"type": "Point", "coordinates": [99.0563207, 18.754706]}, "properties": {"id": "cm-osm-way-220573441", "name": "ตลาดเจริญเจริญ", "nameTh": "ตลาดเจริญเจริญ", "nameEn": "Charoen Charoen Market", "cat": ["market"], "province": "cm"}}, {"type": "Feature", "geometry": {"type": "Point", "coordinates": [98.9971829, 18.7964226]}, "properties": {"id": "cm-osm-way-672587611", "name": "ตลาดเมืองสมุทร", "nameTh": "ตลาดเมืองสมุทร", "nameEn": "Mueang Samut Market", "cat": ["market"], "province": "cm"}}, {"type": "Feature", "geometry": {"type": "Point", "coordinates": [98.9982101, 18.7971792]}, "properties": {"id": "cm-osm-way-204243831", "name": "ตลาดเมืองใหม่", "nameTh": "ตลาดเมืองใหม่", "nameEn": "Mueang Mai Market", "cat": ["market"], "province": "cm"}}, {"type": "Feature", "geometry": {"type": "Point", "coordinates": [99.0275768, 18.7840279]}, "properties": {"id": "cm-osm-way-128379672", "name": "ตลาดเอื้องคำ", "nameTh": "ตลาดเอื้องคำ", "nameEn": "Aueng Kam Market", "cat": ["market"], "province": "cm"}}, {"type": "Feature", "geometry": {"type": "Point", "coordinates": [99.052653, 18.8305283]}, "properties": {"id": "cm-osm-way-746278562", "name": "ตลาดแม่กวง", "nameTh": "ตลาดแม่กวง", "nameEn": "Mae Kuang Market", "cat": ["market"], "province": "cm"}}, {"type": "Feature", "geometry": {"type": "Point", "coordinates": [98.9454237, 18.914961]}, "properties": {"id": "cm-osm-way-387748574", "name": "ตลาดแม่ริม", "nameTh": "ตลาดแม่ริม", "nameEn": "Mae Rim Market", "cat": ["market"], "province": "cm"}}, {"type": "Feature", "geometry": {"type": "Point", "coordinates": [98.9427108, 18.9157048]}, "properties": {"id": "cm-osm-way-323622293", "name": "ตลาดแม่ริมพลาช่า", "nameTh": "ตลาดแม่ริมพลาช่า", "nameEn": "Mae Rim Plaza Market", "cat": ["market"], "province": "cm"}}, {"type": "Feature", "geometry": {"type": "Point", "coordinates": [99.0492165, 18.7862233]}, "properties": {"id": "cm-osm-node-10815775054", "name": "ตะกร้าผ้าทอ", "nameTh": "ตะกร้าผ้าทอ", "nameEn": "Chamcha Market", "cat": ["market"], "province": "cm"}}, {"type": "Feature", "geometry": {"type": "Point", "coordinates": [99.0209954, 18.8476047]}, "properties": {"id": "cm-osm-node-1862656722", "name": "ตาลาดถูดอย", "nameTh": "ตาลาดถูดอย", "nameEn": "Phu Doi Market", "cat": ["market"], "province": "cm"}}, {"type": "Feature", "geometry": {"type": "Point", "coordinates": [98.9879876, 18.7882073]}, "properties": {"id": "cm-osm-node-11538579352", "name": "ถนนคนเดินวันอาทิตย์", "nameTh": "ถนนคนเดินวันอาทิตย์", "nameEn": "Sunday Market (Walking Street)", "cat": ["market"], "province": "cm"}}, {"type": "Feature", "geometry": {"type": "Point", "coordinates": [99.0167964, 18.8703303]}, "properties": {"id": "cm-osm-way-317527834", "name": "บุญรักษา", "nameTh": "บุญรักษา", "nameEn": "Bun Raksa", "cat": ["market"], "province": "cm"}}, {"type": "Feature", "geometry": {"type": "Point", "coordinates": [98.9475791, 18.687081]}, "properties": {"id": "cm-osm-node-2055923138", "name": "บ้านถวาย", "nameTh": "บ้านถวาย", "nameEn": "Ban Tawai (wood carving village )", "cat": ["market"], "province": "cm"}}, {"type": "Feature", "geometry": {"type": "Point", "coordinates": [98.9976888, 18.7942554]}, "properties": {"id": "cm-osm-way-201106868", "name": "ลานจอดรถ", "nameTh": "ลานจอดรถ", "nameEn": "Lan Chot Rot", "cat": ["market"], "province": "cm"}}, {"type": "Feature", "geometry": {"type": "Point", "coordinates": [99.0125703, 18.6633051]}, "properties": {"id": "cm-osm-way-480803497", "name": "ศูนย์สาธิตการตลาด", "nameTh": "ศูนย์สาธิตการตลาด", "nameEn": "Sun Sathit Kan Talat", "cat": ["market"], "province": "cm"}}, {"type": "Feature", "geometry": {"type": "Point", "coordinates": [99.0430702, 18.648567]}, "properties": {"id": "cm-osm-way-88518222", "name": "องค์การตลาด", "nameTh": "องค์การตลาด", "nameEn": "The Market Organization", "cat": ["market"], "province": "cm"}}]}