{"type": "FeatureCollection", "features": [{"type": "Feature", "geometry": {"type": "Point", "coordinates": [99.13585, 18.87]}, "properties": {"id": "cm-osm-node-6824463516", "name": "Celapot Gallery", "nameTh": null, "nameEn": "Celapot Gallery", "cat": ["museums-galleries"], "province": "cm", "slug": "celapot-gallery-6824463516", "rank": 3}}, {"type": "Feature", "geometry": {"type": "Point", "coordinates": [98.98647, 18.79024]}, "properties": {"id": "cm-osm-node-4501920590", "name": "Chiang Mai Historical Centre", "nameTh": null, "nameEn": "Chiang Mai Historical Centre", "cat": ["museums-galleries"], "province": "cm", "slug": "chiang-mai-historical-centre-4501920590", "rank": 1}}, {"type": "Feature", "geometry": {"type": "Point", "coordinates": [98.98625, 18.79018]}, "properties": {"id": "cm-osm-node-4750233535", "name": "Chiang Mai Historical Centre", "nameTh": null, "nameEn": "Chiang Mai Historical Centre", "cat": ["museums-galleries"], "province": "cm", "slug": "chiang-mai-historical-centre-4750233535", "rank": 1}}, {"type": "Feature", "geometry": {"type": "Point", "coordinates": [98.98864, 18.78975]}, "properties": {"id": "cm-osm-node-4340850013", "name": "Chiang Mai House of Photography", "nameTh": null, "nameEn": "Chiang Mai House of Photography", "cat": ["museums-galleries"], "province": "cm", "slug": "chiang-mai-house-of-photography-4340850013", "rank": 1}}, {"type": "Feature", "geometry": {"type": "Point", "coordinates": [99.04174, 18.71007]}, "properties": {"id": "cm-osm-node-12508989857", "name": "Collection of vintage railroad warning signs", "nameTh": null, "nameEn": "Collection of vintage railroad warning signs", "cat": ["museums-galleries"], "province": "cm", "slug": "collection-of-vintage-railroad-warning-signs-12508989857", "rank": 1}}, {"type": "Feature", "geometry": {"type": "Point", "coordinates": [99.01269, 18.79749]}, "properties": {"id": "cm-osm-way-842608238", "name": "Dara Academy's Museum", "nameTh": null, "nameEn": "Dara Academy's Museum", "cat": ["museums-galleries"], "province": "cm", "slug": "dara-academy-s-museum-842608238", "rank": 1}}, {"type": "Feature", "geometry": {"type": "Point", "coordinates": [98.93167, 18.92556]}, "properties": {"id": "cm-osm-node-4264568393", "name": "Elephant Poopoopaper Park", "nameTh": null, "nameEn": "Elephant Poopoopaper Park", "cat": ["chang", "museums-galleries"], "province": "cm", "slug": "elephant-poopoopaper-park-4264568393", "rank": 1}}, {"type": "Feature", "geometry": {"type": "Point", "coordinates": [98.83121, 18.85164]}, "properties": {"id": "cm-osm-node-6415559285", "name": "Hmong Culture Museum", "nameTh": null, "nameEn": "Hmong Culture Museum", "cat": ["museums-galleries"], "province": "cm", "slug": "hmong-culture-museum-6415559285", "rank": 1}}, {"type": "Feature", "geometry": {"type": "Point", "coordinates": [98.97323, 18.80509]}, "properties": {"id": "cm-osm-node-3897763600", "name": "Huang Fu Long Chinese Antique Gallery and Tea House", "nameTh": null, "nameEn": "Huang Fu Long Chinese Antique Gallery and Tea House", "cat": ["museums-galleries"], "province": "cm", "slug": "huang-fu-long-chinese-antique-gallery-and-tea-house-3897763600", "rank": 1}}, {"type": "Feature", "geometry": {"type": "Point", "coordinates": [99.00303, 18.78557]}, "properties": {"id": "cm-osm-node-7501338057", "name": "Mai Space", "nameTh": null, "nameEn": "Mai Space", "cat": ["museums-galleries", "sights"], "province": "cm", "slug": "mai-space-7501338057", "rank": 1}}, {"type": "Feature", "geometry": {"type": "Point", "coordinates": [99.09364, 18.75705]}, "properties": {"id": "cm-osm-way-98600701", "name": "Maiiam", "nameTh": null, "nameEn": "Maiiam", "cat": ["museums-galleries"], "province": "cm", "slug": "maiiam-98600701", "rank": 2}}, {"type": "Feature", "geometry": {"type": "Point", "coordinates": [98.85822, 18.8889]}, "properties": {"id": "cm-osm-way-242940502", "name": "Natural Science Museum", "nameTh": null, "nameEn": "Natural Science Museum", "cat": ["museums-galleries"], "province": "cm", "slug": "natural-science-museum-242940502", "rank": 1}}, {"type": "Feature", "geometry": {"type": "Point", "coordinates": [99.00022, 18.78293]}, "properties": {"id": "cm-osm-node-11766693118", "name": "New Regional Art Gallery Ltd.", "nameTh": null, "nameEn": "New Regional Art Gallery Ltd.", "cat": ["museums-galleries", "sights"], "province": "cm", "slug": "new-regional-art-gallery-ltd-11766693118", "rank": 1}}, {"type": "Feature", "geometry": {"type": "Point", "coordinates": [99.00245, 18.78936]}, "properties": {"id": "cm-osm-node-10310670009", "name": "Northern Telecoms of Thailand Museum", "nameTh": null, "nameEn": "Northern Telecoms of Thailand Museum", "cat": ["museums-galleries"], "province": "cm", "slug": "northern-telecoms-of-thailand-museum-10310670009", "rank": 1}}, {"type": "Feature", "geometry": {"type": "Point", "coordinates": [98.99007, 18.79104]}, "properties": {"id": "cm-osm-node-4504459490", "name": "Rungkaew Museum", "nameTh": null, "nameEn": "Rungkaew Museum", "cat": ["museums-galleries"], "province": "cm", "slug": "rungkaew-museum-4504459490", "rank": 1}}, {"type": "Feature", "geometry": {"type": "Point", "coordinates": [98.92251, 18.67566]}, "properties": {"id": "cm-osm-node-12658279552", "name": "Supthongkhum Sr Stidio 3", "nameTh": null, "nameEn": "Supthongkhum Sr Stidio 3", "cat": ["museums-galleries"], "province": "cm", "slug": "supthongkhum-sr-stidio-3-12658279552", "rank": 3}}, {"type": "Feature", "geometry": {"type": "Point", "coordinates": [98.93784, 18.70052]}, "properties": {"id": "cm-osm-node-4921417521", "name": "Supthongkhum Sr-studio 1", "nameTh": null, "nameEn": "Supthongkhum Sr-studio 1", "cat": ["museums-galleries", "sights"], "province": "cm", "slug": "supthongkhum-sr-studio-1-4921417521", "rank": 3}}, {"type": "Feature", "geometry": {"type": "Point", "coordinates": [98.98486, 18.78584]}, "properties": {"id": "cm-osm-node-4358675895", "name": "Surasak Gallery", "nameTh": null, "nameEn": "Surasak Gallery", "cat": ["museums-galleries"], "province": "cm", "slug": "surasak-gallery-4358675895", "rank": 1}}, {"type": "Feature", "geometry": {"type": "Point", "coordinates": [98.97558, 18.79742]}, "properties": {"id": "cm-osm-node-3304357654", "name": "Suvannabhumi Art Gallery", "nameTh": null, "nameEn": "Suvannabhumi Art Gallery", "cat": ["museums-galleries", "sights"], "province": "cm", "slug": "suvannabhumi-art-gallery-3304357654", "rank": 2}}, {"type": "Feature", "geometry": {"type": "Point", "coordinates": [98.98735, 18.73238]}, "properties": {"id": "cm-osm-way-404494085", "name": "The Centennial Museum", "nameTh": null, "nameEn": "The Centennial Museum", "cat": ["museums-galleries"], "province": "cm", "slug": "the-centennial-museum-404494085", "rank": 1}}, {"type": "Feature", "geometry": {"type": "Point", "coordinates": [98.83251, 18.66252]}, "properties": {"id": "cm-osm-node-5377544122", "name": "The Land Foundation", "nameTh": null, "nameEn": "The Land Foundation", "cat": ["museums-galleries"], "province": "cm", "slug": "the-land-foundation-5377544122", "rank": 1}}, {"type": "Feature", "geometry": {"type": "Point", "coordinates": [98.97338, 18.82003]}, "properties": {"id": "cm-osm-node-5543990623", "name": "Tribal village museum", "nameTh": null, "nameEn": "Tribal village museum", "cat": ["museums-galleries"], "province": "cm", "slug": "tribal-village-museum-5543990623", "rank": 1}}, {"type": "Feature", "geometry": {"type": "Point", "coordinates": [98.97682, 18.88004]}, "properties": {"id": "cm-osm-way-1449565979", "name": "Wanlop Hansunthai Gallery", "nameTh": null, "nameEn": "Wanlop Hansunthai Gallery", "cat": ["museums-galleries", "sights"], "province": "cm", "slug": "wanlop-hansunthai-gallery-1449565979", "rank": 1}}, {"type": "Feature", "geometry": {"type": "Point", "coordinates": [98.95497, 18.78496]}, "properties": {"id": "cm-osm-node-4864016110", "name": "Wattana Art Gallery", "nameTh": null, "nameEn": "Wattana Art Gallery", "cat": ["museums-galleries", "sights"], "province": "cm", "slug": "wattana-art-gallery-4864016110", "rank": 2}}, {"type": "Feature", "geometry": {"type": "Point", "coordinates": [98.98832, 18.7879]}, "properties": {"id": "cm-osm-node-5988609528", "name": "คุ้มเจ้าบุรีรัตน์", "nameTh": "คุ้มเจ้าบุรีรัตน์", "nameEn": "Khum Chao Burirat House", "cat": ["museums-galleries"], "province": "cm", "slug": "khum-chao-burirat-house-5988609528", "rank": 4}}, {"type": "Feature", "geometry": {"type": "Point", "coordinates": [98.90463, 18.65103]}, "properties": {"id": "cm-osm-node-13299514830", "name": "บ้าน 100 อัน 1000 อย่าง", "nameTh": "บ้าน 100 อัน 1000 อย่าง", "nameEn": "Ban Roi An Phan Yang", "cat": ["museums-galleries"], "province": "cm", "slug": "ban-roi-an-phan-yang-13299514830", "rank": 3}}, {"type": "Feature", "geometry": {"type": "Point", "coordinates": [98.91508, 18.91931]}, "properties": {"id": "cm-osm-node-3340144765", "name": "บ้านคำอูน", "nameTh": "บ้านคำอูน", "nameEn": "Chateau Kum-Une Art Museum", "cat": ["museums-galleries"], "province": "cm", "slug": "chateau-kum-une-art-museum-3340144765", "rank": 2}}, {"type": "Feature", "geometry": {"type": "Point", "coordinates": [99.11635, 18.72257]}, "properties": {"id": "cm-osm-node-884205644", "name": "บ้านจ๊างนัก", "nameTh": "บ้านจ๊างนัก", "nameEn": "Baan Jang Nak", "cat": ["museums-galleries"], "province": "cm", "slug": "baan-jang-nak-884205644", "rank": 3}}, {"type": "Feature", "geometry": {"type": "Point", "coordinates": [98.9814, 18.82177]}, "properties": {"id": "cm-osm-way-103286175", "name": "พิพิธภัณฑ์ ธนาคารแห่งประเทศไทย", "nameTh": "พิพิธภัณฑ์ ธนาคารแห่งประเทศไทย", "nameEn": "Bank of Thailand Museum", "cat": ["museums-galleries"], "province": "cm", "slug": "bank-of-thailand-museum-103286175", "rank": 3}}, {"type": "Feature", "geometry": {"type": "Point", "coordinates": [99.09999, 18.88283]}, "properties": {"id": "cm-osm-node-4670189893", "name": "พิพิธภัณฑ์ วัดร้องเม็ง", "nameTh": "พิพิธภัณฑ์ วัดร้องเม็ง", "nameEn": "Wat Rong Meng Museum", "cat": ["museums-galleries"], "province": "cm", "slug": "wat-rong-meng-museum-4670189893", "rank": 2}}, {"type": "Feature", "geometry": {"type": "Point", "coordinates": [99.00204, 18.78919]}, "properties": {"id": "cm-osm-node-2638516614", "name": "พิพิธภัณฑ์ตราไปรษณียากร เชียงใหม่", "nameTh": "พิพิธภัณฑ์ตราไปรษณียากร เชียงใหม่", "nameEn": "Chiang Mai Philatelic Museum", "cat": ["museums-galleries"], "province": "cm", "slug": "chiang-mai-philatelic-museum-2638516614", "rank": 3}}, {"type": "Feature", "geometry": {"type": "Point", "coordinates": [98.94221, 18.91285]}, "properties": {"id": "cm-osm-way-251722572", "name": "พิพิธภัณฑ์พระตำหนักดาราภิรมย์ จุฬาลงกรณ์มหาวิทยาลัย", "nameTh": "พิพิธภัณฑ์พระตำหนักดาราภิรมย์ จุฬาลงกรณ์มหาวิทยาลัย", "nameEn": "Dara Phirom Palace Museum", "cat": ["museums-galleries"], "province": "cm", "slug": "dara-phirom-palace-museum-251722572", "rank": 3}}, {"type": "Feature", "geometry": {"type": "Point", "coordinates": [98.98841, 18.79023]}, "properties": {"id": "cm-osm-way-261338789", "name": "พิพิธภัณฑ์พื้นถิ่นล้านนา", "nameTh": "พิพิธภัณฑ์พื้นถิ่นล้านนา", "nameEn": "Lanna Folklife Museum", "cat": ["museums-galleries"], "province": "cm", "slug": "lanna-folklife-museum-261338789", "rank": 3}}, {"type": "Feature", "geometry": {"type": "Point", "coordinates": [99.00265, 18.79274]}, "properties": {"id": "cm-osm-way-255987532", "name": "พิพิธภัณฑ์วัดเกตการาม", "nameTh": "พิพิธภัณฑ์วัดเกตการาม", "nameEn": "Wat Ket karam museum", "cat": ["museums-galleries"], "province": "cm", "slug": "wat-ket-karam-museum-255987532", "rank": 2}}, {"type": "Feature", "geometry": {"type": "Point", "coordinates": [98.88432, 18.81639]}, "properties": {"id": "cm-osm-node-1289896144", "name": "พิพิธภัณฑ์หมู่บ้านชาวเขา", "nameTh": "พิพิธภัณฑ์หมู่บ้านชาวเขา", "nameEn": "Hill Tribes Village Museum", "cat": ["museums-galleries"], "province": "cm", "slug": "hill-tribes-village-museum-1289896144", "rank": 2}}, {"type": "Feature", "geometry": {"type": "Point", "coordinates": [98.97471, 18.82144]}, "properties": {"id": "cm-osm-way-243766515", "name": "พิพิธภัณฑ์เรียนรู้ราษฎรบนพื้นที่สูง", "nameTh": "พิพิธภัณฑ์เรียนรู้ราษฎรบนพื้นที่สูง", "nameEn": "Highland People Discovery Museum", "cat": ["museums-galleries"], "province": "cm", "slug": "highland-people-discovery-museum-243766515", "rank": 3}}, {"type": "Feature", "geometry": {"type": "Point", "coordinates": [98.96169, 18.79166]}, "properties": {"id": "cm-osm-way-734843630", "name": "พิพิธภัณฑ์เรือนโบราณล้านนา มช.", "nameTh": "พิพิธภัณฑ์เรือนโบราณล้านนา มช.", "nameEn": "Lanna Traditional House Museum CMU.", "cat": ["museums-galleries"], "province": "cm", "slug": "lanna-traditional-house-museum-cmu-734843630", "rank": 3}}, {"type": "Feature", "geometry": {"type": "Point", "coordinates": [98.97064, 18.79613]}, "properties": {"id": "cm-osm-way-481787812", "name": "พิพิธภัณฑ์แมลงโลกและสิ่งมหัศจรรย์ธรรมชาติ", "nameTh": "พิพิธภัณฑ์แมลงโลกและสิ่งมหัศจรรย์ธรรมชาติ", "nameEn": "Museum of World Insects and Natural Wonders", "cat": ["museums-galleries"], "province": "cm", "slug": "museum-of-world-insects-and-natural-wonders-481787812", "rank": 5}}, {"type": "Feature", "geometry": {"type": "Point", "coordinates": [98.97642, 18.81161]}, "properties": {"id": "cm-osm-way-200414775", "name": "พิพิธภัณฑ์แห่งชาติ จังหวัดเชียงใหม่", "nameTh": "พิพิธภัณฑ์แห่งชาติ จังหวัดเชียงใหม่", "nameEn": "Chiang Mai National Museum", "cat": ["museums-galleries"], "province": "cm", "slug": "chiang-mai-national-museum-200414775", "rank": 5}}, {"type": "Feature", "geometry": {"type": "Point", "coordinates": [99.12374, 18.88343]}, "properties": {"id": "cm-osm-node-12710137307", "name": "ศูนย์การเรียนรู้ภูมิปัญญาไทยไตลื้อ บ้านใบบุญ", "nameTh": "ศูนย์การเรียนรู้ภูมิปัญญาไทยไตลื้อ บ้านใบบุญ", "nameEn": null, "cat": ["museums-galleries"], "province": "cm", "slug": "12710137307", "rank": 3}}, {"type": "Feature", "geometry": {"type": "Point", "coordinates": [98.98684, 18.78759]}, "properties": {"id": "cm-osm-node-1614993559", "name": "หอธรรม และพิพิธภัณฑ์วัดเจดีย์หลวง", "nameTh": "หอธรรม และพิพิธภัณฑ์วัดเจดีย์หลวง", "nameEn": "Buddhist Manuscript Library and Museum", "cat": ["museums-galleries"], "province": "cm", "slug": "buddhist-manuscript-library-and-museum-1614993559", "rank": 2}}, {"type": "Feature", "geometry": {"type": "Point", "coordinates": [98.96325, 18.79153]}, "properties": {"id": "cm-osm-way-297682420", "name": "หอนิทรรศการศิลปวัฒนธรรม มหาวิทยาลัยเชียงใหม่", "nameTh": "หอนิทรรศการศิลปวัฒนธรรม มหาวิทยาลัยเชียงใหม่", "nameEn": "Art Center Chiang Mai University", "cat": ["museums-galleries"], "province": "cm", "slug": "art-center-chiang-mai-university-297682420", "rank": 2}}, {"type": "Feature", "geometry": {"type": "Point", "coordinates": [98.98688, 18.79023]}, "properties": {"id": "cm-osm-relation-17998804", "name": "หอศิลปวัฒนธรรมเมืองเชียงใหม่", "nameTh": "หอศิลปวัฒนธรรมเมืองเชียงใหม่", "nameEn": "Chiang Mai City Art & Cultural Center", "cat": ["museums-galleries"], "province": "cm", "slug": "chiang-mai-city-art-cultural-center-17998804", "rank": 5}}, {"type": "Feature", "geometry": {"type": "Point", "coordinates": [98.99334, 18.68757]}, "properties": {"id": "cm-osm-way-802360928", "name": "หอศิลป์เทา", "nameTh": "หอศิลป์เทา", "nameEn": "Hall Zinthao", "cat": ["museums-galleries", "sights"], "province": "cm", "slug": "hall-zinthao-802360928", "rank": 2}}, {"type": "Feature", "geometry": {"type": "Point", "coordinates": [99.04314, 18.78007]}, "properties": {"id": "cm-osm-node-10806603405", "name": "อาร์ต อิน พาราไดซ์ เชียงใหม่", "nameTh": "อาร์ต อิน พาราไดซ์ เชียงใหม่", "nameEn": "Art in Paradise real location", "cat": ["museums-galleries"], "province": "cm", "slug": "art-in-paradise-real-location-10806603405", "rank": 4}}]}