{"type": "FeatureCollection", "features": [{"type": "Feature", "geometry": {"type": "Point", "coordinates": [98.9979, 18.71479]}, "properties": {"id": "cm-osm-node-13392625201", "name": "Boon Lanna Muay Thay Boxing Camp", "nameTh": null, "nameEn": "Boon Lanna Muay Thay Boxing Camp", "cat": ["muaythai", "school"], "province": "cm", "slug": "boon-lanna-muay-thay-boxing-camp-13392625201", "rank": 4}}, {"type": "Feature", "geometry": {"type": "Point", "coordinates": [99.01235, 19.20066]}, "properties": {"id": "cm-osm-way-846138300", "name": "Buakaw Banchamek Muay Thai Gym", "nameTh": null, "nameEn": "Buakaw Banchamek Muay Thai Gym", "cat": ["muaythai", "school"], "province": "cm", "slug": "buakaw-banchamek-muay-thai-gym-846138300", "rank": 1}}, {"type": "Feature", "geometry": {"type": "Point", "coordinates": [99.02051, 18.81902]}, "properties": {"id": "cm-osm-way-1113305906", "name": "CNX Boxing", "nameTh": null, "nameEn": "CNX Boxing", "cat": ["learn", "muaythai"], "province": "cm", "slug": "cnx-boxing-1113305906", "rank": 1}}, {"type": "Feature", "geometry": {"type": "Point", "coordinates": [98.95726, 18.78376]}, "properties": {"id": "cm-osm-node-9430506618", "name": "Heavy Hit Boxing Gym", "nameTh": null, "nameEn": "Heavy Hit Boxing", "cat": ["muaythai", "school"], "province": "cm", "slug": "heavy-hit-boxing-9430506618", "rank": 3}}, {"type": "Feature", "geometry": {"type": "Point", "coordinates": [99.03385, 18.77712]}, "properties": {"id": "cm-osm-node-6110434687", "name": "Hong Thong Muay Thai", "nameTh": null, "nameEn": "Hong Thong Muay Thai", "cat": ["learn", "muaythai"], "province": "cm", "slug": "hong-thong-muay-thai-6110434687", "rank": 2}}, {"type": "Feature", "geometry": {"type": "Point", "coordinates": [98.97825, 18.80796]}, "properties": {"id": "cm-osm-way-523154439", "name": "Hug Gym Fitness & Boxing", "nameTh": null, "nameEn": "Hug Gym Fitness & Boxing", "cat": ["learn", "muaythai"], "province": "cm", "slug": "hug-gym-fitness-boxing-523154439", "rank": 4}}, {"type": "Feature", "geometry": {"type": "Point", "coordinates": [99.00958, 18.7848]}, "properties": {"id": "cm-osm-node-2726547911", "name": "Kawila Boxing Stadium", "nameTh": null, "nameEn": "Kawila Boxing Stadium", "cat": ["muaythai", "school"], "province": "cm", "slug": "kawila-boxing-stadium-2726547911", "rank": 1}}, {"type": "Feature", "geometry": {"type": "Point", "coordinates": [98.95979, 18.80939]}, "properties": {"id": "cm-osm-node-4497798295", "name": "Lanna Muay Thai", "nameTh": null, "nameEn": "Lanna Muay Thai", "cat": ["muaythai", "school"], "province": "cm", "slug": "lanna-muay-thai-4497798295", "rank": 1}}, {"type": "Feature", "geometry": {"type": "Point", "coordinates": [98.95945, 18.80965]}, "properties": {"id": "cm-osm-way-452420473", "name": "Lanna Muay Thai Boxing Camp", "nameTh": null, "nameEn": "Lanna Muay Thai Boxing Camp", "cat": ["muaythai", "school"], "province": "cm", "slug": "lanna-muay-thai-boxing-camp-452420473", "rank": 2}}, {"type": "Feature", "geometry": {"type": "Point", "coordinates": [98.99685, 18.78275]}, "properties": {"id": "cm-curated-loikroh-boxing-stadium", "name": "Loi Kroh Boxing Stadium", "nameTh": "สนามมวยลอยเคราะห์", "nameEn": "Loi Kroh Boxing Stadium", "cat": ["muaythai"], "province": "cm", "slug": "loi-kroh-boxing-stadium-cmcuratedloikrohboxingstadium", "rank": 6}}, {"type": "Feature", "geometry": {"type": "Point", "coordinates": [98.99205, 18.77307]}, "properties": {"id": "cm-osm-node-4856648622", "name": "Por Silaphai Muay Thai Gym", "nameTh": null, "nameEn": "Por Silaphai Muay Thai Gym", "cat": ["learn", "muaythai"], "province": "cm", "slug": "por-silaphai-muay-thai-gym-4856648622", "rank": 1}}, {"type": "Feature", "geometry": {"type": "Point", "coordinates": [99.11275, 18.74437]}, "properties": {"id": "cm-osm-node-7062102385", "name": "Santai Muay Thai", "nameTh": null, "nameEn": "Santai Muay Thai", "cat": ["learn", "muaythai"], "province": "cm", "slug": "santai-muay-thai-7062102385", "rank": 1}}, {"type": "Feature", "geometry": {"type": "Point", "coordinates": [98.97888, 18.79503]}, "properties": {"id": "cm-osm-node-11936184293", "name": "Sting Hive Muay Thai Gym", "nameTh": null, "nameEn": "Sting Hive Muay Thai Gym", "cat": ["muaythai", "school"], "province": "cm", "slug": "sting-hive-muay-thai-gym-11936184293", "rank": 2}}, {"type": "Feature", "geometry": {"type": "Point", "coordinates": [98.98086, 18.78114]}, "properties": {"id": "cm-osm-node-9331216417", "name": "Stingclub", "nameTh": "ค่ายมวยไทย สติง คลับ", "nameEn": "Stingclub", "cat": ["learn", "muaythai"], "province": "cm", "slug": "stingclub-9331216417", "rank": 3}}, {"type": "Feature", "geometry": {"type": "Point", "coordinates": [98.99327, 18.78776]}, "properties": {"id": "cm-curated-thaphae-boxing-stadium", "name": "Thaphae Boxing Stadium", "nameTh": "สนามมวยท่าแพ", "nameEn": "Thaphae Boxing Stadium", "cat": ["muaythai"], "province": "cm", "slug": "thaphae-boxing-stadium-cmcuratedthaphaeboxingstadium", "rank": 6}}, {"type": "Feature", "geometry": {"type": "Point", "coordinates": [98.99607, 18.7882]}, "properties": {"id": "cm-osm-node-12339355501", "name": "Thaphae Muay Thai", "nameTh": null, "nameEn": "Thaphae Muay Thai", "cat": ["muaythai", "school"], "province": "cm", "slug": "thaphae-muay-thai-12339355501", "rank": 1}}, {"type": "Feature", "geometry": {"type": "Point", "coordinates": [98.9355, 18.73687]}, "properties": {"id": "cm-osm-node-10128035418", "name": "The Camp Muay Thai", "nameTh": "The Camp Muay Thai Resort & Academy", "nameEn": null, "cat": ["muaythai", "school"], "province": "cm", "slug": "the-camp-muay-thai-resort-academy-10128035418", "rank": 3}}, {"type": "Feature", "geometry": {"type": "Point", "coordinates": [98.95006, 18.73196]}, "properties": {"id": "cm-osm-node-12338688901", "name": "Wildcat Muay Thai", "nameTh": null, "nameEn": "Wildcat Muay Thai", "cat": ["muaythai", "school"], "province": "cm", "slug": "wildcat-muay-thai-12338688901", "rank": 1}}, {"type": "Feature", "geometry": {"type": "Point", "coordinates": [98.94889, 18.76231]}, "properties": {"id": "cm-osm-node-9281934917", "name": "Wildcat Muay Thai", "nameTh": null, "nameEn": "Wildcat Muay Thai", "cat": ["muaythai", "school"], "province": "cm", "slug": "wildcat-muay-thai-9281934917", "rank": 3}}, {"type": "Feature", "geometry": {"type": "Point", "coordinates": [98.72081, 19.37916]}, "properties": {"id": "cm-osm-node-9348144119", "name": "ค่ายมวย สิงห์คำ", "nameTh": "ค่ายมวย สิงห์คำ", "nameEn": "Singhakam boxing gym", "cat": ["muaythai", "school"], "province": "cm", "slug": "singhakam-boxing-gym-9348144119", "rank": 2}}, {"type": "Feature", "geometry": {"type": "Point", "coordinates": [98.82157, 18.92436]}, "properties": {"id": "cm-osm-node-2556168468", "name": "มวยไทยเม้าท์เท็นแค้มป์", "nameTh": "มวยไทยเม้าท์เท็นแค้มป์", "nameEn": "Muay Thai Mountain Camp", "cat": ["muaythai", "school"], "province": "cm", "slug": "muay-thai-mountain-camp-2556168468", "rank": 2}}]}