{"type": "FeatureCollection", "features": [{"type": "Feature", "geometry": {"type": "Point", "coordinates": [98.9882813, 18.7996057]}, "properties": {"id": "cm-osm-node-12543957801", "name": "ASIAN LIVESTOCK, Pet food retailer", "nameTh": null, "nameEn": "ASIAN LIVESTOCK, Pet food retailer", "cat": ["pets"], "province": "cm"}}, {"type": "Feature", "geometry": {"type": "Point", "coordinates": [98.9416687, 18.7587175]}, "properties": {"id": "cm-osm-node-2934994596", "name": "Animal Laboratory", "nameTh": null, "nameEn": "Animal Laboratory", "cat": ["pets"], "province": "cm"}}, {"type": "Feature", "geometry": {"type": "Point", "coordinates": [99.0633015, 18.8001054]}, "properties": {"id": "cm-osm-node-9054969790", "name": "Baan Hug Sud Clinic", "nameTh": null, "nameEn": "Baan Hug Sud Clinic", "cat": ["pets"], "province": "cm"}}, {"type": "Feature", "geometry": {"type": "Point", "coordinates": [99.0091577, 18.7763364]}, "properties": {"id": "cm-osm-node-3326560607", "name": "Ban Lovebirds Chiang Mai", "nameTh": null, "nameEn": "Ban Lovebirds Chiang Mai", "cat": ["pets"], "province": "cm"}}, {"type": "Feature", "geometry": {"type": "Point", "coordinates": [98.9922182, 18.7645955]}, "properties": {"id": "cm-osm-node-3755679508", "name": "Ban Mha Ka Maew Animal Hospital", "nameTh": null, "nameEn": "Ban Mha Ka Maew Animal Hospital", "cat": ["pets"], "province": "cm"}}, {"type": "Feature", "geometry": {"type": "Point", "coordinates": [98.9401358, 18.9817232]}, "properties": {"id": "cm-osm-node-8871158118", "name": "Coco House", "nameTh": null, "nameEn": "Coco House Dog & Cat Hotel", "cat": ["pets"], "province": "cm"}}, {"type": "Feature", "geometry": {"type": "Point", "coordinates": [99.0828912, 18.7400512]}, "properties": {"id": "cm-osm-node-2308048417", "name": "Dog Zone", "nameTh": null, "nameEn": "Dog Zone", "cat": ["pets"], "province": "cm"}}, {"type": "Feature", "geometry": {"type": "Point", "coordinates": [98.9668476, 18.8673337]}, "properties": {"id": "cm-osm-way-1241240521", "name": "Don Kaew Animal Hospital", "nameTh": null, "nameEn": "Don Kaew Animal Hospital", "cat": ["pets"], "province": "cm"}}, {"type": "Feature", "geometry": {"type": "Point", "coordinates": [99.0328701, 18.8146201]}, "properties": {"id": "cm-osm-node-12237449534", "name": "Jer High Pet supplies", "nameTh": null, "nameEn": "Jer High Pet supplies", "cat": ["pets"], "province": "cm"}}, {"type": "Feature", "geometry": {"type": "Point", "coordinates": [99.1211907, 18.7435765]}, "properties": {"id": "cm-osm-node-1508532659", "name": "Jing-Jai Pet Clinic", "nameTh": null, "nameEn": "Jing-Jai Pet Clinic", "cat": ["pets"], "province": "cm"}}, {"type": "Feature", "geometry": {"type": "Point", "coordinates": [99.0382113, 18.7810127]}, "properties": {"id": "cm-osm-node-1360091096", "name": "Karun Animal Clinic", "nameTh": null, "nameEn": "Karun Animal Clinic", "cat": ["pets"], "province": "cm"}}, {"type": "Feature", "geometry": {"type": "Point", "coordinates": [99.0102185, 18.8242191]}, "properties": {"id": "cm-osm-node-2147741862", "name": "Mee Chok Vet Clinic", "nameTh": null, "nameEn": "Mee Chok Vet Clinic", "cat": ["pets"], "province": "cm"}}, {"type": "Feature", "geometry": {"type": "Point", "coordinates": [98.9402126, 18.7229211]}, "properties": {"id": "cm-osm-node-10866745554", "name": "Mimon Grooming and Hotel for Cat อาบน้ำตัดขนแมว โรงแรมแมว เชียงใหม่", "nameTh": "Mimon Grooming and Hotel for Cat อาบน้ำตัดขนแมว โรงแรมแมว เชียงใหม่", "nameEn": null, "cat": ["pets"], "province": "cm"}}, {"type": "Feature", "geometry": {"type": "Point", "coordinates": [99.0239486, 18.8412957]}, "properties": {"id": "cm-osm-way-1110949520", "name": "NJ Animal Hospital", "nameTh": null, "nameEn": "NJ Animal Hospital", "cat": ["pets"], "province": "cm"}}, {"type": "Feature", "geometry": {"type": "Point", "coordinates": [98.9725525, 18.8036048]}, "properties": {"id": "cm-osm-node-3311222393", "name": "Pet Garden", "nameTh": null, "nameEn": "Pet Garden", "cat": ["pets"], "province": "cm"}}, {"type": "Feature", "geometry": {"type": "Point", "coordinates": [99.0828174, 18.7399268]}, "properties": {"id": "cm-osm-node-2308048650", "name": "Pet We Care", "nameTh": null, "nameEn": "Pet We Care", "cat": ["pets"], "province": "cm"}}, {"type": "Feature", "geometry": {"type": "Point", "coordinates": [98.9370673, 18.7411125]}, "properties": {"id": "cm-osm-node-5424303264", "name": "Petmart Chiangmai", "nameTh": null, "nameEn": "Petmart Chiangmai", "cat": ["pets"], "province": "cm"}}, {"type": "Feature", "geometry": {"type": "Point", "coordinates": [99.0140859, 18.8561695]}, "properties": {"id": "cm-osm-node-13366667377", "name": "Petpro", "nameTh": null, "nameEn": "Petpro", "cat": ["pets"], "province": "cm"}}, {"type": "Feature", "geometry": {"type": "Point", "coordinates": [99.0148433, 18.856857]}, "properties": {"id": "cm-osm-node-4595239190", "name": "Pets2Care", "nameTh": null, "nameEn": "Pets2Care", "cat": ["pets"], "province": "cm"}}, {"type": "Feature", "geometry": {"type": "Point", "coordinates": [98.9401719, 18.7429579]}, "properties": {"id": "cm-osm-node-2094920947", "name": "Ratchapreuk Pet Clinic", "nameTh": null, "nameEn": "Ratchapreuk Pet Clinic", "cat": ["pets"], "province": "cm"}}, {"type": "Feature", "geometry": {"type": "Point", "coordinates": [99.0801748, 18.7630009]}, "properties": {"id": "cm-osm-node-12796912976", "name": "San Kamphaeng Animal Hospital", "nameTh": null, "nameEn": "San Kamphaeng Animal Hospital", "cat": ["pets"], "province": "cm"}}, {"type": "Feature", "geometry": {"type": "Point", "coordinates": [99.0076304, 18.7855718]}, "properties": {"id": "cm-osm-node-10227026917", "name": "San Pa Khoi pet clinic", "nameTh": null, "nameEn": "San Pa Khoi pet clinic", "cat": ["pets"], "province": "cm"}}, {"type": "Feature", "geometry": {"type": "Point", "coordinates": [98.995901, 18.8080467]}, "properties": {"id": "cm-osm-node-11622003082", "name": "Shogun Farm", "nameTh": null, "nameEn": "Shogun Farm", "cat": ["pets"], "province": "cm"}}, {"type": "Feature", "geometry": {"type": "Point", "coordinates": [99.0740951, 18.6820694]}, "properties": {"id": "cm-osm-node-3731572084", "name": "Siam Thailand Dog", "nameTh": null, "nameEn": "Siam Thailand Dog", "cat": ["pets"], "province": "cm"}}, {"type": "Feature", "geometry": {"type": "Point", "coordinates": [98.9820809, 18.7851461]}, "properties": {"id": "cm-osm-node-3384119225", "name": "Supachai Veterninar Clinic", "nameTh": null, "nameEn": "Supachai Veterninar Clinic", "cat": ["pets"], "province": "cm"}}, {"type": "Feature", "geometry": {"type": "Point", "coordinates": [99.0088071, 18.7526965]}, "properties": {"id": "cm-osm-node-1441783408", "name": "Tonyang Animal Hospital", "nameTh": null, "nameEn": "Tonyang Animal Hospital", "cat": ["pets"], "province": "cm"}}, {"type": "Feature", "geometry": {"type": "Point", "coordinates": [99.0118151, 18.8910151]}, "properties": {"id": "cm-osm-node-2600986660", "name": "คลินิก สัตว์เลี้ยงแม่โจ้", "nameTh": "คลินิก สัตว์เลี้ยงแม่โจ้", "nameEn": "Satleang Maejo Animal Clinic", "cat": ["pets"], "province": "cm"}}, {"type": "Feature", "geometry": {"type": "Point", "coordinates": [99.0245032, 18.7634053]}, "properties": {"id": "cm-osm-node-3020442320", "name": "คลินิกสัตว์ดอนจั่น", "nameTh": "คลินิกสัตว์ดอนจั่น", "nameEn": "Animal Clinic Donchan", "cat": ["pets"], "province": "cm"}}, {"type": "Feature", "geometry": {"type": "Point", "coordinates": [98.9981075, 18.9156295]}, "properties": {"id": "cm-osm-node-3341016545", "name": "คลินิกหมอศิวารักษาสัตว์", "nameTh": "คลินิกหมอศิวารักษาสัตว์", "nameEn": null, "cat": ["pets"], "province": "cm"}}, {"type": "Feature", "geometry": {"type": "Point", "coordinates": [99.1362591, 18.8694473]}, "properties": {"id": "cm-osm-node-4542031826", "name": "คลีนิค หมอก้อยรักษาสัตว์", "nameTh": "คลีนิค หมอก้อยรักษาสัตว์", "nameEn": null, "cat": ["pets"], "province": "cm"}}, {"type": "Feature", "geometry": {"type": "Point", "coordinates": [98.9858477, 18.8024335]}, "properties": {"id": "cm-osm-node-3298097235", "name": "ช้างเผือก สัตวแพทย์", "nameTh": "ช้างเผือก สัตวแพทย์", "nameEn": null, "cat": ["pets"], "province": "cm"}}, {"type": "Feature", "geometry": {"type": "Point", "coordinates": [99.0246047, 18.8085908]}, "properties": {"id": "cm-osm-node-6592060085", "name": "น้ำปิงปศุสัตว์", "nameTh": "น้ำปิงปศุสัตว์", "nameEn": null, "cat": ["pets"], "province": "cm"}}, {"type": "Feature", "geometry": {"type": "Point", "coordinates": [99.0085963, 18.7897006]}, "properties": {"id": "cm-osm-node-4584123370", "name": "บำรุงราษฎร์ สัตวแพทย์", "nameTh": "บำรุงราษฎร์ สัตวแพทย์", "nameEn": "Bamrung Rat Veterinary", "cat": ["pets"], "province": "cm"}}, {"type": "Feature", "geometry": {"type": "Point", "coordinates": [99.1246324, 18.7418318]}, "properties": {"id": "cm-osm-node-2634258368", "name": "ปศุสัตว์เวชการ", "nameTh": "ปศุสัตว์เวชการ", "nameEn": null, "cat": ["pets"], "province": "cm"}}, {"type": "Feature", "geometry": {"type": "Point", "coordinates": [98.9534605, 18.7347268]}, "properties": {"id": "cm-osm-node-2600161909", "name": "รักษานานาสัตว์", "nameTh": "รักษานานาสัตว์", "nameEn": "Nana Animal Clinic", "cat": ["pets"], "province": "cm"}}, {"type": "Feature", "geometry": {"type": "Point", "coordinates": [98.9994581, 18.7794286]}, "properties": {"id": "cm-osm-node-4834718721", "name": "สัตวแพทย์คลินิก", "nameTh": "สัตวแพทย์คลินิก", "nameEn": "Veterinary Clinic", "cat": ["pets"], "province": "cm"}}, {"type": "Feature", "geometry": {"type": "Point", "coordinates": [98.9444917, 18.7207761]}, "properties": {"id": "cm-osm-node-4383027789", "name": "สันป่าสักยาสัตว์", "nameTh": "สันป่าสักยาสัตว์", "nameEn": null, "cat": ["pets"], "province": "cm"}}, {"type": "Feature", "geometry": {"type": "Point", "coordinates": [99.0294395, 18.8119617]}, "properties": {"id": "cm-osm-node-4594662438", "name": "หางกระดิก", "nameTh": "หางกระดิก", "nameEn": "Hang Kradik", "cat": ["pets"], "province": "cm"}}, {"type": "Feature", "geometry": {"type": "Point", "coordinates": [98.9406593, 18.749499]}, "properties": {"id": "cm-osm-node-3419876094", "name": "อุ่นรักสัตวแพทย์", "nameTh": "อุ่นรักสัตวแพทย์", "nameEn": "Unrak Veterinary", "cat": ["pets"], "province": "cm"}}, {"type": "Feature", "geometry": {"type": "Point", "coordinates": [99.0497669, 18.7783951]}, "properties": {"id": "cm-osm-node-4557813333", "name": "อุ่นใจรักษ์สัตว์", "nameTh": "อุ่นใจรักษ์สัตว์", "nameEn": "Oon-Jai", "cat": ["pets"], "province": "cm"}}, {"type": "Feature", "geometry": {"type": "Point", "coordinates": [99.0244278, 18.7633734]}, "properties": {"id": "cm-osm-node-3020442321", "name": "เบสท์ เพ็ทช็อป", "nameTh": "เบสท์ เพ็ทช็อป", "nameEn": "Best Pet Shop", "cat": ["pets"], "province": "cm"}}, {"type": "Feature", "geometry": {"type": "Point", "coordinates": [99.0414344, 18.8327475]}, "properties": {"id": "cm-osm-node-3341023584", "name": "เพื่อนสี่ขาสัตวแพทย์", "nameTh": "เพื่อนสี่ขาสัตวแพทย์", "nameEn": null, "cat": ["pets"], "province": "cm"}}, {"type": "Feature", "geometry": {"type": "Point", "coordinates": [98.9834163, 18.9663057]}, "properties": {"id": "cm-osm-node-4438398996", "name": "แม่แฝกใหม่สัตวแพทย์", "nameTh": "แม่แฝกใหม่สัตวแพทย์", "nameEn": "Mae Faek Mai", "cat": ["pets"], "province": "cm"}}, {"type": "Feature", "geometry": {"type": "Point", "coordinates": [98.9426772, 18.7295555]}, "properties": {"id": "cm-osm-node-8855843883", "name": "โรงพยาบาล รักษานานาสัตว์", "nameTh": "โรงพยาบาล รักษานานาสัตว์", "nameEn": "Nana Animal Hospital", "cat": ["pets"], "province": "cm"}}, {"type": "Feature", "geometry": {"type": "Point", "coordinates": [98.9777358, 18.8403314]}, "properties": {"id": "cm-osm-node-8586533311", "name": "โรงพยาบาล เอ็นดูรักษาสัตว์", "nameTh": "โรงพยาบาล เอ็นดูรักษาสัตว์", "nameEn": "N-do Animal Hospital", "cat": ["pets"], "province": "cm"}}, {"type": "Feature", "geometry": {"type": "Point", "coordinates": [99.019245, 18.818809]}, "properties": {"id": "cm-osm-node-3778360059", "name": "โรงพยาบาลสัตว์ทองหล่อ", "nameTh": "โรงพยาบาลสัตว์ทองหล่อ", "nameEn": "Thonglor Pet Hospital", "cat": ["pets"], "province": "cm"}}, {"type": "Feature", "geometry": {"type": "Point", "coordinates": [99.0240936, 18.8082186]}, "properties": {"id": "cm-osm-node-3291664827", "name": "โรงพยาบาลสัตว์ฟ้าใส", "nameTh": "โรงพยาบาลสัตว์ฟ้าใส", "nameEn": "Fha-Sai Animal Hospital", "cat": ["pets"], "province": "cm"}}, {"type": "Feature", "geometry": {"type": "Point", "coordinates": [98.938433, 18.7127901]}, "properties": {"id": "cm-osm-node-4532827963", "name": "โรงพยาบาลสัตว์หางดง", "nameTh": "โรงพยาบาลสัตว์หางดง", "nameEn": "Hang Dong Animal Hospital", "cat": ["pets"], "province": "cm"}}, {"type": "Feature", "geometry": {"type": "Point", "coordinates": [99.0552012, 18.7539273]}, "properties": {"id": "cm-osm-node-4465336190", "name": "โรงพยาบาลสัตว์เชียงใหม่", "nameTh": "โรงพยาบาลสัตว์เชียงใหม่", "nameEn": "Chiang Mai Animal Hospital", "cat": ["pets"], "province": "cm"}}, {"type": "Feature", "geometry": {"type": "Point", "coordinates": [98.9795569, 18.8257097]}, "properties": {"id": "cm-osm-node-4480934054", "name": "โรงพยาบาลสัตว์เชียงใหม่-แม่ริม", "nameTh": "โรงพยาบาลสัตว์เชียงใหม่-แม่ริม", "nameEn": "Chiang Mai-Mae Rim Animal Hospital", "cat": ["pets"], "province": "cm"}}, {"type": "Feature", "geometry": {"type": "Point", "coordinates": [98.9946122, 18.8108083]}, "properties": {"id": "cm-osm-node-3191104418", "name": "โรงพยาบาลสัตว์เชียงใหม่โชตนา", "nameTh": "โรงพยาบาลสัตว์เชียงใหม่โชตนา", "nameEn": "Chiang Mai Chot Na Animal Hospital", "cat": ["pets"], "province": "cm"}}, {"type": "Feature", "geometry": {"type": "Point", "coordinates": [98.9611374, 18.7962183]}, "properties": {"id": "cm-osm-way-97986630", "name": "โรงพยาบาลสัตว์เล็ก", "nameTh": "โรงพยาบาลสัตว์เล็ก", "nameEn": "Small Animal Teaching Hospital", "cat": ["pets"], "province": "cm"}}]}