{"type": "FeatureCollection", "features": [{"type": "Feature", "geometry": {"type": "Point", "coordinates": [99.102492, 18.9145452]}, "properties": {"id": "cm-osm-way-1044417527", "name": "Abandoned quarry pond", "nameTh": null, "nameEn": "Abandoned quarry pond", "cat": ["parks"], "province": "cm"}}, {"type": "Feature", "geometry": {"type": "Point", "coordinates": [98.9549285, 18.8034525]}, "properties": {"id": "cm-osm-relation-20823517", "name": "Activity Garden", "nameTh": null, "nameEn": "Activity Garden", "cat": ["parks"], "province": "cm"}}, {"type": "Feature", "geometry": {"type": "Point", "coordinates": [99.0270948, 18.8232637]}, "properties": {"id": "cm-osm-way-584891253", "name": "Ban Phimuk 1 Community Park", "nameTh": null, "nameEn": "Ban Phimuk 1 Community Park", "cat": ["parks"], "province": "cm"}}, {"type": "Feature", "geometry": {"type": "Point", "coordinates": [99.0278417, 18.8239055]}, "properties": {"id": "cm-osm-node-5591422992", "name": "Ban Phimuk Playground", "nameTh": null, "nameEn": "Ban Phimuk Playground", "cat": ["parks"], "province": "cm"}}, {"type": "Feature", "geometry": {"type": "Point", "coordinates": [98.985385, 18.8087294]}, "properties": {"id": "cm-osm-way-329068815", "name": "CMRU Sport Park", "nameTh": null, "nameEn": "CMRU Sport Park", "cat": ["parks"], "province": "cm"}}, {"type": "Feature", "geometry": {"type": "Point", "coordinates": [99.0323098, 18.6695872]}, "properties": {"id": "cm-osm-way-140011217", "name": "Center Fishing Park", "nameTh": null, "nameEn": "Center Fishing Park", "cat": ["parks"], "province": "cm"}}, {"type": "Feature", "geometry": {"type": "Point", "coordinates": [98.9544164, 18.8039017]}, "properties": {"id": "cm-osm-way-585308229", "name": "Coffee Garden", "nameTh": null, "nameEn": "Coffee Garden", "cat": ["parks"], "province": "cm"}}, {"type": "Feature", "geometry": {"type": "Point", "coordinates": [99.0150853, 18.8976422]}, "properties": {"id": "cm-osm-node-7100562797", "name": "Econ Park", "nameTh": "สวนเศรษฐศาสตร์", "nameEn": "Econ Park", "cat": ["parks"], "province": "cm"}}, {"type": "Feature", "geometry": {"type": "Point", "coordinates": [98.9244302, 18.9589622]}, "properties": {"id": "cm-osm-way-272383294", "name": "Fish Farm", "nameTh": null, "nameEn": "Fish Farm", "cat": ["parks"], "province": "cm"}}, {"type": "Feature", "geometry": {"type": "Point", "coordinates": [99.1276316, 18.8968856]}, "properties": {"id": "cm-osm-way-777219131", "name": "Flower and Farmer Park", "nameTh": null, "nameEn": "Flower and Farmer Park", "cat": ["parks"], "province": "cm"}}, {"type": "Feature", "geometry": {"type": "Point", "coordinates": [98.8608264, 18.8938472]}, "properties": {"id": "cm-osm-node-13038778730", "name": "Ginger Garden", "nameTh": null, "nameEn": "Ginger Garden", "cat": ["parks"], "province": "cm"}}, {"type": "Feature", "geometry": {"type": "Point", "coordinates": [99.0969786, 18.8592395]}, "properties": {"id": "cm-osm-node-12458059763", "name": "Green haven adventure park", "nameTh": null, "nameEn": "Green haven adventure park", "cat": ["parks"], "province": "cm"}}, {"type": "Feature", "geometry": {"type": "Point", "coordinates": [99.013678, 18.8960103]}, "properties": {"id": "cm-osm-node-7100517780", "name": "Intanin Park", "nameTh": "สวนอินทนิล", "nameEn": "Intanin Park", "cat": ["parks"], "province": "cm"}}, {"type": "Feature", "geometry": {"type": "Point", "coordinates": [99.0234874, 18.814897]}, "properties": {"id": "cm-osm-way-1113305913", "name": "KK Park", "nameTh": "สวนแก้วคำเอ้ย", "nameEn": "KK Park", "cat": ["parks"], "province": "cm"}}, {"type": "Feature", "geometry": {"type": "Point", "coordinates": [99.0763281, 18.7377057]}, "properties": {"id": "cm-osm-way-99856551", "name": "Kankanok1 clubhouse park", "nameTh": null, "nameEn": "Kankanok1 clubhouse park", "cat": ["parks"], "province": "cm"}}, {"type": "Feature", "geometry": {"type": "Point", "coordinates": [98.9501729, 18.8080823]}, "properties": {"id": "cm-osm-way-325679542", "name": "Karn Memorial Park", "nameTh": null, "nameEn": "Karn Memorial Park", "cat": ["parks"], "province": "cm"}}, {"type": "Feature", "geometry": {"type": "Point", "coordinates": [99.0096595, 18.8957287]}, "properties": {"id": "cm-osm-node-7087765010", "name": "Maejo Park", "nameTh": null, "nameEn": "Maejo Park", "cat": ["parks"], "province": "cm"}}, {"type": "Feature", "geometry": {"type": "Point", "coordinates": [99.0092824, 18.8963918]}, "properties": {"id": "cm-osm-way-758874551", "name": "Maejo Park", "nameTh": null, "nameEn": "Maejo Park", "cat": ["parks"], "province": "cm"}}, {"type": "Feature", "geometry": {"type": "Point", "coordinates": [98.9216894, 18.6982037]}, "properties": {"id": "cm-osm-way-835649936", "name": "Muban Park 1", "nameTh": null, "nameEn": "Muban Park 1", "cat": ["parks"], "province": "cm"}}, {"type": "Feature", "geometry": {"type": "Point", "coordinates": [98.9223437, 18.6958674]}, "properties": {"id": "cm-osm-way-253616123", "name": "Muban Park 2", "nameTh": null, "nameEn": "Muban Park 2", "cat": ["parks"], "province": "cm"}}, {"type": "Feature", "geometry": {"type": "Point", "coordinates": [98.9187107, 18.700156]}, "properties": {"id": "cm-osm-way-835996273", "name": "Muban Park 3", "nameTh": null, "nameEn": "Muban Park 3", "cat": ["parks"], "province": "cm"}}, {"type": "Feature", "geometry": {"type": "Point", "coordinates": [99.0289389, 18.791382]}, "properties": {"id": "cm-osm-way-756152054", "name": "Outdoor Playground", "nameTh": null, "nameEn": "Outdoor Playground", "cat": ["parks"], "province": "cm"}}, {"type": "Feature", "geometry": {"type": "Point", "coordinates": [98.9586416, 18.8062183]}, "properties": {"id": "cm-osm-way-786472000", "name": "Park Punna", "nameTh": null, "nameEn": "Park Punna", "cat": ["parks"], "province": "cm"}}, {"type": "Feature", "geometry": {"type": "Point", "coordinates": [98.9372392, 18.73764]}, "properties": {"id": "cm-osm-way-1131103009", "name": "Prueksa Doikham Community Area", "nameTh": null, "nameEn": "Prueksa Doikham Community Area", "cat": ["parks"], "province": "cm"}}, {"type": "Feature", "geometry": {"type": "Point", "coordinates": [98.9599326, 18.916843]}, "properties": {"id": "cm-osm-way-761170509", "name": "Public Fitness Area", "nameTh": null, "nameEn": "Public Fitness Area", "cat": ["parks"], "province": "cm"}}, {"type": "Feature", "geometry": {"type": "Point", "coordinates": [98.9370317, 18.7646849]}, "properties": {"id": "cm-osm-way-726606026", "name": "STeP - Science and Technology Park", "nameTh": "อุทยานวิทยาศาสตร์ภาคเหนือ (เชียงใหม่)", "nameEn": "STeP - Science and Technology Park", "cat": ["parks"], "province": "cm"}}, {"type": "Feature", "geometry": {"type": "Point", "coordinates": [98.9865784, 18.8085516]}, "properties": {"id": "cm-osm-way-329068778", "name": "Science Park", "nameTh": null, "nameEn": "Science Park", "cat": ["parks"], "province": "cm"}}, {"type": "Feature", "geometry": {"type": "Point", "coordinates": [99.0017958, 18.7609869]}, "properties": {"id": "cm-osm-way-335710850", "name": "The Consuls Garden", "nameTh": null, "nameEn": "The Consuls Garden", "cat": ["parks"], "province": "cm"}}, {"type": "Feature", "geometry": {"type": "Point", "coordinates": [98.9903939, 18.7603731]}, "properties": {"id": "cm-osm-way-967017290", "name": "Tropical House", "nameTh": null, "nameEn": "Tropical House", "cat": ["parks"], "province": "cm"}}, {"type": "Feature", "geometry": {"type": "Point", "coordinates": [98.9994419, 18.7510437]}, "properties": {"id": "cm-osm-node-7062211258", "name": "Wiangkumkam", "nameTh": "เวียงกุมกาม", "nameEn": "Wiangkumkam", "cat": ["parks"], "province": "cm"}}, {"type": "Feature", "geometry": {"type": "Point", "coordinates": [98.9903665, 18.7603718]}, "properties": {"id": "cm-osm-node-8946574466", "name": "site", "nameTh": null, "nameEn": "site", "cat": ["parks"], "province": "cm"}}, {"type": "Feature", "geometry": {"type": "Point", "coordinates": [98.9941616, 18.7229253]}, "properties": {"id": "cm-osm-way-383957284", "name": "ข้ามขอบ บ่อตกปลา", "nameTh": "ข้ามขอบ บ่อตกปลา", "nameEn": "Kham Khop Fish Pond", "cat": ["parks"], "province": "cm"}}, {"type": "Feature", "geometry": {"type": "Point", "coordinates": [98.9254813, 19.0214283]}, "properties": {"id": "cm-osm-way-974931697", "name": "คณะวิทยาศาสตร์และเทคโนโลยี", "nameTh": "คณะวิทยาศาสตร์และเทคโนโลยี", "nameEn": null, "cat": ["parks"], "province": "cm"}}, {"type": "Feature", "geometry": {"type": "Point", "coordinates": [98.9532329, 18.7930297]}, "properties": {"id": "cm-osm-way-1409583477", "name": "คลองชลประทาน", "nameTh": "คลองชลประทาน", "nameEn": "Khlong Chonlaprathan", "cat": ["parks"], "province": "cm"}}, {"type": "Feature", "geometry": {"type": "Point", "coordinates": [98.9899924, 18.5987304]}, "properties": {"id": "cm-osm-relation-17306490", "name": "คลองแม่แกบก้อง", "nameTh": "คลองแม่แกบก้อง", "nameEn": "Khlong Mae Kaep Kong", "cat": ["parks"], "province": "cm"}}, {"type": "Feature", "geometry": {"type": "Point", "coordinates": [98.9925408, 18.8638891]}, "properties": {"id": "cm-osm-relation-18958346", "name": "ช้างทองเฮอริเทจพาร์ค", "nameTh": "ช้างทองเฮอริเทจพาร์ค", "nameEn": "Changthong Heritage Park", "cat": ["parks"], "province": "cm"}}, {"type": "Feature", "geometry": {"type": "Point", "coordinates": [98.9514558, 18.7540203]}, "properties": {"id": "cm-osm-relation-2824737", "name": "ซีรีนเลค", "nameTh": "ซีรีนเลค", "nameEn": "Serene Lake", "cat": ["parks"], "province": "cm"}}, {"type": "Feature", "geometry": {"type": "Point", "coordinates": [98.9411659, 18.8679118]}, "properties": {"id": "cm-osm-relation-9227296", "name": "ทะเลสาบห้วยตึงเฒ่า", "nameTh": "ทะเลสาบห้วยตึงเฒ่า", "nameEn": "Huay Tueng Tao Lake", "cat": ["parks"], "province": "cm"}}, {"type": "Feature", "geometry": {"type": "Point", "coordinates": [98.9322169, 18.7389767]}, "properties": {"id": "cm-osm-way-733470956", "name": "ภราดร ฟาร์ม", "nameTh": "ภราดร ฟาร์ม", "nameEn": "Paradon Farm", "cat": ["parks"], "province": "cm"}}, {"type": "Feature", "geometry": {"type": "Point", "coordinates": [98.923164, 18.7511037]}, "properties": {"id": "cm-osm-way-186782433", "name": "มหกรรมพืชสวน โลกเฉลิมพระเกียรติฯ", "nameTh": "มหกรรมพืชสวน โลกเฉลิมพระเกียรติฯ", "nameEn": "Royal Flora Ratchaphruek Park", "cat": ["parks"], "province": "cm"}}, {"type": "Feature", "geometry": {"type": "Point", "coordinates": [98.9858759, 18.8081119]}, "properties": {"id": "cm-osm-relation-8606125", "name": "ลานกิจกรรม", "nameTh": "ลานกิจกรรม", "nameEn": null, "cat": ["parks"], "province": "cm"}}, {"type": "Feature", "geometry": {"type": "Point", "coordinates": [98.9867545, 18.8062227]}, "properties": {"id": "cm-osm-way-329244417", "name": "ลานกิจกรรม", "nameTh": "ลานกิจกรรม", "nameEn": null, "cat": ["parks"], "province": "cm"}}, {"type": "Feature", "geometry": {"type": "Point", "coordinates": [98.9867658, 18.8067341]}, "properties": {"id": "cm-osm-way-544479379", "name": "ลานกิจกรรม", "nameTh": "ลานกิจกรรม", "nameEn": null, "cat": ["parks"], "province": "cm"}}, {"type": "Feature", "geometry": {"type": "Point", "coordinates": [98.9874258, 18.8082006]}, "properties": {"id": "cm-osm-way-544485329", "name": "ลานกิจกรรม", "nameTh": "ลานกิจกรรม", "nameEn": null, "cat": ["parks"], "province": "cm"}}, {"type": "Feature", "geometry": {"type": "Point", "coordinates": [98.951375, 18.8056618]}, "properties": {"id": "cm-osm-way-237481813", "name": "ลานควายยิ้ม", "nameTh": "ลานควายยิ้ม", "nameEn": "Khwai Yim Lawn", "cat": ["parks"], "province": "cm"}}, {"type": "Feature", "geometry": {"type": "Point", "coordinates": [98.9867109, 18.8071957]}, "properties": {"id": "cm-osm-way-329069041", "name": "ลานจตุราคาร", "nameTh": "ลานจตุราคาร", "nameEn": null, "cat": ["parks"], "province": "cm"}}, {"type": "Feature", "geometry": {"type": "Point", "coordinates": [98.9869508, 18.8072258]}, "properties": {"id": "cm-osm-way-329069060", "name": "ลานจตุราคาร", "nameTh": "ลานจตุราคาร", "nameEn": null, "cat": ["parks"], "province": "cm"}}, {"type": "Feature", "geometry": {"type": "Point", "coordinates": [98.9864781, 18.8071668]}, "properties": {"id": "cm-osm-way-329069136", "name": "ลานจตุราคาร", "nameTh": "ลานจตุราคาร", "nameEn": null, "cat": ["parks"], "province": "cm"}}, {"type": "Feature", "geometry": {"type": "Point", "coordinates": [98.94782, 18.7997125]}, "properties": {"id": "cm-osm-way-553959699", "name": "ลานจอดรถม่วง", "nameTh": "ลานจอดรถม่วง", "nameEn": null, "cat": ["parks"], "province": "cm"}}, {"type": "Feature", "geometry": {"type": "Point", "coordinates": [98.9516957, 18.7945848]}, "properties": {"id": "cm-osm-way-369336644", "name": "ลานพระวิษณุกรรม คณะวิศวกรรมศาสตร์", "nameTh": "ลานพระวิษณุกรรม คณะวิศวกรรมศาสตร์", "nameEn": null, "cat": ["parks"], "province": "cm"}}, {"type": "Feature", "geometry": {"type": "Point", "coordinates": [98.9512199, 18.7940778]}, "properties": {"id": "cm-osm-way-154258748", "name": "ลานวิศวะรวมใจ", "nameTh": "ลานวิศวะรวมใจ", "nameEn": null, "cat": ["parks"], "province": "cm"}}, {"type": "Feature", "geometry": {"type": "Point", "coordinates": [98.9255506, 18.7454715]}, "properties": {"id": "cm-osm-way-236029368", "name": "ลานออกกำลังกาย", "nameTh": "ลานออกกำลังกาย", "nameEn": "Rajapruek Sports Park", "cat": ["parks"], "province": "cm"}}, {"type": "Feature", "geometry": {"type": "Point", "coordinates": [99.0769171, 19.070329]}, "properties": {"id": "cm-osm-way-920174697", "name": "วนอุทยานน้ำตกบัวตอง-น้ำพุเจ็ดสี", "nameTh": "วนอุทยานน้ำตกบัวตอง-น้ำพุเจ็ดสี", "nameEn": "Namtok Bua Thong-Nam Phu Chet Si National Park", "cat": ["parks"], "province": "cm"}}, {"type": "Feature", "geometry": {"type": "Point", "coordinates": [99.0056163, 18.7489225]}, "properties": {"id": "cm-osm-way-334520909", "name": "วัดหัวหนอง", "nameTh": "วัดหัวหนอง", "nameEn": "Wat Hua Nong", "cat": ["parks"], "province": "cm"}}, {"type": "Feature", "geometry": {"type": "Point", "coordinates": [98.9467511, 18.7823772]}, "properties": {"id": "cm-osm-relation-10671658", "name": "ศูนย์ศึกษาธรรมชาติและสัตว์ป่าเชิงดอยสุเทพ", "nameTh": "ศูนย์ศึกษาธรรมชาติและสัตว์ป่าเชิงดอยสุเทพ", "nameEn": "Choeng Doi Suthep Wildlife and Nature Education Center", "cat": ["parks"], "province": "cm"}}, {"type": "Feature", "geometry": {"type": "Point", "coordinates": [98.9568053, 18.8028621]}, "properties": {"id": "cm-osm-way-237481870", "name": "สนามคณะวิทยาศาสตร์", "nameTh": "สนามคณะวิทยาศาสตร์", "nameEn": null, "cat": ["parks"], "province": "cm"}}, {"type": "Feature", "geometry": {"type": "Point", "coordinates": [98.9386906, 18.764289]}, "properties": {"id": "cm-osm-way-332665459", "name": "สนามบาสหอแม่เหียะ", "nameTh": "สนามบาสหอแม่เหียะ", "nameEn": null, "cat": ["parks"], "province": "cm"}}, {"type": "Feature", "geometry": {"type": "Point", "coordinates": [98.9579881, 18.7983347]}, "properties": {"id": "cm-osm-way-312363358", "name": "สนามยิงปืน", "nameTh": "สนามยิงปืน", "nameEn": null, "cat": ["parks"], "province": "cm"}}, {"type": "Feature", "geometry": {"type": "Point", "coordinates": [99.0006643, 18.7716962]}, "properties": {"id": "cm-osm-way-1379708045", "name": "สนามเด็กเล่น", "nameTh": "สนามเด็กเล่น", "nameEn": "Playground", "cat": ["parks"], "province": "cm"}}, {"type": "Feature", "geometry": {"type": "Point", "coordinates": [98.9567155, 18.7496478]}, "properties": {"id": "cm-osm-way-297875825", "name": "สนามเด็กเล่น", "nameTh": "สนามเด็กเล่น", "nameEn": null, "cat": ["parks"], "province": "cm"}}, {"type": "Feature", "geometry": {"type": "Point", "coordinates": [98.9878432, 18.8072093]}, "properties": {"id": "cm-osm-way-329069427", "name": "สระอโนดาต", "nameTh": "สระอโนดาต", "nameEn": null, "cat": ["parks"], "province": "cm"}}, {"type": "Feature", "geometry": {"type": "Point", "coordinates": [98.9776875, 18.7797363]}, "properties": {"id": "cm-osm-relation-20066992", "name": "สวนกาญจนาภิเษก", "nameTh": "สวนกาญจนาภิเษก", "nameEn": "Kanchanpisek Park", "cat": ["parks"], "province": "cm"}}, {"type": "Feature", "geometry": {"type": "Point", "coordinates": [98.8177202, 18.8120561]}, "properties": {"id": "cm-osm-way-1450006127", "name": "สวนกุหลาบหลวง ศูนย์พัฒนาโครงการหลวงทุ่งเริงห้วย", "nameTh": "สวนกุหลาบหลวง ศูนย์พัฒนาโครงการหลวงทุ่งเริงห้วย", "nameEn": "Royal Rose Garder", "cat": ["parks"], "province": "cm"}}, {"type": "Feature", "geometry": {"type": "Point", "coordinates": [99.0102147, 18.8946565]}, "properties": {"id": "cm-osm-way-763629806", "name": "สวนงานหนักไม่เคยฆ่าคน", "nameTh": "สวนงานหนักไม่เคยฆ่าคน", "nameEn": null, "cat": ["parks"], "province": "cm"}}, {"type": "Feature", "geometry": {"type": "Point", "coordinates": [98.9590714, 18.7939572]}, "properties": {"id": "cm-osm-way-553961614", "name": "สวนดอกไม้", "nameTh": "สวนดอกไม้", "nameEn": "Flower Park", "cat": ["parks"], "province": "cm"}}, {"type": "Feature", "geometry": {"type": "Point", "coordinates": [99.0986341, 18.8600012]}, "properties": {"id": "cm-osm-way-56175023", "name": "สวนทวีชล", "nameTh": "สวนทวีชล", "nameEn": "Tweechol Botanical Garden", "cat": ["parks"], "province": "cm"}}, {"type": "Feature", "geometry": {"type": "Point", "coordinates": [98.883778, 18.8184396]}, "properties": {"id": "cm-osm-way-1533428776", "name": "สวนน้ำตกดอยปุย", "nameTh": "สวนน้ำตกดอยปุย", "nameEn": "Doi Pui Waterfall Garden", "cat": ["parks"], "province": "cm"}}, {"type": "Feature", "geometry": {"type": "Point", "coordinates": [98.9792721, 18.7822886]}, "properties": {"id": "cm-osm-way-23973788", "name": "สวนบวกหาด", "nameTh": "สวนบวกหาด", "nameEn": "Nong Buak Haad Park", "cat": ["parks"], "province": "cm"}}, {"type": "Feature", "geometry": {"type": "Point", "coordinates": [99.0254486, 18.7695743]}, "properties": {"id": "cm-osm-way-552643725", "name": "สวนประธานพร", "nameTh": "สวนประธานพร", "nameEn": null, "cat": ["parks"], "province": "cm"}}, {"type": "Feature", "geometry": {"type": "Point", "coordinates": [98.9547644, 18.8006192]}, "properties": {"id": "cm-osm-way-500201001", "name": "สวนปาล์ม", "nameTh": "สวนปาล์ม", "nameEn": "CMU Palm Park", "cat": ["parks"], "province": "cm"}}, {"type": "Feature", "geometry": {"type": "Point", "coordinates": [98.9868603, 18.8076073]}, "properties": {"id": "cm-osm-way-554767215", "name": "สวนปาล์ม", "nameTh": "สวนปาล์ม", "nameEn": null, "cat": ["parks"], "province": "cm"}}, {"type": "Feature", "geometry": {"type": "Point", "coordinates": [98.8611173, 18.890616]}, "properties": {"id": "cm-osm-way-186781595", "name": "สวนพฤกษศาสตร์สมเด็จพระนางเจ้าสิริกิติ์", "nameTh": "สวนพฤกษศาสตร์สมเด็จพระนางเจ้าสิริกิติ์", "nameEn": "Queen Sirikit Botanic Garden", "cat": ["parks"], "province": "cm"}}, {"type": "Feature", "geometry": {"type": "Point", "coordinates": [98.987867, 18.8072341]}, "properties": {"id": "cm-osm-way-544485330", "name": "สวนรื่นฤดี", "nameTh": "สวนรื่นฤดี", "nameEn": null, "cat": ["parks"], "province": "cm"}}, {"type": "Feature", "geometry": {"type": "Point", "coordinates": [98.9509168, 18.8084852]}, "properties": {"id": "cm-osm-way-79895458", "name": "สวนรุกขชาติห้วยแก้ว", "nameTh": "สวนรุกขชาติห้วยแก้ว", "nameEn": "Huay Kaew Arboretum", "cat": ["parks"], "province": "cm"}}, {"type": "Feature", "geometry": {"type": "Point", "coordinates": [98.9783946, 18.8207991]}, "properties": {"id": "cm-osm-way-243766789", "name": "สวนลานนา ร.9", "nameTh": "สวนลานนา ร.9", "nameEn": "King Rama IX Park", "cat": ["parks"], "province": "cm"}}, {"type": "Feature", "geometry": {"type": "Point", "coordinates": [99.0079228, 18.7025686]}, "properties": {"id": "cm-osm-way-151714957", "name": "สวนวิทยารมภ์", "nameTh": "สวนวิทยารมภ์", "nameEn": "Suan Witthaya Rom", "cat": ["parks"], "province": "cm"}}, {"type": "Feature", "geometry": {"type": "Point", "coordinates": [99.0329218, 18.7537434]}, "properties": {"id": "cm-osm-way-88998233", "name": "สวนสมโภชเชียงใหม่ ๗๐๐ ปี", "nameTh": "สวนสมโภชเชียงใหม่ ๗๐๐ ปี", "nameEn": "700 year park", "cat": ["parks"], "province": "cm"}}, {"type": "Feature", "geometry": {"type": "Point", "coordinates": [98.9524866, 18.8051891]}, "properties": {"id": "cm-osm-relation-10552530", "name": "สวนสัก", "nameTh": "สวนสัก", "nameEn": "Suan Sak", "cat": ["parks"], "province": "cm"}}, {"type": "Feature", "geometry": {"type": "Point", "coordinates": [99.0393719, 18.6522991]}, "properties": {"id": "cm-osm-way-447150729", "name": "สวนสาธารณะ", "nameTh": "สวนสาธารณะ", "nameEn": "Suan Satharana", "cat": ["parks"], "province": "cm"}}, {"type": "Feature", "geometry": {"type": "Point", "coordinates": [98.9769358, 18.776167]}, "properties": {"id": "cm-osm-way-754816144", "name": "สวนสาธารณะป้อมหายยา", "nameTh": "สวนสาธารณะป้อมหายยา", "nameEn": null, "cat": ["parks"], "province": "cm"}}, {"type": "Feature", "geometry": {"type": "Point", "coordinates": [99.0163835, 18.7870959]}, "properties": {"id": "cm-osm-way-249673656", "name": "สวนสาธารณะรถไฟเชียงใหม่", "nameTh": "สวนสาธารณะรถไฟเชียงใหม่", "nameEn": "Railway Park", "cat": ["parks"], "province": "cm"}}, {"type": "Feature", "geometry": {"type": "Point", "coordinates": [99.0024658, 18.7725709]}, "properties": {"id": "cm-osm-way-1379708018", "name": "สวนสุขภาพ", "nameTh": "สวนสุขภาพ", "nameEn": null, "cat": ["parks"], "province": "cm"}}, {"type": "Feature", "geometry": {"type": "Point", "coordinates": [98.995334, 18.6858132]}, "properties": {"id": "cm-osm-way-411581224", "name": "สวนสุขภาพ", "nameTh": "สวนสุขภาพ", "nameEn": "Suan Sukkhaphap", "cat": ["parks"], "province": "cm"}}, {"type": "Feature", "geometry": {"type": "Point", "coordinates": [99.0182386, 18.75518]}, "properties": {"id": "cm-osm-way-341729093", "name": "สวนสุขภาพ บ้านชัยพฤกษ์", "nameTh": "สวนสุขภาพ บ้านชัยพฤกษ์", "nameEn": "Suan Sukkhaphap Ban Chaiyaphruek", "cat": ["parks"], "province": "cm"}}, {"type": "Feature", "geometry": {"type": "Point", "coordinates": [98.9695256, 18.8387227]}, "properties": {"id": "cm-osm-way-555907037", "name": "สวนสุขภาพ สพส.", "nameTh": "สวนสุขภาพ สพส.", "nameEn": null, "cat": ["parks"], "province": "cm"}}, {"type": "Feature", "geometry": {"type": "Point", "coordinates": [99.0227386, 18.6160128]}, "properties": {"id": "cm-osm-way-82765661", "name": "สวนสุขภาพ ห้วยแก้ว", "nameTh": "สวนสุขภาพ ห้วยแก้ว", "nameEn": "Huai Kaeo Fitness Park", "cat": ["parks"], "province": "cm"}}, {"type": "Feature", "geometry": {"type": "Point", "coordinates": [99.0058024, 18.7723632]}, "properties": {"id": "cm-osm-way-260020145", "name": "สวนสุขภาพบ้านเด่น", "nameTh": "สวนสุขภาพบ้านเด่น", "nameEn": "Sukkhaphap Ban Den Park", "cat": ["parks"], "province": "cm"}}, {"type": "Feature", "geometry": {"type": "Point", "coordinates": [99.0112071, 18.8973284]}, "properties": {"id": "cm-osm-node-7134739593", "name": "สวนสุขภาพวังซ้าย", "nameTh": "สวนสุขภาพวังซ้าย", "nameEn": null, "cat": ["parks"], "province": "cm"}}, {"type": "Feature", "geometry": {"type": "Point", "coordinates": [99.0112401, 18.8969468]}, "properties": {"id": "cm-osm-way-763516446", "name": "สวนสุขภาพวังซ้าย", "nameTh": "สวนสุขภาพวังซ้าย", "nameEn": null, "cat": ["parks"], "province": "cm"}}, {"type": "Feature", "geometry": {"type": "Point", "coordinates": [99.1384068, 18.8695196]}, "properties": {"id": "cm-osm-way-458229918", "name": "สวนสูขภาพเทศบาลตำบลดอยสะเก๊ด", "nameTh": "สวนสูขภาพเทศบาลตำบลดอยสะเก๊ด", "nameEn": null, "cat": ["parks"], "province": "cm"}}, {"type": "Feature", "geometry": {"type": "Point", "coordinates": [98.9507334, 18.8005614]}, "properties": {"id": "cm-osm-way-733470954", "name": "สวนหย่อมน้อยๆๆ กับ วงเวียนน้ำพุ หน้า วิทยาลัย สื่อ", "nameTh": "สวนหย่อมน้อยๆๆ กับ วงเวียนน้ำพุ หน้า วิทยาลัย สื่อ", "nameEn": null, "cat": ["parks"], "province": "cm"}}, {"type": "Feature", "geometry": {"type": "Point", "coordinates": [98.9527836, 18.8021293]}, "properties": {"id": "cm-osm-way-561448958", "name": "สวนหย่อมหน้าตึกชีวะ", "nameTh": "สวนหย่อมหน้าตึกชีวะ", "nameEn": null, "cat": ["parks"], "province": "cm"}}, {"type": "Feature", "geometry": {"type": "Point", "coordinates": [99.013682, 18.8960382]}, "properties": {"id": "cm-osm-way-760096803", "name": "สวนอินทนิล", "nameTh": "สวนอินทนิล", "nameEn": null, "cat": ["parks"], "province": "cm"}}, {"type": "Feature", "geometry": {"type": "Point", "coordinates": [98.9659894, 18.8337863]}, "properties": {"id": "cm-osm-way-953259054", "name": "สวนเฉลิมพระเกียรติฯ อบจ.เชียงใหม่", "nameTh": "สวนเฉลิมพระเกียรติฯ อบจ.เชียงใหม่", "nameEn": null, "cat": ["parks"], "province": "cm"}}, {"type": "Feature", "geometry": {"type": "Point", "coordinates": [98.9630491, 18.7926154]}, "properties": {"id": "cm-osm-way-200619567", "name": "สำนักส่งเสริมศิลปวัฒนธรรม มหาวิทยาลัยเชียงใหม่", "nameTh": "สำนักส่งเสริมศิลปวัฒนธรรม มหาวิทยาลัยเชียงใหม่", "nameEn": "Center for the Promotion of Arts and Culture Chiang Mai University", "cat": ["parks"], "province": "cm"}}, {"type": "Feature", "geometry": {"type": "Point", "coordinates": [98.6303358, 18.9248659]}, "properties": {"id": "cm-osm-relation-5963190", "name": "อุทยานแห่งชาติขุนขาน", "nameTh": "อุทยานแห่งชาติขุนขาน", "nameEn": "Khun Khan National Park", "cat": ["parks"], "province": "cm"}}, {"type": "Feature", "geometry": {"type": "Point", "coordinates": [98.852815, 18.9272933]}, "properties": {"id": "cm-osm-relation-5944548", "name": "อุทยานแห่งชาติดอยสุเทพ-ปุย", "nameTh": "อุทยานแห่งชาติดอยสุเทพ-ปุย", "nameEn": "Doi Suthep-Pui National Park", "cat": ["parks"], "province": "cm"}}, {"type": "Feature", "geometry": {"type": "Point", "coordinates": [99.1534233, 19.2960726]}, "properties": {"id": "cm-osm-relation-5964088", "name": "อุทยานแห่งชาติศรีลานนา", "nameTh": "อุทยานแห่งชาติศรีลานนา", "nameEn": "Si Lanna National Park", "cat": ["parks"], "province": "cm"}}, {"type": "Feature", "geometry": {"type": "Point", "coordinates": [99.2315603, 18.8037981]}, "properties": {"id": "cm-osm-relation-11577997", "name": "อุทยานแห่งชาติแม่ตะไคร้", "nameTh": "อุทยานแห่งชาติแม่ตะไคร้", "nameEn": "Mae Takhrai National Park", "cat": ["parks"], "province": "cm"}}, {"type": "Feature", "geometry": {"type": "Point", "coordinates": [99.0099356, 18.9004904]}, "properties": {"id": "cm-osm-way-961795684", "name": "อ่างเก็บน้ำ", "nameTh": "อ่างเก็บน้ำ", "nameEn": null, "cat": ["parks"], "province": "cm"}}, {"type": "Feature", "geometry": {"type": "Point", "coordinates": [99.0094048, 18.900193]}, "properties": {"id": "cm-osm-way-961795685", "name": "อ่างเก็บน้ำ", "nameTh": "อ่างเก็บน้ำ", "nameEn": null, "cat": ["parks"], "province": "cm"}}, {"type": "Feature", "geometry": {"type": "Point", "coordinates": [98.9479782, 18.8034861]}, "properties": {"id": "cm-osm-way-586456326", "name": "อ่างเก็บน้ำตาดชมพู", "nameTh": "อ่างเก็บน้ำตาดชมพู", "nameEn": "Tad Chompoo Reservoir", "cat": ["parks"], "province": "cm"}}, {"type": "Feature", "geometry": {"type": "Point", "coordinates": [98.9337418, 18.8795731]}, "properties": {"id": "cm-osm-way-23774078", "name": "อ่างเก็บน้ำน้ำแม่เย็น", "nameTh": "อ่างเก็บน้ำน้ำแม่เย็น", "nameEn": "Yen River Reservoir", "cat": ["parks"], "province": "cm"}}, {"type": "Feature", "geometry": {"type": "Point", "coordinates": [98.8634561, 19.0028549]}, "properties": {"id": "cm-osm-way-165144990", "name": "อ่างเก็บน้ำสะลวงใน", "nameTh": "อ่างเก็บน้ำสะลวงใน", "nameEn": "Saluang Nai Reservoir", "cat": ["parks"], "province": "cm"}}, {"type": "Feature", "geometry": {"type": "Point", "coordinates": [99.0924952, 18.924402]}, "properties": {"id": "cm-osm-way-207328021", "name": "อ่างเก็บน้ำห้วยสัก", "nameTh": "อ่างเก็บน้ำห้วยสัก", "nameEn": "Huai Sak Reservoir", "cat": ["parks"], "province": "cm"}}, {"type": "Feature", "geometry": {"type": "Point", "coordinates": [99.0833089, 18.9298373]}, "properties": {"id": "cm-osm-way-164928134", "name": "อ่างเก็บน้ำห้วยเกี๋ยง", "nameTh": "อ่างเก็บน้ำห้วยเกี๋ยง", "nameEn": "Huai Kiang Reservoir", "cat": ["parks"], "province": "cm"}}, {"type": "Feature", "geometry": {"type": "Point", "coordinates": [98.8587514, 18.7425926]}, "properties": {"id": "cm-osm-way-234124951", "name": "อ่างเก็บน้ำห้วยเสี้ยว", "nameTh": "อ่างเก็บน้ำห้วยเสี้ยว", "nameEn": null, "cat": ["parks"], "province": "cm"}}, {"type": "Feature", "geometry": {"type": "Point", "coordinates": [99.0634286, 18.9410317]}, "properties": {"id": "cm-osm-way-90230537", "name": "อ่างเก็บน้ำห้วยโจ้", "nameTh": "อ่างเก็บน้ำห้วยโจ้", "nameEn": "Huai Cho Reservoir", "cat": ["parks"], "province": "cm"}}, {"type": "Feature", "geometry": {"type": "Point", "coordinates": [99.1240189, 18.9462583]}, "properties": {"id": "cm-osm-relation-193489", "name": "อ่างเก็บน้ำแม่กวง", "nameTh": "อ่างเก็บน้ำแม่กวง", "nameEn": "Mae Kuang Reservoir", "cat": ["parks"], "province": "cm"}}, {"type": "Feature", "geometry": {"type": "Point", "coordinates": [98.9532765, 18.8409382]}, "properties": {"id": "cm-osm-way-92841444", "name": "อ่างเก็บน้ำแม่จอกหลวง", "nameTh": "อ่างเก็บน้ำแม่จอกหลวง", "nameEn": "Mae Chok Luang Reservoir", "cat": ["parks"], "province": "cm"}}, {"type": "Feature", "geometry": {"type": "Point", "coordinates": [98.949381, 18.8072828]}, "properties": {"id": "cm-osm-relation-14520615", "name": "อ่างแก้ว", "nameTh": "อ่างแก้ว", "nameEn": "Ang Kaew Reservoir", "cat": ["parks"], "province": "cm"}}, {"type": "Feature", "geometry": {"type": "Point", "coordinates": [98.9200702, 18.7499091]}, "properties": {"id": "cm-osm-node-13027868766", "name": "เรือนร่มไม้", "nameTh": "เรือนร่มไม้", "nameEn": "Lotus garden", "cat": ["parks"], "province": "cm"}}, {"type": "Feature", "geometry": {"type": "Point", "coordinates": [99.0362963, 18.906221]}, "properties": {"id": "cm-osm-node-13428457524", "name": "เลควิลล์แม่โจ้", "nameTh": "เลควิลล์แม่โจ้", "nameEn": "Lakeview", "cat": ["parks"], "province": "cm"}}, {"type": "Feature", "geometry": {"type": "Point", "coordinates": [98.8919088, 18.6974075]}, "properties": {"id": "cm-osm-way-177772328", "name": "แกรนด์แคนยอน เชียงใหม่", "nameTh": "แกรนด์แคนยอน เชียงใหม่", "nameEn": "Grand Canyon Water Park", "cat": ["parks"], "province": "cm"}}, {"type": "Feature", "geometry": {"type": "Point", "coordinates": [98.9839123, 18.7321325]}, "properties": {"id": "cm-osm-relation-8019823", "name": "แม่น้ำปิง", "nameTh": "แม่น้ำปิง", "nameEn": "Ping River", "cat": ["parks"], "province": "cm"}}, {"type": "Feature", "geometry": {"type": "Point", "coordinates": [98.9516371, 18.7970056]}, "properties": {"id": "cm-osm-node-10609570159", "name": "โต๊ะสาธารณะ", "nameTh": "โต๊ะสาธารณะ", "nameEn": null, "cat": ["parks"], "province": "cm"}}]}