{"type": "FeatureCollection", "features": [{"type": "Feature", "geometry": {"type": "Point", "coordinates": [98.9811391, 18.7969015]}, "properties": {"id": "cm-osm-node-8696556017", "name": "1668 Shop", "cat": ["repair"], "province": "cm"}}, {"type": "Feature", "geometry": {"type": "Point", "coordinates": [98.9696037, 18.7941545]}, "properties": {"id": "cm-osm-node-3421278248", "name": "17.1 Mac Care", "cat": ["repair"], "province": "cm"}}, {"type": "Feature", "geometry": {"type": "Point", "coordinates": [99.0276482, 18.7923323]}, "properties": {"id": "cm-osm-node-5017546921", "name": "786 มาโนช กุมาร", "cat": ["repair"], "province": "cm"}}, {"type": "Feature", "geometry": {"type": "Point", "coordinates": [98.9473146, 18.9099275]}, "properties": {"id": "cm-osm-way-1456802858", "name": "AA Automax", "cat": ["repair"], "province": "cm"}}, {"type": "Feature", "geometry": {"type": "Point", "coordinates": [99.0273161, 18.7846155]}, "properties": {"id": "cm-osm-way-823836810", "name": "ACT", "cat": ["repair"], "province": "cm"}}, {"type": "Feature", "geometry": {"type": "Point", "coordinates": [98.9724743, 18.759063]}, "properties": {"id": "cm-osm-node-7882686664", "name": "AIS| Telewiz", "cat": ["repair"], "province": "cm"}}, {"type": "Feature", "geometry": {"type": "Point", "coordinates": [99.0233537, 18.7842557]}, "properties": {"id": "cm-osm-node-10312868409", "name": "Amnuay Motor and Auto Repair", "cat": ["repair"], "province": "cm"}}, {"type": "Feature", "geometry": {"type": "Point", "coordinates": [99.0217039, 18.7985145]}, "properties": {"id": "cm-osm-node-5377269363", "name": "Asis Telecom Shop", "cat": ["repair"], "province": "cm"}}, {"type": "Feature", "geometry": {"type": "Point", "coordinates": [98.9963375, 18.8043905]}, "properties": {"id": "cm-osm-way-260056916", "name": "Auto Repair", "cat": ["repair"], "province": "cm"}}, {"type": "Feature", "geometry": {"type": "Point", "coordinates": [98.9129639, 18.6676197]}, "properties": {"id": "cm-osm-node-1058636015", "name": "B-Quik", "cat": ["repair"], "province": "cm"}}, {"type": "Feature", "geometry": {"type": "Point", "coordinates": [99.0141052, 18.8234051]}, "properties": {"id": "cm-osm-node-2517078416", "name": "B-Quik", "cat": ["repair"], "province": "cm"}}, {"type": "Feature", "geometry": {"type": "Point", "coordinates": [98.9708438, 18.7592263]}, "properties": {"id": "cm-osm-node-6197828631", "name": "B-Quik", "cat": ["repair"], "province": "cm"}}, {"type": "Feature", "geometry": {"type": "Point", "coordinates": [98.9739363, 18.7984657]}, "properties": {"id": "cm-osm-way-1465533695", "name": "B-Quik", "cat": ["repair"], "province": "cm"}}, {"type": "Feature", "geometry": {"type": "Point", "coordinates": [98.9290866, 18.7045226]}, "properties": {"id": "cm-osm-node-13461804501", "name": "BXT Moto Garage", "cat": ["repair"], "province": "cm"}}, {"type": "Feature", "geometry": {"type": "Point", "coordinates": [98.9802451, 18.8004932]}, "properties": {"id": "cm-osm-node-11936086469", "name": "Bike Point", "cat": ["repair"], "province": "cm"}}, {"type": "Feature", "geometry": {"type": "Point", "coordinates": [98.9747497, 18.7990804]}, "properties": {"id": "cm-osm-node-13437706096", "name": "Bike repairs", "cat": ["repair"], "province": "cm"}}, {"type": "Feature", "geometry": {"type": "Point", "coordinates": [98.9664669, 18.7415875]}, "properties": {"id": "cm-osm-node-13454362391", "name": "Bob Farnham", "cat": ["repair"], "province": "cm"}}, {"type": "Feature", "geometry": {"type": "Point", "coordinates": [99.0325435, 18.814304]}, "properties": {"id": "cm-osm-node-12237384354", "name": "CK Vespa shop", "cat": ["repair"], "province": "cm"}}, {"type": "Feature", "geometry": {"type": "Point", "coordinates": [98.9834088, 18.7931563]}, "properties": {"id": "cm-osm-node-10277505109", "name": "CM Mobilefix", "cat": ["repair"], "province": "cm"}}, {"type": "Feature", "geometry": {"type": "Point", "coordinates": [99.0431394, 18.8312087]}, "properties": {"id": "cm-osm-node-6260957030", "name": "CMPT", "cat": ["repair"], "province": "cm"}}, {"type": "Feature", "geometry": {"type": "Point", "coordinates": [98.9674449, 18.8782538]}, "properties": {"id": "cm-osm-way-1460917943", "name": "Castrol Bike Point", "cat": ["repair"], "province": "cm"}}, {"type": "Feature", "geometry": {"type": "Point", "coordinates": [98.9950945, 18.7663834]}, "properties": {"id": "cm-osm-node-4823917421", "name": "Chi Chang", "cat": ["repair"], "province": "cm"}}, {"type": "Feature", "geometry": {"type": "Point", "coordinates": [98.983271, 18.8111181]}, "properties": {"id": "cm-osm-way-331487127", "name": "Chiang Mai Computer Centre", "cat": ["repair"], "province": "cm"}}, {"type": "Feature", "geometry": {"type": "Point", "coordinates": [99.0094275, 18.8238931]}, "properties": {"id": "cm-osm-way-1099750982", "name": "Cockpit", "cat": ["repair"], "province": "cm"}}, {"type": "Feature", "geometry": {"type": "Point", "coordinates": [98.9858931, 18.7673525]}, "properties": {"id": "cm-osm-node-11197061037", "name": "Cockpit/Saveway Auto Service", "cat": ["repair"], "province": "cm"}}, {"type": "Feature", "geometry": {"type": "Point", "coordinates": [99.0217393, 18.7983981]}, "properties": {"id": "cm-osm-node-5377031045", "name": "DTAC Center", "cat": ["repair"], "province": "cm"}}, {"type": "Feature", "geometry": {"type": "Point", "coordinates": [99.0902911, 18.7796281]}, "properties": {"id": "cm-osm-node-6197665285", "name": "ECU Shop", "cat": ["repair"], "province": "cm"}}, {"type": "Feature", "geometry": {"type": "Point", "coordinates": [98.8881351, 18.6716112]}, "properties": {"id": "cm-osm-node-13394259753", "name": "Fit Auto", "cat": ["repair"], "province": "cm"}}, {"type": "Feature", "geometry": {"type": "Point", "coordinates": [99.0105391, 18.8091372]}, "properties": {"id": "cm-osm-node-2490629437", "name": "Goodyear Autocare", "cat": ["repair"], "province": "cm"}}, {"type": "Feature", "geometry": {"type": "Point", "coordinates": [98.9877097, 18.8239082]}, "properties": {"id": "cm-osm-way-482885365", "name": "Guru Suspension", "cat": ["repair"], "province": "cm"}}, {"type": "Feature", "geometry": {"type": "Point", "coordinates": [99.003628, 18.7987505]}, "properties": {"id": "cm-osm-node-2342130088", "name": "Honda Repair Specialist", "cat": ["repair"], "province": "cm"}}, {"type": "Feature", "geometry": {"type": "Point", "coordinates": [98.9843797, 18.8019645]}, "properties": {"id": "cm-osm-node-11897876370", "name": "Huawai Customer Service Center", "cat": ["repair"], "province": "cm"}}, {"type": "Feature", "geometry": {"type": "Point", "coordinates": [99.0142248, 18.8242143]}, "properties": {"id": "cm-osm-node-2517080732", "name": "IT City", "cat": ["repair"], "province": "cm"}}, {"type": "Feature", "geometry": {"type": "Point", "coordinates": [98.9756417, 18.7689332]}, "properties": {"id": "cm-osm-node-4489814496", "name": "Icare Apple", "cat": ["repair"], "province": "cm"}}, {"type": "Feature", "geometry": {"type": "Point", "coordinates": [99.0062725, 18.7672432]}, "properties": {"id": "cm-osm-way-601014602", "name": "Inspection Station", "cat": ["repair"], "province": "cm"}}, {"type": "Feature", "geometry": {"type": "Point", "coordinates": [98.9839409, 18.7961159]}, "properties": {"id": "cm-osm-node-1352224956", "name": "J.I.B Computer Group", "cat": ["repair"], "province": "cm"}}, {"type": "Feature", "geometry": {"type": "Point", "coordinates": [98.9829747, 18.8113504]}, "properties": {"id": "cm-osm-node-1352221570", "name": "J.I.B. Computer", "cat": ["repair"], "province": "cm"}}, {"type": "Feature", "geometry": {"type": "Point", "coordinates": [98.9840912, 18.8124893]}, "properties": {"id": "cm-osm-way-444091650", "name": "KS Cafe & Internet", "cat": ["repair"], "province": "cm"}}, {"type": "Feature", "geometry": {"type": "Point", "coordinates": [98.9782325, 18.7860004]}, "properties": {"id": "cm-osm-node-3195212316", "name": "Kreung jakdee", "cat": ["repair"], "province": "cm"}}, {"type": "Feature", "geometry": {"type": "Point", "coordinates": [99.0613896, 18.7562352]}, "properties": {"id": "cm-osm-node-12703990719", "name": "MIX Motorbike", "cat": ["repair"], "province": "cm"}}, {"type": "Feature", "geometry": {"type": "Point", "coordinates": [99.0148477, 18.8747376]}, "properties": {"id": "cm-osm-way-739556151", "name": "MJ Auto", "cat": ["repair"], "province": "cm"}}, {"type": "Feature", "geometry": {"type": "Point", "coordinates": [99.0873359, 18.8511749]}, "properties": {"id": "cm-osm-node-9589036057", "name": "MX Moto Shop", "cat": ["repair"], "province": "cm"}}, {"type": "Feature", "geometry": {"type": "Point", "coordinates": [98.9992589, 18.7804981]}, "properties": {"id": "cm-osm-node-4869734423", "name": "Mobylove", "cat": ["repair"], "province": "cm"}}, {"type": "Feature", "geometry": {"type": "Point", "coordinates": [98.990017, 18.7903491]}, "properties": {"id": "cm-osm-way-387494498", "name": "Mr Mechanic rental", "cat": ["repair"], "province": "cm"}}, {"type": "Feature", "geometry": {"type": "Point", "coordinates": [98.9725046, 18.7591776]}, "properties": {"id": "cm-osm-node-7882686665", "name": "OK phone", "cat": ["repair"], "province": "cm"}}, {"type": "Feature", "geometry": {"type": "Point", "coordinates": [98.9680497, 18.884533]}, "properties": {"id": "cm-osm-way-1209000872", "name": "PKC Electronics moto", "cat": ["repair"], "province": "cm"}}, {"type": "Feature", "geometry": {"type": "Point", "coordinates": [98.9576179, 18.8890247]}, "properties": {"id": "cm-osm-way-1458661985", "name": "PM Motor", "cat": ["repair"], "province": "cm"}}, {"type": "Feature", "geometry": {"type": "Point", "coordinates": [99.0277257, 18.7732673]}, "properties": {"id": "cm-osm-node-3298760883", "name": "Phat Garage", "cat": ["repair"], "province": "cm"}}, {"type": "Feature", "geometry": {"type": "Point", "coordinates": [99.008176, 18.7560612]}, "properties": {"id": "cm-osm-way-537039494", "name": "Piston Shop Superbike Parts & Service", "cat": ["repair"], "province": "cm"}}, {"type": "Feature", "geometry": {"type": "Point", "coordinates": [98.9816542, 18.7856977]}, "properties": {"id": "cm-osm-node-2466309805", "name": "Printing, internet service", "cat": ["repair"], "province": "cm"}}, {"type": "Feature", "geometry": {"type": "Point", "coordinates": [99.0325008, 18.8143002]}, "properties": {"id": "cm-osm-node-12237456671", "name": "Rock and Bike shop", "cat": ["repair"], "province": "cm"}}, {"type": "Feature", "geometry": {"type": "Point", "coordinates": [99.0005183, 18.8386953]}, "properties": {"id": "cm-osm-node-10093830957", "name": "Runstock", "cat": ["repair"], "province": "cm"}}, {"type": "Feature", "geometry": {"type": "Point", "coordinates": [99.0005819, 18.8387272]}, "properties": {"id": "cm-osm-way-1103049661", "name": "Runstock", "cat": ["repair"], "province": "cm"}}, {"type": "Feature", "geometry": {"type": "Point", "coordinates": [98.9774164, 18.769518]}, "properties": {"id": "cm-osm-node-4880215863", "name": "SIS Distribution", "cat": ["repair"], "province": "cm"}}, {"type": "Feature", "geometry": {"type": "Point", "coordinates": [98.9624557, 18.8781944]}, "properties": {"id": "cm-osm-way-1241240506", "name": "Sangtawan PS Co. Ltd. (Repairs)", "cat": ["repair"], "province": "cm"}}, {"type": "Feature", "geometry": {"type": "Point", "coordinates": [98.9433194, 18.7700966]}, "properties": {"id": "cm-osm-node-4664813189", "name": "Siam Rice - Thai cookery school", "cat": ["repair"], "province": "cm"}}, {"type": "Feature", "geometry": {"type": "Point", "coordinates": [99.0071492, 18.7502756]}, "properties": {"id": "cm-osm-way-403406227", "name": "Siriporn Garace", "cat": ["repair"], "province": "cm"}}, {"type": "Feature", "geometry": {"type": "Point", "coordinates": [98.9953948, 18.7997719]}, "properties": {"id": "cm-osm-node-10774699556", "name": "Stainless Steel Workshop", "cat": ["repair"], "province": "cm"}}, {"type": "Feature", "geometry": {"type": "Point", "coordinates": [99.0219077, 18.7984536]}, "properties": {"id": "cm-osm-node-5377269362", "name": "True Service Center", "cat": ["repair"], "province": "cm"}}, {"type": "Feature", "geometry": {"type": "Point", "coordinates": [98.8828421, 19.0163192]}, "properties": {"id": "cm-osm-node-6124476077", "name": "Tyre repair", "cat": ["repair"], "province": "cm"}}, {"type": "Feature", "geometry": {"type": "Point", "coordinates": [98.9582743, 18.792223]}, "properties": {"id": "cm-osm-node-13533496201", "name": "U Store", "cat": ["repair"], "province": "cm"}}, {"type": "Feature", "geometry": {"type": "Point", "coordinates": [98.970566, 18.789492]}, "properties": {"id": "cm-osm-node-3421271719", "name": "U Store", "cat": ["repair"], "province": "cm"}}, {"type": "Feature", "geometry": {"type": "Point", "coordinates": [99.0004164, 18.8135825]}, "properties": {"id": "cm-osm-node-10548409950", "name": "UP Engine by Ball", "cat": ["repair"], "province": "cm"}}, {"type": "Feature", "geometry": {"type": "Point", "coordinates": [98.9869661, 18.8064984]}, "properties": {"id": "cm-osm-node-11461447069", "name": "UStore", "cat": ["repair"], "province": "cm"}}, {"type": "Feature", "geometry": {"type": "Point", "coordinates": [98.9853031, 18.7810482]}, "properties": {"id": "cm-osm-node-6816962685", "name": "Udomtana Denso Chiang Mai", "cat": ["repair"], "province": "cm"}}, {"type": "Feature", "geometry": {"type": "Point", "coordinates": [98.9804576, 18.8064147]}, "properties": {"id": "cm-osm-node-13707208409", "name": "V-Fix ซ่อมมือถือด่วน เปลี่ยนจอ เปลี่ยนแบต สาขาสันติธรรม", "cat": ["repair"], "province": "cm"}}, {"type": "Feature", "geometry": {"type": "Point", "coordinates": [98.9960661, 18.7668585]}, "properties": {"id": "cm-osm-node-4064638196", "name": "Vivo Service Center", "cat": ["repair"], "province": "cm"}}, {"type": "Feature", "geometry": {"type": "Point", "coordinates": [99.0234133, 18.7933955]}, "properties": {"id": "cm-osm-node-13663789627", "name": "Wirot Payap Service", "cat": ["repair"], "province": "cm"}}, {"type": "Feature", "geometry": {"type": "Point", "coordinates": [98.9716017, 18.9166543]}, "properties": {"id": "cm-osm-node-11101435605", "name": "Wu Paitoon Car Repair", "cat": ["repair"], "province": "cm"}}, {"type": "Feature", "geometry": {"type": "Point", "coordinates": [98.9843726, 18.8022377]}, "properties": {"id": "cm-osm-node-11897876369", "name": "Xiaomi Authorized Service Center", "cat": ["repair"], "province": "cm"}}, {"type": "Feature", "geometry": {"type": "Point", "coordinates": [98.9823603, 18.8177814]}, "properties": {"id": "cm-osm-way-314668090", "name": "Xpress Lube", "cat": ["repair"], "province": "cm"}}, {"type": "Feature", "geometry": {"type": "Point", "coordinates": [98.9717973, 18.7613794]}, "properties": {"id": "cm-osm-node-6197828272", "name": "Yokohama Tyres", "cat": ["repair"], "province": "cm"}}, {"type": "Feature", "geometry": {"type": "Point", "coordinates": [98.976512, 18.7648237]}, "properties": {"id": "cm-osm-node-13892959554", "name": "กล้องติดรถเชียงใหม่ 70Mai", "cat": ["repair"], "province": "cm"}}, {"type": "Feature", "geometry": {"type": "Point", "coordinates": [98.9950965, 18.7664006]}, "properties": {"id": "cm-osm-node-4809912121", "name": "ชิชางคอมพิวเตอร์", "cat": ["repair"], "province": "cm"}}, {"type": "Feature", "geometry": {"type": "Point", "coordinates": [99.0596248, 18.7960825]}, "properties": {"id": "cm-osm-way-98341528", "name": "ซี.เอ็ม บอดี้ซ็อป", "cat": ["repair"], "province": "cm"}}, {"type": "Feature", "geometry": {"type": "Point", "coordinates": [98.9822007, 18.7372831]}, "properties": {"id": "cm-osm-way-1161388727", "name": "ซ่อมลู่วิ่งไฟฟ้าเชียงใหม่", "cat": ["repair"], "province": "cm"}}, {"type": "Feature", "geometry": {"type": "Point", "coordinates": [99.0421063, 18.8316996]}, "properties": {"id": "cm-osm-node-3341024343", "name": "ที เอ็น เซอร์วิส", "cat": ["repair"], "province": "cm"}}, {"type": "Feature", "geometry": {"type": "Point", "coordinates": [99.1272441, 18.7371639]}, "properties": {"id": "cm-osm-node-4352241892", "name": "นายอะไหล่ยนต์ นามสกุลพร้อมใส่", "cat": ["repair"], "province": "cm"}}, {"type": "Feature", "geometry": {"type": "Point", "coordinates": [98.9683218, 18.805526]}, "properties": {"id": "cm-osm-way-314669820", "name": "บริษัท พีเจ ออโต้เซอร์วิส จำกัด", "cat": ["repair"], "province": "cm"}}, {"type": "Feature", "geometry": {"type": "Point", "coordinates": [99.0244031, 18.8084769]}, "properties": {"id": "cm-osm-node-3345702322", "name": "พงศ์ชัยยนต์", "cat": ["repair"], "province": "cm"}}, {"type": "Feature", "geometry": {"type": "Point", "coordinates": [99.0960681, 18.8542824]}, "properties": {"id": "cm-osm-node-8694816462", "name": "พล ออโต้ช็อพ", "cat": ["repair"], "province": "cm"}}, {"type": "Feature", "geometry": {"type": "Point", "coordinates": [98.8956819, 18.6108101]}, "properties": {"id": "cm-osm-node-11379081270", "name": "ยิ่งเจริญยนต์ แอร์โฟร์วีล2", "cat": ["repair"], "province": "cm"}}, {"type": "Feature", "geometry": {"type": "Point", "coordinates": [99.0436771, 18.7626129]}, "properties": {"id": "cm-osm-node-8821781871", "name": "ร้านสหภาพอลูมิเนียม", "cat": ["repair"], "province": "cm"}}, {"type": "Feature", "geometry": {"type": "Point", "coordinates": [99.1277286, 18.7297635]}, "properties": {"id": "cm-osm-node-5029967321", "name": "ลัคกี้โฟน", "cat": ["repair"], "province": "cm"}}, {"type": "Feature", "geometry": {"type": "Point", "coordinates": [98.9768524, 18.7679046]}, "properties": {"id": "cm-osm-node-6810554445", "name": "สี่แยกมอเตอร์", "cat": ["repair"], "province": "cm"}}, {"type": "Feature", "geometry": {"type": "Point", "coordinates": [99.0088202, 18.789119]}, "properties": {"id": "cm-osm-node-4584127888", "name": "หนุ่ม ออโต้เชอร์วิส", "cat": ["repair"], "province": "cm"}}, {"type": "Feature", "geometry": {"type": "Point", "coordinates": [99.0243445, 18.7891296]}, "properties": {"id": "cm-osm-node-5377268593", "name": "อำนวย 2", "cat": ["repair"], "province": "cm"}}, {"type": "Feature", "geometry": {"type": "Point", "coordinates": [99.109414, 18.8126017]}, "properties": {"id": "cm-osm-way-1100564833", "name": "อู่ช่างอั๋น เซอร์วิส", "cat": ["repair"], "province": "cm"}}, {"type": "Feature", "geometry": {"type": "Point", "coordinates": [99.1265032, 18.7413121]}, "properties": {"id": "cm-osm-node-8639558095", "name": "อู่ซ่อมรถยนต์ ระพิศพงษ์", "cat": ["repair"], "province": "cm"}}, {"type": "Feature", "geometry": {"type": "Point", "coordinates": [99.0339729, 18.8961717]}, "properties": {"id": "cm-osm-node-4594022207", "name": "อู่ทองดีการช่าง", "cat": ["repair"], "province": "cm"}}, {"type": "Feature", "geometry": {"type": "Point", "coordinates": [99.015742, 18.8755611]}, "properties": {"id": "cm-osm-node-4358578277", "name": "อู่ประยูร", "cat": ["repair"], "province": "cm"}}, {"type": "Feature", "geometry": {"type": "Point", "coordinates": [98.9989082, 18.8174681]}, "properties": {"id": "cm-osm-node-3191086268", "name": "อู่ริมปิง", "cat": ["repair"], "province": "cm"}}, {"type": "Feature", "geometry": {"type": "Point", "coordinates": [99.0657009, 18.8808797]}, "properties": {"id": "cm-osm-node-2590261883", "name": "อู่สว่างบริการ", "cat": ["repair"], "province": "cm"}}, {"type": "Feature", "geometry": {"type": "Point", "coordinates": [99.006923, 18.7810598]}, "properties": {"id": "cm-osm-node-3291685850", "name": "อ้วนกลการ", "cat": ["repair"], "province": "cm"}}, {"type": "Feature", "geometry": {"type": "Point", "coordinates": [98.9844843, 18.7985408]}, "properties": {"id": "cm-osm-node-3298131067", "name": "เวียตนามการช่าง", "cat": ["repair"], "province": "cm"}}, {"type": "Feature", "geometry": {"type": "Point", "coordinates": [98.9821527, 18.7673424]}, "properties": {"id": "cm-osm-node-3067759753", "name": "แดงกลอนประตู", "cat": ["repair"], "province": "cm"}}, {"type": "Feature", "geometry": {"type": "Point", "coordinates": [98.9811908, 18.7968211]}, "properties": {"id": "cm-osm-node-5679656124", "name": "ไอคอน", "cat": ["repair"], "province": "cm"}}]}