{"type": "FeatureCollection", "features": [{"type": "Feature", "geometry": {"type": "Point", "coordinates": [99.0111219, 18.7590936]}, "properties": {"id": "cm-osm-way-281346530", "name": "1", "cat": ["realestate"], "province": "cm"}}, {"type": "Feature", "geometry": {"type": "Point", "coordinates": [99.0108882, 18.7590699]}, "properties": {"id": "cm-osm-way-281346531", "name": "2", "cat": ["realestate"], "province": "cm"}}, {"type": "Feature", "geometry": {"type": "Point", "coordinates": [99.0106564, 18.7590311]}, "properties": {"id": "cm-osm-way-281346145", "name": "3", "cat": ["realestate"], "province": "cm"}}, {"type": "Feature", "geometry": {"type": "Point", "coordinates": [99.0104305, 18.7590001]}, "properties": {"id": "cm-osm-way-281346117", "name": "4", "cat": ["realestate"], "province": "cm"}}, {"type": "Feature", "geometry": {"type": "Point", "coordinates": [99.0102011, 18.7589683]}, "properties": {"id": "cm-osm-way-281346116", "name": "5", "cat": ["realestate"], "province": "cm"}}, {"type": "Feature", "geometry": {"type": "Point", "coordinates": [99.0099707, 18.7589379]}, "properties": {"id": "cm-osm-way-281346118", "name": "6", "cat": ["realestate"], "province": "cm"}}, {"type": "Feature", "geometry": {"type": "Point", "coordinates": [99.0097372, 18.7589047]}, "properties": {"id": "cm-osm-way-281346115", "name": "7", "cat": ["realestate"], "province": "cm"}}, {"type": "Feature", "geometry": {"type": "Point", "coordinates": [99.0194549, 18.8105559]}, "properties": {"id": "cm-osm-way-1105106232", "name": "A", "cat": ["realestate"], "province": "cm"}}, {"type": "Feature", "geometry": {"type": "Point", "coordinates": [98.9725284, 18.7525805]}, "properties": {"id": "cm-osm-way-448899459", "name": "Adam 1971 Mansion", "cat": ["realestate"], "province": "cm"}}, {"type": "Feature", "geometry": {"type": "Point", "coordinates": [98.9735552, 18.7875654]}, "properties": {"id": "cm-osm-way-690023272", "name": "Airada Apartment", "cat": ["realestate"], "province": "cm"}}, {"type": "Feature", "geometry": {"type": "Point", "coordinates": [98.9555795, 18.751122]}, "properties": {"id": "cm-osm-node-3491191763", "name": "Airport Home Condominium", "cat": ["realestate"], "province": "cm"}}, {"type": "Feature", "geometry": {"type": "Point", "coordinates": [98.9847692, 18.8148426]}, "properties": {"id": "cm-osm-way-668369306", "name": "Airy Apartments", "cat": ["realestate"], "province": "cm"}}, {"type": "Feature", "geometry": {"type": "Point", "coordinates": [98.9507447, 18.7938052]}, "properties": {"id": "cm-osm-way-575409951", "name": "Anunyaphum Apartments", "cat": ["realestate"], "province": "cm"}}, {"type": "Feature", "geometry": {"type": "Point", "coordinates": [99.0200162, 18.8107272]}, "properties": {"id": "cm-osm-way-1105106229", "name": "B", "cat": ["realestate"], "province": "cm"}}, {"type": "Feature", "geometry": {"type": "Point", "coordinates": [98.9790637, 18.7868679]}, "properties": {"id": "cm-osm-way-381163949", "name": "B.B. แมนชั่น", "cat": ["realestate"], "province": "cm"}}, {"type": "Feature", "geometry": {"type": "Point", "coordinates": [98.9931638, 18.7976547]}, "properties": {"id": "cm-osm-way-390744906", "name": "BP Grand", "cat": ["realestate"], "province": "cm"}}, {"type": "Feature", "geometry": {"type": "Point", "coordinates": [98.9615017, 18.823631]}, "properties": {"id": "cm-osm-way-233732518", "name": "Baan Suan Condo", "cat": ["realestate"], "province": "cm"}}, {"type": "Feature", "geometry": {"type": "Point", "coordinates": [98.9662773, 18.798103]}, "properties": {"id": "cm-osm-way-233741339", "name": "Baan Thai", "cat": ["realestate"], "province": "cm"}}, {"type": "Feature", "geometry": {"type": "Point", "coordinates": [98.9832796, 18.8055003]}, "properties": {"id": "cm-osm-way-323662581", "name": "Baibua Apartment", "cat": ["realestate"], "province": "cm"}}, {"type": "Feature", "geometry": {"type": "Point", "coordinates": [98.9569362, 18.8054523]}, "properties": {"id": "cm-osm-relation-19169911", "name": "Ban Haw Kham Condominium", "cat": ["realestate"], "province": "cm"}}, {"type": "Feature", "geometry": {"type": "Point", "coordinates": [98.9669191, 18.8107657]}, "properties": {"id": "cm-osm-way-392441924", "name": "Ban Jed Yod", "cat": ["realestate"], "province": "cm"}}, {"type": "Feature", "geometry": {"type": "Point", "coordinates": [98.9753227, 18.8051636]}, "properties": {"id": "cm-osm-way-1099827132", "name": "Beacon House", "cat": ["realestate"], "province": "cm"}}, {"type": "Feature", "geometry": {"type": "Point", "coordinates": [99.0334771, 18.8834883]}, "properties": {"id": "cm-osm-way-1189793262", "name": "Bedroom apartment", "cat": ["realestate"], "province": "cm"}}, {"type": "Feature", "geometry": {"type": "Point", "coordinates": [98.996969, 18.8412341]}, "properties": {"id": "cm-osm-way-442176358", "name": "Benefits Condo", "cat": ["realestate"], "province": "cm"}}, {"type": "Feature", "geometry": {"type": "Point", "coordinates": [99.0249746, 18.8051459]}, "properties": {"id": "cm-osm-way-274908862", "name": "Boat Condo", "cat": ["realestate"], "province": "cm"}}, {"type": "Feature", "geometry": {"type": "Point", "coordinates": [99.0251237, 18.8049828]}, "properties": {"id": "cm-osm-way-569946381", "name": "Boat Condo", "cat": ["realestate"], "province": "cm"}}, {"type": "Feature", "geometry": {"type": "Point", "coordinates": [99.0252095, 18.8047356]}, "properties": {"id": "cm-osm-way-569946454", "name": "Boat Condo", "cat": ["realestate"], "province": "cm"}}, {"type": "Feature", "geometry": {"type": "Point", "coordinates": [99.0167242, 18.8078534]}, "properties": {"id": "cm-osm-way-1103518736", "name": "Building A", "cat": ["realestate"], "province": "cm"}}, {"type": "Feature", "geometry": {"type": "Point", "coordinates": [99.0162669, 18.8095941]}, "properties": {"id": "cm-osm-way-528692409", "name": "Building A", "cat": ["realestate"], "province": "cm"}}, {"type": "Feature", "geometry": {"type": "Point", "coordinates": [99.0163388, 18.8089326]}, "properties": {"id": "cm-osm-way-528692412", "name": "Building A", "cat": ["realestate"], "province": "cm"}}, {"type": "Feature", "geometry": {"type": "Point", "coordinates": [99.0161382, 18.8104079]}, "properties": {"id": "cm-osm-way-731410397", "name": "Building A", "cat": ["realestate"], "province": "cm"}}, {"type": "Feature", "geometry": {"type": "Point", "coordinates": [99.0171437, 18.8079263]}, "properties": {"id": "cm-osm-way-1103518737", "name": "Building B", "cat": ["realestate"], "province": "cm"}}, {"type": "Feature", "geometry": {"type": "Point", "coordinates": [99.0168967, 18.8096746]}, "properties": {"id": "cm-osm-way-528692410", "name": "Building B", "cat": ["realestate"], "province": "cm"}}, {"type": "Feature", "geometry": {"type": "Point", "coordinates": [99.0158987, 18.8107638]}, "properties": {"id": "cm-osm-way-731410400", "name": "Building B", "cat": ["realestate"], "province": "cm"}}, {"type": "Feature", "geometry": {"type": "Point", "coordinates": [99.016977, 18.8090736]}, "properties": {"id": "cm-osm-way-731410404", "name": "Building B", "cat": ["realestate"], "province": "cm"}}, {"type": "Feature", "geometry": {"type": "Point", "coordinates": [99.0165386, 18.810034]}, "properties": {"id": "cm-osm-way-528692408", "name": "Building C", "cat": ["realestate"], "province": "cm"}}, {"type": "Feature", "geometry": {"type": "Point", "coordinates": [99.0167754, 18.8109167]}, "properties": {"id": "cm-osm-way-731410399", "name": "Building C", "cat": ["realestate"], "province": "cm"}}, {"type": "Feature", "geometry": {"type": "Point", "coordinates": [99.0171376, 18.8085575]}, "properties": {"id": "cm-osm-way-731410405", "name": "Building C", "cat": ["realestate"], "province": "cm"}}, {"type": "Feature", "geometry": {"type": "Point", "coordinates": [99.016782, 18.8105155]}, "properties": {"id": "cm-osm-way-731410398", "name": "Building D", "cat": ["realestate"], "province": "cm"}}, {"type": "Feature", "geometry": {"type": "Point", "coordinates": [99.0165564, 18.8085068]}, "properties": {"id": "cm-osm-way-731410406", "name": "Building D", "cat": ["realestate"], "province": "cm"}}, {"type": "Feature", "geometry": {"type": "Point", "coordinates": [99.0203085, 18.8103352]}, "properties": {"id": "cm-osm-way-1105106231", "name": "C", "cat": ["realestate"], "province": "cm"}}, {"type": "Feature", "geometry": {"type": "Point", "coordinates": [98.9780585, 18.8306679]}, "properties": {"id": "cm-osm-way-103270772", "name": "Casa Condo", "cat": ["realestate"], "province": "cm"}}, {"type": "Feature", "geometry": {"type": "Point", "coordinates": [98.9783912, 18.8308384]}, "properties": {"id": "cm-osm-way-344089122", "name": "Casa Condo", "cat": ["realestate"], "province": "cm"}}, {"type": "Feature", "geometry": {"type": "Point", "coordinates": [98.9782751, 18.8304106]}, "properties": {"id": "cm-osm-way-344089123", "name": "Casa Condo", "cat": ["realestate"], "province": "cm"}}, {"type": "Feature", "geometry": {"type": "Point", "coordinates": [98.9735254, 18.7877651]}, "properties": {"id": "cm-osm-way-690023273", "name": "Casa Condo @ Suandok", "cat": ["realestate"], "province": "cm"}}, {"type": "Feature", "geometry": {"type": "Point", "coordinates": [98.9977112, 18.7759946]}, "properties": {"id": "cm-osm-way-620822537", "name": "Changklan Resident Condominium", "cat": ["realestate"], "province": "cm"}}, {"type": "Feature", "geometry": {"type": "Point", "coordinates": [99.0049085, 18.7654578]}, "properties": {"id": "cm-osm-way-97675280", "name": "Chiang Mai Riverside Condominium", "cat": ["realestate"], "province": "cm"}}, {"type": "Feature", "geometry": {"type": "Point", "coordinates": [98.9792151, 18.7963707]}, "properties": {"id": "cm-osm-way-408814819", "name": "Chiangmai Residence", "cat": ["realestate"], "province": "cm"}}, {"type": "Feature", "geometry": {"type": "Point", "coordinates": [98.9624003, 18.8220312]}, "properties": {"id": "cm-osm-way-233732491", "name": "Chic View Resort and Condominium", "cat": ["realestate"], "province": "cm"}}, {"type": "Feature", "geometry": {"type": "Point", "coordinates": [98.9574387, 18.8124682]}, "properties": {"id": "cm-osm-way-314206536", "name": "Cholthida Place 1", "cat": ["realestate"], "province": "cm"}}, {"type": "Feature", "geometry": {"type": "Point", "coordinates": [98.956868, 18.81288]}, "properties": {"id": "cm-osm-way-314206544", "name": "Cholthida Place 2", "cat": ["realestate"], "province": "cm"}}, {"type": "Feature", "geometry": {"type": "Point", "coordinates": [98.9601836, 18.8034281]}, "properties": {"id": "cm-osm-relation-1703791", "name": "Chomdoi Condo", "cat": ["realestate"], "province": "cm"}}, {"type": "Feature", "geometry": {"type": "Point", "coordinates": [98.9818185, 18.7990845]}, "properties": {"id": "cm-osm-way-321601742", "name": "Cleo Place", "cat": ["realestate"], "province": "cm"}}, {"type": "Feature", "geometry": {"type": "Point", "coordinates": [98.9595872, 18.8232799]}, "properties": {"id": "cm-osm-way-421240160", "name": "Condominiums", "cat": ["realestate"], "province": "cm"}}, {"type": "Feature", "geometry": {"type": "Point", "coordinates": [98.964074, 18.8189243]}, "properties": {"id": "cm-osm-way-200686303", "name": "Convention Condominium", "cat": ["realestate"], "province": "cm"}}, {"type": "Feature", "geometry": {"type": "Point", "coordinates": [99.0199442, 18.8101988]}, "properties": {"id": "cm-osm-way-1105106233", "name": "D", "cat": ["realestate"], "province": "cm"}}, {"type": "Feature", "geometry": {"type": "Point", "coordinates": [98.9844854, 18.7976894]}, "properties": {"id": "cm-osm-way-315412318", "name": "DD Park", "cat": ["realestate"], "province": "cm"}}, {"type": "Feature", "geometry": {"type": "Point", "coordinates": [99.0074216, 18.8113545]}, "properties": {"id": "cm-osm-way-793243647", "name": "Diamant Condominium", "cat": ["realestate"], "province": "cm"}}, {"type": "Feature", "geometry": {"type": "Point", "coordinates": [99.0039259, 18.7799638]}, "properties": {"id": "cm-osm-way-150352366", "name": "Doi Ping Mansion", "cat": ["realestate"], "province": "cm"}}, {"type": "Feature", "geometry": {"type": "Point", "coordinates": [99.0195316, 18.810089]}, "properties": {"id": "cm-osm-way-1105106230", "name": "E", "cat": ["realestate"], "province": "cm"}}, {"type": "Feature", "geometry": {"type": "Point", "coordinates": [98.9579514, 18.7808865]}, "properties": {"id": "cm-osm-way-907727121", "name": "Flash Express -แฟลช โฮม สาขาสุเทพ", "cat": ["realestate"], "province": "cm"}}, {"type": "Feature", "geometry": {"type": "Point", "coordinates": [98.9503562, 18.7793445]}, "properties": {"id": "cm-osm-way-772861539", "name": "For-Rest Hill", "cat": ["realestate"], "province": "cm"}}, {"type": "Feature", "geometry": {"type": "Point", "coordinates": [98.950036, 18.7794326]}, "properties": {"id": "cm-osm-way-772861541", "name": "For-Rest Hill 2", "cat": ["realestate"], "province": "cm"}}, {"type": "Feature", "geometry": {"type": "Point", "coordinates": [98.9702492, 18.7991479]}, "properties": {"id": "cm-osm-way-1155948948", "name": "Fountain Nimman Palm Springs", "cat": ["realestate"], "province": "cm"}}, {"type": "Feature", "geometry": {"type": "Point", "coordinates": [98.9521994, 18.7932852]}, "properties": {"id": "cm-osm-way-200249057", "name": "Freshy Resident", "cat": ["realestate"], "province": "cm"}}, {"type": "Feature", "geometry": {"type": "Point", "coordinates": [99.0352746, 18.7644806]}, "properties": {"id": "cm-osm-way-551839379", "name": "Grand Parano", "cat": ["realestate"], "province": "cm"}}, {"type": "Feature", "geometry": {"type": "Point", "coordinates": [99.0021311, 18.7813829]}, "properties": {"id": "cm-osm-node-4876347021", "name": "H.T. Property Management", "cat": ["realestate"], "province": "cm"}}, {"type": "Feature", "geometry": {"type": "Point", "coordinates": [98.9803325, 18.734246]}, "properties": {"id": "cm-osm-way-1137448001", "name": "Happy House", "cat": ["realestate"], "province": "cm"}}, {"type": "Feature", "geometry": {"type": "Point", "coordinates": [98.9614597, 18.8063044]}, "properties": {"id": "cm-osm-way-421101560", "name": "Hillcrest Apartments", "cat": ["realestate"], "province": "cm"}}, {"type": "Feature", "geometry": {"type": "Point", "coordinates": [98.9706768, 18.8010518]}, "properties": {"id": "cm-osm-way-103523135", "name": "Hillside 4", "cat": ["realestate"], "province": "cm"}}, {"type": "Feature", "geometry": {"type": "Point", "coordinates": [98.9658656, 18.7968587]}, "properties": {"id": "cm-osm-way-97705959", "name": "Hillside Condo 2", "cat": ["realestate"], "province": "cm"}}, {"type": "Feature", "geometry": {"type": "Point", "coordinates": [98.964832, 18.7964793]}, "properties": {"id": "cm-osm-way-97705950", "name": "Hillside Condo 3", "cat": ["realestate"], "province": "cm"}}, {"type": "Feature", "geometry": {"type": "Point", "coordinates": [99.024262, 18.7976605]}, "properties": {"id": "cm-osm-way-101457467", "name": "Hillside Payap Condo", "cat": ["realestate"], "province": "cm"}}, {"type": "Feature", "geometry": {"type": "Point", "coordinates": [99.0259164, 18.7960145]}, "properties": {"id": "cm-osm-way-374573559", "name": "Hillside Payap Condo 9", "cat": ["realestate"], "province": "cm"}}, {"type": "Feature", "geometry": {"type": "Point", "coordinates": [98.964436, 18.813393]}, "properties": {"id": "cm-osm-way-674021264", "name": "Hilltania", "cat": ["realestate"], "province": "cm"}}, {"type": "Feature", "geometry": {"type": "Point", "coordinates": [98.9621667, 18.8232325]}, "properties": {"id": "cm-osm-way-420001925", "name": "Hinokï Condo N", "cat": ["realestate"], "province": "cm"}}, {"type": "Feature", "geometry": {"type": "Point", "coordinates": [98.9623563, 18.8230142]}, "properties": {"id": "cm-osm-way-420001924", "name": "Hinokï Condo S", "cat": ["realestate"], "province": "cm"}}, {"type": "Feature", "geometry": {"type": "Point", "coordinates": [98.9505348, 18.7916554]}, "properties": {"id": "cm-osm-way-575408704", "name": "Home and Hill", "cat": ["realestate"], "province": "cm"}}, {"type": "Feature", "geometry": {"type": "Point", "coordinates": [98.9742954, 18.7973045]}, "properties": {"id": "cm-osm-way-246778880", "name": "Huaykaew Residence", "cat": ["realestate"], "province": "cm"}}, {"type": "Feature", "geometry": {"type": "Point", "coordinates": [98.9675523, 18.8114455]}, "properties": {"id": "cm-osm-way-757295245", "name": "Ing Place", "cat": ["realestate"], "province": "cm"}}, {"type": "Feature", "geometry": {"type": "Point", "coordinates": [98.9637699, 18.8082141]}, "properties": {"id": "cm-osm-way-200686325", "name": "JC Hill Condominium", "cat": ["realestate"], "province": "cm"}}, {"type": "Feature", "geometry": {"type": "Point", "coordinates": [98.9671403, 18.814725]}, "properties": {"id": "cm-osm-way-209762044", "name": "Karnkanok Condominium Project 3 Jed Yod Greenery Hill", "cat": ["realestate"], "province": "cm"}}, {"type": "Feature", "geometry": {"type": "Point", "coordinates": [98.953662, 18.7924556]}, "properties": {"id": "cm-osm-way-689714480", "name": "La Residencia", "cat": ["realestate"], "province": "cm"}}, {"type": "Feature", "geometry": {"type": "Point", "coordinates": [98.9732098, 18.8147082]}, "properties": {"id": "cm-osm-way-200716171", "name": "Lawa Fame", "cat": ["realestate"], "province": "cm"}}, {"type": "Feature", "geometry": {"type": "Point", "coordinates": [99.0075265, 18.8260398]}, "properties": {"id": "cm-osm-way-389340594", "name": "Le Siri", "cat": ["realestate"], "province": "cm"}}, {"type": "Feature", "geometry": {"type": "Point", "coordinates": [98.9815663, 18.7807614]}, "properties": {"id": "cm-osm-way-102826519", "name": "Life in Town", "cat": ["realestate"], "province": "cm"}}, {"type": "Feature", "geometry": {"type": "Point", "coordinates": [98.9651413, 18.7998337]}, "properties": {"id": "cm-osm-way-428555414", "name": "Liv@Nimman", "cat": ["realestate"], "province": "cm"}}, {"type": "Feature", "geometry": {"type": "Point", "coordinates": [99.0062784, 18.7856289]}, "properties": {"id": "cm-osm-node-3395098035", "name": "Lucky Home", "cat": ["realestate"], "province": "cm"}}, {"type": "Feature", "geometry": {"type": "Point", "coordinates": [98.9681202, 18.7942848]}, "properties": {"id": "cm-osm-way-315411502", "name": "MP Place", "cat": ["realestate"], "province": "cm"}}, {"type": "Feature", "geometry": {"type": "Point", "coordinates": [98.9775505, 18.8033687]}, "properties": {"id": "cm-osm-way-448770012", "name": "MS Place", "cat": ["realestate"], "province": "cm"}}, {"type": "Feature", "geometry": {"type": "Point", "coordinates": [98.9771944, 18.7743599]}, "properties": {"id": "cm-osm-node-6992284986", "name": "Maxg Property CM Ltd", "cat": ["realestate"], "province": "cm"}}, {"type": "Feature", "geometry": {"type": "Point", "coordinates": [98.9683006, 18.8034926]}, "properties": {"id": "cm-osm-way-324435251", "name": "Moda Condo", "cat": ["realestate"], "province": "cm"}}, {"type": "Feature", "geometry": {"type": "Point", "coordinates": [98.9608493, 18.8207359]}, "properties": {"id": "cm-osm-way-233732489", "name": "Mountain Front Condominium", "cat": ["realestate"], "province": "cm"}}, {"type": "Feature", "geometry": {"type": "Point", "coordinates": [98.9608592, 18.8215055]}, "properties": {"id": "cm-osm-way-233732507", "name": "Mountain View Condominium", "cat": ["realestate"], "province": "cm"}}, {"type": "Feature", "geometry": {"type": "Point", "coordinates": [99.0241519, 18.7980712]}, "properties": {"id": "cm-osm-way-312247581", "name": "My Hip Condo", "cat": ["realestate"], "province": "cm"}}, {"type": "Feature", "geometry": {"type": "Point", "coordinates": [98.9910581, 18.7763322]}, "properties": {"id": "cm-osm-way-676257962", "name": "My Place Apartments", "cat": ["realestate"], "province": "cm"}}, {"type": "Feature", "geometry": {"type": "Point", "coordinates": [98.9657208, 18.799309]}, "properties": {"id": "cm-osm-way-464518677", "name": "N Nimmanhaemin", "cat": ["realestate"], "province": "cm"}}, {"type": "Feature", "geometry": {"type": "Point", "coordinates": [98.9743977, 18.798675]}, "properties": {"id": "cm-osm-way-97705980", "name": "Nakornping Condominium", "cat": ["realestate"], "province": "cm"}}, {"type": "Feature", "geometry": {"type": "Point", "coordinates": [98.9779434, 18.7986867]}, "properties": {"id": "cm-osm-way-327940653", "name": "Nara Apartment", "cat": ["realestate"], "province": "cm"}}, {"type": "Feature", "geometry": {"type": "Point", "coordinates": [98.9632, 18.7993144]}, "properties": {"id": "cm-osm-way-666019830", "name": "Nimman and Me", "cat": ["realestate"], "province": "cm"}}, {"type": "Feature", "geometry": {"type": "Point", "coordinates": [98.9657329, 18.8073235]}, "properties": {"id": "cm-osm-way-233738070", "name": "O2 450 Apartments", "cat": ["realestate"], "province": "cm"}}, {"type": "Feature", "geometry": {"type": "Point", "coordinates": [98.9676955, 18.7862035]}, "properties": {"id": "cm-osm-relation-11636167", "name": "One Plus Suan Dok", "cat": ["realestate"], "province": "cm"}}, {"type": "Feature", "geometry": {"type": "Point", "coordinates": [98.972869, 18.8001042]}, "properties": {"id": "cm-osm-way-322209657", "name": "One+", "cat": ["realestate"], "province": "cm"}}, {"type": "Feature", "geometry": {"type": "Point", "coordinates": [98.976915, 18.8132868]}, "properties": {"id": "cm-osm-way-438485244", "name": "One+", "cat": ["realestate"], "province": "cm"}}, {"type": "Feature", "geometry": {"type": "Point", "coordinates": [98.9609521, 18.801587]}, "properties": {"id": "cm-osm-way-285999593", "name": "One+ Condo", "cat": ["realestate"], "province": "cm"}}, {"type": "Feature", "geometry": {"type": "Point", "coordinates": [98.9921971, 18.8108169]}, "properties": {"id": "cm-osm-way-331505427", "name": "One+ Condo", "cat": ["realestate"], "province": "cm"}}, {"type": "Feature", "geometry": {"type": "Point", "coordinates": [98.9590977, 18.8000831]}, "properties": {"id": "cm-osm-way-331608117", "name": "One+ Condo CMU 1", "cat": ["realestate"], "province": "cm"}}, {"type": "Feature", "geometry": {"type": "Point", "coordinates": [98.977175, 18.8131954]}, "properties": {"id": "cm-osm-way-200708984", "name": "One+ Jed Yod", "cat": ["realestate"], "province": "cm"}}, {"type": "Feature", "geometry": {"type": "Point", "coordinates": [98.9736396, 18.7870754]}, "properties": {"id": "cm-osm-way-1081701120", "name": "Oneplus Condo 4", "cat": ["realestate"], "province": "cm"}}, {"type": "Feature", "geometry": {"type": "Point", "coordinates": [98.973687, 18.7868346]}, "properties": {"id": "cm-osm-way-1081701121", "name": "Oneplus Condo 5", "cat": ["realestate"], "province": "cm"}}, {"type": "Feature", "geometry": {"type": "Point", "coordinates": [98.9737276, 18.7866147]}, "properties": {"id": "cm-osm-way-1081701122", "name": "Oneplus Condo 7", "cat": ["realestate"], "province": "cm"}}, {"type": "Feature", "geometry": {"type": "Point", "coordinates": [98.9714517, 18.7974372]}, "properties": {"id": "cm-osm-way-97985635", "name": "P. T. Residence", "cat": ["realestate"], "province": "cm"}}, {"type": "Feature", "geometry": {"type": "Point", "coordinates": [98.9699722, 18.7985529]}, "properties": {"id": "cm-osm-way-1155949045", "name": "Palm Springs Nimman Areca", "cat": ["realestate"], "province": "cm"}}, {"type": "Feature", "geometry": {"type": "Point", "coordinates": [98.9731043, 18.8000017]}, "properties": {"id": "cm-osm-way-322209656", "name": "Pansook The Urban Condo", "cat": ["realestate"], "province": "cm"}}, {"type": "Feature", "geometry": {"type": "Point", "coordinates": [98.9702451, 18.798814]}, "properties": {"id": "cm-osm-way-1155948947", "name": "Parlor Nimman Palm Springs", "cat": ["realestate"], "province": "cm"}}, {"type": "Feature", "geometry": {"type": "Point", "coordinates": [98.9905641, 18.7786065]}, "properties": {"id": "cm-osm-node-2652915317", "name": "Petchatarana Court", "cat": ["realestate"], "province": "cm"}}, {"type": "Feature", "geometry": {"type": "Point", "coordinates": [98.9705535, 18.7994505]}, "properties": {"id": "cm-osm-way-1155948946", "name": "Phoenix Nimman Palm Springs", "cat": ["realestate"], "province": "cm"}}, {"type": "Feature", "geometry": {"type": "Point", "coordinates": [98.9633214, 18.8082698]}, "properties": {"id": "cm-osm-way-440784243", "name": "Phufa Place", "cat": ["realestate"], "province": "cm"}}, {"type": "Feature", "geometry": {"type": "Point", "coordinates": [98.9873433, 18.7512166]}, "properties": {"id": "cm-osm-way-339681642", "name": "Ping View", "cat": ["realestate"], "province": "cm"}}, {"type": "Feature", "geometry": {"type": "Point", "coordinates": [98.9843258, 18.8452512]}, "properties": {"id": "cm-osm-way-1442981269", "name": "Ping Wali", "cat": ["realestate"], "province": "cm"}}, {"type": "Feature", "geometry": {"type": "Point", "coordinates": [98.9654316, 18.8015045]}, "properties": {"id": "cm-osm-way-103555878", "name": "Play Condominium", "cat": ["realestate"], "province": "cm"}}, {"type": "Feature", "geometry": {"type": "Point", "coordinates": [98.9608845, 18.8047321]}, "properties": {"id": "cm-osm-way-79890317", "name": "Prestige Chiang Mai", "cat": ["realestate"], "province": "cm"}}, {"type": "Feature", "geometry": {"type": "Point", "coordinates": [98.9684083, 18.8042409]}, "properties": {"id": "cm-osm-way-324434733", "name": "Promt", "cat": ["realestate"], "province": "cm"}}, {"type": "Feature", "geometry": {"type": "Point", "coordinates": [98.957245, 18.815034]}, "properties": {"id": "cm-osm-way-886606390", "name": "Puncha Place", "cat": ["realestate"], "province": "cm"}}, {"type": "Feature", "geometry": {"type": "Point", "coordinates": [98.9650401, 18.7970992]}, "properties": {"id": "cm-osm-way-199956849", "name": "Punna Residence", "cat": ["realestate"], "province": "cm"}}, {"type": "Feature", "geometry": {"type": "Point", "coordinates": [98.9651009, 18.7975914]}, "properties": {"id": "cm-osm-way-233740168", "name": "Punna Residence", "cat": ["realestate"], "province": "cm"}}, {"type": "Feature", "geometry": {"type": "Point", "coordinates": [98.9533585, 18.792615]}, "properties": {"id": "cm-osm-way-325243860", "name": "Punna Resident", "cat": ["realestate"], "province": "cm"}}, {"type": "Feature", "geometry": {"type": "Point", "coordinates": [98.9680566, 18.8087974]}, "properties": {"id": "cm-osm-way-376259440", "name": "Residence SG", "cat": ["realestate"], "province": "cm"}}, {"type": "Feature", "geometry": {"type": "Point", "coordinates": [98.994239, 18.8251532]}, "properties": {"id": "cm-osm-relation-4620056", "name": "Rim Tara Residence Patan", "cat": ["realestate"], "province": "cm"}}, {"type": "Feature", "geometry": {"type": "Point", "coordinates": [98.9706035, 18.7989534]}, "properties": {"id": "cm-osm-way-1155948935", "name": "Royal Nimman Palm Springs", "cat": ["realestate"], "province": "cm"}}, {"type": "Feature", "geometry": {"type": "Point", "coordinates": [98.9683882, 18.7854148]}, "properties": {"id": "cm-osm-way-688992834", "name": "SD Condominium", "cat": ["realestate"], "province": "cm"}}, {"type": "Feature", "geometry": {"type": "Point", "coordinates": [98.9643758, 18.8064959]}, "properties": {"id": "cm-osm-way-212352362", "name": "SN Residence", "cat": ["realestate"], "province": "cm"}}, {"type": "Feature", "geometry": {"type": "Point", "coordinates": [98.9554763, 18.785609]}, "properties": {"id": "cm-osm-way-1113320879", "name": "SP Palace", "cat": ["realestate"], "province": "cm"}}, {"type": "Feature", "geometry": {"type": "Point", "coordinates": [99.0235982, 18.7852144]}, "properties": {"id": "cm-osm-node-4347874189", "name": "SR Complex Condo", "cat": ["realestate"], "province": "cm"}}, {"type": "Feature", "geometry": {"type": "Point", "coordinates": [98.9507931, 18.7912548]}, "properties": {"id": "cm-osm-way-438162137", "name": "Sa-nguan Malee Mansion", "cat": ["realestate"], "province": "cm"}}, {"type": "Feature", "geometry": {"type": "Point", "coordinates": [98.9673338, 18.8108049]}, "properties": {"id": "cm-osm-way-299766906", "name": "Sahataya Mansion", "cat": ["realestate"], "province": "cm"}}, {"type": "Feature", "geometry": {"type": "Point", "coordinates": [98.9737772, 18.8001094]}, "properties": {"id": "cm-osm-way-97705970", "name": "Sakulchai Place", "cat": ["realestate"], "province": "cm"}}, {"type": "Feature", "geometry": {"type": "Point", "coordinates": [98.9897973, 18.7789292]}, "properties": {"id": "cm-osm-way-381248605", "name": "Smith Suites", "cat": ["realestate"], "province": "cm"}}, {"type": "Feature", "geometry": {"type": "Point", "coordinates": [98.9829792, 18.8211448]}, "properties": {"id": "cm-osm-way-444083046", "name": "Stone Building", "cat": ["realestate"], "province": "cm"}}, {"type": "Feature", "geometry": {"type": "Point", "coordinates": [98.9592153, 18.8023395]}, "properties": {"id": "cm-osm-way-635485960", "name": "Stylish Condominium, A", "cat": ["realestate"], "province": "cm"}}, {"type": "Feature", "geometry": {"type": "Point", "coordinates": [98.9760845, 18.8026649]}, "properties": {"id": "cm-osm-node-3287068985", "name": "Sujphakit House", "cat": ["realestate"], "province": "cm"}}, {"type": "Feature", "geometry": {"type": "Point", "coordinates": [98.9657412, 18.8115782]}, "properties": {"id": "cm-osm-way-554755573", "name": "Sukhasem Residence", "cat": ["realestate"], "province": "cm"}}, {"type": "Feature", "geometry": {"type": "Point", "coordinates": [98.9754728, 18.8051433]}, "properties": {"id": "cm-osm-way-1099827133", "name": "Sunny House", "cat": ["realestate"], "province": "cm"}}, {"type": "Feature", "geometry": {"type": "Point", "coordinates": [99.0216819, 18.7268828]}, "properties": {"id": "cm-osm-node-1484554967", "name": "Sunshine Apartment", "cat": ["realestate"], "province": "cm"}}, {"type": "Feature", "geometry": {"type": "Point", "coordinates": [99.0156889, 18.7841401]}, "properties": {"id": "cm-osm-way-339329422", "name": "Supanich Condominiums", "cat": ["realestate"], "province": "cm"}}, {"type": "Feature", "geometry": {"type": "Point", "coordinates": [98.9736882, 18.8058963]}, "properties": {"id": "cm-osm-way-961221566", "name": "The 8 Condominium", "cat": ["realestate"], "province": "cm"}}, {"type": "Feature", "geometry": {"type": "Point", "coordinates": [99.0163529, 18.80318]}, "properties": {"id": "cm-osm-way-1461425346", "name": "The Base", "cat": ["realestate"], "province": "cm"}}, {"type": "Feature", "geometry": {"type": "Point", "coordinates": [98.9660113, 18.7976127]}, "properties": {"id": "cm-osm-way-97705974", "name": "The Empire Residence", "cat": ["realestate"], "province": "cm"}}, {"type": "Feature", "geometry": {"type": "Point", "coordinates": [98.952016, 18.7874622]}, "properties": {"id": "cm-osm-way-318775785", "name": "The Gallery Hill", "cat": ["realestate"], "province": "cm"}}, {"type": "Feature", "geometry": {"type": "Point", "coordinates": [98.9631964, 18.8008312]}, "properties": {"id": "cm-osm-way-428554208", "name": "The Impress", "cat": ["realestate"], "province": "cm"}}, {"type": "Feature", "geometry": {"type": "Point", "coordinates": [98.9847281, 18.8027533]}, "properties": {"id": "cm-osm-way-388787455", "name": "The Iris Chotana", "cat": ["realestate"], "province": "cm"}}, {"type": "Feature", "geometry": {"type": "Point", "coordinates": [98.9466949, 18.7661834]}, "properties": {"id": "cm-osm-way-334869222", "name": "The Living Hills", "cat": ["realestate"], "province": "cm"}}, {"type": "Feature", "geometry": {"type": "Point", "coordinates": [98.9712155, 18.7972714]}, "properties": {"id": "cm-osm-way-704533310", "name": "The Mirror", "cat": ["realestate"], "province": "cm"}}, {"type": "Feature", "geometry": {"type": "Point", "coordinates": [99.0118712, 18.7244882]}, "properties": {"id": "cm-osm-way-530500702", "name": "The People Park Hill Resident", "cat": ["realestate"], "province": "cm"}}, {"type": "Feature", "geometry": {"type": "Point", "coordinates": [98.9507414, 18.7739883]}, "properties": {"id": "cm-osm-way-563173353", "name": "The Star Hill", "cat": ["realestate"], "province": "cm"}}, {"type": "Feature", "geometry": {"type": "Point", "coordinates": [98.9651622, 18.7989153]}, "properties": {"id": "cm-osm-way-233741338", "name": "The Unique", "cat": ["realestate"], "province": "cm"}}, {"type": "Feature", "geometry": {"type": "Point", "coordinates": [99.0129762, 18.8225896]}, "properties": {"id": "cm-osm-way-386744857", "name": "The Unique Condominium", "cat": ["realestate"], "province": "cm"}}, {"type": "Feature", "geometry": {"type": "Point", "coordinates": [98.9677737, 18.7839145]}, "properties": {"id": "cm-osm-way-688966851", "name": "The Wing", "cat": ["realestate"], "province": "cm"}}, {"type": "Feature", "geometry": {"type": "Point", "coordinates": [99.0085168, 18.823588]}, "properties": {"id": "cm-osm-way-529109843", "name": "The Y-residence", "cat": ["realestate"], "province": "cm"}}, {"type": "Feature", "geometry": {"type": "Point", "coordinates": [98.9664511, 18.7881574]}, "properties": {"id": "cm-osm-way-438088262", "name": "TheBNCResidence", "cat": ["realestate"], "province": "cm"}}, {"type": "Feature", "geometry": {"type": "Point", "coordinates": [98.9573245, 18.7859681]}, "properties": {"id": "cm-osm-way-690060609", "name": "Ton Moke", "cat": ["realestate"], "province": "cm"}}, {"type": "Feature", "geometry": {"type": "Point", "coordinates": [98.9510403, 18.7779468]}, "properties": {"id": "cm-osm-way-1152611228", "name": "Top Mansion", "cat": ["realestate"], "province": "cm"}}, {"type": "Feature", "geometry": {"type": "Point", "coordinates": [98.951076, 18.7780866]}, "properties": {"id": "cm-osm-way-1152611229", "name": "Top Mansion", "cat": ["realestate"], "province": "cm"}}, {"type": "Feature", "geometry": {"type": "Point", "coordinates": [98.9509824, 18.7786418]}, "properties": {"id": "cm-osm-way-690226423", "name": "Top Mansion", "cat": ["realestate"], "province": "cm"}}, {"type": "Feature", "geometry": {"type": "Point", "coordinates": [98.9601867, 18.8235382]}, "properties": {"id": "cm-osm-way-233857772", "name": "Touch Hill 1", "cat": ["realestate"], "province": "cm"}}, {"type": "Feature", "geometry": {"type": "Point", "coordinates": [98.9644575, 18.8076633]}, "properties": {"id": "cm-osm-way-207150306", "name": "Trams Condominium", "cat": ["realestate"], "province": "cm"}}, {"type": "Feature", "geometry": {"type": "Point", "coordinates": [98.9935622, 18.7702731]}, "properties": {"id": "cm-osm-way-405598404", "name": "Tree Boutique", "cat": ["realestate"], "province": "cm"}}, {"type": "Feature", "geometry": {"type": "Point", "coordinates": [98.9940737, 18.7714678]}, "properties": {"id": "cm-osm-way-406558112", "name": "Tree Retro", "cat": ["realestate"], "province": "cm"}}, {"type": "Feature", "geometry": {"type": "Point", "coordinates": [99.0003051, 18.7790416]}, "properties": {"id": "cm-osm-way-257211684", "name": "Twin Peaks", "cat": ["realestate"], "province": "cm"}}, {"type": "Feature", "geometry": {"type": "Point", "coordinates": [99.0006729, 18.7790112]}, "properties": {"id": "cm-osm-way-257211706", "name": "Twin Peaks", "cat": ["realestate"], "province": "cm"}}, {"type": "Feature", "geometry": {"type": "Point", "coordinates": [98.9557518, 18.7849485]}, "properties": {"id": "cm-osm-way-246307287", "name": "Umong Place", "cat": ["realestate"], "province": "cm"}}, {"type": "Feature", "geometry": {"type": "Point", "coordinates": [98.9834721, 18.8208824]}, "properties": {"id": "cm-osm-way-444083045", "name": "Wood Building", "cat": ["realestate"], "province": "cm"}}, {"type": "Feature", "geometry": {"type": "Point", "coordinates": [98.9883413, 18.7992244]}, "properties": {"id": "cm-osm-way-762611399", "name": "changphuak residenc", "cat": ["realestate"], "province": "cm"}}, {"type": "Feature", "geometry": {"type": "Point", "coordinates": [98.9816926, 18.8033514]}, "properties": {"id": "cm-osm-way-323001455", "name": "d'vieng Santitham", "cat": ["realestate"], "province": "cm"}}, {"type": "Feature", "geometry": {"type": "Point", "coordinates": [98.9817236, 18.8035845]}, "properties": {"id": "cm-osm-way-323001456", "name": "d'vieng Santitham", "cat": ["realestate"], "province": "cm"}}, {"type": "Feature", "geometry": {"type": "Point", "coordinates": [99.0162597, 18.8206163]}, "properties": {"id": "cm-osm-node-10583292106", "name": "is Sara", "cat": ["realestate"], "province": "cm"}}, {"type": "Feature", "geometry": {"type": "Point", "coordinates": [98.9636897, 18.7993433]}, "properties": {"id": "cm-osm-way-464520138", "name": "กาญจน์ศิริเพลส", "cat": ["realestate"], "province": "cm"}}, {"type": "Feature", "geometry": {"type": "Point", "coordinates": [99.0371217, 18.80185]}, "properties": {"id": "cm-osm-way-199754181", "name": "ขวัญศรี แมนชั่น", "cat": ["realestate"], "province": "cm"}}, {"type": "Feature", "geometry": {"type": "Point", "coordinates": [98.9780789, 18.8039685]}, "properties": {"id": "cm-osm-node-2530404628", "name": "คาราเมล แมนชั่น", "cat": ["realestate"], "province": "cm"}}, {"type": "Feature", "geometry": {"type": "Point", "coordinates": [98.987515, 18.7970759]}, "properties": {"id": "cm-osm-way-273464906", "name": "จักรปราณีคอร์ท", "cat": ["realestate"], "province": "cm"}}, {"type": "Feature", "geometry": {"type": "Point", "coordinates": [98.9753302, 18.8002472]}, "properties": {"id": "cm-osm-way-321939984", "name": "ชาวไทยแมนชั่น", "cat": ["realestate"], "province": "cm"}}, {"type": "Feature", "geometry": {"type": "Point", "coordinates": [98.9588332, 18.7811704]}, "properties": {"id": "cm-osm-way-961368568", "name": "ชาโต เชียงใหม่", "cat": ["realestate"], "province": "cm"}}, {"type": "Feature", "geometry": {"type": "Point", "coordinates": [98.9880819, 18.7990778]}, "properties": {"id": "cm-osm-way-762611400", "name": "ช้างเผือกเรสซิเด้นท์", "cat": ["realestate"], "province": "cm"}}, {"type": "Feature", "geometry": {"type": "Point", "coordinates": [98.9951551, 18.7838653]}, "properties": {"id": "cm-osm-way-255996747", "name": "ซิตี้ เฮ้าส์", "cat": ["realestate"], "province": "cm"}}, {"type": "Feature", "geometry": {"type": "Point", "coordinates": [98.9969947, 18.7894196]}, "properties": {"id": "cm-osm-way-334799748", "name": "ซิตี้วิวทาวเวอร์ คอนโดมิเนียม", "cat": ["realestate"], "province": "cm"}}, {"type": "Feature", "geometry": {"type": "Point", "coordinates": [98.9664188, 18.7878893]}, "properties": {"id": "cm-osm-way-438088111", "name": "ฐิติกรเพลส", "cat": ["realestate"], "province": "cm"}}, {"type": "Feature", "geometry": {"type": "Point", "coordinates": [98.9621806, 18.8003164]}, "properties": {"id": "cm-osm-way-428555410", "name": "ณาดา เฮ้าส์", "cat": ["realestate"], "province": "cm"}}, {"type": "Feature", "geometry": {"type": "Point", "coordinates": [98.9970718, 18.7831568]}, "properties": {"id": "cm-osm-way-334633015", "name": "ดวงตะวันคอนโดมิเนียม", "cat": ["realestate"], "province": "cm"}}, {"type": "Feature", "geometry": {"type": "Point", "coordinates": [98.9560301, 18.8135342]}, "properties": {"id": "cm-osm-way-1144798094", "name": "ดี ฮิมดอย อพาร์ตเมนต์", "cat": ["realestate"], "province": "cm"}}, {"type": "Feature", "geometry": {"type": "Point", "coordinates": [99.018231, 18.7934496]}, "properties": {"id": "cm-osm-way-98012992", "name": "ดี-ทาวน์อินน์", "cat": ["realestate"], "province": "cm"}}, {"type": "Feature", "geometry": {"type": "Point", "coordinates": [99.0154972, 18.7366791]}, "properties": {"id": "cm-osm-node-3870411584", "name": "ดีญ่าวาเลยี", "cat": ["realestate"], "province": "cm"}}, {"type": "Feature", "geometry": {"type": "Point", "coordinates": [98.9745903, 18.8036184]}, "properties": {"id": "cm-osm-way-321940829", "name": "ทิพย์รัตน์ เพลส", "cat": ["realestate"], "province": "cm"}}, {"type": "Feature", "geometry": {"type": "Point", "coordinates": [98.9543546, 18.8096971]}, "properties": {"id": "cm-osm-way-1144799217", "name": "ธนภัส อพาร์ตเมนต์", "cat": ["realestate"], "province": "cm"}}, {"type": "Feature", "geometry": {"type": "Point", "coordinates": [98.9831204, 18.7995604]}, "properties": {"id": "cm-osm-way-596589244", "name": "ธนิษฐาอพาร์ทเมนต์", "cat": ["realestate"], "province": "cm"}}, {"type": "Feature", "geometry": {"type": "Point", "coordinates": [98.9828298, 18.7941173]}, "properties": {"id": "cm-osm-node-3384062562", "name": "ธารทิพย์คอร์ท", "cat": ["realestate"], "province": "cm"}}, {"type": "Feature", "geometry": {"type": "Point", "coordinates": [98.9790724, 18.7919237]}, "properties": {"id": "cm-osm-node-3385505419", "name": "นงนภัส คอร์ท", "cat": ["realestate"], "province": "cm"}}, {"type": "Feature", "geometry": {"type": "Point", "coordinates": [98.9877145, 18.7795041]}, "properties": {"id": "cm-osm-way-1214120993", "name": "นันทาราม คอร์ท", "cat": ["realestate"], "province": "cm"}}, {"type": "Feature", "geometry": {"type": "Point", "coordinates": [98.9655905, 18.8002414]}, "properties": {"id": "cm-osm-way-428554438", "name": "นิมมาน คอร์ท", "cat": ["realestate"], "province": "cm"}}, {"type": "Feature", "geometry": {"type": "Point", "coordinates": [98.9557655, 18.752702]}, "properties": {"id": "cm-osm-way-297689278", "name": "บ้านชบา", "cat": ["realestate"], "province": "cm"}}, {"type": "Feature", "geometry": {"type": "Point", "coordinates": [98.9762214, 18.8005475]}, "properties": {"id": "cm-osm-way-324372019", "name": "บ้านทอฉัตร", "cat": ["realestate"], "province": "cm"}}, {"type": "Feature", "geometry": {"type": "Point", "coordinates": [98.9614314, 18.800946]}, "properties": {"id": "cm-osm-node-4596318503", "name": "บ้านทิวสุเทพ", "cat": ["realestate"], "province": "cm"}}, {"type": "Feature", "geometry": {"type": "Point", "coordinates": [98.972533, 18.7884585]}, "properties": {"id": "cm-osm-way-97989023", "name": "บ้านบุญญรัตน์", "cat": ["realestate"], "province": "cm"}}, {"type": "Feature", "geometry": {"type": "Point", "coordinates": [98.9878485, 18.7977288]}, "properties": {"id": "cm-osm-way-457433556", "name": "บ้านบุษบา 2", "cat": ["realestate"], "province": "cm"}}, {"type": "Feature", "geometry": {"type": "Point", "coordinates": [98.9544572, 18.7906527]}, "properties": {"id": "cm-osm-way-736401208", "name": "บ้านปทุมวัน มช.", "cat": ["realestate"], "province": "cm"}}, {"type": "Feature", "geometry": {"type": "Point", "coordinates": [98.9773197, 18.8034825]}, "properties": {"id": "cm-osm-way-668372292", "name": "บ้านร่มเย็น", "cat": ["realestate"], "province": "cm"}}, {"type": "Feature", "geometry": {"type": "Point", "coordinates": [98.993557, 18.8072454]}, "properties": {"id": "cm-osm-way-260048595", "name": "บ้านศรีมงคล", "cat": ["realestate"], "province": "cm"}}, {"type": "Feature", "geometry": {"type": "Point", "coordinates": [99.0177696, 18.7554562]}, "properties": {"id": "cm-osm-way-341729084", "name": "บ้านสดุดี", "cat": ["realestate"], "province": "cm"}}, {"type": "Feature", "geometry": {"type": "Point", "coordinates": [98.9758774, 18.8051367]}, "properties": {"id": "cm-osm-way-324429970", "name": "บ้านสถิตสถาพร", "cat": ["realestate"], "province": "cm"}}, {"type": "Feature", "geometry": {"type": "Point", "coordinates": [99.1042109, 18.7937833]}, "properties": {"id": "cm-osm-way-89561625", "name": "บ้านสบาย", "cat": ["realestate"], "province": "cm"}}, {"type": "Feature", "geometry": {"type": "Point", "coordinates": [98.9802972, 18.7505613]}, "properties": {"id": "cm-osm-way-448248263", "name": "บ้านสวน", "cat": ["realestate"], "province": "cm"}}, {"type": "Feature", "geometry": {"type": "Point", "coordinates": [98.9792537, 18.794317]}, "properties": {"id": "cm-osm-way-331472154", "name": "บ้านสายดี", "cat": ["realestate"], "province": "cm"}}, {"type": "Feature", "geometry": {"type": "Point", "coordinates": [98.9722634, 18.7885631]}, "properties": {"id": "cm-osm-way-688956928", "name": "บ้านสุขสมบูรณ์", "cat": ["realestate"], "province": "cm"}}, {"type": "Feature", "geometry": {"type": "Point", "coordinates": [98.9746445, 18.8043115]}, "properties": {"id": "cm-osm-way-324397324", "name": "บ้านอัมพวัน2", "cat": ["realestate"], "province": "cm"}}, {"type": "Feature", "geometry": {"type": "Point", "coordinates": [98.9786849, 18.7894436]}, "properties": {"id": "cm-osm-way-623152998", "name": "บ้านอารักษ์", "cat": ["realestate"], "province": "cm"}}, {"type": "Feature", "geometry": {"type": "Point", "coordinates": [99.1259701, 18.8713321]}, "properties": {"id": "cm-osm-node-3329451562", "name": "บ้านเชียงรุ้ง", "cat": ["realestate"], "province": "cm"}}, {"type": "Feature", "geometry": {"type": "Point", "coordinates": [98.9796907, 18.7886633]}, "properties": {"id": "cm-osm-node-3388700693", "name": "บ้านเอกชัย", "cat": ["realestate"], "province": "cm"}}, {"type": "Feature", "geometry": {"type": "Point", "coordinates": [98.9736071, 18.8008854]}, "properties": {"id": "cm-osm-way-324373231", "name": "บ้านแตงกวา", "cat": ["realestate"], "province": "cm"}}, {"type": "Feature", "geometry": {"type": "Point", "coordinates": [99.0194766, 18.8909189]}, "properties": {"id": "cm-osm-node-2587300995", "name": "ปฏิญญา คอร์ท", "cat": ["realestate"], "province": "cm"}}, {"type": "Feature", "geometry": {"type": "Point", "coordinates": [98.9740537, 18.801833]}, "properties": {"id": "cm-osm-way-324373567", "name": "ป้าแต๋ว อพาร์ทเม้นท์", "cat": ["realestate"], "province": "cm"}}, {"type": "Feature", "geometry": {"type": "Point", "coordinates": [98.980818, 18.8055466]}, "properties": {"id": "cm-osm-way-199921038", "name": "พรเพ็ญเพลส", "cat": ["realestate"], "province": "cm"}}, {"type": "Feature", "geometry": {"type": "Point", "coordinates": [98.9572372, 18.8134017]}, "properties": {"id": "cm-osm-way-438245435", "name": "พัชรเพลส", "cat": ["realestate"], "province": "cm"}}, {"type": "Feature", "geometry": {"type": "Point", "coordinates": [98.9652093, 18.8002613]}, "properties": {"id": "cm-osm-way-388683201", "name": "พิมพ์พงศ์ คอร์ท", "cat": ["realestate"], "province": "cm"}}, {"type": "Feature", "geometry": {"type": "Point", "coordinates": [98.9785438, 18.8007901]}, "properties": {"id": "cm-osm-way-321755567", "name": "พี เพลส", "cat": ["realestate"], "province": "cm"}}, {"type": "Feature", "geometry": {"type": "Point", "coordinates": [98.9793125, 18.8067197]}, "properties": {"id": "cm-osm-way-208191591", "name": "พี.พี.แมนชั่น", "cat": ["realestate"], "province": "cm"}}, {"type": "Feature", "geometry": {"type": "Point", "coordinates": [98.9826693, 18.7995286]}, "properties": {"id": "cm-osm-way-324499093", "name": "ภาน์ฝันดี", "cat": ["realestate"], "province": "cm"}}, {"type": "Feature", "geometry": {"type": "Point", "coordinates": [98.9613432, 18.7988632]}, "properties": {"id": "cm-osm-way-97987790", "name": "ภูสรวง เพลส", "cat": ["realestate"], "province": "cm"}}, {"type": "Feature", "geometry": {"type": "Point", "coordinates": [98.9593874, 18.7998126]}, "properties": {"id": "cm-osm-way-331608114", "name": "ภูเทพเรสซิเดนซ์", "cat": ["realestate"], "province": "cm"}}, {"type": "Feature", "geometry": {"type": "Point", "coordinates": [98.9736886, 18.8037239]}, "properties": {"id": "cm-osm-way-324375553", "name": "มงคลแมนชั่น", "cat": ["realestate"], "province": "cm"}}, {"type": "Feature", "geometry": {"type": "Point", "coordinates": [98.9736112, 18.804426]}, "properties": {"id": "cm-osm-way-324423135", "name": "รัชกร อพาร์ทเม้นท์", "cat": ["realestate"], "province": "cm"}}, {"type": "Feature", "geometry": {"type": "Point", "coordinates": [99.0029488, 18.7863444]}, "properties": {"id": "cm-osm-way-525306987", "name": "รัตนาคิร์ท", "cat": ["realestate"], "province": "cm"}}, {"type": "Feature", "geometry": {"type": "Point", "coordinates": [98.9829671, 18.7997534]}, "properties": {"id": "cm-osm-node-3313334181", "name": "รินทอง คอร์ท", "cat": ["realestate"], "province": "cm"}}, {"type": "Feature", "geometry": {"type": "Point", "coordinates": [98.9621654, 18.7989947]}, "properties": {"id": "cm-osm-way-217504888", "name": "ริมดอยเพลส 3", "cat": ["realestate"], "province": "cm"}}, {"type": "Feature", "geometry": {"type": "Point", "coordinates": [98.9600085, 18.7999225]}, "properties": {"id": "cm-osm-way-217504887", "name": "ริมน้ำแมนชั่น", "cat": ["realestate"], "province": "cm"}}, {"type": "Feature", "geometry": {"type": "Point", "coordinates": [98.997551, 18.7893806]}, "properties": {"id": "cm-osm-way-334799217", "name": "วีระชัยคอร์ต", "cat": ["realestate"], "province": "cm"}}, {"type": "Feature", "geometry": {"type": "Point", "coordinates": [98.9599701, 18.7872981]}, "properties": {"id": "cm-osm-way-1012745363", "name": "ศรีฟ้า", "cat": ["realestate"], "province": "cm"}}, {"type": "Feature", "geometry": {"type": "Point", "coordinates": [98.9625692, 18.8011991]}, "properties": {"id": "cm-osm-way-428554196", "name": "ศุภฤกษ์ 2", "cat": ["realestate"], "province": "cm"}}, {"type": "Feature", "geometry": {"type": "Point", "coordinates": [98.9576262, 18.8002329]}, "properties": {"id": "cm-osm-relation-19169910", "name": "สกายบรีซ", "cat": ["realestate"], "province": "cm"}}, {"type": "Feature", "geometry": {"type": "Point", "coordinates": [98.9836053, 18.7982723]}, "properties": {"id": "cm-osm-way-321604477", "name": "สยามล้านนาแกรนด์", "cat": ["realestate"], "province": "cm"}}, {"type": "Feature", "geometry": {"type": "Point", "coordinates": [98.967213, 18.7946594]}, "properties": {"id": "cm-osm-way-315411499", "name": "สวนสุขภาพ เรสซิเด้นท์", "cat": ["realestate"], "province": "cm"}}, {"type": "Feature", "geometry": {"type": "Point", "coordinates": [98.9759475, 18.8042868]}, "properties": {"id": "cm-osm-way-199923202", "name": "สันติธรรมพลาซ่า แมนชั่น", "cat": ["realestate"], "province": "cm"}}, {"type": "Feature", "geometry": {"type": "Point", "coordinates": [98.9587755, 18.7798007]}, "properties": {"id": "cm-osm-way-961369609", "name": "สุเทพวิว แมนชั่น", "cat": ["realestate"], "province": "cm"}}, {"type": "Feature", "geometry": {"type": "Point", "coordinates": [98.972596, 18.791411]}, "properties": {"id": "cm-osm-way-474105054", "name": "หอ 1 หญิง", "cat": ["realestate"], "province": "cm"}}, {"type": "Feature", "geometry": {"type": "Point", "coordinates": [98.9729988, 18.7914795]}, "properties": {"id": "cm-osm-way-474105053", "name": "หอ 3 หญิง", "cat": ["realestate"], "province": "cm"}}, {"type": "Feature", "geometry": {"type": "Point", "coordinates": [99.0122299, 18.7454916]}, "properties": {"id": "cm-osm-way-1157676821", "name": "หอ SP.คอร์ท", "cat": ["realestate"], "province": "cm"}}, {"type": "Feature", "geometry": {"type": "Point", "coordinates": [98.9558811, 18.7893916]}, "properties": {"id": "cm-osm-way-438118736", "name": "หอต้นรังเพลส", "cat": ["realestate"], "province": "cm"}}, {"type": "Feature", "geometry": {"type": "Point", "coordinates": [98.9587593, 18.79915]}, "properties": {"id": "cm-osm-way-311213413", "name": "หอพัก 40 ปี", "cat": ["realestate"], "province": "cm"}}, {"type": "Feature", "geometry": {"type": "Point", "coordinates": [98.9564237, 18.7918399]}, "properties": {"id": "cm-osm-way-399076007", "name": "หอพัก V.K.", "cat": ["realestate"], "province": "cm"}}, {"type": "Feature", "geometry": {"type": "Point", "coordinates": [98.9569772, 18.7510873]}, "properties": {"id": "cm-osm-way-297696462", "name": "หอพักกรีนเฮาส์", "cat": ["realestate"], "province": "cm"}}, {"type": "Feature", "geometry": {"type": "Point", "coordinates": [98.9589316, 18.7475187]}, "properties": {"id": "cm-osm-way-297892307", "name": "หอพักทองคำ", "cat": ["realestate"], "province": "cm"}}, {"type": "Feature", "geometry": {"type": "Point", "coordinates": [98.9586754, 18.7473553]}, "properties": {"id": "cm-osm-way-297892308", "name": "หอพักทองคำ", "cat": ["realestate"], "province": "cm"}}, {"type": "Feature", "geometry": {"type": "Point", "coordinates": [98.9553476, 18.7896792]}, "properties": {"id": "cm-osm-way-438116946", "name": "หอพักบัณฑิต", "cat": ["realestate"], "province": "cm"}}, {"type": "Feature", "geometry": {"type": "Point", "coordinates": [98.9584697, 18.7907019]}, "properties": {"id": "cm-osm-way-278036587", "name": "หอพักบ้านเราเรสซิเดนส์", "cat": ["realestate"], "province": "cm"}}, {"type": "Feature", "geometry": {"type": "Point", "coordinates": [98.9588925, 18.7906718]}, "properties": {"id": "cm-osm-way-1113338070", "name": "หอพักบ้านเราแมนชั่น", "cat": ["realestate"], "province": "cm"}}, {"type": "Feature", "geometry": {"type": "Point", "coordinates": [98.9829985, 18.7709191]}, "properties": {"id": "cm-osm-way-692324618", "name": "หอพักศรีเมืองฟ้า", "cat": ["realestate"], "province": "cm"}}, {"type": "Feature", "geometry": {"type": "Point", "coordinates": [98.9938567, 18.807095]}, "properties": {"id": "cm-osm-way-260057196", "name": "หอพักสตรีร้อยดวง", "cat": ["realestate"], "province": "cm"}}, {"type": "Feature", "geometry": {"type": "Point", "coordinates": [98.9573833, 18.7900413]}, "properties": {"id": "cm-osm-way-438116762", "name": "หอพักอิงฟ้า", "cat": ["realestate"], "province": "cm"}}, {"type": "Feature", "geometry": {"type": "Point", "coordinates": [98.9583584, 18.7904253]}, "properties": {"id": "cm-osm-way-438134731", "name": "หอพักอิงภู", "cat": ["realestate"], "province": "cm"}}, {"type": "Feature", "geometry": {"type": "Point", "coordinates": [98.9837755, 18.7991459]}, "properties": {"id": "cm-osm-way-323016070", "name": "หอพักอุ่นแสง", "cat": ["realestate"], "province": "cm"}}, {"type": "Feature", "geometry": {"type": "Point", "coordinates": [98.9572972, 18.7897871]}, "properties": {"id": "cm-osm-way-438117366", "name": "หอพักเคียงดอยคอร์ท", "cat": ["realestate"], "province": "cm"}}, {"type": "Feature", "geometry": {"type": "Point", "coordinates": [98.9751768, 18.805195]}, "properties": {"id": "cm-osm-way-324429768", "name": "หอพักเทวฤทธิ์", "cat": ["realestate"], "province": "cm"}}, {"type": "Feature", "geometry": {"type": "Point", "coordinates": [98.956182, 18.7894871]}, "properties": {"id": "cm-osm-way-438118567", "name": "หอพักเพชรเหนือเรสซิเด้นท์", "cat": ["realestate"], "province": "cm"}}, {"type": "Feature", "geometry": {"type": "Point", "coordinates": [98.9483622, 18.745197]}, "properties": {"id": "cm-osm-node-4557359691", "name": "หอพักเสกสรรค์2", "cat": ["realestate"], "province": "cm"}}, {"type": "Feature", "geometry": {"type": "Point", "coordinates": [98.9792552, 18.7948011]}, "properties": {"id": "cm-osm-way-331472163", "name": "หอพักเสรี", "cat": ["realestate"], "province": "cm"}}, {"type": "Feature", "geometry": {"type": "Point", "coordinates": [98.9796673, 18.7936149]}, "properties": {"id": "cm-osm-way-331472343", "name": "หอพักเฮือนคำ", "cat": ["realestate"], "province": "cm"}}, {"type": "Feature", "geometry": {"type": "Point", "coordinates": [98.9579956, 18.7991814]}, "properties": {"id": "cm-osm-way-424493001", "name": "หอพักในกำกับ หอสีชมพู", "cat": ["realestate"], "province": "cm"}}, {"type": "Feature", "geometry": {"type": "Point", "coordinates": [98.9556068, 18.792153]}, "properties": {"id": "cm-osm-way-339602161", "name": "หอพักไพพนา", "cat": ["realestate"], "province": "cm"}}, {"type": "Feature", "geometry": {"type": "Point", "coordinates": [98.9583696, 18.8008857]}, "properties": {"id": "cm-osm-way-438354192", "name": "หอลิลลี่ คอร์ท", "cat": ["realestate"], "province": "cm"}}, {"type": "Feature", "geometry": {"type": "Point", "coordinates": [98.9719669, 18.7985911]}, "properties": {"id": "cm-osm-way-97705976", "name": "ห้วยแก้วเพลส", "cat": ["realestate"], "province": "cm"}}, {"type": "Feature", "geometry": {"type": "Point", "coordinates": [98.992731, 18.8092481]}, "properties": {"id": "cm-osm-way-103262283", "name": "ห้องพัก", "cat": ["realestate"], "province": "cm"}}, {"type": "Feature", "geometry": {"type": "Point", "coordinates": [98.9826013, 18.9751063]}, "properties": {"id": "cm-osm-node-13715227296", "name": "อคิน ลิสซิ่ง", "cat": ["realestate"], "province": "cm"}}, {"type": "Feature", "geometry": {"type": "Point", "coordinates": [98.9538663, 18.7847912]}, "properties": {"id": "cm-osm-way-438117533", "name": "อพาร์ทเม้นท์ ธารทองเพลสเชียงใหม่", "cat": ["realestate"], "province": "cm"}}, {"type": "Feature", "geometry": {"type": "Point", "coordinates": [98.9909245, 18.809883]}, "properties": {"id": "cm-osm-way-747482686", "name": "อพาร์ทเม้นท์บ้านริมคลอง", "cat": ["realestate"], "province": "cm"}}, {"type": "Feature", "geometry": {"type": "Point", "coordinates": [98.9517683, 18.7911107]}, "properties": {"id": "cm-osm-way-331608336", "name": "อรอนงค์แมนชั่น", "cat": ["realestate"], "province": "cm"}}, {"type": "Feature", "geometry": {"type": "Point", "coordinates": [98.9538469, 18.7881163]}, "properties": {"id": "cm-osm-way-624212664", "name": "อาคารบ้านพักศรีสุนันท์", "cat": ["realestate"], "province": "cm"}}, {"type": "Feature", "geometry": {"type": "Point", "coordinates": [98.9815391, 18.7991479]}, "properties": {"id": "cm-osm-way-103812681", "name": "อิมพาล่า แมนชั่น", "cat": ["realestate"], "province": "cm"}}, {"type": "Feature", "geometry": {"type": "Point", "coordinates": [98.9717902, 18.7961753]}, "properties": {"id": "cm-osm-way-334971988", "name": "อิมเพรสทาวน์ คอนโดมิเนียม", "cat": ["realestate"], "province": "cm"}}, {"type": "Feature", "geometry": {"type": "Point", "coordinates": [98.9527, 18.7880138]}, "properties": {"id": "cm-osm-way-283153265", "name": "เชิงดอยเพลสตึกA", "cat": ["realestate"], "province": "cm"}}, {"type": "Feature", "geometry": {"type": "Point", "coordinates": [98.9522462, 18.7880901]}, "properties": {"id": "cm-osm-way-318775788", "name": "เชิงดอยเพลสตึกB", "cat": ["realestate"], "province": "cm"}}, {"type": "Feature", "geometry": {"type": "Point", "coordinates": [98.9716369, 18.795536]}, "properties": {"id": "cm-osm-way-386212838", "name": "เชียงใหม่คำดารา", "cat": ["realestate"], "province": "cm"}}, {"type": "Feature", "geometry": {"type": "Point", "coordinates": [98.9576567, 18.7903148]}, "properties": {"id": "cm-osm-way-438135029", "name": "เชียงใหม่อุดมเลิศคอร์ท", "cat": ["realestate"], "province": "cm"}}, {"type": "Feature", "geometry": {"type": "Point", "coordinates": [98.9600678, 18.7908557]}, "properties": {"id": "cm-osm-way-438119434", "name": "เนาวลลักษณ์แมนชั่น", "cat": ["realestate"], "province": "cm"}}, {"type": "Feature", "geometry": {"type": "Point", "coordinates": [98.9578757, 18.7897349]}, "properties": {"id": "cm-osm-way-438116180", "name": "เพชรนครพิงค์", "cat": ["realestate"], "province": "cm"}}, {"type": "Feature", "geometry": {"type": "Point", "coordinates": [98.9733227, 18.803414]}, "properties": {"id": "cm-osm-way-324375552", "name": "เพนนี เพลส", "cat": ["realestate"], "province": "cm"}}, {"type": "Feature", "geometry": {"type": "Point", "coordinates": [98.9754571, 18.8026582]}, "properties": {"id": "cm-osm-way-324374361", "name": "เพนนี2", "cat": ["realestate"], "province": "cm"}}, {"type": "Feature", "geometry": {"type": "Point", "coordinates": [99.0011661, 18.7671542]}, "properties": {"id": "cm-osm-node-2648528020", "name": "เมอร์คิวรี่คอร์ท", "cat": ["realestate"], "province": "cm"}}, {"type": "Feature", "geometry": {"type": "Point", "coordinates": [98.9958606, 18.7970736]}, "properties": {"id": "cm-osm-node-4536316199", "name": "เมืองใหม่ซิตี้โฮม", "cat": ["realestate"], "province": "cm"}}, {"type": "Feature", "geometry": {"type": "Point", "coordinates": [98.9556291, 18.7897607]}, "properties": {"id": "cm-osm-way-438117714", "name": "เลิศรัตน อพาร์ทเมนท์", "cat": ["realestate"], "province": "cm"}}, {"type": "Feature", "geometry": {"type": "Point", "coordinates": [98.9586193, 18.8003349]}, "properties": {"id": "cm-osm-way-438294729", "name": "เอกวนา คอร์ท", "cat": ["realestate"], "province": "cm"}}, {"type": "Feature", "geometry": {"type": "Point", "coordinates": [98.9774819, 18.8045418]}, "properties": {"id": "cm-osm-way-324431211", "name": "เอ็มเพรส", "cat": ["realestate"], "province": "cm"}}, {"type": "Feature", "geometry": {"type": "Point", "coordinates": [98.9802375, 18.8045844]}, "properties": {"id": "cm-osm-node-2530379596", "name": "เอ็มแอนด์ดี แมนชั่น", "cat": ["realestate"], "province": "cm"}}, {"type": "Feature", "geometry": {"type": "Point", "coordinates": [98.9787122, 18.8033855]}, "properties": {"id": "cm-osm-way-246795069", "name": "เอ็มโพเรียม เรสซิเด้นท์", "cat": ["realestate"], "province": "cm"}}, {"type": "Feature", "geometry": {"type": "Point", "coordinates": [98.9526554, 18.7459828]}, "properties": {"id": "cm-osm-way-340235057", "name": "แกรนด์สิริธาราคอนโด", "cat": ["realestate"], "province": "cm"}}, {"type": "Feature", "geometry": {"type": "Point", "coordinates": [98.953704, 18.791683]}, "properties": {"id": "cm-osm-way-689714481", "name": "แกรนด์ฮิลล์ เพลส", "cat": ["realestate"], "province": "cm"}}, {"type": "Feature", "geometry": {"type": "Point", "coordinates": [98.952081, 18.788371]}, "properties": {"id": "cm-osm-way-736402133", "name": "แทนตะวันเพลส", "cat": ["realestate"], "province": "cm"}}, {"type": "Feature", "geometry": {"type": "Point", "coordinates": [98.9724655, 18.7920076]}, "properties": {"id": "cm-osm-way-224935774", "name": "แฟลต 1/6", "cat": ["realestate"], "province": "cm"}}, {"type": "Feature", "geometry": {"type": "Point", "coordinates": [98.9728272, 18.7923477]}, "properties": {"id": "cm-osm-way-98070924", "name": "แฟลตข้าราชการ 8/6", "cat": ["realestate"], "province": "cm"}}, {"type": "Feature", "geometry": {"type": "Point", "coordinates": [98.9728322, 18.7919184]}, "properties": {"id": "cm-osm-way-98070934", "name": "แฟลตแพทย์ 5/6", "cat": ["realestate"], "province": "cm"}}, {"type": "Feature", "geometry": {"type": "Point", "coordinates": [98.9797592, 18.7664781]}, "properties": {"id": "cm-osm-way-692315554", "name": "แสงรัชณีเฮ้าส์", "cat": ["realestate"], "province": "cm"}}, {"type": "Feature", "geometry": {"type": "Point", "coordinates": [98.9811833, 18.7996922]}, "properties": {"id": "cm-osm-way-103812676", "name": "แสงสุขคอร์ท", "cat": ["realestate"], "province": "cm"}}, {"type": "Feature", "geometry": {"type": "Point", "coordinates": [98.9777498, 18.8077292]}, "properties": {"id": "cm-osm-way-213503640", "name": "แอรโร่ เพลส", "cat": ["realestate"], "province": "cm"}}, {"type": "Feature", "geometry": {"type": "Point", "coordinates": [98.988928, 18.797338]}, "properties": {"id": "cm-osm-way-1215513788", "name": "แฮปปี้เรสซิเด้นซ์", "cat": ["realestate"], "province": "cm"}}, {"type": "Feature", "geometry": {"type": "Point", "coordinates": [98.9580255, 18.7522525]}, "properties": {"id": "cm-osm-way-297696436", "name": "โฮม พี.ซี. แมนชั่น", "cat": ["realestate"], "province": "cm"}}, {"type": "Feature", "geometry": {"type": "Point", "coordinates": [98.9782352, 18.8000144]}, "properties": {"id": "cm-osm-way-301482931", "name": "ใหม่แมนชั่น", "cat": ["realestate"], "province": "cm"}}, {"type": "Feature", "geometry": {"type": "Point", "coordinates": [98.9737841, 18.801623]}, "properties": {"id": "cm-osm-node-3313311962", "name": "ไชยวุฒิ แมนชั่น", "cat": ["realestate"], "province": "cm"}}, {"type": "Feature", "geometry": {"type": "Point", "coordinates": [98.9746161, 18.799179]}, "properties": {"id": "cm-osm-way-249154007", "name": "ไชยแมนชั่น", "cat": ["realestate"], "province": "cm"}}]}