{"type": "FeatureCollection", "features": [{"type": "Feature", "geometry": {"type": "Point", "coordinates": [98.9426472, 18.7484253]}, "properties": {"id": "cm-osm-way-318023900", "name": "American Pacific International School (Primary)", "cat": ["school-intl"], "province": "cm"}}, {"type": "Feature", "geometry": {"type": "Point", "coordinates": [99.0047484, 18.7985883]}, "properties": {"id": "cm-osm-way-154010400", "name": "Chiang Mai International School", "cat": ["school-intl"], "province": "cm"}}, {"type": "Feature", "geometry": {"type": "Point", "coordinates": [98.9152692, 18.6493759]}, "properties": {"id": "cm-osm-way-1138306097", "name": "Grace International School - New Campus", "cat": ["school-intl"], "province": "cm"}}, {"type": "Feature", "geometry": {"type": "Point", "coordinates": [98.9658441, 18.6968103]}, "properties": {"id": "cm-osm-way-574736174", "name": "Lanna International School Thailand", "cat": ["school-intl"], "province": "cm"}}, {"type": "Feature", "geometry": {"type": "Point", "coordinates": [98.9410103, 18.730365]}, "properties": {"id": "cm-osm-way-957027736", "name": "Meritton British International School", "cat": ["school-intl"], "province": "cm"}}, {"type": "Feature", "geometry": {"type": "Point", "coordinates": [98.9175484, 18.7041774]}, "properties": {"id": "cm-osm-way-514628742", "name": "Panyaden International School", "cat": ["school-intl"], "province": "cm"}}, {"type": "Feature", "geometry": {"type": "Point", "coordinates": [98.9448173, 18.6976217]}, "properties": {"id": "cm-osm-way-1237937945", "name": "Satit International Bilingual School of Rangsit University Chiang Mai", "cat": ["school-intl"], "province": "cm"}}, {"type": "Feature", "geometry": {"type": "Point", "coordinates": [98.9801016, 18.7970122]}, "properties": {"id": "cm-osm-way-408814852", "name": "Singapore International School Chiangmai", "cat": ["school-intl"], "province": "cm"}}, {"type": "Feature", "geometry": {"type": "Point", "coordinates": [98.842251, 18.7882894]}, "properties": {"id": "cm-osm-node-2438297969", "name": "โรงเรียนนานาชาติ อเมริกันแปซิฟิก", "cat": ["school-intl"], "province": "cm"}}, {"type": "Feature", "geometry": {"type": "Point", "coordinates": [98.9907046, 18.8473408]}, "properties": {"id": "cm-osm-way-175761845", "name": "โรงเรียนนานาชาตินครพายัพ", "cat": ["school-intl"], "province": "cm"}}, {"type": "Feature", "geometry": {"type": "Point", "coordinates": [98.9598275, 18.7474477]}, "properties": {"id": "cm-osm-way-177273026", "name": "โรงเรียนนานาชาติลานนา", "cat": ["school-intl"], "province": "cm"}}, {"type": "Feature", "geometry": {"type": "Point", "coordinates": [98.9148254, 18.9657669]}, "properties": {"id": "cm-osm-way-304926822", "name": "โรงเรียนนานาชาติเปรม ติณสูลานนท์", "cat": ["school-intl"], "province": "cm"}}]}