{"type": "FeatureCollection", "features": [{"type": "Feature", "geometry": {"type": "Point", "coordinates": [98.96397, 18.84145]}, "properties": {"id": "cm-osm-way-92839161", "name": "700 Year Stadium Pool", "nameTh": null, "nameEn": "700 Year Stadium Pool", "cat": ["sport"], "province": "cm", "slug": "700-year-stadium-pool-92839161", "rank": 1}}, {"type": "Feature", "geometry": {"type": "Point", "coordinates": [98.97693, 18.7932]}, "properties": {"id": "cm-osm-way-1106554068", "name": "ABSolute Gym", "nameTh": null, "nameEn": "ABSolute Gym", "cat": ["sport"], "province": "cm", "slug": "absolute-gym-1106554068", "rank": 1}}, {"type": "Feature", "geometry": {"type": "Point", "coordinates": [98.9509, 18.76941]}, "properties": {"id": "cm-osm-node-13116075801", "name": "Alpine Outpost", "nameTh": null, "nameEn": "Alpine Outpost", "cat": ["sport"], "province": "cm", "slug": "alpine-outpost-13116075801", "rank": 2}}, {"type": "Feature", "geometry": {"type": "Point", "coordinates": [98.95139, 18.79122]}, "properties": {"id": "cm-osm-node-7121412085", "name": "Bliss Within Yoga Center", "nameTh": null, "nameEn": "Bliss Within Yoga Center", "cat": ["sport"], "province": "cm", "slug": "bliss-within-yoga-center-7121412085", "rank": 2}}, {"type": "Feature", "geometry": {"type": "Point", "coordinates": [98.99172, 18.7856]}, "properties": {"id": "cm-osm-node-6349335085", "name": "Blue Garden Yoga", "nameTh": null, "nameEn": "Blue Garden Yoga", "cat": ["sport"], "province": "cm", "slug": "blue-garden-yoga-6349335085", "rank": 3}}, {"type": "Feature", "geometry": {"type": "Point", "coordinates": [98.98277, 18.7819]}, "properties": {"id": "cm-osm-way-407112222", "name": "Body and Mind Healing", "nameTh": null, "nameEn": "Body and Mind Healing", "cat": ["sport"], "province": "cm", "slug": "body-and-mind-healing-407112222", "rank": 4}}, {"type": "Feature", "geometry": {"type": "Point", "coordinates": [98.98699, 18.75622]}, "properties": {"id": "cm-osm-way-1420846456", "name": "Bok Bok Pickleball Courts", "nameTh": null, "nameEn": "Bok Bok Pickleball Courts", "cat": ["sport"], "province": "cm", "slug": "bok-bok-pickleball-courts-1420846456", "rank": 2}}, {"type": "Feature", "geometry": {"type": "Point", "coordinates": [99.02051, 18.81902]}, "properties": {"id": "cm-osm-way-1113305906", "name": "CNX Boxing", "nameTh": null, "nameEn": "CNX Boxing", "cat": ["muaythai", "sport"], "province": "cm", "slug": "cnx-boxing-1113305906", "rank": 1}}, {"type": "Feature", "geometry": {"type": "Point", "coordinates": [99.02036, 18.81901]}, "properties": {"id": "cm-osm-way-544954946", "name": "CNX Gym", "nameTh": null, "nameEn": "CNX Gym", "cat": ["sport"], "province": "cm", "slug": "cnx-gym-544954946", "rank": 1}}, {"type": "Feature", "geometry": {"type": "Point", "coordinates": [98.95719, 18.79884]}, "properties": {"id": "cm-osm-node-7227798385", "name": "Calisthenics Sport Ground - CMU", "nameTh": null, "nameEn": "Calisthenics Sport Ground - CMU", "cat": ["sport"], "province": "cm", "slug": "calisthenics-sport-ground-cmu-7227798385", "rank": 1}}, {"type": "Feature", "geometry": {"type": "Point", "coordinates": [98.99322, 18.79588]}, "properties": {"id": "cm-osm-node-4591765591", "name": "Chiang Mai Brazilian Jiu Jitsu", "nameTh": null, "nameEn": "Chiang Mai Brazilian Jiu Jitsu", "cat": ["sport"], "province": "cm", "slug": "chiang-mai-brazilian-jiu-jitsu-4591765591", "rank": 2}}, {"type": "Feature", "geometry": {"type": "Point", "coordinates": [98.97355, 18.76562]}, "properties": {"id": "cm-osm-node-4932233521", "name": "Chiang Mai F.C. Academy", "nameTh": "Chiang Mai F.C. Academy", "nameEn": null, "cat": ["sport"], "province": "cm", "slug": "chiang-mai-f-c-academy-4932233521", "rank": 1}}, {"type": "Feature", "geometry": {"type": "Point", "coordinates": [98.93501, 18.73803]}, "properties": {"id": "cm-osm-way-396336492", "name": "Chiang Mai Speedkart", "nameTh": null, "nameEn": "Chiang Mai Speedkart", "cat": ["sport"], "province": "cm", "slug": "chiang-mai-speedkart-396336492", "rank": 2}}, {"type": "Feature", "geometry": {"type": "Point", "coordinates": [98.98851, 18.80026]}, "properties": {"id": "cm-osm-node-4617577292", "name": "Chiang Mai Table Tennis Club", "nameTh": null, "nameEn": "Chiang Mai Table Tennis Club", "cat": ["sport"], "province": "cm", "slug": "chiang-mai-table-tennis-club-4617577292", "rank": 1}}, {"type": "Feature", "geometry": {"type": "Point", "coordinates": [98.98231, 18.81148]}, "properties": {"id": "cm-osm-node-5038027221", "name": "Chiangmai fight fit", "nameTh": null, "nameEn": "Chiangmai fight fit", "cat": ["sport"], "province": "cm", "slug": "chiangmai-fight-fit-5038027221", "rank": 1}}, {"type": "Feature", "geometry": {"type": "Point", "coordinates": [98.96624, 18.74161]}, "properties": {"id": "cm-osm-node-13434351922", "name": "Cossfit Pulmo", "nameTh": null, "nameEn": "Cossfit Pulmo", "cat": ["sport"], "province": "cm", "slug": "cossfit-pulmo-13434351922", "rank": 1}}, {"type": "Feature", "geometry": {"type": "Point", "coordinates": [98.98059, 18.81607]}, "properties": {"id": "cm-osm-node-5009181282", "name": "CrossFit Chiang Mai (CFCNX)", "nameTh": null, "nameEn": "CrossFit Chiang Mai (CFCNX)", "cat": ["sport"], "province": "cm", "slug": "crossfit-chiang-mai-cfcnx-5009181282", "rank": 3}}, {"type": "Feature", "geometry": {"type": "Point", "coordinates": [98.9547, 18.89008]}, "properties": {"id": "cm-osm-way-742755531", "name": "D Day Gym", "nameTh": null, "nameEn": "D Day Gym", "cat": ["sport"], "province": "cm", "slug": "d-day-gym-742755531", "rank": 1}}, {"type": "Feature", "geometry": {"type": "Point", "coordinates": [98.97408, 18.76399]}, "properties": {"id": "cm-osm-node-5639983125", "name": "Desjoyaux Chiangmai", "nameTh": "เดโชโย่ เชียงใหม่", "nameEn": "Desjoyaux Chiangmai", "cat": ["sport"], "province": "cm", "slug": "desjoyaux-chiangmai-5639983125", "rank": 3}}, {"type": "Feature", "geometry": {"type": "Point", "coordinates": [99.06988, 18.77606]}, "properties": {"id": "cm-newsletter-dream-star-academy-fc", "name": "Dream Star Academy Football Club", "nameTh": null, "nameEn": "Dream Star Academy Football Club", "cat": ["sport"], "province": "cm", "slug": "dream-star-academy-football-club-cmnewsletterdreamstaracademyfc", "rank": 2}}, {"type": "Feature", "geometry": {"type": "Point", "coordinates": [98.99893, 18.78385]}, "properties": {"id": "cm-osm-node-3416985808", "name": "Duangtawan Lifestyle Centre", "nameTh": null, "nameEn": "Duangtawan Lifestyle Centre", "cat": ["sport"], "province": "cm", "slug": "duangtawan-lifestyle-centre-3416985808", "rank": 2}}, {"type": "Feature", "geometry": {"type": "Point", "coordinates": [98.99712, 18.80027]}, "properties": {"id": "cm-osm-node-3419871302", "name": "Exclusive Fitness Training", "nameTh": null, "nameEn": "Exclusive Fitness Training", "cat": ["sport"], "province": "cm", "slug": "exclusive-fitness-training-3419871302", "rank": 2}}, {"type": "Feature", "geometry": {"type": "Point", "coordinates": [98.97033, 18.79162]}, "properties": {"id": "cm-osm-node-2632210802", "name": "Fit Function", "nameTh": null, "nameEn": "Fit Function", "cat": ["sport"], "province": "cm", "slug": "fit-function-2632210802", "rank": 1}}, {"type": "Feature", "geometry": {"type": "Point", "coordinates": [98.99004, 18.80069]}, "properties": {"id": "cm-osm-node-12543092102", "name": "Fitness", "nameTh": null, "nameEn": "Fitness", "cat": ["sport"], "province": "cm", "slug": "fitness-12543092102", "rank": 2}}, {"type": "Feature", "geometry": {"type": "Point", "coordinates": [98.97134, 18.79097]}, "properties": {"id": "cm-osm-node-4680102955", "name": "Fitness", "nameTh": null, "nameEn": "Fitness", "cat": ["sport"], "province": "cm", "slug": "fitness-4680102955", "rank": 1}}, {"type": "Feature", "geometry": {"type": "Point", "coordinates": [98.97138, 18.79226]}, "properties": {"id": "cm-osm-node-4680102956", "name": "Fitness", "nameTh": null, "nameEn": "Fitness", "cat": ["sport"], "province": "cm", "slug": "fitness-4680102956", "rank": 1}}, {"type": "Feature", "geometry": {"type": "Point", "coordinates": [99.08067, 18.73578]}, "properties": {"id": "cm-osm-way-474173674", "name": "Fitness Center", "nameTh": null, "nameEn": "Fitness Center", "cat": ["sport"], "province": "cm", "slug": "fitness-center-474173674", "rank": 1}}, {"type": "Feature", "geometry": {"type": "Point", "coordinates": [98.98095, 18.79667]}, "properties": {"id": "cm-osm-node-3283544623", "name": "Fitness Thailand", "nameTh": null, "nameEn": "Fitness Thailand", "cat": ["sport"], "province": "cm", "slug": "fitness-thailand-3283544623", "rank": 2}}, {"type": "Feature", "geometry": {"type": "Point", "coordinates": [98.99783, 18.78669]}, "properties": {"id": "cm-osm-node-4333483391", "name": "Freedom Yoga", "nameTh": null, "nameEn": "Freedom Yoga", "cat": ["sport"], "province": "cm", "slug": "freedom-yoga-4333483391", "rank": 1}}, {"type": "Feature", "geometry": {"type": "Point", "coordinates": [98.98237, 18.78411]}, "properties": {"id": "cm-osm-way-406416411", "name": "Freedom Yoga", "nameTh": null, "nameEn": "Freedom Yoga", "cat": ["sport"], "province": "cm", "slug": "freedom-yoga-406416411", "rank": 3}}, {"type": "Feature", "geometry": {"type": "Point", "coordinates": [98.98261, 18.79341]}, "properties": {"id": "cm-osm-node-10801495606", "name": "GYMkruoor", "nameTh": null, "nameEn": "GYMkruoor", "cat": ["sport"], "province": "cm", "slug": "gymkruoor-10801495606", "rank": 1}}, {"type": "Feature", "geometry": {"type": "Point", "coordinates": [98.97987, 18.81032]}, "properties": {"id": "cm-osm-way-202149024", "name": "Go gym", "nameTh": null, "nameEn": "Go gym", "cat": ["sport"], "province": "cm", "slug": "go-gym-202149024", "rank": 3}}, {"type": "Feature", "geometry": {"type": "Point", "coordinates": [98.9542, 18.78365]}, "properties": {"id": "cm-newsletter-graphic-heaven-hockey", "name": "Graphic Heaven", "nameTh": null, "nameEn": "Graphic Heaven", "cat": ["sport"], "province": "cm", "slug": "graphic-heaven-cmnewslettergraphicheavenhockey", "rank": 2}}, {"type": "Feature", "geometry": {"type": "Point", "coordinates": [98.99166, 18.7809]}, "properties": {"id": "cm-osm-node-6780130285", "name": "Gym", "nameTh": null, "nameEn": "Gym", "cat": ["sport"], "province": "cm", "slug": "gym-6780130285", "rank": 1}}, {"type": "Feature", "geometry": {"type": "Point", "coordinates": [98.9468, 18.93042]}, "properties": {"id": "cm-osm-node-3316431815", "name": "Gym Bangarang", "nameTh": null, "nameEn": "Gym Bangarang", "cat": ["sport"], "province": "cm", "slug": "gym-bangarang-3316431815", "rank": 4}}, {"type": "Feature", "geometry": {"type": "Point", "coordinates": [98.99432, 18.75527]}, "properties": {"id": "cm-osm-node-4301381598", "name": "Happy Green Studio", "nameTh": null, "nameEn": "Happy Green Studio", "cat": ["sport"], "province": "cm", "slug": "happy-green-studio-4301381598", "rank": 1}}, {"type": "Feature", "geometry": {"type": "Point", "coordinates": [98.97572, 18.7948]}, "properties": {"id": "cm-osm-node-12311208026", "name": "Harris Fitness Center", "nameTh": null, "nameEn": "Harris Fitness Center", "cat": ["sport"], "province": "cm", "slug": "harris-fitness-center-12311208026", "rank": 1}}, {"type": "Feature", "geometry": {"type": "Point", "coordinates": [98.97081, 18.80056]}, "properties": {"id": "cm-osm-node-3304475321", "name": "Hillside Fitness", "nameTh": null, "nameEn": "Hillside Fitness", "cat": ["sport"], "province": "cm", "slug": "hillside-fitness-3304475321", "rank": 1}}, {"type": "Feature", "geometry": {"type": "Point", "coordinates": [99.02492, 18.8046]}, "properties": {"id": "cm-osm-node-3168268450", "name": "Home Fitness", "nameTh": null, "nameEn": "Home Fitness", "cat": ["sport"], "province": "cm", "slug": "home-fitness-3168268450", "rank": 2}}, {"type": "Feature", "geometry": {"type": "Point", "coordinates": [99.03385, 18.77712]}, "properties": {"id": "cm-osm-node-6110434687", "name": "Hong Thong Muay Thai", "nameTh": null, "nameEn": "Hong Thong Muay Thai", "cat": ["muaythai", "sport"], "province": "cm", "slug": "hong-thong-muay-thai-6110434687", "rank": 2}}, {"type": "Feature", "geometry": {"type": "Point", "coordinates": [98.97825, 18.80796]}, "properties": {"id": "cm-osm-way-523154439", "name": "Hug Gym Fitness & Boxing", "nameTh": null, "nameEn": "Hug Gym Fitness & Boxing", "cat": ["muaythai", "sport"], "province": "cm", "slug": "hug-gym-fitness-boxing-523154439", "rank": 4}}, {"type": "Feature", "geometry": {"type": "Point", "coordinates": [98.98959, 18.79516]}, "properties": {"id": "cm-osm-node-13253265273", "name": "Income Gym", "nameTh": null, "nameEn": "Income Gym", "cat": ["sport"], "province": "cm", "slug": "income-gym-13253265273", "rank": 1}}, {"type": "Feature", "geometry": {"type": "Point", "coordinates": [98.98957, 18.79519]}, "properties": {"id": "cm-osm-node-13322176959", "name": "Income Gym", "nameTh": null, "nameEn": "Income Gym", "cat": ["sport"], "province": "cm", "slug": "income-gym-13322176959", "rank": 1}}, {"type": "Feature", "geometry": {"type": "Point", "coordinates": [98.98984, 18.79966]}, "properties": {"id": "cm-osm-node-12543091904", "name": "Indoor Outdoor Aerobic", "nameTh": null, "nameEn": "Indoor Outdoor Aerobic", "cat": ["sport"], "province": "cm", "slug": "indoor-outdoor-aerobic-12543091904", "rank": 2}}, {"type": "Feature", "geometry": {"type": "Point", "coordinates": [98.99022, 18.80052]}, "properties": {"id": "cm-osm-node-12543092302", "name": "Indoor SEPAKTAKRAW", "nameTh": null, "nameEn": "Indoor SEPAKTAKRAW", "cat": ["sport"], "province": "cm", "slug": "indoor-sepaktakraw-12543092302", "rank": 1}}, {"type": "Feature", "geometry": {"type": "Point", "coordinates": [98.99001, 18.80056]}, "properties": {"id": "cm-osm-node-12543092202", "name": "Indoor Table Tennis", "nameTh": null, "nameEn": "Indoor Table Tennis", "cat": ["sport"], "province": "cm", "slug": "indoor-table-tennis-12543092202", "rank": 2}}, {"type": "Feature", "geometry": {"type": "Point", "coordinates": [99.01358, 18.78934]}, "properties": {"id": "cm-osm-node-12348261959", "name": "Kick Off Arena", "nameTh": null, "nameEn": "Kick Off Arena", "cat": ["sport"], "province": "cm", "slug": "kick-off-arena-12348261959", "rank": 1}}, {"type": "Feature", "geometry": {"type": "Point", "coordinates": [98.99373, 18.75671]}, "properties": {"id": "cm-osm-node-6142715340", "name": "Kids Yoga Garden", "nameTh": null, "nameEn": "Kids Yoga Garden", "cat": ["sport"], "province": "cm", "slug": "kids-yoga-garden-6142715340", "rank": 1}}, {"type": "Feature", "geometry": {"type": "Point", "coordinates": [98.99648, 18.76757]}, "properties": {"id": "cm-osm-node-4696405889", "name": "Little Mermaid", "nameTh": null, "nameEn": "Little Mermaid", "cat": ["sport"], "province": "cm", "slug": "little-mermaid-4696405889", "rank": 1}}, {"type": "Feature", "geometry": {"type": "Point", "coordinates": [98.9674, 18.80195]}, "properties": {"id": "cm-osm-node-3168260767", "name": "Maxx Professional Fitness", "nameTh": null, "nameEn": "Maxx Professional Fitness", "cat": ["sport"], "province": "cm", "slug": "maxx-professional-fitness-3168260767", "rank": 2}}, {"type": "Feature", "geometry": {"type": "Point", "coordinates": [98.96728, 18.80973]}, "properties": {"id": "cm-osm-way-765950854", "name": "Mayan Gym", "nameTh": null, "nameEn": "Mayan Gym", "cat": ["sport"], "province": "cm", "slug": "mayan-gym-765950854", "rank": 2}}, {"type": "Feature", "geometry": {"type": "Point", "coordinates": [99.00498, 18.83162]}, "properties": {"id": "cm-osm-way-701944389", "name": "Mini Gym", "nameTh": null, "nameEn": "Mini Gym", "cat": ["sport"], "province": "cm", "slug": "mini-gym-701944389", "rank": 1}}, {"type": "Feature", "geometry": {"type": "Point", "coordinates": [98.97741, 18.80849]}, "properties": {"id": "cm-osm-node-12530836201", "name": "Muscular Lair", "nameTh": null, "nameEn": "Muscular Lair", "cat": ["sport"], "province": "cm", "slug": "muscular-lair-12530836201", "rank": 1}}, {"type": "Feature", "geometry": {"type": "Point", "coordinates": [98.97204, 18.69548]}, "properties": {"id": "cm-osm-node-13859401882", "name": "Na Non Restaurant, Pool & Gym", "nameTh": null, "nameEn": "Na Non Restaurant, Pool & Gym", "cat": ["food", "sport"], "province": "cm", "slug": "na-non-restaurant-pool-gym-13859401882", "rank": 2}}, {"type": "Feature", "geometry": {"type": "Point", "coordinates": [98.99519, 18.80425]}, "properties": {"id": "cm-osm-way-313552110", "name": "No Gravity Indoor Climbing", "nameTh": null, "nameEn": "No Gravity Indoor Climbing", "cat": ["sport"], "province": "cm", "slug": "no-gravity-indoor-climbing-313552110", "rank": 1}}, {"type": "Feature", "geometry": {"type": "Point", "coordinates": [98.98187, 18.7676]}, "properties": {"id": "cm-osm-way-241437803", "name": "O2 Gym", "nameTh": null, "nameEn": "O2 Gym", "cat": ["sport"], "province": "cm", "slug": "o2-gym-241437803", "rank": 1}}, {"type": "Feature", "geometry": {"type": "Point", "coordinates": [98.98935, 18.80248]}, "properties": {"id": "cm-osm-node-13185778901", "name": "Outdoor petangque field", "nameTh": null, "nameEn": "Outdoor petangque field", "cat": ["sport"], "province": "cm", "slug": "outdoor-petangque-field-13185778901", "rank": 1}}, {"type": "Feature", "geometry": {"type": "Point", "coordinates": [98.98865, 18.80093]}, "properties": {"id": "cm-osm-node-13185779001", "name": "Outdoor petangque field", "nameTh": null, "nameEn": "Outdoor petangque field", "cat": ["sport"], "province": "cm", "slug": "outdoor-petangque-field-13185779001", "rank": 1}}, {"type": "Feature", "geometry": {"type": "Point", "coordinates": [99.02593, 18.82152]}, "properties": {"id": "cm-osm-node-13429913201", "name": "Outside sports equipment", "nameTh": null, "nameEn": "Outside sports equipment", "cat": ["sport"], "province": "cm", "slug": "outside-sports-equipment-13429913201", "rank": 1}}, {"type": "Feature", "geometry": {"type": "Point", "coordinates": [98.99847, 18.72455]}, "properties": {"id": "cm-newsletter-padel-club-cm", "name": "Padel Club Chiang Mai", "nameTh": null, "nameEn": "Padel Club Chiang Mai", "cat": ["sport"], "province": "cm", "slug": "padel-club-chiang-mai-cmnewsletterpadelclubcm", "rank": 2}}, {"type": "Feature", "geometry": {"type": "Point", "coordinates": [99.14159, 18.85971]}, "properties": {"id": "cm-osm-node-4548468066", "name": "Papa's Garden Sport Villa", "nameTh": null, "nameEn": "Papa's Garden Sport Villa", "cat": ["sport"], "province": "cm", "slug": "papa-s-garden-sport-villa-4548468066", "rank": 2}}, {"type": "Feature", "geometry": {"type": "Point", "coordinates": [98.96322, 18.7899]}, "properties": {"id": "cm-osm-way-659294962", "name": "Playground Innovative Fitness", "nameTh": null, "nameEn": "Playground Innovative Fitness", "cat": ["sport"], "province": "cm", "slug": "playground-innovative-fitness-659294962", "rank": 3}}, {"type": "Feature", "geometry": {"type": "Point", "coordinates": [98.99205, 18.77307]}, "properties": {"id": "cm-osm-node-4856648622", "name": "Por Silaphai Muay Thai Gym", "nameTh": null, "nameEn": "Por Silaphai Muay Thai Gym", "cat": ["muaythai", "sport"], "province": "cm", "slug": "por-silaphai-muay-thai-gym-4856648622", "rank": 1}}, {"type": "Feature", "geometry": {"type": "Point", "coordinates": [98.91614, 18.965]}, "properties": {"id": "cm-osm-way-272383284", "name": "Prem Gymnasium", "nameTh": null, "nameEn": "Prem Gymnasium", "cat": ["sport"], "province": "cm", "slug": "prem-gymnasium-272383284", "rank": 1}}, {"type": "Feature", "geometry": {"type": "Point", "coordinates": [98.98792, 18.74676]}, "properties": {"id": "cm-osm-way-1159988644", "name": "Progression Climbing Gym", "nameTh": null, "nameEn": "Progression Climbing Gym", "cat": ["sport"], "province": "cm", "slug": "progression-climbing-gym-1159988644", "rank": 2}}, {"type": "Feature", "geometry": {"type": "Point", "coordinates": [98.98586, 18.78159]}, "properties": {"id": "cm-osm-node-13990142167", "name": "Pump Fitness 2.0", "nameTh": null, "nameEn": "Pump Fitness 2.0", "cat": ["sport"], "province": "cm", "slug": "pump-fitness-2-0-13990142167", "rank": 1}}, {"type": "Feature", "geometry": {"type": "Point", "coordinates": [98.98847, 18.79925]}, "properties": {"id": "cm-osm-node-10801488605", "name": "Pump fitness", "nameTh": null, "nameEn": "Pump fitness", "cat": ["sport"], "province": "cm", "slug": "pump-fitness-10801488605", "rank": 1}}, {"type": "Feature", "geometry": {"type": "Point", "coordinates": [99.01175, 18.82529]}, "properties": {"id": "cm-osm-node-10067776661", "name": "Ruamchok Fitness", "nameTh": null, "nameEn": "Ruamchok Fitness", "cat": ["sport"], "province": "cm", "slug": "ruamchok-fitness-10067776661", "rank": 1}}, {"type": "Feature", "geometry": {"type": "Point", "coordinates": [98.98772, 18.76673]}, "properties": {"id": "cm-osm-node-13388087101", "name": "Rush Fitness", "nameTh": null, "nameEn": "Rush Fitness", "cat": ["sport"], "province": "cm", "slug": "rush-fitness-13388087101", "rank": 2}}, {"type": "Feature", "geometry": {"type": "Point", "coordinates": [99.11275, 18.74437]}, "properties": {"id": "cm-osm-node-7062102385", "name": "Santai Muay Thai", "nameTh": null, "nameEn": "Santai Muay Thai", "cat": ["muaythai", "sport"], "province": "cm", "slug": "santai-muay-thai-7062102385", "rank": 1}}, {"type": "Feature", "geometry": {"type": "Point", "coordinates": [98.95556, 18.83855]}, "properties": {"id": "cm-osm-way-341730386", "name": "Shooting Range", "nameTh": null, "nameEn": "Shooting Range", "cat": ["sport"], "province": "cm", "slug": "shooting-range-341730386", "rank": 1}}, {"type": "Feature", "geometry": {"type": "Point", "coordinates": [98.98799, 18.79983]}, "properties": {"id": "cm-osm-node-12520810901", "name": "Smart TaeKwonDo Gym", "nameTh": null, "nameEn": "TaeKwonDo Gym", "cat": ["sport"], "province": "cm", "slug": "taekwondo-gym-12520810901", "rank": 1}}, {"type": "Feature", "geometry": {"type": "Point", "coordinates": [98.95176, 18.77206]}, "properties": {"id": "cm-osm-way-961380714", "name": "Speed Gym", "nameTh": null, "nameEn": "Speed Gym", "cat": ["sport"], "province": "cm", "slug": "speed-gym-961380714", "rank": 1}}, {"type": "Feature", "geometry": {"type": "Point", "coordinates": [98.97726, 18.7695]}, "properties": {"id": "cm-osm-node-4880216347", "name": "Spirit Yoga Studio", "nameTh": null, "nameEn": "Spirit Yoga Studio", "cat": ["sport"], "province": "cm", "slug": "spirit-yoga-studio-4880216347", "rank": 1}}, {"type": "Feature", "geometry": {"type": "Point", "coordinates": [98.98086, 18.78114]}, "properties": {"id": "cm-osm-node-9331216417", "name": "Stingclub", "nameTh": "ค่ายมวยไทย สติง คลับ", "nameEn": "Stingclub", "cat": ["muaythai", "sport"], "province": "cm", "slug": "stingclub-9331216417", "rank": 3}}, {"type": "Feature", "geometry": {"type": "Point", "coordinates": [99.04054, 18.83874]}, "properties": {"id": "cm-osm-node-13428443752", "name": "Street Workout", "nameTh": null, "nameEn": "Street Workout", "cat": ["sport"], "province": "cm", "slug": "street-workout-13428443752", "rank": 1}}, {"type": "Feature", "geometry": {"type": "Point", "coordinates": [99.04038, 18.83799]}, "properties": {"id": "cm-osm-node-13428443753", "name": "Street Workout", "nameTh": null, "nameEn": "Street Workout", "cat": ["sport"], "province": "cm", "slug": "street-workout-13428443753", "rank": 1}}, {"type": "Feature", "geometry": {"type": "Point", "coordinates": [98.98919, 18.79996]}, "properties": {"id": "cm-osm-node-6251318200", "name": "Street Workout", "nameTh": null, "nameEn": "Street Workout", "cat": ["sport"], "province": "cm", "slug": "street-workout-6251318200", "rank": 1}}, {"type": "Feature", "geometry": {"type": "Point", "coordinates": [98.978, 18.76471]}, "properties": {"id": "cm-osm-node-5038026622", "name": "Team quest Thailand", "nameTh": "Team quest Thailand", "nameEn": null, "cat": ["sport"], "province": "cm", "slug": "team-quest-thailand-5038026622", "rank": 1}}, {"type": "Feature", "geometry": {"type": "Point", "coordinates": [98.98948, 18.79969]}, "properties": {"id": "cm-osm-node-12543091903", "name": "Thailand Natonal Sports Uneversity Physical Science Center", "nameTh": null, "nameEn": "Thailand Natonal Sports Uneversity Physical Science Center", "cat": ["sport"], "province": "cm", "slug": "thailand-natonal-sports-uneversity-physical-science-center-12543091903", "rank": 1}}, {"type": "Feature", "geometry": {"type": "Point", "coordinates": [99.01146, 18.84276]}, "properties": {"id": "cm-osm-way-488582156", "name": "Thanaporn Sports Club", "nameTh": null, "nameEn": "Thanaporn Sports Club", "cat": ["sport"], "province": "cm", "slug": "thanaporn-sports-club-488582156", "rank": 1}}, {"type": "Feature", "geometry": {"type": "Point", "coordinates": [98.95433, 18.73514]}, "properties": {"id": "cm-osm-node-6465929626", "name": "The Nine Fitness", "nameTh": null, "nameEn": "The Nine Fitness", "cat": ["sport"], "province": "cm", "slug": "the-nine-fitness-6465929626", "rank": 1}}, {"type": "Feature", "geometry": {"type": "Point", "coordinates": [99.0248, 18.80531]}, "properties": {"id": "cm-osm-node-10799568505", "name": "Training box fitness center", "nameTh": null, "nameEn": "Training box fitness center", "cat": ["sport"], "province": "cm", "slug": "training-box-fitness-center-10799568505", "rank": 2}}, {"type": "Feature", "geometry": {"type": "Point", "coordinates": [99.0279, 18.72756]}, "properties": {"id": "cm-osm-way-1414752785", "name": "Triple Ace", "nameTh": null, "nameEn": "Triple Ace", "cat": ["sport"], "province": "cm", "slug": "triple-ace-1414752785", "rank": 1}}, {"type": "Feature", "geometry": {"type": "Point", "coordinates": [98.98863, 18.80155]}, "properties": {"id": "cm-osm-node-13367335901", "name": "West gate to municipal stadium", "nameTh": null, "nameEn": "West gate to municipal stadium", "cat": ["sport"], "province": "cm", "slug": "west-gate-to-municipal-stadium-13367335901", "rank": 2}}, {"type": "Feature", "geometry": {"type": "Point", "coordinates": [98.98803, 18.78248]}, "properties": {"id": "cm-osm-node-4407670289", "name": "Wild Rose Yoga", "nameTh": null, "nameEn": "Wild Rose Yoga", "cat": ["sport"], "province": "cm", "slug": "wild-rose-yoga-4407670289", "rank": 3}}, {"type": "Feature", "geometry": {"type": "Point", "coordinates": [99.13647, 18.91929]}, "properties": {"id": "cm-osm-node-5336756048", "name": "Wise Living Yoga Center", "nameTh": null, "nameEn": "Wise Living Yoga Center", "cat": ["sport"], "province": "cm", "slug": "wise-living-yoga-center-5336756048", "rank": 1}}, {"type": "Feature", "geometry": {"type": "Point", "coordinates": [98.93971, 18.72933]}, "properties": {"id": "cm-osm-way-957030359", "name": "World Club Sport Complex", "nameTh": null, "nameEn": "World Club Sport Complex", "cat": ["sport"], "province": "cm", "slug": "world-club-sport-complex-957030359", "rank": 1}}, {"type": "Feature", "geometry": {"type": "Point", "coordinates": [98.99007, 18.80077]}, "properties": {"id": "cm-osm-node-12543092301", "name": "YOGA", "nameTh": null, "nameEn": "YOGA", "cat": ["sport"], "province": "cm", "slug": "yoga-12543092301", "rank": 2}}, {"type": "Feature", "geometry": {"type": "Point", "coordinates": [98.98023, 18.78224]}, "properties": {"id": "cm-osm-node-11533438001", "name": "Yoga In The Park", "nameTh": null, "nameEn": "Yoga In The Park", "cat": ["sport"], "province": "cm", "slug": "yoga-in-the-park-11533438001", "rank": 1}}, {"type": "Feature", "geometry": {"type": "Point", "coordinates": [98.99027, 18.79451]}, "properties": {"id": "cm-osm-node-6341126186", "name": "Yoga Kuukan", "nameTh": null, "nameEn": "Yoga Kuukan", "cat": ["sport"], "province": "cm", "slug": "yoga-kuukan-6341126186", "rank": 2}}, {"type": "Feature", "geometry": {"type": "Point", "coordinates": [98.97626, 18.80248]}, "properties": {"id": "cm-osm-node-11915089171", "name": "Yoga Rang Nok", "nameTh": null, "nameEn": "Yoga Rang Nok", "cat": ["sport"], "province": "cm", "slug": "yoga-rang-nok-11915089171", "rank": 3}}, {"type": "Feature", "geometry": {"type": "Point", "coordinates": [98.96239, 18.8236]}, "properties": {"id": "cm-osm-way-1118511457", "name": "Yuu Yoga Renewal Wellness", "nameTh": null, "nameEn": "Yuu Yoga Renewal Wellness", "cat": ["sport"], "province": "cm", "slug": "yuu-yoga-renewal-wellness-1118511457", "rank": 5}}, {"type": "Feature", "geometry": {"type": "Point", "coordinates": [98.95369, 18.7496]}, "properties": {"id": "cm-newsletter-the-den-cnx", "name": "theDENcnx", "nameTh": null, "nameEn": "theDENcnx", "cat": ["sport"], "province": "cm", "slug": "thedencnx-cmnewsletterthedencnx", "rank": 2}}, {"type": "Feature", "geometry": {"type": "Point", "coordinates": [98.9675, 18.79384]}, "properties": {"id": "cm-osm-node-4360103857", "name": "ยูนิเซิฟ ฟิตเนส", "nameTh": "ยูนิเซิฟ ฟิตเนส", "nameEn": "Uniserv fitness centre", "cat": ["sport"], "province": "cm", "slug": "uniserv-fitness-centre-4360103857", "rank": 2}}, {"type": "Feature", "geometry": {"type": "Point", "coordinates": [98.95911, 18.84067]}, "properties": {"id": "cm-osm-way-1539368877", "name": "สนามกีฬาสมโภชเชียงใหม่ 700 ปี", "nameTh": "สนามกีฬาสมโภชเชียงใหม่ 700 ปี", "nameEn": "700th Anniversary of Chiangmai Sports Center", "cat": ["sport"], "province": "cm", "slug": "700th-anniversary-of-chiangmai-sports-center-1539368877", "rank": 2}}, {"type": "Feature", "geometry": {"type": "Point", "coordinates": [98.94138, 18.76732]}, "properties": {"id": "cm-osm-way-448275553", "name": "สนามกีฬาเทศบาลตำบลสุเทพ", "nameTh": "สนามกีฬาเทศบาลตำบลสุเทพ", "nameEn": "Suthep Municipality Sports Arena", "cat": ["sport"], "province": "cm", "slug": "suthep-municipality-sports-arena-448275553", "rank": 2}}, {"type": "Feature", "geometry": {"type": "Point", "coordinates": [98.99103, 18.80261]}, "properties": {"id": "cm-osm-relation-9250994", "name": "สนามยิงปืน", "nameTh": "สนามยิงปืน", "nameEn": "Chiang Mai Municipality Shooting Ranges", "cat": ["sport"], "province": "cm", "slug": "chiang-mai-municipality-shooting-ranges-9250994", "rank": 2}}, {"type": "Feature", "geometry": {"type": "Point", "coordinates": [98.96782, 18.80444]}, "properties": {"id": "cm-osm-node-4359143768", "name": "สนามแบดมินตัน", "nameTh": "สนามแบดมินตัน", "nameEn": "Green Hill", "cat": ["sport"], "province": "cm", "slug": "green-hill-4359143768", "rank": 2}}, {"type": "Feature", "geometry": {"type": "Point", "coordinates": [99.0171, 18.79485]}, "properties": {"id": "cm-osm-way-317894479", "name": "สมาคมพาณิชย์สามัคคีเชียงใหม่", "nameTh": "สมาคมพาณิชย์สามัคคีเชียงใหม่", "nameEn": "Chiang Mai United Commerce Association", "cat": ["sport"], "province": "cm", "slug": "chiang-mai-united-commerce-association-317894479", "rank": 2}}, {"type": "Feature", "geometry": {"type": "Point", "coordinates": [98.99278, 18.76594]}, "properties": {"id": "cm-osm-way-367745511", "name": "สโมสร เชียงใหม่แลนด้", "nameTh": "สโมสร เชียงใหม่แลนด้", "nameEn": "Chiang Mai Land Association", "cat": ["sport"], "province": "cm", "slug": "chiang-mai-land-association-367745511", "rank": 3}}, {"type": "Feature", "geometry": {"type": "Point", "coordinates": [98.95516, 18.79583]}, "properties": {"id": "cm-osm-way-313513917", "name": "อาคารพลศึกษา", "nameTh": "อาคารพลศึกษา", "nameEn": null, "cat": ["sport"], "province": "cm", "slug": "313513917", "rank": 2}}, {"type": "Feature", "geometry": {"type": "Point", "coordinates": [99.00608, 18.79857]}, "properties": {"id": "cm-osm-way-97699140", "name": "อาคารยิมเนเซียม", "nameTh": "อาคารยิมเนเซียม", "nameEn": "PRC Gymnasium", "cat": ["sport"], "province": "cm", "slug": "prc-gymnasium-97699140", "rank": 2}}, {"type": "Feature", "geometry": {"type": "Point", "coordinates": [98.97413, 18.76397]}, "properties": {"id": "cm-osm-way-704138132", "name": "เดโชโย่", "nameTh": "เดโชโย่", "nameEn": null, "cat": ["sport"], "province": "cm", "slug": "704138132", "rank": 1}}, {"type": "Feature", "geometry": {"type": "Point", "coordinates": [98.98708, 18.77762]}, "properties": {"id": "cm-osm-node-11250853010", "name": "เพาะกายเชียงใหม่ยิม", "nameTh": "เพาะกายเชียงใหม่ยิม", "nameEn": null, "cat": ["sport"], "province": "cm", "slug": "11250853010", "rank": 1}}, {"type": "Feature", "geometry": {"type": "Point", "coordinates": [99.04086, 18.76244]}, "properties": {"id": "cm-osm-way-938078035", "name": "แมกนัส ฟิตเนส", "nameTh": "แมกนัส ฟิตเนส", "nameEn": "Magnus Fitness Center", "cat": ["sport"], "province": "cm", "slug": "magnus-fitness-center-938078035", "rank": 2}}, {"type": "Feature", "geometry": {"type": "Point", "coordinates": [98.95771, 18.79695]}, "properties": {"id": "cm-osm-way-237479465", "name": "โรงยิมนีเซียม", "nameTh": "โรงยิมนีเซียม", "nameEn": "Main Gymnasium", "cat": ["sport"], "province": "cm", "slug": "main-gymnasium-237479465", "rank": 4}}, {"type": "Feature", "geometry": {"type": "Point", "coordinates": [98.99044, 18.80247]}, "properties": {"id": "cm-osm-way-264910429", "name": "โรงยิมเอนกประสงค์", "nameTh": "โรงยิมเอนกประสงค์", "nameEn": "Gymnasium 2", "cat": ["sport"], "province": "cm", "slug": "gymnasium-2-264910429", "rank": 2}}]}