{"type": "FeatureCollection", "features": [{"type": "Feature", "geometry": {"type": "Point", "coordinates": [98.9659947, 18.7959097]}, "properties": {"id": "cm-osm-node-12976981412", "name": "Artisan Ink Tattoo", "cat": ["sights"], "province": "cm"}}, {"type": "Feature", "geometry": {"type": "Point", "coordinates": [98.9902597, 18.7889878]}, "properties": {"id": "cm-osm-node-4841595725", "name": "Bambi tattoo", "cat": ["sights"], "province": "cm"}}, {"type": "Feature", "geometry": {"type": "Point", "coordinates": [98.9946811, 18.7848824]}, "properties": {"id": "cm-osm-node-820826924", "name": "Bloodline Tattoo", "cat": ["sights"], "province": "cm"}}, {"type": "Feature", "geometry": {"type": "Point", "coordinates": [98.9924841, 18.7880035]}, "properties": {"id": "cm-osm-node-4903800926", "name": "Bnana tattoo", "cat": ["sights"], "province": "cm"}}, {"type": "Feature", "geometry": {"type": "Point", "coordinates": [98.9927594, 18.7832453]}, "properties": {"id": "cm-osm-node-13333145066", "name": "CNX INK", "cat": ["sights"], "province": "cm"}}, {"type": "Feature", "geometry": {"type": "Point", "coordinates": [98.9959333, 18.7843417]}, "properties": {"id": "cm-osm-node-5535316272", "name": "Celebrity Ink™ Tattoo Studio Chiang Mai", "cat": ["sights"], "province": "cm"}}, {"type": "Feature", "geometry": {"type": "Point", "coordinates": [99.029595, 18.7953333]}, "properties": {"id": "cm-osm-way-210166989", "name": "Center for Northern Culture", "cat": ["sights"], "province": "cm"}}, {"type": "Feature", "geometry": {"type": "Point", "coordinates": [98.9909168, 18.7904772]}, "properties": {"id": "cm-osm-node-4708268594", "name": "Dejavu Tattoo", "cat": ["sights"], "province": "cm"}}, {"type": "Feature", "geometry": {"type": "Point", "coordinates": [98.9409459, 18.7590533]}, "properties": {"id": "cm-osm-node-2934987188", "name": "Faculty of Veterinary Medicine Library", "cat": ["sights"], "province": "cm"}}, {"type": "Feature", "geometry": {"type": "Point", "coordinates": [98.9917315, 18.7903825]}, "properties": {"id": "cm-osm-node-3309392804", "name": "Forever", "cat": ["sights"], "province": "cm"}}, {"type": "Feature", "geometry": {"type": "Point", "coordinates": [98.9904173, 18.7837527]}, "properties": {"id": "cm-osm-node-7125409185", "name": "Ganesha", "cat": ["sights"], "province": "cm"}}, {"type": "Feature", "geometry": {"type": "Point", "coordinates": [98.993255, 18.7909004]}, "properties": {"id": "cm-osm-node-5419964023", "name": "Gao Yord Tattoo", "cat": ["sights"], "province": "cm"}}, {"type": "Feature", "geometry": {"type": "Point", "coordinates": [98.9925351, 18.7940295]}, "properties": {"id": "cm-osm-node-9788234773", "name": "JS Tattoo", "cat": ["sights"], "province": "cm"}}, {"type": "Feature", "geometry": {"type": "Point", "coordinates": [98.9927144, 18.7846784]}, "properties": {"id": "cm-osm-node-3266576204", "name": "Jin Bamboo Tattoo", "cat": ["sights"], "province": "cm"}}, {"type": "Feature", "geometry": {"type": "Point", "coordinates": [98.9863906, 18.7833599]}, "properties": {"id": "cm-osm-node-10297921309", "name": "Kalm Village Chiangmai", "cat": ["sights"], "province": "cm"}}, {"type": "Feature", "geometry": {"type": "Point", "coordinates": [98.9503666, 18.7780854]}, "properties": {"id": "cm-osm-way-813540919", "name": "Lansieow - Freeative Art Space", "cat": ["sights"], "province": "cm"}}, {"type": "Feature", "geometry": {"type": "Point", "coordinates": [98.9838473, 18.8068379]}, "properties": {"id": "cm-osm-node-10243796209", "name": "Leo on Ink", "cat": ["sights"], "province": "cm"}}, {"type": "Feature", "geometry": {"type": "Point", "coordinates": [98.9946677, 18.7847032]}, "properties": {"id": "cm-osm-node-3652873200", "name": "Line Point Bamboo Tattoo", "cat": ["sights"], "province": "cm"}}, {"type": "Feature", "geometry": {"type": "Point", "coordinates": [99.0030304, 18.7855672]}, "properties": {"id": "cm-osm-node-7501338057", "name": "Mai Space", "cat": ["sights"], "province": "cm"}}, {"type": "Feature", "geometry": {"type": "Point", "coordinates": [98.9503531, 18.7782358]}, "properties": {"id": "cm-osm-node-7599272077", "name": "Malee Garden Bistro", "cat": ["sights"], "province": "cm"}}, {"type": "Feature", "geometry": {"type": "Point", "coordinates": [98.9926692, 18.7835395]}, "properties": {"id": "cm-osm-node-3266546702", "name": "MeingPing Ink", "cat": ["sights"], "province": "cm"}}, {"type": "Feature", "geometry": {"type": "Point", "coordinates": [98.9925809, 18.785234]}, "properties": {"id": "cm-osm-node-4789224122", "name": "Mornzter Tattoo Studio", "cat": ["sights"], "province": "cm"}}, {"type": "Feature", "geometry": {"type": "Point", "coordinates": [99.0002222, 18.782933]}, "properties": {"id": "cm-osm-node-11766693118", "name": "New Regional Art Gallery Ltd.", "cat": ["sights"], "province": "cm"}}, {"type": "Feature", "geometry": {"type": "Point", "coordinates": [98.9795466, 18.7913391]}, "properties": {"id": "cm-osm-node-13870253001", "name": "Pa Rang", "cat": ["sights"], "province": "cm"}}, {"type": "Feature", "geometry": {"type": "Point", "coordinates": [98.9817329, 18.7830528]}, "properties": {"id": "cm-osm-node-5608475321", "name": "Panumart Tattoo", "cat": ["sights"], "province": "cm"}}, {"type": "Feature", "geometry": {"type": "Point", "coordinates": [98.9476987, 18.7766944]}, "properties": {"id": "cm-osm-node-3968872434", "name": "Rumpueng Loudspeaker", "cat": ["sights"], "province": "cm"}}, {"type": "Feature", "geometry": {"type": "Point", "coordinates": [98.9762849, 18.881671]}, "properties": {"id": "cm-osm-way-1234309118", "name": "SAC Residency Program", "cat": ["sights"], "province": "cm"}}, {"type": "Feature", "geometry": {"type": "Point", "coordinates": [98.9785289, 18.7918186]}, "properties": {"id": "cm-osm-node-5703615419", "name": "Sak Yant Chiang Mai", "cat": ["sights"], "province": "cm"}}, {"type": "Feature", "geometry": {"type": "Point", "coordinates": [98.9785182, 18.7921775]}, "properties": {"id": "cm-osm-node-6215394985", "name": "Sak Yant Tatoo Chiang Mai", "cat": ["sights"], "province": "cm"}}, {"type": "Feature", "geometry": {"type": "Point", "coordinates": [98.9949549, 18.7845173]}, "properties": {"id": "cm-osm-node-820801562", "name": "Sideroad Tattoo", "cat": ["sights"], "province": "cm"}}, {"type": "Feature", "geometry": {"type": "Point", "coordinates": [98.9959405, 18.7840687]}, "properties": {"id": "cm-osm-node-1477740788", "name": "Skill Tattoo Studio", "cat": ["sights"], "province": "cm"}}, {"type": "Feature", "geometry": {"type": "Point", "coordinates": [98.9502462, 18.7912965]}, "properties": {"id": "cm-osm-node-7140788987", "name": "Solitary", "cat": ["sights"], "province": "cm"}}, {"type": "Feature", "geometry": {"type": "Point", "coordinates": [98.9378359, 18.7005237]}, "properties": {"id": "cm-osm-node-4921417521", "name": "Supthongkhum Sr-studio 1", "cat": ["sights"], "province": "cm"}}, {"type": "Feature", "geometry": {"type": "Point", "coordinates": [98.9755799, 18.7974214]}, "properties": {"id": "cm-osm-node-3304357654", "name": "Suvannabhumi Art Gallery", "cat": ["sights"], "province": "cm"}}, {"type": "Feature", "geometry": {"type": "Point", "coordinates": [98.9947985, 18.7848428]}, "properties": {"id": "cm-osm-node-10548655602", "name": "TTT Tattoo cafe", "cat": ["sights"], "province": "cm"}}, {"type": "Feature", "geometry": {"type": "Point", "coordinates": [98.9913553, 18.7928484]}, "properties": {"id": "cm-osm-node-6579572171", "name": "Tattoo", "cat": ["sights"], "province": "cm"}}, {"type": "Feature", "geometry": {"type": "Point", "coordinates": [98.9905084, 18.7912157]}, "properties": {"id": "cm-osm-node-1491288331", "name": "Tattoo Studio", "cat": ["sights"], "province": "cm"}}, {"type": "Feature", "geometry": {"type": "Point", "coordinates": [98.9935902, 18.7810699]}, "properties": {"id": "cm-osm-node-5845556885", "name": "The 29 Tattoo Studio", "cat": ["sights"], "province": "cm"}}, {"type": "Feature", "geometry": {"type": "Point", "coordinates": [98.9917142, 18.790386]}, "properties": {"id": "cm-osm-node-7142253885", "name": "The Best Tattoo", "cat": ["sights"], "province": "cm"}}, {"type": "Feature", "geometry": {"type": "Point", "coordinates": [98.9905585, 18.7854528]}, "properties": {"id": "cm-osm-node-5175695423", "name": "The Master Tattoo", "cat": ["sights"], "province": "cm"}}, {"type": "Feature", "geometry": {"type": "Point", "coordinates": [98.9768245, 18.8800439]}, "properties": {"id": "cm-osm-way-1449565979", "name": "Wanlop Hansunthai Gallery", "cat": ["sights"], "province": "cm"}}, {"type": "Feature", "geometry": {"type": "Point", "coordinates": [98.9821748, 18.7924277]}, "properties": {"id": "cm-osm-node-11515426705", "name": "Warp Tattoo", "cat": ["sights"], "province": "cm"}}, {"type": "Feature", "geometry": {"type": "Point", "coordinates": [98.9549693, 18.7849646]}, "properties": {"id": "cm-osm-node-4864016110", "name": "Wattana Art Gallery", "cat": ["sights"], "province": "cm"}}, {"type": "Feature", "geometry": {"type": "Point", "coordinates": [98.9771262, 18.783401]}, "properties": {"id": "cm-osm-node-12467082184", "name": "Xavier Ink.cnx", "cat": ["sights"], "province": "cm"}}, {"type": "Feature", "geometry": {"type": "Point", "coordinates": [99.0337679, 18.7964592]}, "properties": {"id": "cm-osm-way-122605036", "name": "ศูนยทรัพยากรการเรียนรูสิรินธร", "cat": ["sights"], "province": "cm"}}, {"type": "Feature", "geometry": {"type": "Point", "coordinates": [98.9963072, 18.7953354]}, "properties": {"id": "cm-osm-way-672587607", "name": "ศูนย์สร้างสรรค์งานออกแบบ เชียงใหม่", "cat": ["sights"], "province": "cm"}}, {"type": "Feature", "geometry": {"type": "Point", "coordinates": [98.9518471, 18.8012174]}, "properties": {"id": "cm-osm-node-6012305497", "name": "สำนักหอสมุดมหาวิทยาลัยเชียงใหม่", "cat": ["sights"], "province": "cm"}}, {"type": "Feature", "geometry": {"type": "Point", "coordinates": [99.0798315, 18.8831925]}, "properties": {"id": "cm-osm-node-11411206869", "name": "หรรษา มินิกอล์ฟ", "cat": ["sights"], "province": "cm"}}, {"type": "Feature", "geometry": {"type": "Point", "coordinates": [98.9933425, 18.6875656]}, "properties": {"id": "cm-osm-way-802360928", "name": "หอศิลป์เทา", "cat": ["sights"], "province": "cm"}}, {"type": "Feature", "geometry": {"type": "Point", "coordinates": [99.0062099, 18.796648]}, "properties": {"id": "cm-osm-way-758753403", "name": "หอสมุดมาลามาศ", "cat": ["sights"], "province": "cm"}}, {"type": "Feature", "geometry": {"type": "Point", "coordinates": [98.9773461, 18.7880344]}, "properties": {"id": "cm-osm-way-301655695", "name": "หอสมุดแห่งชาติรัชมังคลาภิเษก", "cat": ["sights"], "province": "cm"}}, {"type": "Feature", "geometry": {"type": "Point", "coordinates": [98.9567547, 18.794082]}, "properties": {"id": "cm-osm-node-2453767253", "name": "ห้องสมุดคณะบริหาร", "cat": ["sights"], "province": "cm"}}, {"type": "Feature", "geometry": {"type": "Point", "coordinates": [98.9517497, 18.8040353]}, "properties": {"id": "cm-osm-node-2453767251", "name": "ห้องสมุดคณะมนุษยศาสตร์", "cat": ["sights"], "province": "cm"}}, {"type": "Feature", "geometry": {"type": "Point", "coordinates": [98.9544782, 18.8035699]}, "properties": {"id": "cm-osm-node-2453767257", "name": "ห้องสมุดคณะรัฐศาสตร์", "cat": ["sights"], "province": "cm"}}, {"type": "Feature", "geometry": {"type": "Point", "coordinates": [98.9574896, 18.7929495]}, "properties": {"id": "cm-osm-node-2453767254", "name": "ห้องสมุดคณะวิจิตรศิลป์", "cat": ["sights"], "province": "cm"}}, {"type": "Feature", "geometry": {"type": "Point", "coordinates": [98.9534448, 18.8014963]}, "properties": {"id": "cm-osm-node-2453767256", "name": "ห้องสมุดคณะวิทยาศาสตร์", "cat": ["sights"], "province": "cm"}}, {"type": "Feature", "geometry": {"type": "Point", "coordinates": [98.956237, 18.793046]}, "properties": {"id": "cm-osm-node-2453767252", "name": "ห้องสมุดคณะศึกษาศาสตร์", "cat": ["sights"], "province": "cm"}}, {"type": "Feature", "geometry": {"type": "Point", "coordinates": [98.9492364, 18.7979994]}, "properties": {"id": "cm-osm-node-2453758055", "name": "ห้องสมุดคณะสถาปัตยกรรมศาสตร์", "cat": ["sights"], "province": "cm"}}, {"type": "Feature", "geometry": {"type": "Point", "coordinates": [98.9504542, 18.8025424]}, "properties": {"id": "cm-osm-node-2453767250", "name": "ห้องสมุดคณะสังคม", "cat": ["sights"], "province": "cm"}}, {"type": "Feature", "geometry": {"type": "Point", "coordinates": [98.9604776, 18.7934878]}, "properties": {"id": "cm-osm-node-2453767255", "name": "ห้องสมุดคณะเกษตรศาสตร์", "cat": ["sights"], "province": "cm"}}, {"type": "Feature", "geometry": {"type": "Point", "coordinates": [98.9502927, 18.8014507]}, "properties": {"id": "cm-osm-node-2453758056", "name": "ห้องสมุดคณะเศรษฐศาสตร์", "cat": ["sights"], "province": "cm"}}, {"type": "Feature", "geometry": {"type": "Point", "coordinates": [99.0058442, 18.8116777]}, "properties": {"id": "cm-osm-node-10063222958", "name": "ห้องสมุดประชาชนอำเภอเมืองเชียงใหม่ (วัดลังกา)", "cat": ["sights"], "province": "cm"}}, {"type": "Feature", "geometry": {"type": "Point", "coordinates": [98.9504326, 18.800442]}, "properties": {"id": "cm-osm-node-2453767249", "name": "ห้องสมุดวิทยาลัยศิลปะสื่อและเทคโนโลยี", "cat": ["sights"], "province": "cm"}}, {"type": "Feature", "geometry": {"type": "Point", "coordinates": [99.0036903, 18.79698]}, "properties": {"id": "cm-osm-way-283884101", "name": "อาคารพาวเวอร์ส ฮอลล์", "cat": ["sights"], "province": "cm"}}, {"type": "Feature", "geometry": {"type": "Point", "coordinates": [99.0235534, 18.7666074]}, "properties": {"id": "cm-osm-way-124819910", "name": "อาคารเฉลิมพระเกียรติใหม่", "cat": ["sights"], "province": "cm"}}]}