{"type": "FeatureCollection", "features": [{"type": "Feature", "geometry": {"type": "Point", "coordinates": [98.9762342, 18.7978505]}, "properties": {"id": "cm-osm-relation-6091082", "name": "12 Huay Kaew Complex", "cat": ["shopping"], "province": "cm"}}, {"type": "Feature", "geometry": {"type": "Point", "coordinates": [98.9992951, 18.7722279]}, "properties": {"id": "cm-osm-way-277797442", "name": "@curve", "cat": ["shopping"], "province": "cm"}}, {"type": "Feature", "geometry": {"type": "Point", "coordinates": [99.0222295, 18.7985895]}, "properties": {"id": "cm-osm-way-58002192", "name": "Big C Extra", "cat": ["shopping"], "province": "cm"}}, {"type": "Feature", "geometry": {"type": "Point", "coordinates": [98.941927, 18.7508407]}, "properties": {"id": "cm-osm-way-839645700", "name": "Biz Point 10", "cat": ["shopping"], "province": "cm"}}, {"type": "Feature", "geometry": {"type": "Point", "coordinates": [99.0182622, 18.8085191]}, "properties": {"id": "cm-osm-node-3599796094", "name": "Central Festival Shopping Mall", "cat": ["shopping"], "province": "cm"}}, {"type": "Feature", "geometry": {"type": "Point", "coordinates": [98.9772963, 18.7961764]}, "properties": {"id": "cm-osm-node-7057867885", "name": "Central Kad Suan Keaw", "cat": ["shopping"], "province": "cm"}}, {"type": "Feature", "geometry": {"type": "Point", "coordinates": [98.9557453, 18.8085683]}, "properties": {"id": "cm-osm-node-6353362785", "name": "Chiang Mai Complex", "cat": ["shopping"], "province": "cm"}}, {"type": "Feature", "geometry": {"type": "Point", "coordinates": [98.988531, 18.7835698]}, "properties": {"id": "cm-osm-node-5234292721", "name": "Greens Music", "cat": ["shopping"], "province": "cm"}}, {"type": "Feature", "geometry": {"type": "Point", "coordinates": [99.0236039, 18.8417676]}, "properties": {"id": "cm-osm-way-1258457022", "name": "J Place", "cat": ["shopping"], "province": "cm"}}, {"type": "Feature", "geometry": {"type": "Point", "coordinates": [98.9318611, 18.7014969]}, "properties": {"id": "cm-osm-way-1135057881", "name": "Kad Farang Village", "cat": ["shopping"], "province": "cm"}}, {"type": "Feature", "geometry": {"type": "Point", "coordinates": [98.9419709, 18.7468226]}, "properties": {"id": "cm-osm-way-318024520", "name": "Mali Place", "cat": ["shopping"], "province": "cm"}}, {"type": "Feature", "geometry": {"type": "Point", "coordinates": [99.010401, 18.8237644]}, "properties": {"id": "cm-osm-way-193818582", "name": "Meechok Plaza", "cat": ["shopping"], "province": "cm"}}, {"type": "Feature", "geometry": {"type": "Point", "coordinates": [98.9762142, 18.7714945]}, "properties": {"id": "cm-osm-node-9760737517", "name": "Nim City", "cat": ["shopping"], "province": "cm"}}, {"type": "Feature", "geometry": {"type": "Point", "coordinates": [98.968004, 18.8000643]}, "properties": {"id": "cm-osm-way-627946317", "name": "One Nimman", "cat": ["shopping"], "province": "cm"}}, {"type": "Feature", "geometry": {"type": "Point", "coordinates": [99.036846, 18.7556332]}, "properties": {"id": "cm-osm-way-331325062", "name": "Onsirin", "cat": ["shopping"], "province": "cm"}}, {"type": "Feature", "geometry": {"type": "Point", "coordinates": [98.9995663, 18.7817712]}, "properties": {"id": "cm-osm-way-99685467", "name": "Pantip Plaza Chiang Mai", "cat": ["shopping"], "province": "cm"}}, {"type": "Feature", "geometry": {"type": "Point", "coordinates": [99.000467, 18.7836189]}, "properties": {"id": "cm-osm-way-360854989", "name": "Pavilion Night Bazaar", "cat": ["shopping"], "province": "cm"}}, {"type": "Feature", "geometry": {"type": "Point", "coordinates": [98.9316642, 18.6993377]}, "properties": {"id": "cm-osm-way-1135057880", "name": "Premium Outlet", "cat": ["shopping"], "province": "cm"}}, {"type": "Feature", "geometry": {"type": "Point", "coordinates": [98.9760491, 18.7689112]}, "properties": {"id": "cm-osm-node-1600491079", "name": "Robinson", "cat": ["shopping"], "province": "cm"}}, {"type": "Feature", "geometry": {"type": "Point", "coordinates": [99.018862, 18.8001931]}, "properties": {"id": "cm-osm-way-204092792", "name": "Star Avenue", "cat": ["shopping"], "province": "cm"}}, {"type": "Feature", "geometry": {"type": "Point", "coordinates": [99.000396, 18.7861603]}, "properties": {"id": "cm-osm-way-334668873", "name": "The Plaza", "cat": ["shopping"], "province": "cm"}}, {"type": "Feature", "geometry": {"type": "Point", "coordinates": [99.0090105, 18.7507235]}, "properties": {"id": "cm-osm-way-333937408", "name": "Town Avenue", "cat": ["shopping"], "province": "cm"}}, {"type": "Feature", "geometry": {"type": "Point", "coordinates": [98.9945077, 18.7626769]}, "properties": {"id": "cm-osm-node-12709479801", "name": "WorldChemical", "cat": ["shopping"], "province": "cm"}}, {"type": "Feature", "geometry": {"type": "Point", "coordinates": [98.9135855, 18.6714253]}, "properties": {"id": "cm-osm-node-4571236994", "name": "bigc", "cat": ["shopping"], "province": "cm"}}, {"type": "Feature", "geometry": {"type": "Point", "coordinates": [98.9758013, 18.7741035]}, "properties": {"id": "cm-osm-way-106083743", "name": "นิยมพานิช", "cat": ["shopping"], "province": "cm"}}, {"type": "Feature", "geometry": {"type": "Point", "coordinates": [98.9993566, 18.7818209]}, "properties": {"id": "cm-osm-node-6869444085", "name": "พันธุ์ทิพย์ พลาซ่าเชียงใหม่", "cat": ["shopping"], "province": "cm"}}, {"type": "Feature", "geometry": {"type": "Point", "coordinates": [99.0182142, 18.8074047]}, "properties": {"id": "cm-osm-way-254011801", "name": "เซ็นทรัล เฟสติวัล เชียงใหม่", "cat": ["shopping"], "province": "cm"}}, {"type": "Feature", "geometry": {"type": "Point", "coordinates": [98.9753429, 18.7689626]}, "properties": {"id": "cm-osm-way-87710118", "name": "เซ็นทรัลพลาซ่า เชียงใหม่ แอร์พอร์ต", "cat": ["shopping"], "province": "cm"}}, {"type": "Feature", "geometry": {"type": "Point", "coordinates": [99.0138749, 18.8240814]}, "properties": {"id": "cm-osm-way-244658539", "name": "เทสโก้โลตัส สาขารวมโชค", "cat": ["shopping"], "province": "cm"}}, {"type": "Feature", "geometry": {"type": "Point", "coordinates": [98.9672666, 18.8024576]}, "properties": {"id": "cm-osm-way-249154472", "name": "เมญ่า", "cat": ["shopping"], "province": "cm"}}, {"type": "Feature", "geometry": {"type": "Point", "coordinates": [99.0645533, 18.7741553]}, "properties": {"id": "cm-osm-way-243263970", "name": "โมดิร์น เอ็ดดูเคชั่น มอล์", "cat": ["shopping"], "province": "cm"}}, {"type": "Feature", "geometry": {"type": "Point", "coordinates": [98.9765495, 18.8044372]}, "properties": {"id": "cm-osm-node-2530411536", "name": "โย ฅนเมือง", "cat": ["shopping"], "province": "cm"}}]}