{"type": "FeatureCollection", "features": [{"type": "Feature", "geometry": {"type": "Point", "coordinates": [99.02848, 18.78287]}, "properties": {"id": "cm-osm-node-1418916619", "name": "Government Savings Bank", "nameTh": null, "nameEn": "Government Savings Bank", "cat": ["essentials"], "province": "cm", "slug": "government-savings-bank-1418916619", "rank": 1}}, {"type": "Feature", "geometry": {"type": "Point", "coordinates": [99.11854, 18.74556]}, "properties": {"id": "cm-osm-node-1154004037", "name": "ธนาคารออมสิน", "nameTh": "ธนาคารออมสิน", "nameEn": "Government Savings Bank", "cat": ["essentials"], "province": "cm", "slug": "government-savings-bank-1154004037", "rank": 3}}, {"type": "Feature", "geometry": {"type": "Point", "coordinates": [99.00871, 18.89523]}, "properties": {"id": "cm-osm-node-2601015221", "name": "ธนาคารออมสิน", "nameTh": "ธนาคารออมสิน", "nameEn": "Government Savings Bank", "cat": ["essentials"], "province": "cm", "slug": "government-savings-bank-2601015221", "rank": 2}}, {"type": "Feature", "geometry": {"type": "Point", "coordinates": [98.99907, 18.7767]}, "properties": {"id": "cm-osm-node-2610123144", "name": "ธนาคารออมสิน", "nameTh": "ธนาคารออมสิน", "nameEn": "Government Savings Bank", "cat": ["essentials"], "province": "cm", "slug": "government-savings-bank-2610123144", "rank": 2}}, {"type": "Feature", "geometry": {"type": "Point", "coordinates": [99.13398, 18.87187]}, "properties": {"id": "cm-osm-node-2615684342", "name": "ธนาคารออมสิน", "nameTh": "ธนาคารออมสิน", "nameEn": "Government Savings Bank", "cat": ["essentials"], "province": "cm", "slug": "government-savings-bank-2615684342", "rank": 2}}, {"type": "Feature", "geometry": {"type": "Point", "coordinates": [99.01154, 18.82374]}, "properties": {"id": "cm-osm-node-2641511938", "name": "ธนาคารออมสิน", "nameTh": "ธนาคารออมสิน", "nameEn": "Government Savings Bank", "cat": ["essentials"], "province": "cm", "slug": "government-savings-bank-2641511938", "rank": 2}}, {"type": "Feature", "geometry": {"type": "Point", "coordinates": [99.00549, 18.76446]}, "properties": {"id": "cm-osm-node-2661435857", "name": "ธนาคารออมสิน", "nameTh": "ธนาคารออมสิน", "nameEn": "Government Savings Bank", "cat": ["essentials"], "province": "cm", "slug": "government-savings-bank-2661435857", "rank": 2}}, {"type": "Feature", "geometry": {"type": "Point", "coordinates": [99.01786, 18.80634]}, "properties": {"id": "cm-osm-node-3249111058", "name": "ธนาคารออมสิน", "nameTh": "ธนาคารออมสิน", "nameEn": "Government Savings Bank", "cat": ["essentials"], "province": "cm", "slug": "government-savings-bank-3249111058", "rank": 2}}, {"type": "Feature", "geometry": {"type": "Point", "coordinates": [98.9672, 18.79903]}, "properties": {"id": "cm-osm-node-3276155578", "name": "ธนาคารออมสิน", "nameTh": "ธนาคารออมสิน", "nameEn": "Government Savings Bank", "cat": ["essentials"], "province": "cm", "slug": "government-savings-bank-3276155578", "rank": 2}}, {"type": "Feature", "geometry": {"type": "Point", "coordinates": [98.96699, 18.80257]}, "properties": {"id": "cm-osm-node-3287356492", "name": "ธนาคารออมสิน", "nameTh": "ธนาคารออมสิน", "nameEn": "Government Savings Bank", "cat": ["essentials"], "province": "cm", "slug": "government-savings-bank-3287356492", "rank": 3}}, {"type": "Feature", "geometry": {"type": "Point", "coordinates": [98.97427, 18.76883]}, "properties": {"id": "cm-osm-node-3347631787", "name": "ธนาคารออมสิน", "nameTh": "ธนาคารออมสิน", "nameEn": "Government Savings Bank", "cat": ["essentials"], "province": "cm", "slug": "government-savings-bank-3347631787", "rank": 3}}, {"type": "Feature", "geometry": {"type": "Point", "coordinates": [98.97523, 18.76975]}, "properties": {"id": "cm-osm-node-3347631788", "name": "ธนาคารออมสิน", "nameTh": "ธนาคารออมสิน", "nameEn": "Government Savings Bank", "cat": ["essentials"], "province": "cm", "slug": "government-savings-bank-3347631788", "rank": 3}}, {"type": "Feature", "geometry": {"type": "Point", "coordinates": [99.03182, 18.81318]}, "properties": {"id": "cm-osm-node-4586011901", "name": "ธนาคารออมสิน", "nameTh": "ธนาคารออมสิน", "nameEn": "Government Savings Bank", "cat": ["essentials"], "province": "cm", "slug": "government-savings-bank-4586011901", "rank": 2}}, {"type": "Feature", "geometry": {"type": "Point", "coordinates": [99.03804, 18.71173]}, "properties": {"id": "cm-osm-way-101459738", "name": "ธนาคารออมสิน", "nameTh": "ธนาคารออมสิน", "nameEn": "Government Savings Bank", "cat": ["essentials"], "province": "cm", "slug": "government-savings-bank-101459738", "rank": 2}}, {"type": "Feature", "geometry": {"type": "Point", "coordinates": [98.98601, 18.79761]}, "properties": {"id": "cm-osm-way-103541466", "name": "ธนาคารออมสิน", "nameTh": "ธนาคารออมสิน", "nameEn": "Government Savings Bank", "cat": ["essentials"], "province": "cm", "slug": "government-savings-bank-103541466", "rank": 2}}, {"type": "Feature", "geometry": {"type": "Point", "coordinates": [98.94547, 18.91301]}, "properties": {"id": "cm-osm-way-1456802835", "name": "ธนาคารออมสิน", "nameTh": "ธนาคารออมสิน", "nameEn": "Government Savings Bank", "cat": ["essentials"], "province": "cm", "slug": "government-savings-bank-1456802835", "rank": 2}}, {"type": "Feature", "geometry": {"type": "Point", "coordinates": [98.95445, 18.80443]}, "properties": {"id": "cm-osm-way-235413720", "name": "ธนาคารออมสิน", "nameTh": "ธนาคารออมสิน", "nameEn": "Government Savings Bank", "cat": ["essentials"], "province": "cm", "slug": "government-savings-bank-235413720", "rank": 3}}, {"type": "Feature", "geometry": {"type": "Point", "coordinates": [98.99591, 18.7882]}, "properties": {"id": "cm-osm-way-361095171", "name": "ธนาคารออมสิน", "nameTh": "ธนาคารออมสิน", "nameEn": "Government Savings Bank", "cat": ["essentials"], "province": "cm", "slug": "government-savings-bank-361095171", "rank": 3}}]}