{"type": "FeatureCollection", "features": [{"type": "Feature", "geometry": {"type": "Point", "coordinates": [99.01917, 18.74803]}, "properties": {"id": "cm-osm-way-1097483292", "name": "Inthanin Coffee", "nameTh": null, "nameEn": "Inthanin Coffee", "cat": ["food"], "province": "cm", "slug": "inthanin-coffee-1097483292", "rank": 1}}, {"type": "Feature", "geometry": {"type": "Point", "coordinates": [99.00056, 18.75684]}, "properties": {"id": "cm-osm-node-3331582463", "name": "KFC", "nameTh": "เค เอฟ ซี", "nameEn": "KFC", "cat": ["food"], "province": "cm", "slug": "kfc-3331582463", "rank": 2}}, {"type": "Feature", "geometry": {"type": "Point", "coordinates": [98.93531, 18.73997]}, "properties": {"id": "cm-osm-way-1160626861", "name": "KFC", "nameTh": null, "nameEn": "KFC", "cat": ["food"], "province": "cm", "slug": "kfc-1160626861", "rank": 1}}, {"type": "Feature", "geometry": {"type": "Point", "coordinates": [98.93109, 18.70072]}, "properties": {"id": "cm-osm-node-3306841368", "name": "McDonald's", "nameTh": "แมคโดนัลด์", "nameEn": "McDonald's", "cat": ["food"], "province": "cm", "slug": "mcdonald-s-3306841368", "rank": 5}}, {"type": "Feature", "geometry": {"type": "Point", "coordinates": [99.02525, 18.78395]}, "properties": {"id": "cm-osm-node-13851937467", "name": "Son Of A Brew", "nameTh": null, "nameEn": "Son Of A Brew", "cat": ["food"], "province": "cm", "slug": "son-of-a-brew-13851937467", "rank": 3}}, {"type": "Feature", "geometry": {"type": "Point", "coordinates": [98.97786, 18.79313]}, "properties": {"id": "cm-osm-way-461273739", "name": "Starbucks Coffee", "nameTh": null, "nameEn": "Starbucks Coffee", "cat": ["food"], "province": "cm", "slug": "starbucks-coffee-461273739", "rank": 1}}, {"type": "Feature", "geometry": {"type": "Point", "coordinates": [99.00891, 18.75212]}, "properties": {"id": "cm-osm-node-3412153328", "name": "สภากาแฟ 89", "nameTh": "สภากาแฟ 89", "nameEn": "Sapha Coffee 89", "cat": ["food"], "province": "cm", "slug": "sapha-coffee-89-3412153328", "rank": 2}}]}