{"type": "FeatureCollection", "features": [{"type": "Feature", "geometry": {"type": "Point", "coordinates": [99.02076, 18.72842]}, "properties": {"id": "cm-osm-node-5664436709", "name": "102/1 อาหารตามสั่ง", "nameTh": "102/1 อาหารตามสั่ง", "nameEn": null, "cat": ["food"], "province": "cm", "slug": "102-1-5664436709", "rank": 2}}, {"type": "Feature", "geometry": {"type": "Point", "coordinates": [98.95532, 18.80195]}, "properties": {"id": "cm-osm-node-2434773550", "name": "Au choix", "nameTh": null, "nameEn": "Au choix", "cat": ["food"], "province": "cm", "slug": "au-choix-2434773550", "rank": 1}}, {"type": "Feature", "geometry": {"type": "Point", "coordinates": [98.97593, 18.80218]}, "properties": {"id": "cm-osm-node-11915089170", "name": "Bannom", "nameTh": null, "nameEn": "Bannom", "cat": ["food"], "province": "cm", "slug": "bannom-11915089170", "rank": 2}}, {"type": "Feature", "geometry": {"type": "Point", "coordinates": [98.98017, 18.7928]}, "properties": {"id": "cm-osm-way-623146118", "name": "Bird's Nest Cafe", "nameTh": null, "nameEn": "Bird's Nest Cafe", "cat": ["food"], "province": "cm", "slug": "bird-s-nest-cafe-623146118", "rank": 3}}, {"type": "Feature", "geometry": {"type": "Point", "coordinates": [98.96793, 18.76744]}, "properties": {"id": "cm-osm-node-12609032485", "name": "Black Canyon", "nameTh": null, "nameEn": "Black Canyon", "cat": ["food"], "province": "cm", "slug": "black-canyon-12609032485", "rank": 2}}, {"type": "Feature", "geometry": {"type": "Point", "coordinates": [98.96446, 18.79754]}, "properties": {"id": "cm-osm-node-3388756294", "name": "Blessed Food", "nameTh": null, "nameEn": "Blessed Food", "cat": ["food"], "province": "cm", "slug": "blessed-food-3388756294", "rank": 3}}, {"type": "Feature", "geometry": {"type": "Point", "coordinates": [98.96827, 18.76877]}, "properties": {"id": "cm-osm-node-1474876241", "name": "Burger King", "nameTh": null, "nameEn": "Burger King", "cat": ["food"], "province": "cm", "slug": "burger-king-1474876241", "rank": 2}}, {"type": "Feature", "geometry": {"type": "Point", "coordinates": [99.01188, 18.82853]}, "properties": {"id": "cm-osm-node-2519563448", "name": "Cafe Amazon", "nameTh": null, "nameEn": "Cafe Amazon", "cat": ["food"], "province": "cm", "slug": "cafe-amazon-2519563448", "rank": 2}}, {"type": "Feature", "geometry": {"type": "Point", "coordinates": [98.96088, 18.79688]}, "properties": {"id": "cm-osm-node-12031519067", "name": "Café Amazon", "nameTh": null, "nameEn": "Café Amazon", "cat": ["food"], "province": "cm", "slug": "caf-amazon-12031519067", "rank": 2}}, {"type": "Feature", "geometry": {"type": "Point", "coordinates": [99.07153, 18.76987]}, "properties": {"id": "cm-osm-node-1381345475", "name": "Café Amazon", "nameTh": "คาเฟ่ อเมซอน", "nameEn": "Café Amazon", "cat": ["food"], "province": "cm", "slug": "caf-amazon-1381345475", "rank": 2}}, {"type": "Feature", "geometry": {"type": "Point", "coordinates": [98.88785, 18.67139]}, "properties": {"id": "cm-osm-node-3121493939", "name": "Café Amazon", "nameTh": "คาเฟ่ อเมซอน", "nameEn": "Café Amazon", "cat": ["food"], "province": "cm", "slug": "caf-amazon-3121493939", "rank": 2}}, {"type": "Feature", "geometry": {"type": "Point", "coordinates": [99.0119, 18.80889]}, "properties": {"id": "cm-osm-node-3184594339", "name": "Café Amazon", "nameTh": "คาเฟ่ อเมซอน", "nameEn": "Café Amazon", "cat": ["food"], "province": "cm", "slug": "caf-amazon-3184594339", "rank": 2}}, {"type": "Feature", "geometry": {"type": "Point", "coordinates": [99.01626, 18.79666]}, "properties": {"id": "cm-osm-node-3242156462", "name": "Café Amazon", "nameTh": "คาเฟ่ อเมซอน", "nameEn": "Café Amazon", "cat": ["food"], "province": "cm", "slug": "caf-amazon-3242156462", "rank": 2}}, {"type": "Feature", "geometry": {"type": "Point", "coordinates": [98.98303, 18.79642]}, "properties": {"id": "cm-osm-node-3317920525", "name": "Café Amazon", "nameTh": "คาเฟ่ อเมซอน", "nameEn": "Café Amazon", "cat": ["food"], "province": "cm", "slug": "caf-amazon-3317920525", "rank": 3}}, {"type": "Feature", "geometry": {"type": "Point", "coordinates": [99.01437, 18.73861]}, "properties": {"id": "cm-osm-node-3409866633", "name": "Café Amazon", "nameTh": "คาเฟ่ อเมซอน", "nameEn": "Café Amazon", "cat": ["food"], "province": "cm", "slug": "caf-amazon-3409866633", "rank": 2}}, {"type": "Feature", "geometry": {"type": "Point", "coordinates": [98.9592, 18.78462]}, "properties": {"id": "cm-osm-node-3498459991", "name": "Café Amazon", "nameTh": "คาเฟ่ อเมซอน", "nameEn": "Café Amazon", "cat": ["food"], "province": "cm", "slug": "caf-amazon-3498459991", "rank": 2}}, {"type": "Feature", "geometry": {"type": "Point", "coordinates": [98.97252, 18.77216]}, "properties": {"id": "cm-osm-node-3810861066", "name": "Café Amazon", "nameTh": "คาเฟ่ อเมซอน", "nameEn": "Café Amazon", "cat": ["food"], "province": "cm", "slug": "caf-amazon-3810861066", "rank": 2}}, {"type": "Feature", "geometry": {"type": "Point", "coordinates": [99.06353, 18.75149]}, "properties": {"id": "cm-osm-node-4115297791", "name": "Café Amazon", "nameTh": "คาเฟ่ อเมซอน", "nameEn": "Café Amazon", "cat": ["food"], "province": "cm", "slug": "caf-amazon-4115297791", "rank": 2}}, {"type": "Feature", "geometry": {"type": "Point", "coordinates": [99.04942, 18.6787]}, "properties": {"id": "cm-osm-way-1017739602", "name": "Café Amazon", "nameTh": "คาเฟ่ อเมซอน", "nameEn": "Café Amazon", "cat": ["food"], "province": "cm", "slug": "caf-amazon-1017739602", "rank": 3}}, {"type": "Feature", "geometry": {"type": "Point", "coordinates": [99.02976, 18.76942]}, "properties": {"id": "cm-osm-way-365937068", "name": "Café Amazon", "nameTh": "คาเฟ่ อเมซอน", "nameEn": "Café Amazon", "cat": ["food"], "province": "cm", "slug": "caf-amazon-365937068", "rank": 2}}, {"type": "Feature", "geometry": {"type": "Point", "coordinates": [98.95963, 18.80042]}, "properties": {"id": "cm-osm-node-4355081629", "name": "Chill HOUSE", "nameTh": null, "nameEn": "Chill HOUSE", "cat": ["food"], "province": "cm", "slug": "chill-house-4355081629", "rank": 2}}, {"type": "Feature", "geometry": {"type": "Point", "coordinates": [98.953, 18.80368]}, "properties": {"id": "cm-osm-node-2434785831", "name": "Double Click Cafe", "nameTh": null, "nameEn": "Double Click Cafe", "cat": ["food"], "province": "cm", "slug": "double-click-cafe-2434785831", "rank": 1}}, {"type": "Feature", "geometry": {"type": "Point", "coordinates": [98.89576, 18.68227]}, "properties": {"id": "cm-osm-node-13533499755", "name": "Hangdong Family Minigolf  + German Rrestaurant", "nameTh": null, "nameEn": "Hangdong Family Minigolf  + German Rrestaurant", "cat": ["food"], "province": "cm", "slug": "hangdong-family-minigolf-german-rrestaurant-13533499755", "rank": 4}}, {"type": "Feature", "geometry": {"type": "Point", "coordinates": [98.99386, 18.79182]}, "properties": {"id": "cm-osm-node-4577538745", "name": "Hear Tong", "nameTh": null, "nameEn": "Hear Tong", "cat": ["food"], "province": "cm", "slug": "hear-tong-4577538745", "rank": 2}}, {"type": "Feature", "geometry": {"type": "Point", "coordinates": [98.95415, 18.80302]}, "properties": {"id": "cm-osm-node-2434777647", "name": "Him Tang", "nameTh": null, "nameEn": "Him Tang", "cat": ["food"], "province": "cm", "slug": "him-tang-2434777647", "rank": 1}}, {"type": "Feature", "geometry": {"type": "Point", "coordinates": [98.97875, 18.79276]}, "properties": {"id": "cm-osm-node-11383883701", "name": "House Kitchen", "nameTh": null, "nameEn": "House Kitchen", "cat": ["food"], "province": "cm", "slug": "house-kitchen-11383883701", "rank": 3}}, {"type": "Feature", "geometry": {"type": "Point", "coordinates": [98.98312, 18.78843]}, "properties": {"id": "cm-osm-node-4295719291", "name": "It's Good Kitchen", "nameTh": null, "nameEn": "Its Good Kitchen", "cat": ["food"], "province": "cm", "slug": "its-good-kitchen-4295719291", "rank": 2}}, {"type": "Feature", "geometry": {"type": "Point", "coordinates": [98.91447, 18.66728]}, "properties": {"id": "cm-osm-node-1058624594", "name": "KFC", "nameTh": "เค เอฟ ซี", "nameEn": "KFC", "cat": ["food"], "province": "cm", "slug": "kfc-1058624594", "rank": 3}}, {"type": "Feature", "geometry": {"type": "Point", "coordinates": [98.99721, 18.80869]}, "properties": {"id": "cm-osm-node-1616141787", "name": "KFC", "nameTh": "เค เอฟ ซี", "nameEn": "KFC", "cat": ["food"], "province": "cm", "slug": "kfc-1616141787", "rank": 3}}, {"type": "Feature", "geometry": {"type": "Point", "coordinates": [99.03291, 18.7691]}, "properties": {"id": "cm-osm-node-2117270440", "name": "KFC", "nameTh": "เค เอฟ ซี", "nameEn": "KFC", "cat": ["food"], "province": "cm", "slug": "kfc-2117270440", "rank": 3}}, {"type": "Feature", "geometry": {"type": "Point", "coordinates": [99.01416, 18.82441]}, "properties": {"id": "cm-osm-node-2517081501", "name": "KFC", "nameTh": "เค เอฟ ซี", "nameEn": "KFC", "cat": ["food"], "province": "cm", "slug": "kfc-2517081501", "rank": 3}}, {"type": "Feature", "geometry": {"type": "Point", "coordinates": [99.0228, 18.79884]}, "properties": {"id": "cm-osm-node-2610782958", "name": "KFC", "nameTh": "เค เอฟ ซี", "nameEn": "KFC", "cat": ["food"], "province": "cm", "slug": "kfc-2610782958", "rank": 3}}, {"type": "Feature", "geometry": {"type": "Point", "coordinates": [98.99898, 18.77229]}, "properties": {"id": "cm-osm-node-2822158501", "name": "KFC", "nameTh": null, "nameEn": "KFC", "cat": ["food"], "province": "cm", "slug": "kfc-2822158501", "rank": 1}}, {"type": "Feature", "geometry": {"type": "Point", "coordinates": [99.0184, 18.80588]}, "properties": {"id": "cm-osm-node-3249111059", "name": "KFC", "nameTh": "เค เอฟ ซี", "nameEn": "KFC", "cat": ["food"], "province": "cm", "slug": "kfc-3249111059", "rank": 3}}, {"type": "Feature", "geometry": {"type": "Point", "coordinates": [98.96701, 18.80251]}, "properties": {"id": "cm-osm-node-3287356494", "name": "KFC", "nameTh": "เค เอฟ ซี", "nameEn": "KFC", "cat": ["food"], "province": "cm", "slug": "kfc-3287356494", "rank": 3}}, {"type": "Feature", "geometry": {"type": "Point", "coordinates": [99.00056, 18.75684]}, "properties": {"id": "cm-osm-node-3331582463", "name": "KFC", "nameTh": "เค เอฟ ซี", "nameEn": "KFC", "cat": ["food"], "province": "cm", "slug": "kfc-3331582463", "rank": 2}}, {"type": "Feature", "geometry": {"type": "Point", "coordinates": [98.97494, 18.76879]}, "properties": {"id": "cm-osm-node-3347633193", "name": "KFC", "nameTh": "เค เอฟ ซี", "nameEn": "KFC", "cat": ["food"], "province": "cm", "slug": "kfc-3347633193", "rank": 4}}, {"type": "Feature", "geometry": {"type": "Point", "coordinates": [98.96201, 18.74351]}, "properties": {"id": "cm-osm-node-3404774971", "name": "KFC", "nameTh": "เค เอฟ ซี", "nameEn": "KFC", "cat": ["food"], "province": "cm", "slug": "kfc-3404774971", "rank": 3}}, {"type": "Feature", "geometry": {"type": "Point", "coordinates": [98.97218, 18.75849]}, "properties": {"id": "cm-osm-node-3419871304", "name": "KFC", "nameTh": "เค เอฟ ซี", "nameEn": "KFC", "cat": ["food"], "province": "cm", "slug": "kfc-3419871304", "rank": 3}}, {"type": "Feature", "geometry": {"type": "Point", "coordinates": [99.01173, 18.82472]}, "properties": {"id": "cm-osm-node-4213690015", "name": "KFC", "nameTh": "เค เอฟ ซี", "nameEn": "KFC", "cat": ["food"], "province": "cm", "slug": "kfc-4213690015", "rank": 3}}, {"type": "Feature", "geometry": {"type": "Point", "coordinates": [98.95355, 18.80159]}, "properties": {"id": "cm-osm-node-2434791094", "name": "Kopi Gusto", "nameTh": null, "nameEn": "Kopi Gusto", "cat": ["food"], "province": "cm", "slug": "kopi-gusto-2434791094", "rank": 1}}, {"type": "Feature", "geometry": {"type": "Point", "coordinates": [98.94841, 18.7768]}, "properties": {"id": "cm-osm-node-6176059286", "name": "Obchoei Original Homemade", "nameTh": null, "nameEn": "Obchoei Original Homemade", "cat": ["food"], "province": "cm", "slug": "obchoei-original-homemade-6176059286", "rank": 2}}, {"type": "Feature", "geometry": {"type": "Point", "coordinates": [98.95232, 18.80389]}, "properties": {"id": "cm-osm-node-2434787311", "name": "PAK Cafe", "nameTh": null, "nameEn": "PAK Cafe", "cat": ["food"], "province": "cm", "slug": "pak-cafe-2434787311", "rank": 2}}, {"type": "Feature", "geometry": {"type": "Point", "coordinates": [98.97511, 18.76539]}, "properties": {"id": "cm-osm-node-3419871309", "name": "Pizza Hut", "nameTh": "เดอะ พิซซ่า ฮัช", "nameEn": "The Pizza hut", "cat": ["food"], "province": "cm", "slug": "the-pizza-hut-3419871309", "rank": 4}}, {"type": "Feature", "geometry": {"type": "Point", "coordinates": [99.00164, 18.74964]}, "properties": {"id": "cm-osm-way-621074736", "name": "Rolf Coffee", "nameTh": null, "nameEn": "Rolf Coffee", "cat": ["food"], "province": "cm", "slug": "rolf-coffee-621074736", "rank": 2}}, {"type": "Feature", "geometry": {"type": "Point", "coordinates": [98.99016, 18.78868]}, "properties": {"id": "cm-osm-way-334004235", "name": "Ruen Tamarind", "nameTh": null, "nameEn": "Ruen Tamarind", "cat": ["food"], "province": "cm", "slug": "ruen-tamarind-334004235", "rank": 4}}, {"type": "Feature", "geometry": {"type": "Point", "coordinates": [98.98119, 18.78765]}, "properties": {"id": "cm-osm-node-3682837946", "name": "SP Chicken", "nameTh": "ไก่ย่าง เอสพี", "nameEn": "SP Chicken", "cat": ["food"], "province": "cm", "slug": "sp-chicken-3682837946", "rank": 3}}, {"type": "Feature", "geometry": {"type": "Point", "coordinates": [98.97413, 18.79814]}, "properties": {"id": "cm-osm-node-3134796412", "name": "Salsa Kitchen", "nameTh": null, "nameEn": "Salsa Kitchen", "cat": ["food"], "province": "cm", "slug": "salsa-kitchen-3134796412", "rank": 2}}, {"type": "Feature", "geometry": {"type": "Point", "coordinates": [99.00012, 18.78381]}, "properties": {"id": "cm-osm-node-1101288715", "name": "Starbucks", "nameTh": "สตาร์บัคส์", "nameEn": "Starbucks Coffee", "cat": ["food"], "province": "cm", "slug": "starbucks-coffee-1101288715", "rank": 4}}, {"type": "Feature", "geometry": {"type": "Point", "coordinates": [98.96673, 18.7976]}, "properties": {"id": "cm-osm-node-1127593959", "name": "Starbucks", "nameTh": "สตาร์บัคส์", "nameEn": "Starbucks Coffee", "cat": ["food"], "province": "cm", "slug": "starbucks-coffee-1127593959", "rank": 3}}, {"type": "Feature", "geometry": {"type": "Point", "coordinates": [99.01766, 18.80649]}, "properties": {"id": "cm-osm-node-3116053111", "name": "Starbucks", "nameTh": "สตาร์บัคส์", "nameEn": "Starbucks Coffee", "cat": ["food"], "province": "cm", "slug": "starbucks-coffee-3116053111", "rank": 3}}, {"type": "Feature", "geometry": {"type": "Point", "coordinates": [98.96778, 18.80236]}, "properties": {"id": "cm-osm-node-3287356498", "name": "Starbucks", "nameTh": "สตาร์บัคส์", "nameEn": "Starbucks Coffee", "cat": ["food"], "province": "cm", "slug": "starbucks-coffee-3287356498", "rank": 3}}, {"type": "Feature", "geometry": {"type": "Point", "coordinates": [99.0274, 18.78349]}, "properties": {"id": "cm-osm-node-1418968709", "name": "The Pizza Company", "nameTh": "เดอะ พิซซ่า คอมปะนี", "nameEn": "The Pizza Company", "cat": ["food"], "province": "cm", "slug": "the-pizza-company-1418968709", "rank": 4}}, {"type": "Feature", "geometry": {"type": "Point", "coordinates": [99.00988, 18.89333]}, "properties": {"id": "cm-osm-node-2601003840", "name": "The Pizza Company", "nameTh": "เดอะ พิซซ่า คอมปะนี", "nameEn": "The Pizza Company", "cat": ["food"], "province": "cm", "slug": "the-pizza-company-2601003840", "rank": 4}}, {"type": "Feature", "geometry": {"type": "Point", "coordinates": [99.01787, 18.80608]}, "properties": {"id": "cm-osm-node-3249112266", "name": "The Pizza Company", "nameTh": "เดอะ พิซซ่า คอมปะนี", "nameEn": "The Pizza Company", "cat": ["food"], "province": "cm", "slug": "the-pizza-company-3249112266", "rank": 4}}, {"type": "Feature", "geometry": {"type": "Point", "coordinates": [98.97455, 18.76903]}, "properties": {"id": "cm-osm-node-3347633209", "name": "The Pizza Company", "nameTh": "เดอะ พิซซ่า คอมปะนี", "nameEn": "The Pizza Company", "cat": ["food"], "province": "cm", "slug": "the-pizza-company-3347633209", "rank": 5}}, {"type": "Feature", "geometry": {"type": "Point", "coordinates": [98.98215, 18.81608]}, "properties": {"id": "cm-osm-node-3385661335", "name": "The Pizza Company", "nameTh": "เดอะ พิซซ่า คอมปะนี", "nameEn": "The Pizza Company", "cat": ["food"], "province": "cm", "slug": "the-pizza-company-3385661335", "rank": 4}}, {"type": "Feature", "geometry": {"type": "Point", "coordinates": [99.07794, 18.76606]}, "properties": {"id": "cm-osm-node-3602308247", "name": "The Pizza Company", "nameTh": "เดอะ พิซซ่า คอมปะนี", "nameEn": "The Pizza Company", "cat": ["food"], "province": "cm", "slug": "the-pizza-company-3602308247", "rank": 4}}, {"type": "Feature", "geometry": {"type": "Point", "coordinates": [98.95535, 18.80401]}, "properties": {"id": "cm-osm-node-5591495441", "name": "University Office Canteen", "nameTh": null, "nameEn": "University Office Canteen", "cat": ["food"], "province": "cm", "slug": "university-office-canteen-5591495441", "rank": 2}}, {"type": "Feature", "geometry": {"type": "Point", "coordinates": [99.00517, 18.79739]}, "properties": {"id": "cm-osm-node-7676192798", "name": "fresh and mild", "nameTh": null, "nameEn": "fresh and mild", "cat": ["food"], "province": "cm", "slug": "fresh-and-mild-7676192798", "rank": 1}}, {"type": "Feature", "geometry": {"type": "Point", "coordinates": [99.00204, 18.79277]}, "properties": {"id": "cm-osm-node-11806453091", "name": "khna coffee brewers", "nameTh": null, "nameEn": "khna coffee brewers", "cat": ["food"], "province": "cm", "slug": "khna-coffee-brewers-11806453091", "rank": 2}}, {"type": "Feature", "geometry": {"type": "Point", "coordinates": [98.95418, 18.80366]}, "properties": {"id": "cm-osm-node-2434783251", "name": "กาแฟรัฐศาสตร์", "nameTh": "กาแฟรัฐศาสตร์", "nameEn": null, "cat": ["food"], "province": "cm", "slug": "2434783251", "rank": 1}}, {"type": "Feature", "geometry": {"type": "Point", "coordinates": [98.97075, 18.79675]}, "properties": {"id": "cm-osm-node-7158628085", "name": "ข้าวต้ม บาทเดียว", "nameTh": "ข้าวต้ม บาทเดียว", "nameEn": "Khao Tom Baht Diao", "cat": ["food"], "province": "cm", "slug": "khao-tom-baht-diao-7158628085", "rank": 2}}, {"type": "Feature", "geometry": {"type": "Point", "coordinates": [99.01479, 18.87559]}, "properties": {"id": "cm-osm-node-3340982844", "name": "คาเฟ่ อเมซอน", "nameTh": "คาเฟ่ อเมซอน", "nameEn": "Café Amazon", "cat": ["food"], "province": "cm", "slug": "caf-amazon-3340982844", "rank": 2}}, {"type": "Feature", "geometry": {"type": "Point", "coordinates": [98.9706, 18.78986]}, "properties": {"id": "cm-osm-node-3369589470", "name": "คาเฟ่ อเมซอน", "nameTh": "คาเฟ่ อเมซอน", "nameEn": "Café Amazon", "cat": ["food"], "province": "cm", "slug": "caf-amazon-3369589470", "rank": 3}}, {"type": "Feature", "geometry": {"type": "Point", "coordinates": [98.94325, 18.91918]}, "properties": {"id": "cm-osm-node-3924966402", "name": "คาเฟ่ อเมซอน", "nameTh": "คาเฟ่ อเมซอน", "nameEn": "Café Amazon", "cat": ["food"], "province": "cm", "slug": "caf-amazon-3924966402", "rank": 3}}, {"type": "Feature", "geometry": {"type": "Point", "coordinates": [98.92521, 18.7508]}, "properties": {"id": "cm-osm-node-3927203442", "name": "คาเฟ่ อเมซอน", "nameTh": "คาเฟ่ อเมซอน", "nameEn": "Café Amazon", "cat": ["food"], "province": "cm", "slug": "caf-amazon-3927203442", "rank": 2}}, {"type": "Feature", "geometry": {"type": "Point", "coordinates": [98.95826, 18.79218]}, "properties": {"id": "cm-osm-node-7579280681", "name": "คาเฟ่ อเมซอน", "nameTh": "คาเฟ่ อเมซอน", "nameEn": "Café Amazon", "cat": ["food"], "province": "cm", "slug": "caf-amazon-7579280681", "rank": 3}}, {"type": "Feature", "geometry": {"type": "Point", "coordinates": [99.05688, 18.83453]}, "properties": {"id": "cm-osm-way-1251033565", "name": "คาเฟ่ อเมซอน", "nameTh": "คาเฟ่ อเมซอน", "nameEn": "Café Amazon", "cat": ["food"], "province": "cm", "slug": "caf-amazon-1251033565", "rank": 2}}, {"type": "Feature", "geometry": {"type": "Point", "coordinates": [99.05231, 18.66914]}, "properties": {"id": "cm-osm-way-663794597", "name": "คาเฟ่ อเมซอน", "nameTh": "คาเฟ่ อเมซอน", "nameEn": "Café Amazon", "cat": ["food"], "province": "cm", "slug": "caf-amazon-663794597", "rank": 2}}, {"type": "Feature", "geometry": {"type": "Point", "coordinates": [98.98371, 18.78861]}, "properties": {"id": "cm-osm-way-1160323326", "name": "มิ่งขวัญ", "nameTh": "มิ่งขวัญ", "nameEn": "Ming Kwan", "cat": ["food"], "province": "cm", "slug": "ming-kwan-1160323326", "rank": 3}}, {"type": "Feature", "geometry": {"type": "Point", "coordinates": [98.99504, 18.80444]}, "properties": {"id": "cm-osm-way-220311695", "name": "ร้านก๋วยเตี๋ยวไก่ตุ๋น", "nameTh": "ร้านก๋วยเตี๋ยวไก่ตุ๋น", "nameEn": null, "cat": ["food"], "province": "cm", "slug": "220311695", "rank": 2}}, {"type": "Feature", "geometry": {"type": "Point", "coordinates": [98.95754, 18.7897]}, "properties": {"id": "cm-osm-node-4358599610", "name": "ร้านลุงเกษม", "nameTh": "ร้านลุงเกษม", "nameEn": null, "cat": ["food"], "province": "cm", "slug": "4358599610", "rank": 1}}, {"type": "Feature", "geometry": {"type": "Point", "coordinates": [98.99496, 18.80407]}, "properties": {"id": "cm-osm-way-220311498", "name": "ร้านสุกี้สนามกีฬา(เจ้าเก่า)", "nameTh": "ร้านสุกี้สนามกีฬา(เจ้าเก่า)", "nameEn": null, "cat": ["food"], "province": "cm", "slug": "220311498", "rank": 2}}, {"type": "Feature", "geometry": {"type": "Point", "coordinates": [99.04601, 18.90487]}, "properties": {"id": "cm-osm-node-4573410090", "name": "สยามการ์เด้นคุ้กกิ้งสคูล", "nameTh": "สยามการ์เด้นคุ้กกิ้งสคูล", "nameEn": "Siam Garden Cooking School", "cat": ["cooking", "food"], "province": "cm", "slug": "siam-garden-cooking-school-4573410090", "rank": 6}}, {"type": "Feature", "geometry": {"type": "Point", "coordinates": [98.94843, 18.79952]}, "properties": {"id": "cm-osm-node-4355117364", "name": "อาหารตามสั่ง", "nameTh": "อาหารตามสั่ง", "nameEn": null, "cat": ["food"], "province": "cm", "slug": "4355117364", "rank": 1}}, {"type": "Feature", "geometry": {"type": "Point", "coordinates": [99.00868, 18.75861]}, "properties": {"id": "cm-osm-node-5000148487", "name": "のび田", "nameTh": null, "nameEn": "Nobita", "cat": ["food"], "province": "cm", "slug": "nobita-5000148487", "rank": 3}}, {"type": "Feature", "geometry": {"type": "Point", "coordinates": [98.99001, 18.78236]}, "properties": {"id": "cm-osm-node-2598509624", "name": "60 Blue", "nameTh": null, "nameEn": "60 Blue", "cat": ["hotel"], "province": "cm", "slug": "60-blue-2598509624", "rank": 3}}, {"type": "Feature", "geometry": {"type": "Point", "coordinates": [98.99125, 18.7808]}, "properties": {"id": "cm-osm-way-677271031", "name": "A Dude mini Hostel", "nameTh": null, "nameEn": "A Dude mini Hostel", "cat": ["hotel"], "province": "cm", "slug": "a-dude-mini-hostel-677271031", "rank": 2}}, {"type": "Feature", "geometry": {"type": "Point", "coordinates": [98.99057, 18.78452]}, "properties": {"id": "cm-osm-node-12327786309", "name": "Bodhi Serene", "nameTh": null, "nameEn": "Bodhi Serene", "cat": ["hotel"], "province": "cm", "slug": "bodhi-serene-12327786309", "rank": 1}}, {"type": "Feature", "geometry": {"type": "Point", "coordinates": [98.98953, 18.78715]}, "properties": {"id": "cm-osm-node-9281344619", "name": "Cozy by Funwahn", "nameTh": null, "nameEn": "Cozy by Funwahn", "cat": ["hotel"], "province": "cm", "slug": "cozy-by-funwahn-9281344619", "rank": 1}}, {"type": "Feature", "geometry": {"type": "Point", "coordinates": [98.99422, 18.76298]}, "properties": {"id": "cm-osm-node-9353067138", "name": "Full Stop Hostel Chiang Mai", "nameTh": null, "nameEn": "Full Stop Hostel Chiang Mai", "cat": ["hotel"], "province": "cm", "slug": "full-stop-hostel-chiang-mai-9353067138", "rank": 2}}, {"type": "Feature", "geometry": {"type": "Point", "coordinates": [98.9872, 18.78482]}, "properties": {"id": "cm-osm-way-623160173", "name": "Hostel Lullaby", "nameTh": null, "nameEn": "Hostel Lullaby", "cat": ["hotel"], "province": "cm", "slug": "hostel-lullaby-623160173", "rank": 3}}, {"type": "Feature", "geometry": {"type": "Point", "coordinates": [98.95745, 18.77802]}, "properties": {"id": "cm-osm-way-961374341", "name": "Sleep CNX", "nameTh": null, "nameEn": "Sleep CNX", "cat": ["hotel"], "province": "cm", "slug": "sleep-cnx-961374341", "rank": 2}}, {"type": "Feature", "geometry": {"type": "Point", "coordinates": [98.98972, 18.78859]}, "properties": {"id": "cm-osm-node-3410834689", "name": "Tamarind Village", "nameTh": null, "nameEn": "Tamarind Village", "cat": ["hotel"], "province": "cm", "slug": "tamarind-village-3410834689", "rank": 3}}, {"type": "Feature", "geometry": {"type": "Point", "coordinates": [99.00157, 18.74953]}, "properties": {"id": "cm-osm-way-621074731", "name": "Wiang Kum Kam Resort", "nameTh": "เวียงกุมกาม รีสอร์ท", "nameEn": "Wiang Kum Kam Resort", "cat": ["hotel"], "province": "cm", "slug": "wiang-kum-kam-resort-621074731", "rank": 3}}, {"type": "Feature", "geometry": {"type": "Point", "coordinates": [98.95999, 18.80615]}, "properties": {"id": "cm-osm-way-285999615", "name": "ibis Styles", "nameTh": null, "nameEn": "ibis Styles", "cat": ["hotel"], "province": "cm", "slug": "ibis-styles-285999615", "rank": 3}}, {"type": "Feature", "geometry": {"type": "Point", "coordinates": [99.00163, 18.74926]}, "properties": {"id": "cm-osm-way-621074737", "name": "เวียงกุมกาม รีสอร์ท", "nameTh": "เวียงกุมกาม รีสอร์ท", "nameEn": "Wiang Kum Kam Resort", "cat": ["hotel"], "province": "cm", "slug": "wiang-kum-kam-resort-621074737", "rank": 2}}, {"type": "Feature", "geometry": {"type": "Point", "coordinates": [98.98594, 18.80222]}, "properties": {"id": "cm-osm-way-251908577", "name": "หจก.เชียงใหม่ ตังอู๋เซ้ง", "nameTh": "หจก.เชียงใหม่ ตังอู๋เซ้ง", "nameEn": null, "cat": ["shopping"], "province": "cm", "slug": "251908577", "rank": 5}}, {"type": "Feature", "geometry": {"type": "Point", "coordinates": [98.95192, 18.798]}, "properties": {"id": "cm-osm-way-182651830", "name": "หอพักชาย6", "nameTh": "หอพักนักศึกษาชาย อาคาร 6", "nameEn": "6th Male Dormitory", "cat": ["realestate"], "province": "cm", "slug": "6th-male-dormitory-182651830", "rank": 2}}, {"type": "Feature", "geometry": {"type": "Point", "coordinates": [98.97769, 18.77974]}, "properties": {"id": "cm-osm-relation-20066992", "name": "สวนกาญจนาภิเษก", "nameTh": "สวนกาญจนาภิเษก", "nameEn": "Kanchanpisek Park", "cat": ["parks"], "province": "cm", "slug": "kanchanpisek-park-20066992", "rank": 2}}, {"type": "Feature", "geometry": {"type": "Point", "coordinates": [98.97927, 18.78229]}, "properties": {"id": "cm-osm-way-23973788", "name": "สวนบวกหาด", "nameTh": "สวนบวกหาด", "nameEn": "Nong Buak Haad Park", "cat": ["parks"], "province": "cm", "slug": "nong-buak-haad-park-23973788", "rank": 3}}]}