{"type": "FeatureCollection", "features": [{"type": "Feature", "geometry": {"type": "Point", "coordinates": [98.96758, 18.79816]}, "properties": {"id": "cm-osm-node-6003759985", "name": "9 ส", "nameTh": "9 ส", "nameEn": "9 Gao Cafe", "cat": ["food"], "province": "cm", "slug": "9-gao-cafe-6003759985", "rank": 2}}, {"type": "Feature", "geometry": {"type": "Point", "coordinates": [98.98219, 18.79238]}, "properties": {"id": "cm-osm-node-11369869429", "name": "Air's Kitchen and Cafe", "nameTh": null, "nameEn": "Air's Kitchen and Cafe", "cat": ["food"], "province": "cm", "slug": "air-s-kitchen-and-cafe-11369869429", "rank": 2}}, {"type": "Feature", "geometry": {"type": "Point", "coordinates": [98.99537, 18.78919]}, "properties": {"id": "cm-osm-node-13908740201", "name": "Aob-Sook", "nameTh": null, "nameEn": "Aob-Sook", "cat": ["food"], "province": "cm", "slug": "aob-sook-13908740201", "rank": 2}}, {"type": "Feature", "geometry": {"type": "Point", "coordinates": [98.99395, 18.78786]}, "properties": {"id": "cm-osm-node-5258746823", "name": "Art Cafe", "nameTh": null, "nameEn": "Art Cafe", "cat": ["food"], "province": "cm", "slug": "art-cafe-5258746823", "rank": 2}}, {"type": "Feature", "geometry": {"type": "Point", "coordinates": [98.999, 18.78125]}, "properties": {"id": "cm-osm-node-2655145988", "name": "Bella Goose Coffee", "nameTh": null, "nameEn": "Bella Goose Coffee", "cat": ["food"], "province": "cm", "slug": "bella-goose-coffee-2655145988", "rank": 2}}, {"type": "Feature", "geometry": {"type": "Point", "coordinates": [98.98017, 18.7928]}, "properties": {"id": "cm-osm-way-623146118", "name": "Bird's Nest Cafe", "nameTh": null, "nameEn": "Bird's Nest Cafe", "cat": ["food"], "province": "cm", "slug": "bird-s-nest-cafe-623146118", "rank": 3}}, {"type": "Feature", "geometry": {"type": "Point", "coordinates": [98.98217, 18.78683]}, "properties": {"id": "cm-osm-node-5203532422", "name": "Bistro Terrace", "nameTh": null, "nameEn": "Bistro Terrace", "cat": ["food"], "province": "cm", "slug": "bistro-terrace-5203532422", "rank": 1}}, {"type": "Feature", "geometry": {"type": "Point", "coordinates": [98.99142, 18.7939]}, "properties": {"id": "cm-osm-way-259707860", "name": "Blue Diamond The Breakfast Club", "nameTh": null, "nameEn": "Blue Diamond The Breakfast Club", "cat": ["food"], "province": "cm", "slug": "blue-diamond-the-breakfast-club-259707860", "rank": 3}}, {"type": "Feature", "geometry": {"type": "Point", "coordinates": [98.98122, 18.78175]}, "properties": {"id": "cm-osm-node-10301639809", "name": "Bumrungburi BRB Cafe", "nameTh": null, "nameEn": "Bumrungburi BRB Cafe", "cat": ["food"], "province": "cm", "slug": "bumrungburi-brb-cafe-10301639809", "rank": 1}}, {"type": "Feature", "geometry": {"type": "Point", "coordinates": [98.98848, 18.78547]}, "properties": {"id": "cm-osm-node-1006843145", "name": "Cafe de Thaan Aoan", "nameTh": null, "nameEn": "Cafe de Thaan Aoan", "cat": ["food"], "province": "cm", "slug": "cafe-de-thaan-aoan-1006843145", "rank": 2}}, {"type": "Feature", "geometry": {"type": "Point", "coordinates": [98.99462, 18.79247]}, "properties": {"id": "cm-osm-node-4430796190", "name": "Cat House", "nameTh": null, "nameEn": "Cat house", "cat": ["food"], "province": "cm", "slug": "cat-house-4430796190", "rank": 1}}, {"type": "Feature", "geometry": {"type": "Point", "coordinates": [98.99121, 18.79426]}, "properties": {"id": "cm-osm-way-256266491", "name": "Chaochau", "nameTh": null, "nameEn": "Chaochau", "cat": ["food"], "province": "cm", "slug": "chaochau-256266491", "rank": 3}}, {"type": "Feature", "geometry": {"type": "Point", "coordinates": [98.99171, 18.78414]}, "properties": {"id": "cm-osm-node-4149593989", "name": "ChiangMai Breakfast World", "nameTh": null, "nameEn": "ChiangMai Breakfast World", "cat": ["food"], "province": "cm", "slug": "chiangmai-breakfast-world-4149593989", "rank": 2}}, {"type": "Feature", "geometry": {"type": "Point", "coordinates": [98.9889, 18.79453]}, "properties": {"id": "cm-osm-node-4706095492", "name": "Coffee And More", "nameTh": null, "nameEn": "Coffee And More", "cat": ["food"], "province": "cm", "slug": "coffee-and-more-4706095492", "rank": 1}}, {"type": "Feature", "geometry": {"type": "Point", "coordinates": [98.99124, 18.78953]}, "properties": {"id": "cm-osm-node-5626559221", "name": "Coffee Plus", "nameTh": null, "nameEn": "Coffee Plus", "cat": ["food"], "province": "cm", "slug": "coffee-plus-5626559221", "rank": 2}}, {"type": "Feature", "geometry": {"type": "Point", "coordinates": [98.99236, 18.78909]}, "properties": {"id": "cm-osm-node-3385473023", "name": "Cooking Love", "nameTh": null, "nameEn": "Cooking Love", "cat": ["cooking", "food"], "province": "cm", "slug": "cooking-love-3385473023", "rank": 1}}, {"type": "Feature", "geometry": {"type": "Point", "coordinates": [98.99085, 18.7922]}, "properties": {"id": "cm-osm-node-1689181828", "name": "Early Bird 626", "nameTh": null, "nameEn": "Early Bird 626", "cat": ["food"], "province": "cm", "slug": "early-bird-626-1689181828", "rank": 2}}, {"type": "Feature", "geometry": {"type": "Point", "coordinates": [98.98466, 18.78583]}, "properties": {"id": "cm-osm-node-4690360190", "name": "Elliebum", "nameTh": null, "nameEn": "Elliebum", "cat": ["food"], "province": "cm", "slug": "elliebum-4690360190", "rank": 2}}, {"type": "Feature", "geometry": {"type": "Point", "coordinates": [98.96892, 18.79485]}, "properties": {"id": "cm-osm-node-6984212486", "name": "Flour Flour", "nameTh": null, "nameEn": "Flour Flour", "cat": ["food"], "province": "cm", "slug": "flour-flour-6984212486", "rank": 1}}, {"type": "Feature", "geometry": {"type": "Point", "coordinates": [98.99043, 18.78391]}, "properties": {"id": "cm-osm-node-5162833822", "name": "Funky Monkey", "nameTh": null, "nameEn": "Funky Monkey", "cat": ["food"], "province": "cm", "slug": "funky-monkey-5162833822", "rank": 1}}, {"type": "Feature", "geometry": {"type": "Point", "coordinates": [99.00302, 18.78359]}, "properties": {"id": "cm-osm-node-10250166809", "name": "Going up", "nameTh": null, "nameEn": "Going up", "cat": ["food"], "province": "cm", "slug": "going-up-10250166809", "rank": 2}}, {"type": "Feature", "geometry": {"type": "Point", "coordinates": [98.9967, 18.79337]}, "properties": {"id": "cm-osm-node-13911344401", "name": "Good day Farm to Table", "nameTh": null, "nameEn": "Good day Farm to Table", "cat": ["food"], "province": "cm", "slug": "good-day-farm-to-table-13911344401", "rank": 1}}, {"type": "Feature", "geometry": {"type": "Point", "coordinates": [99.00181, 18.79453]}, "properties": {"id": "cm-osm-node-7150405587", "name": "Happy Time - Vegan Foods & Salad bar", "nameTh": null, "nameEn": "Happy Time - Vegan Foods & Salad bar", "cat": ["food"], "province": "cm", "slug": "happy-time-vegan-foods-salad-bar-7150405587", "rank": 3}}, {"type": "Feature", "geometry": {"type": "Point", "coordinates": [98.87134, 18.65877]}, "properties": {"id": "cm-osm-node-13542339943", "name": "Homemade Corner Bake and Slowbar", "nameTh": null, "nameEn": "Homemade Corner Bake and Slowbar", "cat": ["food"], "province": "cm", "slug": "homemade-corner-bake-and-slowbar-13542339943", "rank": 3}}, {"type": "Feature", "geometry": {"type": "Point", "coordinates": [98.99148, 18.78514]}, "properties": {"id": "cm-osm-way-243115903", "name": "I'P Burger", "nameTh": null, "nameEn": "I'P Burger", "cat": ["food"], "province": "cm", "slug": "i-p-burger-243115903", "rank": 1}}, {"type": "Feature", "geometry": {"type": "Point", "coordinates": [98.98679, 18.79484]}, "properties": {"id": "cm-osm-node-4476187491", "name": "Into the Woods", "nameTh": null, "nameEn": "Into the Woods", "cat": ["food"], "province": "cm", "slug": "into-the-woods-4476187491", "rank": 3}}, {"type": "Feature", "geometry": {"type": "Point", "coordinates": [98.99257, 18.78508]}, "properties": {"id": "cm-osm-node-2040042303", "name": "Juicy4U", "nameTh": null, "nameEn": "Juicy4U", "cat": ["food"], "province": "cm", "slug": "juicy4u-2040042303", "rank": 2}}, {"type": "Feature", "geometry": {"type": "Point", "coordinates": [98.99514, 18.78595]}, "properties": {"id": "cm-osm-node-4540843289", "name": "KS Lanna Home Co., Ltd", "nameTh": null, "nameEn": "KS Lanna Home Co., Ltd", "cat": ["food"], "province": "cm", "slug": "ks-lanna-home-co-ltd-4540843289", "rank": 2}}, {"type": "Feature", "geometry": {"type": "Point", "coordinates": [98.97933, 18.78581]}, "properties": {"id": "cm-osm-node-5151157021", "name": "Khaotok cuisine", "nameTh": null, "nameEn": "Khaotok cuisine", "cat": ["food"], "province": "cm", "slug": "khaotok-cuisine-5151157021", "rank": 1}}, {"type": "Feature", "geometry": {"type": "Point", "coordinates": [98.98212, 18.79528]}, "properties": {"id": "cm-osm-node-10958910205", "name": "Khum Hom Cafe", "nameTh": null, "nameEn": "Khum Hom Cafe", "cat": ["food"], "province": "cm", "slug": "khum-hom-cafe-10958910205", "rank": 2}}, {"type": "Feature", "geometry": {"type": "Point", "coordinates": [98.975, 18.7988]}, "properties": {"id": "cm-osm-node-5625897221", "name": "Kitchen 7", "nameTh": null, "nameEn": "Outside In", "cat": ["food"], "province": "cm", "slug": "outside-in-5625897221", "rank": 1}}, {"type": "Feature", "geometry": {"type": "Point", "coordinates": [98.99152, 18.78518]}, "properties": {"id": "cm-osm-node-5334375922", "name": "Locker", "nameTh": null, "nameEn": "Locker", "cat": ["food"], "province": "cm", "slug": "locker-5334375922", "rank": 3}}, {"type": "Feature", "geometry": {"type": "Point", "coordinates": [98.9796, 18.78769]}, "properties": {"id": "cm-osm-node-13266867244", "name": "Maison Maison", "nameTh": null, "nameEn": "Maison Maison", "cat": ["food"], "province": "cm", "slug": "maison-maison-13266867244", "rank": 4}}, {"type": "Feature", "geometry": {"type": "Point", "coordinates": [98.99527, 18.78552]}, "properties": {"id": "cm-osm-node-6110461185", "name": "Mam’s Cake Coffee Breakfast", "nameTh": null, "nameEn": "Mam’s Cake Coffee Breakfast", "cat": ["food"], "province": "cm", "slug": "mam-s-cake-coffee-breakfast-6110461185", "rank": 2}}, {"type": "Feature", "geometry": {"type": "Point", "coordinates": [98.96864, 18.79878]}, "properties": {"id": "cm-osm-node-3426415665", "name": "Manifreshto", "nameTh": null, "nameEn": "Manifreshto", "cat": ["food"], "province": "cm", "slug": "manifreshto-3426415665", "rank": 1}}, {"type": "Feature", "geometry": {"type": "Point", "coordinates": [98.99054, 18.78402]}, "properties": {"id": "cm-osm-node-6463555785", "name": "Mickey Cafe", "nameTh": null, "nameEn": "Mickey Cafe", "cat": ["food"], "province": "cm", "slug": "mickey-cafe-6463555785", "rank": 1}}, {"type": "Feature", "geometry": {"type": "Point", "coordinates": [98.96774, 18.79691]}, "properties": {"id": "cm-osm-node-1797043368", "name": "Middle 11", "nameTh": null, "nameEn": "Middle 11", "cat": ["food"], "province": "cm", "slug": "middle-11-1797043368", "rank": 2}}, {"type": "Feature", "geometry": {"type": "Point", "coordinates": [98.97852, 18.80454]}, "properties": {"id": "cm-osm-node-13734010903", "name": "Mood:D", "nameTh": null, "nameEn": "Mood:D", "cat": ["food"], "province": "cm", "slug": "mood-d-13734010903", "rank": 1}}, {"type": "Feature", "geometry": {"type": "Point", "coordinates": [98.9863, 18.79509]}, "properties": {"id": "cm-osm-node-4333699923", "name": "Mountain view garden restaurant", "nameTh": null, "nameEn": "Mountain view garden restaurant", "cat": ["food"], "province": "cm", "slug": "mountain-view-garden-restaurant-4333699923", "rank": 4}}, {"type": "Feature", "geometry": {"type": "Point", "coordinates": [98.99743, 18.78412]}, "properties": {"id": "cm-osm-node-2300395636", "name": "My Place Lounge Chiang Mai - Sports Bar & Restaurant", "nameTh": null, "nameEn": "My Place Lounge Chiang Mai - Sports Bar & Restaurant", "cat": ["food"], "province": "cm", "slug": "my-place-lounge-chiang-mai-sports-bar-restaurant-2300395636", "rank": 5}}, {"type": "Feature", "geometry": {"type": "Point", "coordinates": [98.98323, 18.7881]}, "properties": {"id": "cm-osm-node-3907871477", "name": "My Secret Cafe", "nameTh": null, "nameEn": "My Secret Cafe", "cat": ["food"], "province": "cm", "slug": "my-secret-cafe-3907871477", "rank": 1}}, {"type": "Feature", "geometry": {"type": "Point", "coordinates": [98.99569, 18.77916]}, "properties": {"id": "cm-osm-node-12461176501", "name": "Nai To Congee Shop", "nameTh": null, "nameEn": "Nai To Congee Shop", "cat": ["food"], "province": "cm", "slug": "nai-to-congee-shop-12461176501", "rank": 2}}, {"type": "Feature", "geometry": {"type": "Point", "coordinates": [98.97904, 18.80408]}, "properties": {"id": "cm-osm-node-2104376722", "name": "Nana Bakery", "nameTh": null, "nameEn": "Nana Bakery", "cat": ["food"], "province": "cm", "slug": "nana-bakery-2104376722", "rank": 3}}, {"type": "Feature", "geometry": {"type": "Point", "coordinates": [99.00047, 18.78242]}, "properties": {"id": "cm-osm-node-4711807589", "name": "O'Malley's Irish Pub", "nameTh": null, "nameEn": "O'Malley's Irish Pub", "cat": ["food"], "province": "cm", "slug": "o-malley-s-irish-pub-4711807589", "rank": 4}}, {"type": "Feature", "geometry": {"type": "Point", "coordinates": [98.97424, 18.79905]}, "properties": {"id": "cm-osm-node-4505551231", "name": "Ombra Cafe", "nameTh": null, "nameEn": "Ombra Cafe", "cat": ["food"], "province": "cm", "slug": "ombra-cafe-4505551231", "rank": 2}}, {"type": "Feature", "geometry": {"type": "Point", "coordinates": [98.97164, 18.79606]}, "properties": {"id": "cm-osm-node-12401425802", "name": "On the Bread", "nameTh": null, "nameEn": "On the Bread", "cat": ["food"], "province": "cm", "slug": "on-the-bread-12401425802", "rank": 2}}, {"type": "Feature", "geometry": {"type": "Point", "coordinates": [98.9654, 18.80784]}, "properties": {"id": "cm-osm-node-4973476822", "name": "Paris Chiang Mai", "nameTh": null, "nameEn": "Paris Chiang Mai", "cat": ["food"], "province": "cm", "slug": "paris-chiang-mai-4973476822", "rank": 2}}, {"type": "Feature", "geometry": {"type": "Point", "coordinates": [98.99628, 18.79137]}, "properties": {"id": "cm-osm-node-7042932985", "name": "RaadNah Bangkok", "nameTh": null, "nameEn": "RaadNah Bangkok", "cat": ["food"], "province": "cm", "slug": "raadnah-bangkok-7042932985", "rank": 2}}, {"type": "Feature", "geometry": {"type": "Point", "coordinates": [98.97778, 18.76363]}, "properties": {"id": "cm-osm-node-12913876246", "name": "Rainbownoodle ก๋วยเตี๋ยวรุ้งเสวย", "nameTh": "Rainbownoodle ก๋วยเตี๋ยวรุ้งเสวย", "nameEn": null, "cat": ["food"], "province": "cm", "slug": "rainbownoodle-12913876246", "rank": 3}}, {"type": "Feature", "geometry": {"type": "Point", "coordinates": [98.99336, 18.79491]}, "properties": {"id": "cm-osm-way-578863886", "name": "Riders Corner Bar & Restaurant", "nameTh": null, "nameEn": "Riders Corner Bar & Restaurant", "cat": ["food"], "province": "cm", "slug": "riders-corner-bar-restaurant-578863886", "rank": 4}}, {"type": "Feature", "geometry": {"type": "Point", "coordinates": [98.97206, 18.79596]}, "properties": {"id": "cm-osm-node-11471926667", "name": "Rosemary", "nameTh": null, "nameEn": "Rosemary", "cat": ["food"], "province": "cm", "slug": "rosemary-11471926667", "rank": 3}}, {"type": "Feature", "geometry": {"type": "Point", "coordinates": [99.0229, 18.78429]}, "properties": {"id": "cm-osm-node-11578331869", "name": "Sally’s Cafe", "nameTh": null, "nameEn": "Sally’s Cafe", "cat": ["food"], "province": "cm", "slug": "sally-s-cafe-11578331869", "rank": 3}}, {"type": "Feature", "geometry": {"type": "Point", "coordinates": [98.99299, 18.78767]}, "properties": {"id": "cm-osm-node-9620094817", "name": "Stories", "nameTh": null, "nameEn": "Stories", "cat": ["food"], "province": "cm", "slug": "stories-9620094817", "rank": 2}}, {"type": "Feature", "geometry": {"type": "Point", "coordinates": [98.9976, 18.78917]}, "properties": {"id": "cm-osm-node-4566277683", "name": "Sunee Juice Cafe", "nameTh": null, "nameEn": "Sunee Juice Cafe", "cat": ["food"], "province": "cm", "slug": "sunee-juice-cafe-4566277683", "rank": 2}}, {"type": "Feature", "geometry": {"type": "Point", "coordinates": [99.04651, 18.79138]}, "properties": {"id": "cm-osm-node-13597778924", "name": "TEDA.cafe&studio cake", "nameTh": null, "nameEn": "TEDA.cafe&studio cake", "cat": ["food"], "province": "cm", "slug": "teda-cafe-studio-cake-13597778924", "rank": 2}}, {"type": "Feature", "geometry": {"type": "Point", "coordinates": [98.95694, 18.80706]}, "properties": {"id": "cm-osm-node-5436937744", "name": "The Boat Chiangmai", "nameTh": null, "nameEn": "The Boat Chiangmai", "cat": ["food"], "province": "cm", "slug": "the-boat-chiangmai-5436937744", "rank": 1}}, {"type": "Feature", "geometry": {"type": "Point", "coordinates": [98.99282, 18.78524]}, "properties": {"id": "cm-osm-node-1789411283", "name": "The Corner", "nameTh": null, "nameEn": "The Corner", "cat": ["food"], "province": "cm", "slug": "the-corner-1789411283", "rank": 1}}, {"type": "Feature", "geometry": {"type": "Point", "coordinates": [98.99507, 18.78581]}, "properties": {"id": "cm-osm-node-2649591567", "name": "The Garden", "nameTh": null, "nameEn": "The Garden", "cat": ["food"], "province": "cm", "slug": "the-garden-2649591567", "rank": 1}}, {"type": "Feature", "geometry": {"type": "Point", "coordinates": [98.97299, 18.79911]}, "properties": {"id": "cm-osm-node-6984492885", "name": "The Jungle Café", "nameTh": "Jungle Cowork Café", "nameEn": null, "cat": ["food"], "province": "cm", "slug": "jungle-cowork-caf-6984492885", "rank": 2}}, {"type": "Feature", "geometry": {"type": "Point", "coordinates": [98.99133, 18.79016]}, "properties": {"id": "cm-osm-node-13347185301", "name": "The Little Sunday", "nameTh": null, "nameEn": "The Little Sunday", "cat": ["food"], "province": "cm", "slug": "the-little-sunday-13347185301", "rank": 2}}, {"type": "Feature", "geometry": {"type": "Point", "coordinates": [98.99887, 18.77191]}, "properties": {"id": "cm-osm-node-13449547601", "name": "The Wooden Door Cafe", "nameTh": null, "nameEn": "The Wooden Door Cafe", "cat": ["food"], "province": "cm", "slug": "the-wooden-door-cafe-13449547601", "rank": 3}}, {"type": "Feature", "geometry": {"type": "Point", "coordinates": [98.98859, 18.77849]}, "properties": {"id": "cm-osm-node-5311551425", "name": "This is", "nameTh": null, "nameEn": "This is", "cat": ["food"], "province": "cm", "slug": "this-is-5311551425", "rank": 2}}, {"type": "Feature", "geometry": {"type": "Point", "coordinates": [98.99148, 18.79214]}, "properties": {"id": "cm-osm-node-4431911392", "name": "baan khao tork", "nameTh": null, "nameEn": "baan khao tork", "cat": ["food"], "province": "cm", "slug": "baan-khao-tork-4431911392", "rank": 1}}, {"type": "Feature", "geometry": {"type": "Point", "coordinates": [98.9528, 18.71701]}, "properties": {"id": "cm-osm-node-5260174926", "name": "jasmine restaurant", "nameTh": null, "nameEn": "jasmine restaurant", "cat": ["food"], "province": "cm", "slug": "jasmine-restaurant-5260174926", "rank": 2}}, {"type": "Feature", "geometry": {"type": "Point", "coordinates": [98.98078, 18.78467]}, "properties": {"id": "cm-osm-way-579076681", "name": "สถานีแมว", "nameTh": "สถานีแมว", "nameEn": "Cats Station Coffee and Food", "cat": ["food"], "province": "cm", "slug": "cats-station-coffee-and-food-579076681", "rank": 4}}, {"type": "Feature", "geometry": {"type": "Point", "coordinates": [98.99935, 18.76831]}, "properties": {"id": "cm-osm-node-4879591522", "name": "สภากาแฟ(เจ้าเก่า)", "nameTh": "สภากาแฟ(เจ้าเก่า)", "nameEn": null, "cat": ["food"], "province": "cm", "slug": "4879591522", "rank": 3}}, {"type": "Feature", "geometry": {"type": "Point", "coordinates": [98.96918, 18.79385]}, "properties": {"id": "cm-osm-node-5340666521", "name": "สวนไอเบอร์รี่", "nameTh": "สวนไอเบอร์รี่", "nameEn": "iberry garden", "cat": ["food"], "province": "cm", "slug": "iberry-garden-5340666521", "rank": 5}}, {"type": "Feature", "geometry": {"type": "Point", "coordinates": [98.92448, 18.74273]}, "properties": {"id": "cm-osm-node-5276808922", "name": "สหภาพกระต่าย", "nameTh": "สหภาพกระต่าย", "nameEn": "The Rabbit Union", "cat": ["food"], "province": "cm", "slug": "the-rabbit-union-5276808922", "rank": 3}}, {"type": "Feature", "geometry": {"type": "Point", "coordinates": [98.98248, 18.78741]}, "properties": {"id": "cm-osm-node-6260982285", "name": "ฮั้นหนะ", "nameTh": "ฮั้นหนะ", "nameEn": "Hanna Coffee", "cat": ["food"], "province": "cm", "slug": "hanna-coffee-6260982285", "rank": 3}}, {"type": "Feature", "geometry": {"type": "Point", "coordinates": [99.14836, 18.88151]}, "properties": {"id": "cm-osm-node-7252225925", "name": "เสน่ห์แม่กวง", "nameTh": "เสน่ห์แม่กวง", "nameEn": "Charm of Mae Kuang", "cat": ["food"], "province": "cm", "slug": "charm-of-mae-kuang-7252225925", "rank": 4}}, {"type": "Feature", "geometry": {"type": "Point", "coordinates": [98.99293, 18.78639]}, "properties": {"id": "cm-osm-way-482772359", "name": "7-11", "nameTh": "หลอด biers", "nameEn": "Bier Stube", "cat": ["essentials"], "province": "cm", "slug": "bier-stube-482772359", "rank": 5}}]}