{"type": "FeatureCollection", "features": [{"type": "Feature", "geometry": {"type": "Point", "coordinates": [99.07523, 18.86296]}, "properties": {"id": "cm-osm-node-5631820686", "name": "Bucoliq", "nameTh": null, "nameEn": "Bucoliq", "cat": ["food"], "province": "cm", "slug": "bucoliq-5631820686", "rank": 1}}, {"type": "Feature", "geometry": {"type": "Point", "coordinates": [99.01035, 18.82422]}, "properties": {"id": "cm-osm-node-1948728373", "name": "Kellys Bistro", "nameTh": null, "nameEn": "Kellys Bistro", "cat": ["food"], "province": "cm", "slug": "kellys-bistro-1948728373", "rank": 1}}, {"type": "Feature", "geometry": {"type": "Point", "coordinates": [98.9863, 18.79509]}, "properties": {"id": "cm-osm-node-4333699923", "name": "Mountain view garden restaurant", "nameTh": null, "nameEn": "Mountain view garden restaurant", "cat": ["food"], "province": "cm", "slug": "mountain-view-garden-restaurant-4333699923", "rank": 4}}, {"type": "Feature", "geometry": {"type": "Point", "coordinates": [99.00047, 18.78242]}, "properties": {"id": "cm-osm-node-4711807589", "name": "O'Malley's Irish Pub", "nameTh": null, "nameEn": "O'Malley's Irish Pub", "cat": ["food"], "province": "cm", "slug": "o-malley-s-irish-pub-4711807589", "rank": 4}}, {"type": "Feature", "geometry": {"type": "Point", "coordinates": [98.95394, 18.82704]}, "properties": {"id": "cm-osm-node-5643026621", "name": "Santi Bar & Bistro", "nameTh": null, "nameEn": "Santi Bar & Bistro", "cat": ["food"], "province": "cm", "slug": "santi-bar-bistro-5643026621", "rank": 2}}, {"type": "Feature", "geometry": {"type": "Point", "coordinates": [98.98619, 18.78106]}, "properties": {"id": "cm-osm-node-4558018790", "name": "Steak Mr. Nu", "nameTh": null, "nameEn": "Steak Mr. Nu", "cat": ["food"], "province": "cm", "slug": "steak-mr-nu-4558018790", "rank": 2}}, {"type": "Feature", "geometry": {"type": "Point", "coordinates": [98.9528, 18.71701]}, "properties": {"id": "cm-osm-node-5260174926", "name": "jasmine restaurant", "nameTh": null, "nameEn": "jasmine restaurant", "cat": ["food"], "province": "cm", "slug": "jasmine-restaurant-5260174926", "rank": 2}}, {"type": "Feature", "geometry": {"type": "Point", "coordinates": [98.92448, 18.74273]}, "properties": {"id": "cm-osm-node-5276808922", "name": "สหภาพกระต่าย", "nameTh": "สหภาพกระต่าย", "nameEn": "The Rabbit Union", "cat": ["food"], "province": "cm", "slug": "the-rabbit-union-5276808922", "rank": 3}}]}