{"type": "FeatureCollection", "features": [{"type": "Feature", "geometry": {"type": "Point", "coordinates": [98.98365, 18.79531]}, "properties": {"id": "cm-osm-node-12513656179", "name": "ASMR Cafe & Wellness", "nameTh": null, "nameEn": "ASMR Cafe & Wellness", "cat": ["food"], "province": "cm", "slug": "asmr-cafe-wellness-12513656179", "rank": 2}}, {"type": "Feature", "geometry": {"type": "Point", "coordinates": [98.9923, 18.72444]}, "properties": {"id": "cm-osm-way-677842671", "name": "Ginger Farm Chiang Mai", "nameTh": null, "nameEn": "Ginger Farm Chiang Mai", "cat": ["food"], "province": "cm", "slug": "ginger-farm-chiang-mai-677842671", "rank": 3}}, {"type": "Feature", "geometry": {"type": "Point", "coordinates": [98.98209, 18.79326]}, "properties": {"id": "cm-osm-way-623140246", "name": "Goodsouls Kitchen", "nameTh": null, "nameEn": "Goodsouls Kitchen", "cat": ["food"], "province": "cm", "slug": "goodsouls-kitchen-623140246", "rank": 3}}, {"type": "Feature", "geometry": {"type": "Point", "coordinates": [98.99068, 18.78533]}, "properties": {"id": "cm-osm-node-10821771284", "name": "Vipuya Bowls & Juice", "nameTh": null, "nameEn": "Vipuya Bowls & Juice", "cat": ["food"], "province": "cm", "slug": "vipuya-bowls-juice-10821771284", "rank": 2}}, {"type": "Feature", "geometry": {"type": "Point", "coordinates": [98.98371, 18.78861]}, "properties": {"id": "cm-osm-way-1160323326", "name": "มิ่งขวัญ", "nameTh": "มิ่งขวัญ", "nameEn": "Ming Kwan", "cat": ["food"], "province": "cm", "slug": "ming-kwan-1160323326", "rank": 3}}, {"type": "Feature", "geometry": {"type": "Point", "coordinates": [99.04596, 18.78459]}, "properties": {"id": "cm-osm-node-4686351107", "name": "ร้านอาหารมีนามีข้าว", "nameTh": "ร้านอาหารมีนา", "nameEn": "Meena Rice Based Cuisine", "cat": ["food"], "province": "cm", "slug": "meena-rice-based-cuisine-4686351107", "rank": 4}}]}