{"type": "FeatureCollection", "features": [{"type": "Feature", "geometry": {"type": "Point", "coordinates": [98.96829, 18.77037]}, "properties": {"id": "cm-osm-node-1474872898", "name": "Black Canyon Coffee", "nameTh": null, "nameEn": "Black Canyon Coffee", "cat": ["food"], "province": "cm", "slug": "black-canyon-coffee-1474872898", "rank": 2}}, {"type": "Feature", "geometry": {"type": "Point", "coordinates": [98.97056, 18.78959]}, "properties": {"id": "cm-osm-node-3242156461", "name": "Black Canyon Coffee", "nameTh": null, "nameEn": "Black Canyon Coffee", "cat": ["food"], "province": "cm", "slug": "black-canyon-coffee-3242156461", "rank": 2}}, {"type": "Feature", "geometry": {"type": "Point", "coordinates": [99.01841, 18.80656]}, "properties": {"id": "cm-osm-node-3249111057", "name": "Black Canyon Coffee", "nameTh": null, "nameEn": "Black Canyon Coffee", "cat": ["food"], "province": "cm", "slug": "black-canyon-coffee-3249111057", "rank": 1}}, {"type": "Feature", "geometry": {"type": "Point", "coordinates": [99.02549, 18.78933]}, "properties": {"id": "cm-osm-node-5405123023", "name": "Black Canyon Coffee", "nameTh": null, "nameEn": "Black Canyon Coffee", "cat": ["food"], "province": "cm", "slug": "black-canyon-coffee-5405123023", "rank": 1}}, {"type": "Feature", "geometry": {"type": "Point", "coordinates": [98.9619, 18.7431]}, "properties": {"id": "cm-osm-node-907784576", "name": "Black Canyon Coffee", "nameTh": null, "nameEn": "Black Canyon Coffee", "cat": ["food"], "province": "cm", "slug": "black-canyon-coffee-907784576", "rank": 1}}]}