{"type": "FeatureCollection", "features": [{"type": "Feature", "geometry": {"type": "Point", "coordinates": [98.99767, 18.79265]}, "properties": {"id": "cm-osm-node-2649636470", "name": "Lotus's", "nameTh": null, "nameEn": "Lotus's", "cat": ["essentials"], "province": "cm", "slug": "lotus-s-2649636470", "rank": 2}}, {"type": "Feature", "geometry": {"type": "Point", "coordinates": [98.97537, 18.83507]}, "properties": {"id": "cm-osm-node-725689637", "name": "Lotus's", "nameTh": null, "nameEn": "Lotus's", "cat": ["essentials"], "province": "cm", "slug": "lotus-s-725689637", "rank": 2}}, {"type": "Feature", "geometry": {"type": "Point", "coordinates": [98.98239, 18.86565]}, "properties": {"id": "cm-osm-way-1243368012", "name": "Lotus's", "nameTh": null, "nameEn": "Lotus's", "cat": ["essentials"], "province": "cm", "slug": "lotus-s-1243368012", "rank": 1}}, {"type": "Feature", "geometry": {"type": "Point", "coordinates": [99.05801, 18.83428]}, "properties": {"id": "cm-osm-way-1421481396", "name": "Lotus's", "nameTh": null, "nameEn": "Lotus's", "cat": ["essentials"], "province": "cm", "slug": "lotus-s-1421481396", "rank": 1}}, {"type": "Feature", "geometry": {"type": "Point", "coordinates": [98.92805, 18.72411]}, "properties": {"id": "cm-osm-way-244115196", "name": "Lotus's", "nameTh": null, "nameEn": "Lotus's", "cat": ["essentials"], "province": "cm", "slug": "lotus-s-244115196", "rank": 2}}, {"type": "Feature", "geometry": {"type": "Point", "coordinates": [98.96725, 18.80763]}, "properties": {"id": "cm-osm-way-668015256", "name": "Lotus's", "nameTh": null, "nameEn": "Lotus's", "cat": ["essentials"], "province": "cm", "slug": "lotus-s-668015256", "rank": 2}}, {"type": "Feature", "geometry": {"type": "Point", "coordinates": [99.00498, 18.81391]}, "properties": {"id": "cm-osm-node-3366969393", "name": "Lotus's Go Fresh", "nameTh": null, "nameEn": "Lotus's Go Fresh", "cat": ["essentials"], "province": "cm", "slug": "lotus-s-go-fresh-3366969393", "rank": 2}}]}