{"type": "FeatureCollection", "features": [{"type": "Feature", "geometry": {"type": "Point", "coordinates": [99.12149, 18.74361]}, "properties": {"id": "cm-osm-node-5307634567", "name": "Mini Big C", "nameTh": null, "nameEn": "Mini Big C", "cat": ["essentials"], "province": "cm", "slug": "mini-big-c-5307634567", "rank": 1}}, {"type": "Feature", "geometry": {"type": "Point", "coordinates": [98.9598, 18.80426]}, "properties": {"id": "cm-osm-node-5923690585", "name": "Mini Big C", "nameTh": null, "nameEn": "Mini Big C", "cat": ["essentials"], "province": "cm", "slug": "mini-big-c-5923690585", "rank": 1}}, {"type": "Feature", "geometry": {"type": "Point", "coordinates": [98.9899, 18.77411]}, "properties": {"id": "cm-osm-node-6261770307", "name": "Mini Big C", "nameTh": null, "nameEn": "Mini Big C", "cat": ["essentials"], "province": "cm", "slug": "mini-big-c-6261770307", "rank": 1}}, {"type": "Feature", "geometry": {"type": "Point", "coordinates": [98.99766, 18.79826]}, "properties": {"id": "cm-osm-node-6351675986", "name": "Mini Big C", "nameTh": null, "nameEn": "Big c", "cat": ["essentials"], "province": "cm", "slug": "big-c-6351675986", "rank": 1}}, {"type": "Feature", "geometry": {"type": "Point", "coordinates": [99.02503, 18.82864]}, "properties": {"id": "cm-osm-node-6960251156", "name": "Mini Big C", "nameTh": null, "nameEn": "Mini Big C", "cat": ["essentials"], "province": "cm", "slug": "mini-big-c-6960251156", "rank": 1}}, {"type": "Feature", "geometry": {"type": "Point", "coordinates": [99.05698, 18.75409]}, "properties": {"id": "cm-osm-node-8690208966", "name": "Mini Big C", "nameTh": null, "nameEn": "Mini Big C", "cat": ["essentials"], "province": "cm", "slug": "mini-big-c-8690208966", "rank": 1}}, {"type": "Feature", "geometry": {"type": "Point", "coordinates": [99.01216, 18.7471]}, "properties": {"id": "cm-osm-node-9620777658", "name": "Mini Big C", "nameTh": null, "nameEn": "Mini Big C", "cat": ["essentials"], "province": "cm", "slug": "mini-big-c-9620777658", "rank": 2}}, {"type": "Feature", "geometry": {"type": "Point", "coordinates": [98.97747, 18.8051]}, "properties": {"id": "cm-osm-way-1168325528", "name": "Mini Big C", "nameTh": null, "nameEn": "Mini Big C", "cat": ["essentials"], "province": "cm", "slug": "mini-big-c-1168325528", "rank": 3}}, {"type": "Feature", "geometry": {"type": "Point", "coordinates": [98.98214, 18.81773]}, "properties": {"id": "cm-osm-way-444091640", "name": "Mini Big C", "nameTh": null, "nameEn": "Mini Big C", "cat": ["essentials"], "province": "cm", "slug": "mini-big-c-444091640", "rank": 1}}, {"type": "Feature", "geometry": {"type": "Point", "coordinates": [99.02898, 18.81568]}, "properties": {"id": "cm-osm-node-6592175282", "name": "mini Big C", "nameTh": null, "nameEn": "mini Big C", "cat": ["essentials"], "province": "cm", "slug": "mini-big-c-6592175282", "rank": 1}}]}