{"type": "FeatureCollection", "features": [{"type": "Feature", "geometry": {"type": "Point", "coordinates": [98.99976, 18.78039]}, "properties": {"id": "cm-osm-node-2641740599", "name": "Butter is Better", "nameTh": null, "nameEn": "Butter is Better", "cat": ["food"], "province": "cm", "slug": "butter-is-better-2641740599", "rank": 2}}, {"type": "Feature", "geometry": {"type": "Point", "coordinates": [98.94495, 18.72153]}, "properties": {"id": "cm-osm-way-1160344819", "name": "King Lio", "nameTh": null, "nameEn": "King Lio", "cat": ["food"], "province": "cm", "slug": "king-lio-1160344819", "rank": 3}}, {"type": "Feature", "geometry": {"type": "Point", "coordinates": [98.91217, 18.9668]}, "properties": {"id": "cm-osm-node-13394591201", "name": "La Factoria", "nameTh": null, "nameEn": "La Factoria", "cat": ["food"], "province": "cm", "slug": "la-factoria-13394591201", "rank": 2}}, {"type": "Feature", "geometry": {"type": "Point", "coordinates": [98.954, 18.80902]}, "properties": {"id": "cm-osm-node-10793159227", "name": "Ming Zhen", "nameTh": null, "nameEn": "Ming Zhen", "cat": ["food"], "province": "cm", "slug": "ming-zhen-10793159227", "rank": 2}}, {"type": "Feature", "geometry": {"type": "Point", "coordinates": [99.00072, 18.78157]}, "properties": {"id": "cm-osm-node-5743516159", "name": "Sababa Chiang Mai", "nameTh": null, "nameEn": "Sababa Chiang Mai", "cat": ["food"], "province": "cm", "slug": "sababa-chiang-mai-5743516159", "rank": 3}}, {"type": "Feature", "geometry": {"type": "Point", "coordinates": [98.97413, 18.79814]}, "properties": {"id": "cm-osm-node-3134796412", "name": "Salsa Kitchen", "nameTh": null, "nameEn": "Salsa Kitchen", "cat": ["food"], "province": "cm", "slug": "salsa-kitchen-3134796412", "rank": 2}}, {"type": "Feature", "geometry": {"type": "Point", "coordinates": [98.98371, 18.78861]}, "properties": {"id": "cm-osm-way-1160323326", "name": "มิ่งขวัญ", "nameTh": "มิ่งขวัญ", "nameEn": "Ming Kwan", "cat": ["food"], "province": "cm", "slug": "ming-kwan-1160323326", "rank": 3}}]}