{"type": "FeatureCollection", "features": [{"type": "Feature", "geometry": {"type": "Point", "coordinates": [98.9639, 18.79497]}, "properties": {"id": "cm-osm-node-12441159301", "name": "Aunt Aoy Kitchen", "nameTh": null, "nameEn": "Aunt Aoy Kitchen", "cat": ["food"], "province": "cm", "slug": "aunt-aoy-kitchen-12441159301", "rank": 2}}, {"type": "Feature", "geometry": {"type": "Point", "coordinates": [98.93605, 18.71705]}, "properties": {"id": "cm-osm-node-2362979747", "name": "Cuisine de Garden", "nameTh": null, "nameEn": "Cuisine de Garden", "cat": ["food"], "province": "cm", "slug": "cuisine-de-garden-2362979747", "rank": 1}}, {"type": "Feature", "geometry": {"type": "Point", "coordinates": [99.03326, 18.82173]}, "properties": {"id": "cm-osm-node-5603619931", "name": "Dan Chicken Rice", "nameTh": null, "nameEn": "Dan Chicken Rice", "cat": ["food"], "province": "cm", "slug": "dan-chicken-rice-5603619931", "rank": 1}}, {"type": "Feature", "geometry": {"type": "Point", "coordinates": [98.96753, 18.79992]}, "properties": {"id": "cm-osm-node-5928092288", "name": "Ginger Farm", "nameTh": null, "nameEn": "Ginger Farm", "cat": ["food"], "province": "cm", "slug": "ginger-farm-5928092288", "rank": 1}}, {"type": "Feature", "geometry": {"type": "Point", "coordinates": [98.99434, 18.83085]}, "properties": {"id": "cm-osm-node-907695425", "name": "Huan Soontaree Vechanont", "nameTh": null, "nameEn": "Huan Soontaree Vechanont", "cat": ["food"], "province": "cm", "slug": "huan-soontaree-vechanont-907695425", "rank": 4}}, {"type": "Feature", "geometry": {"type": "Point", "coordinates": [99.06589, 18.86086]}, "properties": {"id": "cm-osm-way-1437028948", "name": "Kinlum Kindee Sansai", "nameTh": null, "nameEn": "Kinlum Kindee Sansai", "cat": ["food"], "province": "cm", "slug": "kinlum-kindee-sansai-1437028948", "rank": 1}}, {"type": "Feature", "geometry": {"type": "Point", "coordinates": [98.95423, 18.91866]}, "properties": {"id": "cm-osm-node-11189903137", "name": "Krua Lawng Khao", "nameTh": null, "nameEn": "Krua Lawng Khao", "cat": ["food"], "province": "cm", "slug": "krua-lawng-khao-11189903137", "rank": 1}}, {"type": "Feature", "geometry": {"type": "Point", "coordinates": [98.99521, 18.76208]}, "properties": {"id": "cm-osm-node-4679601294", "name": "Krua Phech Doi Ngam", "nameTh": null, "nameEn": "Krua Phech Doi Ngam", "cat": ["food"], "province": "cm", "slug": "krua-phech-doi-ngam-4679601294", "rank": 3}}, {"type": "Feature", "geometry": {"type": "Point", "coordinates": [98.94804, 18.77064]}, "properties": {"id": "cm-osm-node-13444747901", "name": "Neo Shokudou Aeeen Japanese Vegan", "nameTh": null, "nameEn": "Neo Shokudou Aeeen Japanese Vegan", "cat": ["food"], "province": "cm", "slug": "neo-shokudou-aeeen-japanese-vegan-13444747901", "rank": 3}}, {"type": "Feature", "geometry": {"type": "Point", "coordinates": [99.00434, 18.80177]}, "properties": {"id": "cm-osm-node-8288873136", "name": "Oxygen Dining Room", "nameTh": null, "nameEn": "Oxygen Dining Room", "cat": ["food"], "province": "cm", "slug": "oxygen-dining-room-8288873136", "rank": 3}}, {"type": "Feature", "geometry": {"type": "Point", "coordinates": [99.0005, 18.78797]}, "properties": {"id": "cm-osm-node-11031642806", "name": "กิติพานิช", "nameTh": "กิติพานิช", "nameEn": "Kiti Panit", "cat": ["food"], "province": "cm", "slug": "kiti-panit-11031642806", "rank": 4}}, {"type": "Feature", "geometry": {"type": "Point", "coordinates": [99.0332, 18.79851]}, "properties": {"id": "cm-osm-node-6587487081", "name": "ลำดี ตี้ขัวแดง", "nameTh": "ลำดี ตี้ขัวแดง", "nameEn": "Lumdee Te Khuadang", "cat": ["food"], "province": "cm", "slug": "lumdee-te-khuadang-6587487081", "rank": 3}}, {"type": "Feature", "geometry": {"type": "Point", "coordinates": [98.97547, 18.79982]}, "properties": {"id": "cm-osm-node-3287049585", "name": "เฮือนม่วนใจ๋", "nameTh": "เฮือนม่วนใจ๋", "nameEn": "Huen Muan Jai", "cat": ["food"], "province": "cm", "slug": "huen-muan-jai-3287049585", "rank": 5}}, {"type": "Feature", "geometry": {"type": "Point", "coordinates": [98.96601, 18.79925]}, "properties": {"id": "cm-osm-node-2716931046", "name": "ไก่ย่างเชิงดอย", "nameTh": "ไก่ย่างเชิงดอย", "nameEn": "Cherng Doi Roast Chicken", "cat": ["food"], "province": "cm", "slug": "cherng-doi-roast-chicken-2716931046", "rank": 3}}]}