{"type": "FeatureCollection", "features": [{"type": "Feature", "geometry": {"type": "Point", "coordinates": [98.96613, 18.79715]}, "properties": {"id": "cm-osm-node-3417318993", "name": "Thanachart Bank", "nameTh": null, "nameEn": "Thanachart Bank", "cat": ["essentials"], "province": "cm", "slug": "thanachart-bank-3417318993", "rank": 1}}, {"type": "Feature", "geometry": {"type": "Point", "coordinates": [98.99933, 18.77831]}, "properties": {"id": "cm-osm-node-1030318052", "name": "ธนาคารธนชาต", "nameTh": "ธนาคารธนชาต", "nameEn": "Thanachart Bank", "cat": ["essentials"], "province": "cm", "slug": "thanachart-bank-1030318052", "rank": 2}}, {"type": "Feature", "geometry": {"type": "Point", "coordinates": [98.97521, 18.7697]}, "properties": {"id": "cm-osm-node-3347634197", "name": "ธนาคารธนชาต", "nameTh": "ธนาคารธนชาต", "nameEn": "Thanachart Bank", "cat": ["essentials"], "province": "cm", "slug": "thanachart-bank-3347634197", "rank": 3}}, {"type": "Feature", "geometry": {"type": "Point", "coordinates": [98.92258, 18.69048]}, "properties": {"id": "cm-osm-node-3379252968", "name": "ธนาคารธนชาต", "nameTh": "ธนาคารธนชาต", "nameEn": "Thanachart Bank", "cat": ["essentials"], "province": "cm", "slug": "thanachart-bank-3379252968", "rank": 2}}, {"type": "Feature", "geometry": {"type": "Point", "coordinates": [99.00121, 18.78976]}, "properties": {"id": "cm-osm-node-3420883894", "name": "ธนาคารธนชาต", "nameTh": "ธนาคารธนชาต", "nameEn": "Thanachart Bank", "cat": ["essentials"], "province": "cm", "slug": "thanachart-bank-3420883894", "rank": 3}}, {"type": "Feature", "geometry": {"type": "Point", "coordinates": [98.98468, 18.81089]}, "properties": {"id": "cm-osm-way-345419277", "name": "ธนาคารธนชาต", "nameTh": "ธนาคารธนชาต", "nameEn": "Thanachart Bank", "cat": ["essentials"], "province": "cm", "slug": "thanachart-bank-345419277", "rank": 2}}, {"type": "Feature", "geometry": {"type": "Point", "coordinates": [98.99676, 18.78833]}, "properties": {"id": "cm-osm-way-361095185", "name": "ธนาคารธนชาต", "nameTh": "ธนาคารธนชาต", "nameEn": "Thanachart Bank", "cat": ["essentials"], "province": "cm", "slug": "thanachart-bank-361095185", "rank": 3}}]}