{"type": "FeatureCollection", "features": [{"type": "Feature", "geometry": {"type": "Point", "coordinates": [98.86556, 18.65799]}, "properties": {"id": "cm-osm-way-734829734", "name": "Bangchak", "nameTh": "บางจาก", "nameEn": "Bangchak", "cat": ["transport"], "province": "cm", "slug": "bangchak-734829734", "rank": 2}}, {"type": "Feature", "geometry": {"type": "Point", "coordinates": [99.05455, 18.77731]}, "properties": {"id": "cm-osm-node-725620369", "name": "Caltex", "nameTh": "คาลเท็กซ์", "nameEn": "Caltex", "cat": ["transport"], "province": "cm", "slug": "caltex-725620369", "rank": 3}}, {"type": "Feature", "geometry": {"type": "Point", "coordinates": [99.09119, 18.85299]}, "properties": {"id": "cm-osm-way-1012663308", "name": "Caltex", "nameTh": null, "nameEn": "Caltex", "cat": ["transport"], "province": "cm", "slug": "caltex-1012663308", "rank": 1}}, {"type": "Feature", "geometry": {"type": "Point", "coordinates": [99.13902, 18.87636]}, "properties": {"id": "cm-osm-node-907694081", "name": "Inthanin", "nameTh": "บางจาก", "nameEn": "Bangchak", "cat": ["transport"], "province": "cm", "slug": "bangchak-907694081", "rank": 2}}, {"type": "Feature", "geometry": {"type": "Point", "coordinates": [98.99268, 18.68446]}, "properties": {"id": "cm-osm-node-5263892530", "name": "PT", "nameTh": "พีที", "nameEn": "PT", "cat": ["transport"], "province": "cm", "slug": "pt-5263892530", "rank": 2}}, {"type": "Feature", "geometry": {"type": "Point", "coordinates": [99.10044, 18.72698]}, "properties": {"id": "cm-osm-node-8687060656", "name": "PT", "nameTh": "พีที", "nameEn": "PT", "cat": ["transport"], "province": "cm", "slug": "pt-8687060656", "rank": 2}}, {"type": "Feature", "geometry": {"type": "Point", "coordinates": [98.97128, 18.72024]}, "properties": {"id": "cm-osm-way-1049614139", "name": "PT", "nameTh": "พีที", "nameEn": "PT", "cat": ["transport"], "province": "cm", "slug": "pt-1049614139", "rank": 2}}, {"type": "Feature", "geometry": {"type": "Point", "coordinates": [98.98209, 18.81792]}, "properties": {"id": "cm-osm-way-314668092", "name": "PT", "nameTh": null, "nameEn": "PT", "cat": ["transport"], "province": "cm", "slug": "pt-314668092", "rank": 3}}, {"type": "Feature", "geometry": {"type": "Point", "coordinates": [99.02862, 18.65677]}, "properties": {"id": "cm-osm-way-548087846", "name": "PT", "nameTh": "พีที", "nameEn": "PT", "cat": ["transport"], "province": "cm", "slug": "pt-548087846", "rank": 2}}, {"type": "Feature", "geometry": {"type": "Point", "coordinates": [98.9746, 18.72032]}, "properties": {"id": "cm-osm-node-10773546984", "name": "PTT", "nameTh": "ปตท", "nameEn": "PTT", "cat": ["transport"], "province": "cm", "slug": "ptt-10773546984", "rank": 3}}, {"type": "Feature", "geometry": {"type": "Point", "coordinates": [99.13083, 18.659]}, "properties": {"id": "cm-osm-node-11581270447", "name": "PTT", "nameTh": "ปตท", "nameEn": "PTT", "cat": ["transport"], "province": "cm", "slug": "ptt-11581270447", "rank": 2}}, {"type": "Feature", "geometry": {"type": "Point", "coordinates": [99.0068, 18.7604]}, "properties": {"id": "cm-osm-node-1361121234", "name": "PTT", "nameTh": "ปตท", "nameEn": "PTT", "cat": ["transport"], "province": "cm", "slug": "ptt-1361121234", "rank": 2}}, {"type": "Feature", "geometry": {"type": "Point", "coordinates": [99.06316, 18.75108]}, "properties": {"id": "cm-osm-node-4115297789", "name": "PTT", "nameTh": "ปตท", "nameEn": "PTT", "cat": ["transport"], "province": "cm", "slug": "ptt-4115297789", "rank": 2}}, {"type": "Feature", "geometry": {"type": "Point", "coordinates": [99.0715, 18.76961]}, "properties": {"id": "cm-osm-node-863464777", "name": "PTT", "nameTh": "ปตท", "nameEn": "PTT", "cat": ["transport"], "province": "cm", "slug": "ptt-863464777", "rank": 3}}, {"type": "Feature", "geometry": {"type": "Point", "coordinates": [99.05005, 18.67862]}, "properties": {"id": "cm-osm-way-1017739603", "name": "PTT", "nameTh": "ปตท", "nameEn": "PTT", "cat": ["transport"], "province": "cm", "slug": "ptt-1017739603", "rank": 3}}, {"type": "Feature", "geometry": {"type": "Point", "coordinates": [99.01945, 18.74746]}, "properties": {"id": "cm-osm-way-1029578476", "name": "PTT", "nameTh": "ปตท", "nameEn": "PTT", "cat": ["transport"], "province": "cm", "slug": "ptt-1029578476", "rank": 2}}, {"type": "Feature", "geometry": {"type": "Point", "coordinates": [99.08907, 18.73429]}, "properties": {"id": "cm-osm-way-1035238794", "name": "PTT", "nameTh": "ปตท", "nameEn": "PTT", "cat": ["transport"], "province": "cm", "slug": "ptt-1035238794", "rank": 2}}, {"type": "Feature", "geometry": {"type": "Point", "coordinates": [98.99165, 18.76429]}, "properties": {"id": "cm-osm-way-1037512553", "name": "PTT", "nameTh": "ปตท", "nameEn": "PTT", "cat": ["transport"], "province": "cm", "slug": "ptt-1037512553", "rank": 2}}, {"type": "Feature", "geometry": {"type": "Point", "coordinates": [98.98309, 18.79624]}, "properties": {"id": "cm-osm-way-103814237", "name": "PTT", "nameTh": "ปตท", "nameEn": "PTT", "cat": ["transport"], "province": "cm", "slug": "ptt-103814237", "rank": 2}}, {"type": "Feature", "geometry": {"type": "Point", "coordinates": [98.96575, 18.74145]}, "properties": {"id": "cm-osm-way-1158984150", "name": "PTT", "nameTh": "ปตท", "nameEn": "PTT", "cat": ["transport"], "province": "cm", "slug": "ptt-1158984150", "rank": 2}}, {"type": "Feature", "geometry": {"type": "Point", "coordinates": [98.82953, 18.60375]}, "properties": {"id": "cm-osm-way-236529203", "name": "PTT", "nameTh": "ปตท", "nameEn": "PTT", "cat": ["transport"], "province": "cm", "slug": "ptt-236529203", "rank": 2}}, {"type": "Feature", "geometry": {"type": "Point", "coordinates": [99.05201, 18.66969]}, "properties": {"id": "cm-osm-way-282467208", "name": "PTT", "nameTh": "ปตท", "nameEn": "PTT", "cat": ["transport"], "province": "cm", "slug": "ptt-282467208", "rank": 3}}, {"type": "Feature", "geometry": {"type": "Point", "coordinates": [99.01516, 18.87529]}, "properties": {"id": "cm-osm-way-317526383", "name": "PTT", "nameTh": "ปตท", "nameEn": "PTT", "cat": ["transport"], "province": "cm", "slug": "ptt-317526383", "rank": 3}}, {"type": "Feature", "geometry": {"type": "Point", "coordinates": [98.95899, 18.78493]}, "properties": {"id": "cm-osm-way-342887913", "name": "PTT", "nameTh": "ปตท", "nameEn": "PTT", "cat": ["transport"], "province": "cm", "slug": "ptt-342887913", "rank": 2}}, {"type": "Feature", "geometry": {"type": "Point", "coordinates": [99.01464, 18.7385]}, "properties": {"id": "cm-osm-way-530489918", "name": "PTT", "nameTh": "ปตท", "nameEn": "PTT", "cat": ["transport"], "province": "cm", "slug": "ptt-530489918", "rank": 2}}, {"type": "Feature", "geometry": {"type": "Point", "coordinates": [99.03636, 18.79463]}, "properties": {"id": "cm-osm-way-554173350", "name": "PTT", "nameTh": "ปตท", "nameEn": "PTT", "cat": ["transport"], "province": "cm", "slug": "ptt-554173350", "rank": 2}}, {"type": "Feature", "geometry": {"type": "Point", "coordinates": [98.9515, 18.73098]}, "properties": {"id": "cm-osm-way-599074132", "name": "PTT", "nameTh": "ปตท", "nameEn": "PTT", "cat": ["transport"], "province": "cm", "slug": "ptt-599074132", "rank": 2}}, {"type": "Feature", "geometry": {"type": "Point", "coordinates": [98.98349, 18.76804]}, "properties": {"id": "cm-osm-way-669263147", "name": "PTT", "nameTh": "ปตท", "nameEn": "PTT", "cat": ["transport"], "province": "cm", "slug": "ptt-669263147", "rank": 3}}, {"type": "Feature", "geometry": {"type": "Point", "coordinates": [99.03749, 18.72173]}, "properties": {"id": "cm-osm-way-871612269", "name": "PTT", "nameTh": "ปตท", "nameEn": "PTT", "cat": ["transport"], "province": "cm", "slug": "ptt-871612269", "rank": 2}}, {"type": "Feature", "geometry": {"type": "Point", "coordinates": [98.92635, 18.69566]}, "properties": {"id": "cm-osm-node-1583822791", "name": "Shell", "nameTh": "เซลล์", "nameEn": "Shell", "cat": ["transport"], "province": "cm", "slug": "shell-1583822791", "rank": 3}}, {"type": "Feature", "geometry": {"type": "Point", "coordinates": [99.0235, 18.76292]}, "properties": {"id": "cm-osm-way-298139711", "name": "Shell", "nameTh": "เซลล์", "nameEn": "Shell", "cat": ["transport"], "province": "cm", "slug": "shell-298139711", "rank": 2}}, {"type": "Feature", "geometry": {"type": "Point", "coordinates": [99.03685, 18.81797]}, "properties": {"id": "cm-osm-way-702543843", "name": "Shell", "nameTh": "เซลล์", "nameEn": "Shell", "cat": ["transport"], "province": "cm", "slug": "shell-702543843", "rank": 4}}, {"type": "Feature", "geometry": {"type": "Point", "coordinates": [99.01409, 18.78566]}, "properties": {"id": "cm-osm-way-150351596", "name": "Shell ทองธนพล สาขาเจริญเมือง", "nameTh": "Shell ทองธนพล สาขาเจริญเมือง", "nameEn": "Shell Thongthanaphon - Charoen Muang", "cat": ["transport"], "province": "cm", "slug": "shell-thongthanaphon-charoen-muang-150351596", "rank": 3}}, {"type": "Feature", "geometry": {"type": "Point", "coordinates": [99.13353, 18.87327]}, "properties": {"id": "cm-osm-node-907694080", "name": "บางจาก", "nameTh": "บางจาก", "nameEn": "Bangchak", "cat": ["transport"], "province": "cm", "slug": "bangchak-907694080", "rank": 4}}, {"type": "Feature", "geometry": {"type": "Point", "coordinates": [99.01873, 18.74802]}, "properties": {"id": "cm-osm-way-1097483294", "name": "บางจาก", "nameTh": "บางจาก", "nameEn": "Bangchak", "cat": ["transport"], "province": "cm", "slug": "bangchak-1097483294", "rank": 2}}, {"type": "Feature", "geometry": {"type": "Point", "coordinates": [98.94271, 18.75843]}, "properties": {"id": "cm-osm-way-1109991532", "name": "บางจาก", "nameTh": "บางจาก", "nameEn": "Bangchak", "cat": ["transport"], "province": "cm", "slug": "bangchak-1109991532", "rank": 2}}, {"type": "Feature", "geometry": {"type": "Point", "coordinates": [98.96525, 18.74068]}, "properties": {"id": "cm-osm-way-1158935338", "name": "บางจาก", "nameTh": "บางจาก", "nameEn": "Bangchak", "cat": ["transport"], "province": "cm", "slug": "bangchak-1158935338", "rank": 2}}, {"type": "Feature", "geometry": {"type": "Point", "coordinates": [98.96032, 18.80182]}, "properties": {"id": "cm-osm-way-285999611", "name": "บางจาก", "nameTh": "บางจาก", "nameEn": "Bangchak", "cat": ["transport"], "province": "cm", "slug": "bangchak-285999611", "rank": 4}}, {"type": "Feature", "geometry": {"type": "Point", "coordinates": [98.95015, 18.90108]}, "properties": {"id": "cm-osm-way-315328671", "name": "บางจาก", "nameTh": "บางจาก", "nameEn": "Bangchak", "cat": ["transport"], "province": "cm", "slug": "bangchak-315328671", "rank": 4}}, {"type": "Feature", "geometry": {"type": "Point", "coordinates": [98.99251, 18.92466]}, "properties": {"id": "cm-osm-way-315330206", "name": "บางจาก", "nameTh": "บางจาก", "nameEn": "Bangchak", "cat": ["transport"], "province": "cm", "slug": "bangchak-315330206", "rank": 4}}, {"type": "Feature", "geometry": {"type": "Point", "coordinates": [99.11195, 18.74936]}, "properties": {"id": "cm-osm-way-742199494", "name": "บางจาก", "nameTh": "บางจาก", "nameEn": "Bangchak", "cat": ["transport"], "province": "cm", "slug": "bangchak-742199494", "rank": 4}}, {"type": "Feature", "geometry": {"type": "Point", "coordinates": [99.01151, 18.80895]}, "properties": {"id": "cm-osm-way-373854689", "name": "ป.ต.ท.", "nameTh": "ปตท", "nameEn": "PTT", "cat": ["transport"], "province": "cm", "slug": "ptt-373854689", "rank": 3}}, {"type": "Feature", "geometry": {"type": "Point", "coordinates": [98.97214, 18.77203]}, "properties": {"id": "cm-osm-way-676260814", "name": "ปตท", "nameTh": "ปตท", "nameEn": "PTT", "cat": ["transport"], "province": "cm", "slug": "ptt-676260814", "rank": 2}}, {"type": "Feature", "geometry": {"type": "Point", "coordinates": [98.96635, 18.7525]}, "properties": {"id": "cm-osm-way-241405188", "name": "เชลล์ ทองธนพล สาขาสนามบิน", "nameTh": "Shell ทองธนพล สาขาสนามบิน", "nameEn": "Shell Thongthanaphon - Airport", "cat": ["transport"], "province": "cm", "slug": "shell-thongthanaphon-airport-241405188", "rank": 2}}]}