{"type": "FeatureCollection", "features": [{"type": "Feature", "geometry": {"type": "Point", "coordinates": [98.98943, 18.79067]}, "properties": {"id": "cm-osm-node-1619218793", "name": "CP Fresh Mart", "nameTh": null, "nameEn": "CP Fresh Mart", "cat": ["essentials"], "province": "cm", "slug": "cp-fresh-mart-1619218793", "rank": 2}}, {"type": "Feature", "geometry": {"type": "Point", "coordinates": [99.02908, 18.81598]}, "properties": {"id": "cm-osm-node-2637894792", "name": "CP Fresh Mart", "nameTh": null, "nameEn": "CP Fresh Mart", "cat": ["essentials"], "province": "cm", "slug": "cp-fresh-mart-2637894792", "rank": 1}}, {"type": "Feature", "geometry": {"type": "Point", "coordinates": [98.98941, 18.77491]}, "properties": {"id": "cm-osm-node-2656881137", "name": "CP Fresh Mart", "nameTh": null, "nameEn": "CP Fresh Mart", "cat": ["essentials"], "province": "cm", "slug": "cp-fresh-mart-2656881137", "rank": 1}}, {"type": "Feature", "geometry": {"type": "Point", "coordinates": [99.01195, 18.8268]}, "properties": {"id": "cm-osm-node-2682577299", "name": "CP Fresh Mart", "nameTh": null, "nameEn": "CP Fresh Mart", "cat": ["essentials"], "province": "cm", "slug": "cp-fresh-mart-2682577299", "rank": 1}}, {"type": "Feature", "geometry": {"type": "Point", "coordinates": [98.89627, 18.61974]}, "properties": {"id": "cm-osm-node-2684219742", "name": "CP Fresh Mart", "nameTh": null, "nameEn": "CP Fresh Mart", "cat": ["essentials"], "province": "cm", "slug": "cp-fresh-mart-2684219742", "rank": 1}}, {"type": "Feature", "geometry": {"type": "Point", "coordinates": [98.98967, 18.83615]}, "properties": {"id": "cm-osm-node-3184683024", "name": "CP Fresh Mart", "nameTh": null, "nameEn": "CP Fresh Mart", "cat": ["essentials"], "province": "cm", "slug": "cp-fresh-mart-3184683024", "rank": 2}}, {"type": "Feature", "geometry": {"type": "Point", "coordinates": [98.94591, 18.91318]}, "properties": {"id": "cm-osm-node-3341015117", "name": "CP Fresh Mart", "nameTh": null, "nameEn": "CP Fresh Mart", "cat": ["essentials"], "province": "cm", "slug": "cp-fresh-mart-3341015117", "rank": 2}}, {"type": "Feature", "geometry": {"type": "Point", "coordinates": [99.03687, 18.71233]}, "properties": {"id": "cm-osm-node-4509361878", "name": "CP Fresh Mart", "nameTh": null, "nameEn": "CP Fresh Mart", "cat": ["essentials"], "province": "cm", "slug": "cp-fresh-mart-4509361878", "rank": 1}}, {"type": "Feature", "geometry": {"type": "Point", "coordinates": [98.96536, 18.78949]}, "properties": {"id": "cm-osm-node-4559279125", "name": "CP Fresh Mart", "nameTh": null, "nameEn": "CP Fresh Mart", "cat": ["essentials"], "province": "cm", "slug": "cp-fresh-mart-4559279125", "rank": 1}}, {"type": "Feature", "geometry": {"type": "Point", "coordinates": [99.04308, 18.76106]}, "properties": {"id": "cm-osm-node-8690756836", "name": "CP Fresh Mart", "nameTh": null, "nameEn": "CP Fresh Mart", "cat": ["essentials"], "province": "cm", "slug": "cp-fresh-mart-8690756836", "rank": 1}}]}