{"type": "FeatureCollection", "features": [{"type": "Feature", "geometry": {"type": "Point", "coordinates": [98.95502, 18.74532]}, "properties": {"id": "cm-osm-way-309928143", "name": "Lotus's Go Fresh", "nameTh": null, "nameEn": "Lotus's Go Fresh", "cat": ["essentials"], "province": "cm", "slug": "lotus-s-go-fresh-309928143", "rank": 1}}, {"type": "Feature", "geometry": {"type": "Point", "coordinates": [98.99037, 18.77422]}, "properties": {"id": "cm-osm-way-668806032", "name": "Lotus's Go Fresh", "nameTh": null, "nameEn": "Lotus's Go Fresh", "cat": ["essentials"], "province": "cm", "slug": "lotus-s-go-fresh-668806032", "rank": 2}}, {"type": "Feature", "geometry": {"type": "Point", "coordinates": [98.9877, 18.78154]}, "properties": {"id": "cm-osm-node-1030391641", "name": "Lotus's go fresh", "nameTh": null, "nameEn": "Lotus's go fresh", "cat": ["essentials"], "province": "cm", "slug": "lotus-s-go-fresh-1030391641", "rank": 2}}, {"type": "Feature", "geometry": {"type": "Point", "coordinates": [99.10486, 18.79368]}, "properties": {"id": "cm-osm-node-1362557139", "name": "Lotus's go fresh", "nameTh": null, "nameEn": "Lotus's go fresh", "cat": ["essentials"], "province": "cm", "slug": "lotus-s-go-fresh-1362557139", "rank": 2}}, {"type": "Feature", "geometry": {"type": "Point", "coordinates": [99.04149, 18.76184]}, "properties": {"id": "cm-osm-node-1455694190", "name": "Lotus's go fresh", "nameTh": null, "nameEn": "Lotus's go fresh", "cat": ["essentials"], "province": "cm", "slug": "lotus-s-go-fresh-1455694190", "rank": 2}}, {"type": "Feature", "geometry": {"type": "Point", "coordinates": [98.96094, 18.79073]}, "properties": {"id": "cm-osm-node-1489645286", "name": "Lotus's go fresh", "nameTh": null, "nameEn": "Lotus's go fresh", "cat": ["essentials"], "province": "cm", "slug": "lotus-s-go-fresh-1489645286", "rank": 2}}, {"type": "Feature", "geometry": {"type": "Point", "coordinates": [99.12264, 18.74275]}, "properties": {"id": "cm-osm-node-1508541570", "name": "Lotus's go fresh", "nameTh": null, "nameEn": "Lotus's go fresh", "cat": ["essentials"], "province": "cm", "slug": "lotus-s-go-fresh-1508541570", "rank": 2}}, {"type": "Feature", "geometry": {"type": "Point", "coordinates": [98.94176, 18.74702]}, "properties": {"id": "cm-osm-node-1588327842", "name": "Lotus's go fresh", "nameTh": null, "nameEn": "Lotus's go fresh", "cat": ["essentials"], "province": "cm", "slug": "lotus-s-go-fresh-1588327842", "rank": 2}}, {"type": "Feature", "geometry": {"type": "Point", "coordinates": [99.05152, 18.87447]}, "properties": {"id": "cm-osm-node-1874845675", "name": "Lotus's go fresh", "nameTh": null, "nameEn": "Lotus's go fresh", "cat": ["essentials"], "province": "cm", "slug": "lotus-s-go-fresh-1874845675", "rank": 2}}, {"type": "Feature", "geometry": {"type": "Point", "coordinates": [98.92081, 18.68903]}, "properties": {"id": "cm-osm-node-2230597304", "name": "Lotus's go fresh", "nameTh": null, "nameEn": "Lotus's go fresh", "cat": ["essentials"], "province": "cm", "slug": "lotus-s-go-fresh-2230597304", "rank": 2}}, {"type": "Feature", "geometry": {"type": "Point", "coordinates": [98.98479, 18.79588]}, "properties": {"id": "cm-osm-node-3091942581", "name": "Lotus's go fresh", "nameTh": null, "nameEn": "Lotus's go fresh", "cat": ["essentials"], "province": "cm", "slug": "lotus-s-go-fresh-3091942581", "rank": 2}}, {"type": "Feature", "geometry": {"type": "Point", "coordinates": [98.95007, 18.76985]}, "properties": {"id": "cm-osm-node-3205899955", "name": "Lotus's go fresh", "nameTh": null, "nameEn": "Lotus's go fresh", "cat": ["essentials"], "province": "cm", "slug": "lotus-s-go-fresh-3205899955", "rank": 2}}, {"type": "Feature", "geometry": {"type": "Point", "coordinates": [98.98932, 18.83657]}, "properties": {"id": "cm-osm-node-3340959344", "name": "Lotus's go fresh", "nameTh": null, "nameEn": "Lotus's go fresh", "cat": ["essentials"], "province": "cm", "slug": "lotus-s-go-fresh-3340959344", "rank": 2}}, {"type": "Feature", "geometry": {"type": "Point", "coordinates": [99.0423, 18.64906]}, "properties": {"id": "cm-osm-node-4509445497", "name": "Lotus's go fresh", "nameTh": null, "nameEn": "Lotus's go fresh", "cat": ["essentials"], "province": "cm", "slug": "lotus-s-go-fresh-4509445497", "rank": 2}}, {"type": "Feature", "geometry": {"type": "Point", "coordinates": [99.13561, 18.87297]}, "properties": {"id": "cm-osm-node-694942453", "name": "Lotus's go fresh", "nameTh": null, "nameEn": "Lotus's go fresh", "cat": ["essentials"], "province": "cm", "slug": "lotus-s-go-fresh-694942453", "rank": 2}}, {"type": "Feature", "geometry": {"type": "Point", "coordinates": [99.0225, 18.82639]}, "properties": {"id": "cm-osm-node-6960251155", "name": "Lotus's go fresh", "nameTh": null, "nameEn": "Lotus's go fresh", "cat": ["essentials"], "province": "cm", "slug": "lotus-s-go-fresh-6960251155", "rank": 1}}, {"type": "Feature", "geometry": {"type": "Point", "coordinates": [99.00925, 18.89452]}, "properties": {"id": "cm-osm-node-840185269", "name": "Lotus's go fresh", "nameTh": null, "nameEn": "Lotus's go fresh", "cat": ["essentials"], "province": "cm", "slug": "lotus-s-go-fresh-840185269", "rank": 2}}, {"type": "Feature", "geometry": {"type": "Point", "coordinates": [99.05224, 18.83021]}, "properties": {"id": "cm-osm-node-8699198246", "name": "Lotus's go fresh", "nameTh": null, "nameEn": "Lotus's go fresh", "cat": ["essentials"], "province": "cm", "slug": "lotus-s-go-fresh-8699198246", "rank": 2}}, {"type": "Feature", "geometry": {"type": "Point", "coordinates": [98.91236, 18.91784]}, "properties": {"id": "cm-osm-way-1128462893", "name": "Lotus's go fresh", "nameTh": null, "nameEn": "Lotus's go fresh", "cat": ["essentials"], "province": "cm", "slug": "lotus-s-go-fresh-1128462893", "rank": 2}}, {"type": "Feature", "geometry": {"type": "Point", "coordinates": [99.01357, 18.85129]}, "properties": {"id": "cm-osm-way-1352808279", "name": "Lotus's go fresh", "nameTh": null, "nameEn": "Lotus's go fresh", "cat": ["essentials"], "province": "cm", "slug": "lotus-s-go-fresh-1352808279", "rank": 1}}, {"type": "Feature", "geometry": {"type": "Point", "coordinates": [98.9464, 18.91204]}, "properties": {"id": "cm-osm-way-1456802849", "name": "Lotus's go fresh", "nameTh": null, "nameEn": "Lotus's go fresh", "cat": ["essentials"], "province": "cm", "slug": "lotus-s-go-fresh-1456802849", "rank": 2}}, {"type": "Feature", "geometry": {"type": "Point", "coordinates": [98.94119, 18.93464]}, "properties": {"id": "cm-osm-way-1456803702", "name": "Lotus's go fresh", "nameTh": null, "nameEn": "Lotus's go fresh", "cat": ["essentials"], "province": "cm", "slug": "lotus-s-go-fresh-1456803702", "rank": 1}}, {"type": "Feature", "geometry": {"type": "Point", "coordinates": [98.98185, 18.97672]}, "properties": {"id": "cm-osm-way-1459501775", "name": "Lotus's go fresh", "nameTh": null, "nameEn": "Lotus's go fresh", "cat": ["essentials"], "province": "cm", "slug": "lotus-s-go-fresh-1459501775", "rank": 2}}, {"type": "Feature", "geometry": {"type": "Point", "coordinates": [98.98194, 18.81656]}, "properties": {"id": "cm-osm-way-331504419", "name": "Lotus's go fresh", "nameTh": null, "nameEn": "Lotus's go fresh", "cat": ["essentials"], "province": "cm", "slug": "lotus-s-go-fresh-331504419", "rank": 1}}, {"type": "Feature", "geometry": {"type": "Point", "coordinates": [98.98245, 18.68031]}, "properties": {"id": "cm-osm-way-843530953", "name": "Lotus's go fresh", "nameTh": null, "nameEn": "Lotus's go fresh", "cat": ["essentials"], "province": "cm", "slug": "lotus-s-go-fresh-843530953", "rank": 1}}]}