{"type": "FeatureCollection", "features": [{"type": "Feature", "geometry": {"type": "Point", "coordinates": [98.96513, 18.78898]}, "properties": {"id": "cm-osm-node-4359739852", "name": "100 Flavors: Chiang Mai Craft Ice Cream", "nameTh": null, "nameEn": "100 Flavors: Chiang Mai Craft Ice Cream", "cat": ["food"], "province": "cm", "slug": "100-flavors-chiang-mai-craft-ice-cream-4359739852", "rank": 3}}, {"type": "Feature", "geometry": {"type": "Point", "coordinates": [98.97523, 18.80541]}, "properties": {"id": "cm-osm-node-8891760799", "name": "29 Coffties", "nameTh": null, "nameEn": "29 Coffties", "cat": ["food"], "province": "cm", "slug": "29-coffties-8891760799", "rank": 3}}, {"type": "Feature", "geometry": {"type": "Point", "coordinates": [98.98365, 18.79531]}, "properties": {"id": "cm-osm-node-12513656179", "name": "ASMR Cafe & Wellness", "nameTh": null, "nameEn": "ASMR Cafe & Wellness", "cat": ["food"], "province": "cm", "slug": "asmr-cafe-wellness-12513656179", "rank": 2}}, {"type": "Feature", "geometry": {"type": "Point", "coordinates": [98.98219, 18.79238]}, "properties": {"id": "cm-osm-node-11369869429", "name": "Air's Kitchen and Cafe", "nameTh": null, "nameEn": "Air's Kitchen and Cafe", "cat": ["food"], "province": "cm", "slug": "air-s-kitchen-and-cafe-11369869429", "rank": 2}}, {"type": "Feature", "geometry": {"type": "Point", "coordinates": [98.98322, 18.78843]}, "properties": {"id": "cm-osm-node-2404044286", "name": "Akha Ama Phrasingh", "nameTh": "กาแฟอาข่าอามา (สาขา 2)", "nameEn": "Akha Ama Phrasingh", "cat": ["food"], "province": "cm", "slug": "akha-ama-phrasingh-2404044286", "rank": 4}}, {"type": "Feature", "geometry": {"type": "Point", "coordinates": [98.99726, 18.78412]}, "properties": {"id": "cm-osm-node-3416948044", "name": "Alice's Restaurant", "nameTh": null, "nameEn": "Alice's Restaurant", "cat": ["food"], "province": "cm", "slug": "alice-s-restaurant-3416948044", "rank": 2}}, {"type": "Feature", "geometry": {"type": "Point", "coordinates": [98.9655, 18.79669]}, "properties": {"id": "cm-osm-node-4477017880", "name": "Anchan", "nameTh": null, "nameEn": "Anchan", "cat": ["food"], "province": "cm", "slug": "anchan-4477017880", "rank": 2}}, {"type": "Feature", "geometry": {"type": "Point", "coordinates": [98.99395, 18.78786]}, "properties": {"id": "cm-osm-node-5258746823", "name": "Art Cafe", "nameTh": null, "nameEn": "Art Cafe", "cat": ["food"], "province": "cm", "slug": "art-cafe-5258746823", "rank": 2}}, {"type": "Feature", "geometry": {"type": "Point", "coordinates": [98.98794, 18.77844]}, "properties": {"id": "cm-osm-node-5484616521", "name": "Aum Vegetarian Restaurant", "nameTh": null, "nameEn": "Aum Vegetarian Restaurant", "cat": ["food"], "province": "cm", "slug": "aum-vegetarian-restaurant-5484616521", "rank": 2}}, {"type": "Feature", "geometry": {"type": "Point", "coordinates": [98.98995, 18.79472]}, "properties": {"id": "cm-osm-node-3371585452", "name": "Bamboo Bee", "nameTh": null, "nameEn": "Bamboo Bee", "cat": ["food"], "province": "cm", "slug": "bamboo-bee-3371585452", "rank": 2}}, {"type": "Feature", "geometry": {"type": "Point", "coordinates": [98.95226, 18.92459]}, "properties": {"id": "cm-osm-way-1168313004", "name": "Bantunglom Resort", "nameTh": null, "nameEn": "Bantunglom Resort", "cat": ["food"], "province": "cm", "slug": "bantunglom-resort-1168313004", "rank": 3}}, {"type": "Feature", "geometry": {"type": "Point", "coordinates": [98.98017, 18.7928]}, "properties": {"id": "cm-osm-way-623146118", "name": "Bird's Nest Cafe", "nameTh": null, "nameEn": "Bird's Nest Cafe", "cat": ["food"], "province": "cm", "slug": "bird-s-nest-cafe-623146118", "rank": 3}}, {"type": "Feature", "geometry": {"type": "Point", "coordinates": [98.98163, 18.78297]}, "properties": {"id": "cm-osm-node-12306896388", "name": "Bloomin' Moon", "nameTh": null, "nameEn": "Bloomin' Moon", "cat": ["food"], "province": "cm", "slug": "bloomin-moon-12306896388", "rank": 2}}, {"type": "Feature", "geometry": {"type": "Point", "coordinates": [98.99142, 18.7939]}, "properties": {"id": "cm-osm-way-259707860", "name": "Blue Diamond The Breakfast Club", "nameTh": null, "nameEn": "Blue Diamond The Breakfast Club", "cat": ["food"], "province": "cm", "slug": "blue-diamond-the-breakfast-club-259707860", "rank": 3}}, {"type": "Feature", "geometry": {"type": "Point", "coordinates": [98.98072, 18.78176]}, "properties": {"id": "cm-osm-node-11386909636", "name": "Bowls & Breads", "nameTh": null, "nameEn": "Bowls & Breads", "cat": ["food"], "province": "cm", "slug": "bowls-breads-11386909636", "rank": 2}}, {"type": "Feature", "geometry": {"type": "Point", "coordinates": [99.01277, 18.78369]}, "properties": {"id": "cm-osm-node-2294540781", "name": "Bun Song", "nameTh": null, "nameEn": "Bun Song", "cat": ["food"], "province": "cm", "slug": "bun-song-2294540781", "rank": 1}}, {"type": "Feature", "geometry": {"type": "Point", "coordinates": [98.99976, 18.78039]}, "properties": {"id": "cm-osm-node-2641740599", "name": "Butter is Better", "nameTh": null, "nameEn": "Butter is Better", "cat": ["food"], "province": "cm", "slug": "butter-is-better-2641740599", "rank": 2}}, {"type": "Feature", "geometry": {"type": "Point", "coordinates": [98.98848, 18.78547]}, "properties": {"id": "cm-osm-node-1006843145", "name": "Cafe de Thaan Aoan", "nameTh": null, "nameEn": "Cafe de Thaan Aoan", "cat": ["food"], "province": "cm", "slug": "cafe-de-thaan-aoan-1006843145", "rank": 2}}, {"type": "Feature", "geometry": {"type": "Point", "coordinates": [98.88785, 18.67139]}, "properties": {"id": "cm-osm-node-3121493939", "name": "Café Amazon", "nameTh": "คาเฟ่ อเมซอน", "nameEn": "Café Amazon", "cat": ["food"], "province": "cm", "slug": "caf-amazon-3121493939", "rank": 2}}, {"type": "Feature", "geometry": {"type": "Point", "coordinates": [98.99462, 18.79247]}, "properties": {"id": "cm-osm-node-4430796190", "name": "Cat House", "nameTh": null, "nameEn": "Cat house", "cat": ["food"], "province": "cm", "slug": "cat-house-4430796190", "rank": 1}}, {"type": "Feature", "geometry": {"type": "Point", "coordinates": [98.99043, 18.78637]}, "properties": {"id": "cm-osm-node-9872196618", "name": "Chada Vegetarian", "nameTh": null, "nameEn": "Chada Vegetarian", "cat": ["food"], "province": "cm", "slug": "chada-vegetarian-9872196618", "rank": 2}}, {"type": "Feature", "geometry": {"type": "Point", "coordinates": [98.99121, 18.79426]}, "properties": {"id": "cm-osm-way-256266491", "name": "Chaochau", "nameTh": null, "nameEn": "Chaochau", "cat": ["food"], "province": "cm", "slug": "chaochau-256266491", "rank": 3}}, {"type": "Feature", "geometry": {"type": "Point", "coordinates": [98.99171, 18.78414]}, "properties": {"id": "cm-osm-node-4149593989", "name": "ChiangMai Breakfast World", "nameTh": null, "nameEn": "ChiangMai Breakfast World", "cat": ["food"], "province": "cm", "slug": "chiangmai-breakfast-world-4149593989", "rank": 2}}, {"type": "Feature", "geometry": {"type": "Point", "coordinates": [98.99236, 18.78909]}, "properties": {"id": "cm-osm-node-3385473023", "name": "Cooking Love", "nameTh": null, "nameEn": "Cooking Love", "cat": ["cooking", "food"], "province": "cm", "slug": "cooking-love-3385473023", "rank": 1}}, {"type": "Feature", "geometry": {"type": "Point", "coordinates": [98.98873, 18.77915]}, "properties": {"id": "cm-osm-node-3843126639", "name": "Cozy Cafe Chiangmai", "nameTh": null, "nameEn": "Cozy Cafe Chiangmai", "cat": ["food"], "province": "cm", "slug": "cozy-cafe-chiangmai-3843126639", "rank": 3}}, {"type": "Feature", "geometry": {"type": "Point", "coordinates": [98.99101, 18.79045]}, "properties": {"id": "cm-osm-node-4757540923", "name": "DeLish Kafe", "nameTh": null, "nameEn": "DeLish Kafe", "cat": ["food"], "province": "cm", "slug": "delish-kafe-4757540923", "rank": 1}}, {"type": "Feature", "geometry": {"type": "Point", "coordinates": [98.96928, 18.78869]}, "properties": {"id": "cm-osm-node-4539213082", "name": "Everest 8848", "nameTh": null, "nameEn": "Everest 8848", "cat": ["food"], "province": "cm", "slug": "everest-8848-4539213082", "rank": 1}}, {"type": "Feature", "geometry": {"type": "Point", "coordinates": [98.98187, 18.78493]}, "properties": {"id": "cm-osm-node-11409266290", "name": "Falafel and Salad", "nameTh": null, "nameEn": "Falafel and Salad", "cat": ["food"], "province": "cm", "slug": "falafel-and-salad-11409266290", "rank": 2}}, {"type": "Feature", "geometry": {"type": "Point", "coordinates": [99.00768, 18.79609]}, "properties": {"id": "cm-osm-node-11849670169", "name": "Food4Thought East", "nameTh": null, "nameEn": "Food4Thought East", "cat": ["food"], "province": "cm", "slug": "food4thought-east-11849670169", "rank": 3}}, {"type": "Feature", "geometry": {"type": "Point", "coordinates": [98.9886, 18.78493]}, "properties": {"id": "cm-osm-way-761867078", "name": "Fresh Time Vegetarian", "nameTh": null, "nameEn": "Fresh Time Vegetarian", "cat": ["food"], "province": "cm", "slug": "fresh-time-vegetarian-761867078", "rank": 2}}, {"type": "Feature", "geometry": {"type": "Point", "coordinates": [98.96689, 18.80243]}, "properties": {"id": "cm-osm-node-3287356491", "name": "Fuji", "nameTh": null, "nameEn": "Fuji", "cat": ["food"], "province": "cm", "slug": "fuji-3287356491", "rank": 1}}, {"type": "Feature", "geometry": {"type": "Point", "coordinates": [98.99043, 18.78391]}, "properties": {"id": "cm-osm-node-5162833822", "name": "Funky Monkey", "nameTh": null, "nameEn": "Funky Monkey", "cat": ["food"], "province": "cm", "slug": "funky-monkey-5162833822", "rank": 1}}, {"type": "Feature", "geometry": {"type": "Point", "coordinates": [98.98717, 18.78921]}, "properties": {"id": "cm-osm-way-1300133896", "name": "Glyn Chiangmai Cuisine", "nameTh": null, "nameEn": "Glyn Chiangmai Cuisine", "cat": ["food"], "province": "cm", "slug": "glyn-chiangmai-cuisine-1300133896", "rank": 2}}, {"type": "Feature", "geometry": {"type": "Point", "coordinates": [98.98209, 18.79326]}, "properties": {"id": "cm-osm-way-623140246", "name": "Goodsouls Kitchen", "nameTh": null, "nameEn": "Goodsouls Kitchen", "cat": ["food"], "province": "cm", "slug": "goodsouls-kitchen-623140246", "rank": 3}}, {"type": "Feature", "geometry": {"type": "Point", "coordinates": [98.98533, 18.78359]}, "properties": {"id": "cm-osm-way-1300133894", "name": "Gord Chiangmai Kitchen", "nameTh": null, "nameEn": "Gord Chiangmai Kitchen", "cat": ["food"], "province": "cm", "slug": "gord-chiangmai-kitchen-1300133894", "rank": 3}}, {"type": "Feature", "geometry": {"type": "Point", "coordinates": [98.98193, 18.78584]}, "properties": {"id": "cm-osm-way-623156415", "name": "Gravity Cafe & Bistro", "nameTh": null, "nameEn": "Gravity Cafe & Bistro", "cat": ["food"], "province": "cm", "slug": "gravity-cafe-bistro-623156415", "rank": 2}}, {"type": "Feature", "geometry": {"type": "Point", "coordinates": [98.98878, 18.78319]}, "properties": {"id": "cm-osm-node-4483086589", "name": "Grill Of India", "nameTh": null, "nameEn": "Grill Of India", "cat": ["food"], "province": "cm", "slug": "grill-of-india-4483086589", "rank": 1}}, {"type": "Feature", "geometry": {"type": "Point", "coordinates": [98.99436, 18.75533]}, "properties": {"id": "cm-osm-node-5725275557", "name": "Happy Green", "nameTh": null, "nameEn": "Happy Green", "cat": ["food"], "province": "cm", "slug": "happy-green-5725275557", "rank": 1}}, {"type": "Feature", "geometry": {"type": "Point", "coordinates": [99.0118, 18.82554]}, "properties": {"id": "cm-osm-node-6269055188", "name": "Happy Mushroom Vegan & Vegetarian Jae Restaurant", "nameTh": null, "nameEn": "Happy Mushroom Vegan & Vegetarian Jae Restaurant", "cat": ["food"], "province": "cm", "slug": "happy-mushroom-vegan-vegetarian-jae-restaurant-6269055188", "rank": 1}}, {"type": "Feature", "geometry": {"type": "Point", "coordinates": [98.96754, 18.80193]}, "properties": {"id": "cm-osm-node-13392865738", "name": "Imjai Vegan", "nameTh": null, "nameEn": "Imjai Vegan", "cat": ["food"], "province": "cm", "slug": "imjai-vegan-13392865738", "rank": 1}}, {"type": "Feature", "geometry": {"type": "Point", "coordinates": [98.97884, 18.8006]}, "properties": {"id": "cm-osm-node-4519103091", "name": "Imm Aim vegetarian restaurant", "nameTh": null, "nameEn": "Imm Aim vegetarian restaurant", "cat": ["food"], "province": "cm", "slug": "imm-aim-vegetarian-restaurant-4519103091", "rank": 1}}, {"type": "Feature", "geometry": {"type": "Point", "coordinates": [98.98679, 18.79484]}, "properties": {"id": "cm-osm-node-4476187491", "name": "Into the Woods", "nameTh": null, "nameEn": "Into the Woods", "cat": ["food"], "province": "cm", "slug": "into-the-woods-4476187491", "rank": 3}}, {"type": "Feature", "geometry": {"type": "Point", "coordinates": [98.98312, 18.78843]}, "properties": {"id": "cm-osm-node-4295719291", "name": "It's Good Kitchen", "nameTh": null, "nameEn": "Its Good Kitchen", "cat": ["food"], "province": "cm", "slug": "its-good-kitchen-4295719291", "rank": 2}}, {"type": "Feature", "geometry": {"type": "Point", "coordinates": [99.00785, 18.77578]}, "properties": {"id": "cm-osm-node-11161006605", "name": "Je Pa Phon Vegetarian Restaurant", "nameTh": null, "nameEn": "Je Pa Phon Vegetarian Restaurant", "cat": ["food"], "province": "cm", "slug": "je-pa-phon-vegetarian-restaurant-11161006605", "rank": 2}}, {"type": "Feature", "geometry": {"type": "Point", "coordinates": [98.99039, 18.79081]}, "properties": {"id": "cm-osm-node-1491290179", "name": "Kebab House", "nameTh": null, "nameEn": "Kebab House", "cat": ["food"], "province": "cm", "slug": "kebab-house-1491290179", "rank": 2}}, {"type": "Feature", "geometry": {"type": "Point", "coordinates": [98.96677, 18.79547]}, "properties": {"id": "cm-osm-node-2292083007", "name": "Khun Churn", "nameTh": null, "nameEn": "Khun Churn", "cat": ["food"], "province": "cm", "slug": "khun-churn-2292083007", "rank": 1}}, {"type": "Feature", "geometry": {"type": "Point", "coordinates": [98.99165, 18.79281]}, "properties": {"id": "cm-osm-node-5287018021", "name": "Khun Kae's Juice Bar", "nameTh": null, "nameEn": "Khun Kae's Juice Bar", "cat": ["food"], "province": "cm", "slug": "khun-kae-s-juice-bar-5287018021", "rank": 3}}, {"type": "Feature", "geometry": {"type": "Point", "coordinates": [98.99975, 18.77561]}, "properties": {"id": "cm-osm-node-5263165321", "name": "Kin Lum Vegetarian", "nameTh": null, "nameEn": "Kin Lum Vegetarian", "cat": ["food"], "province": "cm", "slug": "kin-lum-vegetarian-5263165321", "rank": 2}}, {"type": "Feature", "geometry": {"type": "Point", "coordinates": [98.98112, 18.80305]}, "properties": {"id": "cm-osm-node-9872146918", "name": "Kinphak Cafe (Cmu vegan Food)", "nameTh": null, "nameEn": "Kinphak Cafe (Cmu vegan Food)", "cat": ["food"], "province": "cm", "slug": "kinphak-cafe-cmu-vegan-food-9872146918", "rank": 2}}, {"type": "Feature", "geometry": {"type": "Point", "coordinates": [98.95985, 18.80896]}, "properties": {"id": "cm-osm-node-11111283605", "name": "Kinphak Cafe Shan Vegetarian", "nameTh": null, "nameEn": "Kinphak Cafe Shan Vegetarian", "cat": ["food"], "province": "cm", "slug": "kinphak-cafe-shan-vegetarian-11111283605", "rank": 1}}, {"type": "Feature", "geometry": {"type": "Point", "coordinates": [98.91217, 18.9668]}, "properties": {"id": "cm-osm-node-13394591201", "name": "La Factoria", "nameTh": null, "nameEn": "La Factoria", "cat": ["food"], "province": "cm", "slug": "la-factoria-13394591201", "rank": 2}}, {"type": "Feature", "geometry": {"type": "Point", "coordinates": [98.99107, 18.78524]}, "properties": {"id": "cm-osm-node-1416857573", "name": "La Fontana", "nameTh": null, "nameEn": "La Fontana", "cat": ["food"], "province": "cm", "slug": "la-fontana-1416857573", "rank": 3}}, {"type": "Feature", "geometry": {"type": "Point", "coordinates": [98.98825, 18.78152]}, "properties": {"id": "cm-osm-node-5214104325", "name": "Lada Veggies", "nameTh": null, "nameEn": "Lada Veggies", "cat": ["food"], "province": "cm", "slug": "lada-veggies-5214104325", "rank": 1}}, {"type": "Feature", "geometry": {"type": "Point", "coordinates": [98.97812, 18.78316]}, "properties": {"id": "cm-osm-node-4721967593", "name": "Le Kaa", "nameTh": null, "nameEn": "Le Kaa", "cat": ["food"], "province": "cm", "slug": "le-kaa-4721967593", "rank": 1}}, {"type": "Feature", "geometry": {"type": "Point", "coordinates": [98.98891, 18.78224]}, "properties": {"id": "cm-osm-node-6278120085", "name": "Local restaurant", "nameTh": null, "nameEn": "Local restaurant", "cat": ["food"], "province": "cm", "slug": "local-restaurant-6278120085", "rank": 2}}, {"type": "Feature", "geometry": {"type": "Point", "coordinates": [98.99024, 18.78681]}, "properties": {"id": "cm-osm-node-4066800751", "name": "Loft Restaurant", "nameTh": null, "nameEn": "Loft Restaurant", "cat": ["food"], "province": "cm", "slug": "loft-restaurant-4066800751", "rank": 1}}, {"type": "Feature", "geometry": {"type": "Point", "coordinates": [98.99246, 18.78509]}, "properties": {"id": "cm-osm-node-4358675894", "name": "Mamory Delicious", "nameTh": null, "nameEn": "Mamory Delicious", "cat": ["food"], "province": "cm", "slug": "mamory-delicious-4358675894", "rank": 1}}, {"type": "Feature", "geometry": {"type": "Point", "coordinates": [98.99923, 18.80732]}, "properties": {"id": "cm-osm-node-13403843262", "name": "Margaret", "nameTh": null, "nameEn": "Margaret", "cat": ["food"], "province": "cm", "slug": "margaret-13403843262", "rank": 2}}, {"type": "Feature", "geometry": {"type": "Point", "coordinates": [99.00642, 18.78885]}, "properties": {"id": "cm-osm-node-12500290176", "name": "May Kaidee vegan cooking classes", "nameTh": null, "nameEn": "May Kaidee vegan cooking classes", "cat": ["cooking", "food"], "province": "cm", "slug": "may-kaidee-vegan-cooking-classes-12500290176", "rank": 4}}, {"type": "Feature", "geometry": {"type": "Point", "coordinates": [98.9944, 18.78972]}, "properties": {"id": "cm-osm-node-4529653891", "name": "May Kaidee's Restaurant & Cooking School (Thai Vegetarian, Vegan Food)", "nameTh": null, "nameEn": "May Kaidee's Restaurant & Cooking School (Thai Vegetarian, Vegan Food)", "cat": ["cooking", "food"], "province": "cm", "slug": "may-kaidee-s-restaurant-cooking-school-thai-vegetarian-vegan-4529653891", "rank": 4}}, {"type": "Feature", "geometry": {"type": "Point", "coordinates": [98.96442, 18.69823]}, "properties": {"id": "cm-osm-node-12396427948", "name": "Meet Point Mookata & Shabu Buffet", "nameTh": null, "nameEn": "Meet Point Mookata & Shabu Buffet", "cat": ["food"], "province": "cm", "slug": "meet-point-mookata-shabu-buffet-12396427948", "rank": 3}}, {"type": "Feature", "geometry": {"type": "Point", "coordinates": [98.99398, 18.7934]}, "properties": {"id": "cm-osm-node-1617076520", "name": "Miguel's", "nameTh": null, "nameEn": "Miguel's", "cat": ["food"], "province": "cm", "slug": "miguel-s-1617076520", "rank": 2}}, {"type": "Feature", "geometry": {"type": "Point", "coordinates": [98.99221, 18.79369]}, "properties": {"id": "cm-osm-node-4281954591", "name": "Mild", "nameTh": null, "nameEn": "Mild", "cat": ["food"], "province": "cm", "slug": "mild-4281954591", "rank": 1}}, {"type": "Feature", "geometry": {"type": "Point", "coordinates": [98.967, 18.78942]}, "properties": {"id": "cm-osm-node-9872196817", "name": "Ming Kwan Vegetarian Food", "nameTh": null, "nameEn": "Ming Kwan Vegetarian Food", "cat": ["food"], "province": "cm", "slug": "ming-kwan-vegetarian-food-9872196817", "rank": 1}}, {"type": "Feature", "geometry": {"type": "Point", "coordinates": [98.954, 18.80902]}, "properties": {"id": "cm-osm-node-10793159227", "name": "Ming Zhen", "nameTh": null, "nameEn": "Ming Zhen", "cat": ["food"], "province": "cm", "slug": "ming-zhen-10793159227", "rank": 2}}, {"type": "Feature", "geometry": {"type": "Point", "coordinates": [98.9863, 18.79509]}, "properties": {"id": "cm-osm-node-4333699923", "name": "Mountain view garden restaurant", "nameTh": null, "nameEn": "Mountain view garden restaurant", "cat": ["food"], "province": "cm", "slug": "mountain-view-garden-restaurant-4333699923", "rank": 4}}, {"type": "Feature", "geometry": {"type": "Point", "coordinates": [98.93393, 18.75289]}, "properties": {"id": "cm-osm-node-13994098801", "name": "Munchies Café", "nameTh": null, "nameEn": "Munchies Café", "cat": ["food"], "province": "cm", "slug": "munchies-caf-13994098801", "rank": 2}}, {"type": "Feature", "geometry": {"type": "Point", "coordinates": [98.98323, 18.7881]}, "properties": {"id": "cm-osm-node-3907871477", "name": "My Secret Cafe", "nameTh": null, "nameEn": "My Secret Cafe", "cat": ["food"], "province": "cm", "slug": "my-secret-cafe-3907871477", "rank": 1}}, {"type": "Feature", "geometry": {"type": "Point", "coordinates": [98.98586, 18.79052]}, "properties": {"id": "cm-osm-node-4403625389", "name": "Naree Coffee De'Klangwaing", "nameTh": null, "nameEn": "Naree Coffee De'Klangwaing", "cat": ["food"], "province": "cm", "slug": "naree-coffee-de-klangwaing-4403625389", "rank": 1}}, {"type": "Feature", "geometry": {"type": "Point", "coordinates": [98.99065, 18.79074]}, "properties": {"id": "cm-osm-node-1491262428", "name": "New Delhi", "nameTh": null, "nameEn": "New Delhi", "cat": ["food"], "province": "cm", "slug": "new-delhi-1491262428", "rank": 1}}, {"type": "Feature", "geometry": {"type": "Point", "coordinates": [98.98267, 18.78266]}, "properties": {"id": "cm-osm-node-5344719921", "name": "Nok Kafe", "nameTh": null, "nameEn": "Nok Kafe", "cat": ["food"], "province": "cm", "slug": "nok-kafe-5344719921", "rank": 1}}, {"type": "Feature", "geometry": {"type": "Point", "coordinates": [99.00383, 18.78402]}, "properties": {"id": "cm-osm-node-4911778421", "name": "Nok Smoothie bar", "nameTh": null, "nameEn": "Nok Smoothie bar", "cat": ["food"], "province": "cm", "slug": "nok-smoothie-bar-4911778421", "rank": 2}}, {"type": "Feature", "geometry": {"type": "Point", "coordinates": [98.96585, 18.79662]}, "properties": {"id": "cm-osm-node-3057318301", "name": "Nong Bee's Burmese Restaurant", "nameTh": null, "nameEn": "Nong Bee's Burmese Restaurant", "cat": ["food"], "province": "cm", "slug": "nong-bee-s-burmese-restaurant-3057318301", "rank": 1}}, {"type": "Feature", "geometry": {"type": "Point", "coordinates": [98.99481, 18.77815]}, "properties": {"id": "cm-osm-way-294459104", "name": "Nuson Vegetarian Cafe", "nameTh": null, "nameEn": "Nuson Vegetarian Cafe", "cat": ["food"], "province": "cm", "slug": "nuson-vegetarian-cafe-294459104", "rank": 1}}, {"type": "Feature", "geometry": {"type": "Point", "coordinates": [98.96575, 18.79664]}, "properties": {"id": "cm-osm-node-4185021629", "name": "Organic Vegetables", "nameTh": null, "nameEn": "Organic Vegetables", "cat": ["food"], "province": "cm", "slug": "organic-vegetables-4185021629", "rank": 1}}, {"type": "Feature", "geometry": {"type": "Point", "coordinates": [99.0165, 18.77864]}, "properties": {"id": "cm-osm-node-10917037905", "name": "POHSOP local-rice eatery vegetarian", "nameTh": null, "nameEn": "POHSOP local-rice eatery vegetarian", "cat": ["food"], "province": "cm", "slug": "pohsop-local-rice-eatery-vegetarian-10917037905", "rank": 3}}, {"type": "Feature", "geometry": {"type": "Point", "coordinates": [98.98027, 18.80005]}, "properties": {"id": "cm-osm-node-8891851001", "name": "Pac Mor Yon Yook Vegetarian Tradtitional Food", "nameTh": null, "nameEn": "Pac Mor Yon Yook Vegetarian Tradtitional Food", "cat": ["food"], "province": "cm", "slug": "pac-mor-yon-yook-vegetarian-tradtitional-food-8891851001", "rank": 1}}, {"type": "Feature", "geometry": {"type": "Point", "coordinates": [98.99469, 18.78102]}, "properties": {"id": "cm-osm-node-6261439685", "name": "Pakorn’s Kitchen", "nameTh": null, "nameEn": "Pakorn’s Kitchen", "cat": ["food"], "province": "cm", "slug": "pakorn-s-kitchen-6261439685", "rank": 2}}, {"type": "Feature", "geometry": {"type": "Point", "coordinates": [98.99178, 18.79571]}, "properties": {"id": "cm-osm-way-1161677813", "name": "Payod Shanfood Chiangmai", "nameTh": null, "nameEn": "Payod Shanfood Chiangmai", "cat": ["food"], "province": "cm", "slug": "payod-shanfood-chiangmai-1161677813", "rank": 3}}, {"type": "Feature", "geometry": {"type": "Point", "coordinates": [98.97043, 18.78858]}, "properties": {"id": "cm-osm-node-9872196917", "name": "Phaen Din Vegan", "nameTh": null, "nameEn": "Phaen Din Vegan", "cat": ["food"], "province": "cm", "slug": "phaen-din-vegan-9872196917", "rank": 1}}, {"type": "Feature", "geometry": {"type": "Point", "coordinates": [98.9673, 18.78757]}, "properties": {"id": "cm-osm-node-5992439094", "name": "Pun Pun", "nameTh": null, "nameEn": "Pun Pun", "cat": ["food"], "province": "cm", "slug": "pun-pun-5992439094", "rank": 3}}, {"type": "Feature", "geometry": {"type": "Point", "coordinates": [98.99013, 18.78668]}, "properties": {"id": "cm-osm-node-11421707570", "name": "Pure vegan heaven", "nameTh": null, "nameEn": "Pure vegan heaven", "cat": ["food"], "province": "cm", "slug": "pure-vegan-heaven-11421707570", "rank": 1}}, {"type": "Feature", "geometry": {"type": "Point", "coordinates": [98.99885, 18.78417]}, "properties": {"id": "cm-osm-node-2132019005", "name": "Rajdarbar", "nameTh": null, "nameEn": "Rajdarbar", "cat": ["food"], "province": "cm", "slug": "rajdarbar-2132019005", "rank": 3}}, {"type": "Feature", "geometry": {"type": "Point", "coordinates": [98.99565, 18.78818]}, "properties": {"id": "cm-osm-node-1041248368", "name": "Ratana's Kitchen", "nameTh": "ครัวรัตนา", "nameEn": "Ratana's Kitchen", "cat": ["food"], "province": "cm", "slug": "ratana-s-kitchen-1041248368", "rank": 2}}, {"type": "Feature", "geometry": {"type": "Point", "coordinates": [99.00605, 18.79273]}, "properties": {"id": "cm-osm-node-8448483117", "name": "Rong Than Jeh Chinese Vegetarian & Temple", "nameTh": null, "nameEn": "Rong Than Jeh Chinese Vegetarian & Temple", "cat": ["food"], "province": "cm", "slug": "rong-than-jeh-chinese-vegetarian-temple-8448483117", "rank": 2}}, {"type": "Feature", "geometry": {"type": "Point", "coordinates": [99.00072, 18.78157]}, "properties": {"id": "cm-osm-node-5743516159", "name": "Sababa Chiang Mai", "nameTh": null, "nameEn": "Sababa Chiang Mai", "cat": ["food"], "province": "cm", "slug": "sababa-chiang-mai-5743516159", "rank": 3}}, {"type": "Feature", "geometry": {"type": "Point", "coordinates": [99.00844, 18.79416]}, "properties": {"id": "cm-osm-node-10926013205", "name": "Salad Khunnai", "nameTh": null, "nameEn": "Salad Khunnai", "cat": ["food"], "province": "cm", "slug": "salad-khunnai-10926013205", "rank": 3}}, {"type": "Feature", "geometry": {"type": "Point", "coordinates": [98.97413, 18.79814]}, "properties": {"id": "cm-osm-node-3134796412", "name": "Salsa Kitchen", "nameTh": null, "nameEn": "Salsa Kitchen", "cat": ["food"], "province": "cm", "slug": "salsa-kitchen-3134796412", "rank": 2}}, {"type": "Feature", "geometry": {"type": "Point", "coordinates": [98.99009, 18.78916]}, "properties": {"id": "cm-osm-node-11989775069", "name": "Sanjan Indonesian Cafe", "nameTh": null, "nameEn": "Sanjan Indonesian Cafe", "cat": ["food"], "province": "cm", "slug": "sanjan-indonesian-cafe-11989775069", "rank": 3}}, {"type": "Feature", "geometry": {"type": "Point", "coordinates": [98.95394, 18.82704]}, "properties": {"id": "cm-osm-node-5643026621", "name": "Santi Bar & Bistro", "nameTh": null, "nameEn": "Santi Bar & Bistro", "cat": ["food"], "province": "cm", "slug": "santi-bar-bistro-5643026621", "rank": 2}}, {"type": "Feature", "geometry": {"type": "Point", "coordinates": [98.9674, 18.80251]}, "properties": {"id": "cm-osm-node-6052593885", "name": "Shan Tou Hao Chi - Vegetarian & Vegan", "nameTh": null, "nameEn": "Shan Tou Hao Chi - Vegetarian & Vegan", "cat": ["food"], "province": "cm", "slug": "shan-tou-hao-chi-vegetarian-vegan-6052593885", "rank": 3}}, {"type": "Feature", "geometry": {"type": "Point", "coordinates": [99.01095, 18.78643]}, "properties": {"id": "cm-osm-way-528011072", "name": "Shewe Cafe", "nameTh": null, "nameEn": "Shewe Cafe", "cat": ["food"], "province": "cm", "slug": "shewe-cafe-528011072", "rank": 2}}, {"type": "Feature", "geometry": {"type": "Point", "coordinates": [98.98881, 18.7958]}, "properties": {"id": "cm-osm-node-5008585023", "name": "Sri Chang Yeun", "nameTh": null, "nameEn": "Sri Chang Yeun", "cat": ["food"], "province": "cm", "slug": "sri-chang-yeun-5008585023", "rank": 1}}, {"type": "Feature", "geometry": {"type": "Point", "coordinates": [99.00632, 18.78733]}, "properties": {"id": "cm-osm-node-8719658314", "name": "Sukjai by Pata Obasan", "nameTh": null, "nameEn": "Sukjai by Pata Obasan", "cat": ["food"], "province": "cm", "slug": "sukjai-by-pata-obasan-8719658314", "rank": 2}}, {"type": "Feature", "geometry": {"type": "Point", "coordinates": [98.98253, 18.78755]}, "properties": {"id": "cm-osm-node-4440847089", "name": "Taa Peng Cat", "nameTh": null, "nameEn": "Taa Peng Cat", "cat": ["food"], "province": "cm", "slug": "taa-peng-cat-4440847089", "rank": 2}}, {"type": "Feature", "geometry": {"type": "Point", "coordinates": [98.99217, 18.78527]}, "properties": {"id": "cm-osm-way-623162100", "name": "Taste From Heaven", "nameTh": "เทสฟรอมเฮเว่น", "nameEn": "Taste From Heaven", "cat": ["food"], "province": "cm", "slug": "taste-from-heaven-623162100", "rank": 4}}, {"type": "Feature", "geometry": {"type": "Point", "coordinates": [98.98895, 18.78234]}, "properties": {"id": "cm-osm-node-1107238261", "name": "Tein Sieng", "nameTh": null, "nameEn": "Tein Sieng", "cat": ["food"], "province": "cm", "slug": "tein-sieng-1107238261", "rank": 2}}, {"type": "Feature", "geometry": {"type": "Point", "coordinates": [98.95694, 18.80706]}, "properties": {"id": "cm-osm-node-5436937744", "name": "The Boat Chiangmai", "nameTh": null, "nameEn": "The Boat Chiangmai", "cat": ["food"], "province": "cm", "slug": "the-boat-chiangmai-5436937744", "rank": 1}}, {"type": "Feature", "geometry": {"type": "Point", "coordinates": [99.00315, 18.79098]}, "properties": {"id": "cm-osm-node-2648382124", "name": "The Gallery", "nameTh": null, "nameEn": "The Gallery", "cat": ["food"], "province": "cm", "slug": "the-gallery-2648382124", "rank": 2}}, {"type": "Feature", "geometry": {"type": "Point", "coordinates": [98.99507, 18.78581]}, "properties": {"id": "cm-osm-node-2649591567", "name": "The Garden", "nameTh": null, "nameEn": "The Garden", "cat": ["food"], "province": "cm", "slug": "the-garden-2649591567", "rank": 1}}, {"type": "Feature", "geometry": {"type": "Point", "coordinates": [98.97866, 18.79302]}, "properties": {"id": "cm-osm-way-623146142", "name": "The Peaberry Cafe & Coworking", "nameTh": null, "nameEn": "The Peaberry Cafe & Coworking", "cat": ["business", "food"], "province": "cm", "slug": "the-peaberry-cafe-coworking-623146142", "rank": 2}}, {"type": "Feature", "geometry": {"type": "Point", "coordinates": [98.99071, 18.79073]}, "properties": {"id": "cm-osm-node-2292111473", "name": "The Peppermint", "nameTh": null, "nameEn": "The Peppermint", "cat": ["food"], "province": "cm", "slug": "the-peppermint-2292111473", "rank": 1}}, {"type": "Feature", "geometry": {"type": "Point", "coordinates": [98.9919, 18.78995]}, "properties": {"id": "cm-osm-node-10028765917", "name": "Vegan Meals", "nameTh": null, "nameEn": "Vegan Meals", "cat": ["food"], "province": "cm", "slug": "vegan-meals-10028765917", "rank": 1}}, {"type": "Feature", "geometry": {"type": "Point", "coordinates": [99.02762, 18.7926]}, "properties": {"id": "cm-osm-node-13503710001", "name": "Vegetarian Restaurant", "nameTh": null, "nameEn": "Vegetarian Restaurant", "cat": ["food"], "province": "cm", "slug": "vegetarian-restaurant-13503710001", "rank": 1}}, {"type": "Feature", "geometry": {"type": "Point", "coordinates": [98.9765, 18.77674]}, "properties": {"id": "cm-osm-node-4182515040", "name": "Vegetarian Society", "nameTh": null, "nameEn": "Vegetarian Society", "cat": ["food"], "province": "cm", "slug": "vegetarian-society-4182515040", "rank": 3}}, {"type": "Feature", "geometry": {"type": "Point", "coordinates": [98.99266, 18.794]}, "properties": {"id": "cm-osm-node-5074576022", "name": "Vegetarian restaurant", "nameTh": "Vegetarian restaurant", "nameEn": null, "cat": ["food"], "province": "cm", "slug": "vegetarian-restaurant-5074576022", "rank": 1}}, {"type": "Feature", "geometry": {"type": "Point", "coordinates": [98.96916, 18.78885]}, "properties": {"id": "cm-osm-node-5323296823", "name": "Vegetarian restaurant", "nameTh": null, "nameEn": "Vegetarian restaurant", "cat": ["food"], "province": "cm", "slug": "vegetarian-restaurant-5323296823", "rank": 1}}, {"type": "Feature", "geometry": {"type": "Point", "coordinates": [98.99584, 18.7947]}, "properties": {"id": "cm-osm-node-5008711822", "name": "Vegeterian Thai Orchid", "nameTh": null, "nameEn": "Vegeterian Thai Orchid", "cat": ["food"], "province": "cm", "slug": "vegeterian-thai-orchid-5008711822", "rank": 3}}, {"type": "Feature", "geometry": {"type": "Point", "coordinates": [98.97852, 18.79178]}, "properties": {"id": "cm-osm-node-11478245226", "name": "Veggie First Cafe", "nameTh": null, "nameEn": "Veggie First Cafe", "cat": ["food"], "province": "cm", "slug": "veggie-first-cafe-11478245226", "rank": 2}}, {"type": "Feature", "geometry": {"type": "Point", "coordinates": [98.9846, 18.77491]}, "properties": {"id": "cm-osm-node-6249725792", "name": "Yok Vegetarian Restaurant", "nameTh": null, "nameEn": "Yok Vegetarian Restaurant", "cat": ["food"], "province": "cm", "slug": "yok-vegetarian-restaurant-6249725792", "rank": 3}}, {"type": "Feature", "geometry": {"type": "Point", "coordinates": [98.99576, 18.79456]}, "properties": {"id": "cm-osm-node-4536364649", "name": "Youta", "nameTh": null, "nameEn": "Youta", "cat": ["food"], "province": "cm", "slug": "youta-4536364649", "rank": 1}}, {"type": "Feature", "geometry": {"type": "Point", "coordinates": [98.98053, 18.77766]}, "properties": {"id": "cm-osm-node-8862954017", "name": "Yummy India", "nameTh": null, "nameEn": "Yummy India", "cat": ["food"], "province": "cm", "slug": "yummy-india-8862954017", "rank": 3}}, {"type": "Feature", "geometry": {"type": "Point", "coordinates": [98.99657, 18.78811]}, "properties": {"id": "cm-osm-node-9568101417", "name": "asa vegan kitchen", "nameTh": null, "nameEn": "asa vegan kitchen", "cat": ["food"], "province": "cm", "slug": "asa-vegan-kitchen-9568101417", "rank": 2}}, {"type": "Feature", "geometry": {"type": "Point", "coordinates": [98.98292, 18.78202]}, "properties": {"id": "cm-osm-node-4143980494", "name": "traditional thai vegetarian", "nameTh": null, "nameEn": "traditional thai vegetarian", "cat": ["food"], "province": "cm", "slug": "traditional-thai-vegetarian-4143980494", "rank": 2}}, {"type": "Feature", "geometry": {"type": "Point", "coordinates": [99.04149, 18.77559]}, "properties": {"id": "cm-osm-way-1163063027", "name": "vsecret", "nameTh": null, "nameEn": "vsecret", "cat": ["food"], "province": "cm", "slug": "vsecret-1163063027", "rank": 1}}, {"type": "Feature", "geometry": {"type": "Point", "coordinates": [98.99435, 18.79791]}, "properties": {"id": "cm-osm-node-12778850501", "name": "ข้าวแรมฟืนป้ายอด", "nameTh": "ข้าวแรมฟืนป้ายอด", "nameEn": "Payod Shan Food", "cat": ["food"], "province": "cm", "slug": "payod-shan-food-12778850501", "rank": 3}}, {"type": "Feature", "geometry": {"type": "Point", "coordinates": [98.99479, 18.80796]}, "properties": {"id": "cm-osm-node-4622953394", "name": "คณเชิญ", "nameTh": "คณเชิญ", "nameEn": "Khun churn", "cat": ["food"], "province": "cm", "slug": "khun-churn-4622953394", "rank": 3}}, {"type": "Feature", "geometry": {"type": "Point", "coordinates": [98.98371, 18.78861]}, "properties": {"id": "cm-osm-way-1160323326", "name": "มิ่งขวัญ", "nameTh": "มิ่งขวัญ", "nameEn": "Ming Kwan", "cat": ["food"], "province": "cm", "slug": "ming-kwan-1160323326", "rank": 3}}, {"type": "Feature", "geometry": {"type": "Point", "coordinates": [98.97698, 18.77717]}, "properties": {"id": "cm-osm-node-5310384394", "name": "ร้าน ป.ปลาจุ่ม สาขา 2", "nameTh": "ร้าน ป.ปลาจุ่ม สาขา 2", "nameEn": null, "cat": ["food"], "province": "cm", "slug": "2-5310384394", "rank": 1}}, {"type": "Feature", "geometry": {"type": "Point", "coordinates": [99.04596, 18.78459]}, "properties": {"id": "cm-osm-node-4686351107", "name": "ร้านอาหารมีนามีข้าว", "nameTh": "ร้านอาหารมีนา", "nameEn": "Meena Rice Based Cuisine", "cat": ["food"], "province": "cm", "slug": "meena-rice-based-cuisine-4686351107", "rank": 4}}, {"type": "Feature", "geometry": {"type": "Point", "coordinates": [98.98626, 18.79652]}, "properties": {"id": "cm-osm-node-3312188606", "name": "ร้านอาหารเจ สำเภาทิพพย์", "nameTh": "ร้านอาหารเจ สำเภาทิพพย์", "nameEn": "Sampaotip Vegetarian Food", "cat": ["food"], "province": "cm", "slug": "sampaotip-vegetarian-food-3312188606", "rank": 3}}, {"type": "Feature", "geometry": {"type": "Point", "coordinates": [99.00346, 18.75946]}, "properties": {"id": "cm-osm-node-5201209728", "name": "ร้านเจกวนอิม", "nameTh": "ร้านเจกวนอิม", "nameEn": "Che Kuanim Shop", "cat": ["food"], "province": "cm", "slug": "che-kuanim-shop-5201209728", "rank": 2}}, {"type": "Feature", "geometry": {"type": "Point", "coordinates": [98.98375, 18.7959]}, "properties": {"id": "cm-osm-node-5027579121", "name": "เจ", "nameTh": "เจ", "nameEn": "J Station vegetarian restaurant", "cat": ["food"], "province": "cm", "slug": "j-station-vegetarian-restaurant-5027579121", "rank": 2}}, {"type": "Feature", "geometry": {"type": "Point", "coordinates": [98.9838, 18.80501]}, "properties": {"id": "cm-osm-node-3298047310", "name": "เจ กันยา", "nameTh": "เจ กันยา", "nameEn": "Che Kanya", "cat": ["food"], "province": "cm", "slug": "che-kanya-3298047310", "rank": 2}}, {"type": "Feature", "geometry": {"type": "Point", "coordinates": [98.95889, 18.79114]}, "properties": {"id": "cm-osm-node-4430745091", "name": "เจไม่จำเจ", "nameTh": "เจไม่จำเจ", "nameEn": "CMU Vegan", "cat": ["food"], "province": "cm", "slug": "cmu-vegan-4430745091", "rank": 4}}, {"type": "Feature", "geometry": {"type": "Point", "coordinates": [98.99222, 18.79564]}, "properties": {"id": "cm-osm-node-8891761479", "name": "เจไม่จำเจ เชียงใหม่", "nameTh": "เจไม่จำเจ เชียงใหม่", "nameEn": "Jay Mai Jamjay", "cat": ["food"], "province": "cm", "slug": "jay-mai-jamjay-8891761479", "rank": 4}}, {"type": "Feature", "geometry": {"type": "Point", "coordinates": [99.00242, 18.79178]}, "properties": {"id": "cm-osm-node-1628665655", "name": "เวียงจูมออน", "nameTh": "เวียงจูมออน", "nameEn": "Vieng Joom On Teahouse", "cat": ["food"], "province": "cm", "slug": "vieng-joom-on-teahouse-1628665655", "rank": 2}}, {"type": "Feature", "geometry": {"type": "Point", "coordinates": [98.96559, 18.8064]}, "properties": {"id": "cm-osm-way-442372056", "name": "เอกทิพย์โชคดี", "nameTh": "เอกทิพย์โชคดี", "nameEn": "Ekathip Chokedee", "cat": ["food"], "province": "cm", "slug": "ekathip-chokedee-442372056", "rank": 4}}, {"type": "Feature", "geometry": {"type": "Point", "coordinates": [98.98025, 18.80001]}, "properties": {"id": "cm-osm-node-3283614977", "name": "แสงวิรุณ", "nameTh": "แสงวิรุณ", "nameEn": "Sangwiroon", "cat": ["food"], "province": "cm", "slug": "sangwiroon-3283614977", "rank": 3}}, {"type": "Feature", "geometry": {"type": "Point", "coordinates": [98.96657, 18.78952]}, "properties": {"id": "cm-osm-node-5318090622", "name": "โจ๊กสามย่าน", "nameTh": "โจ๊กสามย่าน", "nameEn": null, "cat": ["food"], "province": "cm", "slug": "5318090622", "rank": 1}}, {"type": "Feature", "geometry": {"type": "Point", "coordinates": [98.95816, 18.78699]}, "properties": {"id": "cm-osm-node-2292084254", "name": "Gap-s Thai Culinary Art School", "nameTh": null, "nameEn": "Gap-s Thai Culinary Art School", "cat": ["cooking", "school"], "province": "cm", "slug": "gap-s-thai-culinary-art-school-2292084254", "rank": 1}}]}