{"type": "FeatureCollection", "features": [{"type": "Feature", "geometry": {"type": "Point", "coordinates": [98.97521, 18.79757]}, "properties": {"id": "cm-osm-node-2640586720", "name": "Amazing Sandwich", "nameTh": null, "nameEn": "Amazing Sandwich", "cat": ["food"], "province": "cm", "slug": "amazing-sandwich-2640586720", "rank": 1}}, {"type": "Feature", "geometry": {"type": "Point", "coordinates": [98.99537, 18.78919]}, "properties": {"id": "cm-osm-node-13908740201", "name": "Aob-Sook", "nameTh": null, "nameEn": "Aob-Sook", "cat": ["food"], "province": "cm", "slug": "aob-sook-13908740201", "rank": 2}}, {"type": "Feature", "geometry": {"type": "Point", "coordinates": [98.99395, 18.78786]}, "properties": {"id": "cm-osm-node-5258746823", "name": "Art Cafe", "nameTh": null, "nameEn": "Art Cafe", "cat": ["food"], "province": "cm", "slug": "art-cafe-5258746823", "rank": 2}}, {"type": "Feature", "geometry": {"type": "Point", "coordinates": [98.95421, 18.78078]}, "properties": {"id": "cm-osm-node-12584484895", "name": "Artisan sourdough by apple fahey", "nameTh": null, "nameEn": "Artisan sourdough by apple fahey", "cat": ["food"], "province": "cm", "slug": "artisan-sourdough-by-apple-fahey-12584484895", "rank": 2}}, {"type": "Feature", "geometry": {"type": "Point", "coordinates": [98.96929, 18.81489]}, "properties": {"id": "cm-osm-node-13313131801", "name": "Baby Sprouts Chiang Mai", "nameTh": null, "nameEn": "Baby Sprouts Chiang Mai", "cat": ["food"], "province": "cm", "slug": "baby-sprouts-chiang-mai-13313131801", "rank": 1}}, {"type": "Feature", "geometry": {"type": "Point", "coordinates": [98.98017, 18.7928]}, "properties": {"id": "cm-osm-way-623146118", "name": "Bird's Nest Cafe", "nameTh": null, "nameEn": "Bird's Nest Cafe", "cat": ["food"], "province": "cm", "slug": "bird-s-nest-cafe-623146118", "rank": 3}}, {"type": "Feature", "geometry": {"type": "Point", "coordinates": [98.99142, 18.7939]}, "properties": {"id": "cm-osm-way-259707860", "name": "Blue Diamond The Breakfast Club", "nameTh": null, "nameEn": "Blue Diamond The Breakfast Club", "cat": ["food"], "province": "cm", "slug": "blue-diamond-the-breakfast-club-259707860", "rank": 3}}, {"type": "Feature", "geometry": {"type": "Point", "coordinates": [98.98072, 18.78176]}, "properties": {"id": "cm-osm-node-11386909636", "name": "Bowls & Breads", "nameTh": null, "nameEn": "Bowls & Breads", "cat": ["food"], "province": "cm", "slug": "bowls-breads-11386909636", "rank": 2}}, {"type": "Feature", "geometry": {"type": "Point", "coordinates": [99.11042, 18.87187]}, "properties": {"id": "cm-osm-node-1604441376", "name": "Bualuang Terasse", "nameTh": null, "nameEn": "Bualuang Terasse", "cat": ["food"], "province": "cm", "slug": "bualuang-terasse-1604441376", "rank": 2}}, {"type": "Feature", "geometry": {"type": "Point", "coordinates": [98.99462, 18.79247]}, "properties": {"id": "cm-osm-node-4430796190", "name": "Cat House", "nameTh": null, "nameEn": "Cat house", "cat": ["food"], "province": "cm", "slug": "cat-house-4430796190", "rank": 1}}, {"type": "Feature", "geometry": {"type": "Point", "coordinates": [98.95791, 18.80635]}, "properties": {"id": "cm-osm-node-3819711686", "name": "Catmosphere Cat Café", "nameTh": "แคทโมสเฟียร์ แคท คาเฟ่", "nameEn": "Catmosphere Cat Café", "cat": ["food"], "province": "cm", "slug": "catmosphere-cat-caf-3819711686", "rank": 3}}, {"type": "Feature", "geometry": {"type": "Point", "coordinates": [98.99121, 18.79426]}, "properties": {"id": "cm-osm-way-256266491", "name": "Chaochau", "nameTh": null, "nameEn": "Chaochau", "cat": ["food"], "province": "cm", "slug": "chaochau-256266491", "rank": 3}}, {"type": "Feature", "geometry": {"type": "Point", "coordinates": [98.98873, 18.77915]}, "properties": {"id": "cm-osm-node-3843126639", "name": "Cozy Cafe Chiangmai", "nameTh": null, "nameEn": "Cozy Cafe Chiangmai", "cat": ["food"], "province": "cm", "slug": "cozy-cafe-chiangmai-3843126639", "rank": 3}}, {"type": "Feature", "geometry": {"type": "Point", "coordinates": [98.97437, 18.79879]}, "properties": {"id": "cm-osm-node-3285700540", "name": "Easy Corner", "nameTh": null, "nameEn": "Easy Corner", "cat": ["food"], "province": "cm", "slug": "easy-corner-3285700540", "rank": 2}}, {"type": "Feature", "geometry": {"type": "Point", "coordinates": [98.98466, 18.78583]}, "properties": {"id": "cm-osm-node-4690360190", "name": "Elliebum", "nameTh": null, "nameEn": "Elliebum", "cat": ["food"], "province": "cm", "slug": "elliebum-4690360190", "rank": 2}}, {"type": "Feature", "geometry": {"type": "Point", "coordinates": [98.99093, 18.78868]}, "properties": {"id": "cm-osm-node-4352166790", "name": "Farm Story House Room & Restaurant", "nameTh": null, "nameEn": "Farm Story House Room & Restaurant", "cat": ["food"], "province": "cm", "slug": "farm-story-house-room-restaurant-4352166790", "rank": 1}}, {"type": "Feature", "geometry": {"type": "Point", "coordinates": [98.99043, 18.78391]}, "properties": {"id": "cm-osm-node-5162833822", "name": "Funky Monkey", "nameTh": null, "nameEn": "Funky Monkey", "cat": ["food"], "province": "cm", "slug": "funky-monkey-5162833822", "rank": 1}}, {"type": "Feature", "geometry": {"type": "Point", "coordinates": [99.00302, 18.78359]}, "properties": {"id": "cm-osm-node-10250166809", "name": "Going up", "nameTh": null, "nameEn": "Going up", "cat": ["food"], "province": "cm", "slug": "going-up-10250166809", "rank": 2}}, {"type": "Feature", "geometry": {"type": "Point", "coordinates": [98.9967, 18.79337]}, "properties": {"id": "cm-osm-node-13911344401", "name": "Good day Farm to Table", "nameTh": null, "nameEn": "Good day Farm to Table", "cat": ["food"], "province": "cm", "slug": "good-day-farm-to-table-13911344401", "rank": 1}}, {"type": "Feature", "geometry": {"type": "Point", "coordinates": [98.98533, 18.78359]}, "properties": {"id": "cm-osm-way-1300133894", "name": "Gord Chiangmai Kitchen", "nameTh": null, "nameEn": "Gord Chiangmai Kitchen", "cat": ["food"], "province": "cm", "slug": "gord-chiangmai-kitchen-1300133894", "rank": 3}}, {"type": "Feature", "geometry": {"type": "Point", "coordinates": [99.00181, 18.79453]}, "properties": {"id": "cm-osm-node-7150405587", "name": "Happy Time - Vegan Foods & Salad bar", "nameTh": null, "nameEn": "Happy Time - Vegan Foods & Salad bar", "cat": ["food"], "province": "cm", "slug": "happy-time-vegan-foods-salad-bar-7150405587", "rank": 3}}, {"type": "Feature", "geometry": {"type": "Point", "coordinates": [98.97884, 18.8006]}, "properties": {"id": "cm-osm-node-4519103091", "name": "Imm Aim vegetarian restaurant", "nameTh": null, "nameEn": "Imm Aim vegetarian restaurant", "cat": ["food"], "province": "cm", "slug": "imm-aim-vegetarian-restaurant-4519103091", "rank": 1}}, {"type": "Feature", "geometry": {"type": "Point", "coordinates": [98.93892, 18.73321]}, "properties": {"id": "cm-osm-node-8972417444", "name": "Lee Cafe Chiangmai", "nameTh": null, "nameEn": "Lee Cafe Chiangmai", "cat": ["food"], "province": "cm", "slug": "lee-cafe-chiangmai-8972417444", "rank": 2}}, {"type": "Feature", "geometry": {"type": "Point", "coordinates": [98.99152, 18.78518]}, "properties": {"id": "cm-osm-node-5334375922", "name": "Locker", "nameTh": null, "nameEn": "Locker", "cat": ["food"], "province": "cm", "slug": "locker-5334375922", "rank": 3}}, {"type": "Feature", "geometry": {"type": "Point", "coordinates": [98.9796, 18.78769]}, "properties": {"id": "cm-osm-node-13266867244", "name": "Maison Maison", "nameTh": null, "nameEn": "Maison Maison", "cat": ["food"], "province": "cm", "slug": "maison-maison-13266867244", "rank": 4}}, {"type": "Feature", "geometry": {"type": "Point", "coordinates": [98.96688, 18.7982]}, "properties": {"id": "cm-osm-node-1074595752", "name": "Mont Blanc", "nameTh": null, "nameEn": "Mont Blanc", "cat": ["food"], "province": "cm", "slug": "mont-blanc-1074595752", "rank": 3}}, {"type": "Feature", "geometry": {"type": "Point", "coordinates": [98.9863, 18.79509]}, "properties": {"id": "cm-osm-node-4333699923", "name": "Mountain view garden restaurant", "nameTh": null, "nameEn": "Mountain view garden restaurant", "cat": ["food"], "province": "cm", "slug": "mountain-view-garden-restaurant-4333699923", "rank": 4}}, {"type": "Feature", "geometry": {"type": "Point", "coordinates": [98.93393, 18.75289]}, "properties": {"id": "cm-osm-node-13994098801", "name": "Munchies Café", "nameTh": null, "nameEn": "Munchies Café", "cat": ["food"], "province": "cm", "slug": "munchies-caf-13994098801", "rank": 2}}, {"type": "Feature", "geometry": {"type": "Point", "coordinates": [98.99743, 18.78412]}, "properties": {"id": "cm-osm-node-2300395636", "name": "My Place Lounge Chiang Mai - Sports Bar & Restaurant", "nameTh": null, "nameEn": "My Place Lounge Chiang Mai - Sports Bar & Restaurant", "cat": ["food"], "province": "cm", "slug": "my-place-lounge-chiang-mai-sports-bar-restaurant-2300395636", "rank": 5}}, {"type": "Feature", "geometry": {"type": "Point", "coordinates": [98.97885, 18.70265]}, "properties": {"id": "cm-osm-node-13449486844", "name": "Olio Restaurant", "nameTh": null, "nameEn": "Olio Restaurant", "cat": ["food"], "province": "cm", "slug": "olio-restaurant-13449486844", "rank": 2}}, {"type": "Feature", "geometry": {"type": "Point", "coordinates": [98.99279, 18.78792]}, "properties": {"id": "cm-osm-node-3277470021", "name": "Pai Doi Coffee", "nameTh": null, "nameEn": "Pai Doi Coffee", "cat": ["food"], "province": "cm", "slug": "pai-doi-coffee-3277470021", "rank": 1}}, {"type": "Feature", "geometry": {"type": "Point", "coordinates": [99.0011, 18.78563]}, "properties": {"id": "cm-osm-node-7005722125", "name": "Pinocchio the grill", "nameTh": null, "nameEn": "Pinocchio the grill", "cat": ["food"], "province": "cm", "slug": "pinocchio-the-grill-7005722125", "rank": 1}}, {"type": "Feature", "geometry": {"type": "Point", "coordinates": [99.00072, 18.78157]}, "properties": {"id": "cm-osm-node-5743516159", "name": "Sababa Chiang Mai", "nameTh": null, "nameEn": "Sababa Chiang Mai", "cat": ["food"], "province": "cm", "slug": "sababa-chiang-mai-5743516159", "rank": 3}}, {"type": "Feature", "geometry": {"type": "Point", "coordinates": [99.0229, 18.78429]}, "properties": {"id": "cm-osm-node-11578331869", "name": "Sally’s Cafe", "nameTh": null, "nameEn": "Sally’s Cafe", "cat": ["food"], "province": "cm", "slug": "sally-s-cafe-11578331869", "rank": 3}}, {"type": "Feature", "geometry": {"type": "Point", "coordinates": [98.95394, 18.82704]}, "properties": {"id": "cm-osm-node-5643026621", "name": "Santi Bar & Bistro", "nameTh": null, "nameEn": "Santi Bar & Bistro", "cat": ["food"], "province": "cm", "slug": "santi-bar-bistro-5643026621", "rank": 2}}, {"type": "Feature", "geometry": {"type": "Point", "coordinates": [98.93239, 18.7021]}, "properties": {"id": "cm-osm-node-3306847661", "name": "SubWorld", "nameTh": null, "nameEn": "SubWorld", "cat": ["food"], "province": "cm", "slug": "subworld-3306847661", "rank": 1}}, {"type": "Feature", "geometry": {"type": "Point", "coordinates": [99.0188, 18.80015]}, "properties": {"id": "cm-osm-node-2425083045", "name": "Subway", "nameTh": "ซับเวย์", "nameEn": "Subway", "cat": ["food"], "province": "cm", "slug": "subway-2425083045", "rank": 4}}, {"type": "Feature", "geometry": {"type": "Point", "coordinates": [98.99257, 18.78801]}, "properties": {"id": "cm-osm-node-3926723679", "name": "Subway", "nameTh": null, "nameEn": "Subway", "cat": ["food"], "province": "cm", "slug": "subway-3926723679", "rank": 3}}, {"type": "Feature", "geometry": {"type": "Point", "coordinates": [98.96578, 18.7964]}, "properties": {"id": "cm-osm-node-4285584689", "name": "Subway", "nameTh": null, "nameEn": "Subway", "cat": ["food"], "province": "cm", "slug": "subway-4285584689", "rank": 3}}, {"type": "Feature", "geometry": {"type": "Point", "coordinates": [98.94772, 18.72505]}, "properties": {"id": "cm-osm-node-6584084768", "name": "Subway", "nameTh": null, "nameEn": "Subway", "cat": ["food"], "province": "cm", "slug": "subway-6584084768", "rank": 3}}, {"type": "Feature", "geometry": {"type": "Point", "coordinates": [98.96815, 18.76849]}, "properties": {"id": "cm-osm-node-7026348701", "name": "Subway", "nameTh": null, "nameEn": "Subway", "cat": ["food"], "province": "cm", "slug": "subway-7026348701", "rank": 3}}, {"type": "Feature", "geometry": {"type": "Point", "coordinates": [99.00051, 18.78352]}, "properties": {"id": "cm-osm-node-915413355", "name": "Subway", "nameTh": null, "nameEn": "Subway", "cat": ["food"], "province": "cm", "slug": "subway-915413355", "rank": 3}}, {"type": "Feature", "geometry": {"type": "Point", "coordinates": [98.98253, 18.78755]}, "properties": {"id": "cm-osm-node-4440847089", "name": "Taa Peng Cat", "nameTh": null, "nameEn": "Taa Peng Cat", "cat": ["food"], "province": "cm", "slug": "taa-peng-cat-4440847089", "rank": 2}}, {"type": "Feature", "geometry": {"type": "Point", "coordinates": [98.96681, 18.80228]}, "properties": {"id": "cm-osm-node-3673955770", "name": "The Duke's Maya", "nameTh": null, "nameEn": "The Duke's Maya", "cat": ["food"], "province": "cm", "slug": "the-duke-s-maya-3673955770", "rank": 3}}, {"type": "Feature", "geometry": {"type": "Point", "coordinates": [99.0051, 18.78509]}, "properties": {"id": "cm-osm-node-2021464366", "name": "The Duke's Ping River", "nameTh": null, "nameEn": "The Duke's Ping River", "cat": ["food"], "province": "cm", "slug": "the-duke-s-ping-river-2021464366", "rank": 3}}, {"type": "Feature", "geometry": {"type": "Point", "coordinates": [98.99507, 18.78581]}, "properties": {"id": "cm-osm-node-2649591567", "name": "The Garden", "nameTh": null, "nameEn": "The Garden", "cat": ["food"], "province": "cm", "slug": "the-garden-2649591567", "rank": 1}}, {"type": "Feature", "geometry": {"type": "Point", "coordinates": [98.99448, 18.79362]}, "properties": {"id": "cm-osm-node-2655178493", "name": "The Hideout", "nameTh": "เดอะไฮดเอาท์", "nameEn": "The Hideout", "cat": ["food"], "province": "cm", "slug": "the-hideout-2655178493", "rank": 3}}, {"type": "Feature", "geometry": {"type": "Point", "coordinates": [98.99133, 18.79016]}, "properties": {"id": "cm-osm-node-13347185301", "name": "The Little Sunday", "nameTh": null, "nameEn": "The Little Sunday", "cat": ["food"], "province": "cm", "slug": "the-little-sunday-13347185301", "rank": 2}}, {"type": "Feature", "geometry": {"type": "Point", "coordinates": [98.97866, 18.79302]}, "properties": {"id": "cm-osm-way-623146142", "name": "The Peaberry Cafe & Coworking", "nameTh": null, "nameEn": "The Peaberry Cafe & Coworking", "cat": ["business", "food"], "province": "cm", "slug": "the-peaberry-cafe-coworking-623146142", "rank": 2}}, {"type": "Feature", "geometry": {"type": "Point", "coordinates": [98.98859, 18.77849]}, "properties": {"id": "cm-osm-node-5311551425", "name": "This is", "nameTh": null, "nameEn": "This is", "cat": ["food"], "province": "cm", "slug": "this-is-5311551425", "rank": 2}}, {"type": "Feature", "geometry": {"type": "Point", "coordinates": [98.99417, 18.79554]}, "properties": {"id": "cm-osm-way-658996891", "name": "ธัญญวินตรา บูติค แอนด์ สปา", "nameTh": "ธัญญวินตรา บูติค แอนด์ สปา", "nameEn": "Thanyawintra Boutique & Spa", "cat": ["beauty", "food"], "province": "cm", "slug": "thanyawintra-boutique-spa-658996891", "rank": 4}}, {"type": "Feature", "geometry": {"type": "Point", "coordinates": [98.95017, 18.80137]}, "properties": {"id": "cm-osm-node-3182220946", "name": "ฝ้ายเบเกอรี่", "nameTh": "ฝ้ายเบเกอรี่", "nameEn": null, "cat": ["food"], "province": "cm", "slug": "3182220946", "rank": 1}}, {"type": "Feature", "geometry": {"type": "Point", "coordinates": [98.99935, 18.76831]}, "properties": {"id": "cm-osm-node-4879591522", "name": "สภากาแฟ(เจ้าเก่า)", "nameTh": "สภากาแฟ(เจ้าเก่า)", "nameEn": null, "cat": ["food"], "province": "cm", "slug": "4879591522", "rank": 3}}, {"type": "Feature", "geometry": {"type": "Point", "coordinates": [98.93315, 18.72367]}, "properties": {"id": "cm-osm-node-5447299922", "name": "เมล ซาเ้ลง ฮอทดอก", "nameTh": "เมล ซาเ้ลง ฮอทดอก", "nameEn": "Mel's Saleng Hotdogs", "cat": ["food"], "province": "cm", "slug": "mel-s-saleng-hotdogs-5447299922", "rank": 4}}, {"type": "Feature", "geometry": {"type": "Point", "coordinates": [98.99293, 18.78639]}, "properties": {"id": "cm-osm-way-482772359", "name": "7-11", "nameTh": "หลอด biers", "nameEn": "Bier Stube", "cat": ["essentials"], "province": "cm", "slug": "bier-stube-482772359", "rank": 5}}]}