{"type": "FeatureCollection", "features": [{"type": "Feature", "geometry": {"type": "Point", "coordinates": [99.07038, 18.77909]}, "properties": {"id": "cm-osm-node-11432705559", "name": "PT", "nameTh": null, "nameEn": "PT", "cat": ["transport"], "province": "cm", "slug": "pt-11432705559", "rank": 1}}, {"type": "Feature", "geometry": {"type": "Point", "coordinates": [98.86119, 18.6152]}, "properties": {"id": "cm-osm-node-1581004826", "name": "PT", "nameTh": "พีที", "nameEn": "PT", "cat": ["transport"], "province": "cm", "slug": "pt-1581004826", "rank": 2}}, {"type": "Feature", "geometry": {"type": "Point", "coordinates": [99.12722, 18.65353]}, "properties": {"id": "cm-osm-node-1664177332", "name": "PT", "nameTh": null, "nameEn": "PT", "cat": ["transport"], "province": "cm", "slug": "pt-1664177332", "rank": 1}}, {"type": "Feature", "geometry": {"type": "Point", "coordinates": [98.89775, 18.63388]}, "properties": {"id": "cm-osm-node-2230537384", "name": "PT", "nameTh": "พีที", "nameEn": "PT", "cat": ["transport"], "province": "cm", "slug": "pt-2230537384", "rank": 2}}, {"type": "Feature", "geometry": {"type": "Point", "coordinates": [99.14268, 18.73653]}, "properties": {"id": "cm-osm-node-2315565012", "name": "PT", "nameTh": "พีที", "nameEn": "PT", "cat": ["transport"], "province": "cm", "slug": "pt-2315565012", "rank": 2}}, {"type": "Feature", "geometry": {"type": "Point", "coordinates": [98.90106, 18.69926]}, "properties": {"id": "cm-osm-node-2441444510", "name": "PT", "nameTh": "พีที", "nameEn": "PT", "cat": ["transport"], "province": "cm", "slug": "pt-2441444510", "rank": 2}}, {"type": "Feature", "geometry": {"type": "Point", "coordinates": [99.08629, 18.60242]}, "properties": {"id": "cm-osm-node-2679529840", "name": "PT", "nameTh": "พีที", "nameEn": "PT", "cat": ["transport"], "province": "cm", "slug": "pt-2679529840", "rank": 2}}, {"type": "Feature", "geometry": {"type": "Point", "coordinates": [98.89676, 18.62852]}, "properties": {"id": "cm-osm-node-2684202264", "name": "PT", "nameTh": "พีที", "nameEn": "PT", "cat": ["transport"], "province": "cm", "slug": "pt-2684202264", "rank": 2}}, {"type": "Feature", "geometry": {"type": "Point", "coordinates": [98.93861, 18.72371]}, "properties": {"id": "cm-osm-node-4365417462", "name": "PT", "nameTh": "พีที", "nameEn": "PT", "cat": ["transport"], "province": "cm", "slug": "pt-4365417462", "rank": 2}}, {"type": "Feature", "geometry": {"type": "Point", "coordinates": [98.99268, 18.68446]}, "properties": {"id": "cm-osm-node-5263892530", "name": "PT", "nameTh": "พีที", "nameEn": "PT", "cat": ["transport"], "province": "cm", "slug": "pt-5263892530", "rank": 2}}, {"type": "Feature", "geometry": {"type": "Point", "coordinates": [99.03673, 18.66825]}, "properties": {"id": "cm-osm-node-6936704070", "name": "PT", "nameTh": null, "nameEn": "PT", "cat": ["transport"], "province": "cm", "slug": "pt-6936704070", "rank": 1}}, {"type": "Feature", "geometry": {"type": "Point", "coordinates": [99.12411, 18.81974]}, "properties": {"id": "cm-osm-node-725620251", "name": "PT", "nameTh": "พีที", "nameEn": "PT", "cat": ["transport"], "province": "cm", "slug": "pt-725620251", "rank": 2}}, {"type": "Feature", "geometry": {"type": "Point", "coordinates": [99.10044, 18.72698]}, "properties": {"id": "cm-osm-node-8687060656", "name": "PT", "nameTh": "พีที", "nameEn": "PT", "cat": ["transport"], "province": "cm", "slug": "pt-8687060656", "rank": 2}}, {"type": "Feature", "geometry": {"type": "Point", "coordinates": [98.97573, 18.83404]}, "properties": {"id": "cm-osm-way-103270775", "name": "PT", "nameTh": null, "nameEn": "PT", "cat": ["transport"], "province": "cm", "slug": "pt-103270775", "rank": 1}}, {"type": "Feature", "geometry": {"type": "Point", "coordinates": [98.97128, 18.72024]}, "properties": {"id": "cm-osm-way-1049614139", "name": "PT", "nameTh": "พีที", "nameEn": "PT", "cat": ["transport"], "province": "cm", "slug": "pt-1049614139", "rank": 2}}, {"type": "Feature", "geometry": {"type": "Point", "coordinates": [98.97589, 18.76623]}, "properties": {"id": "cm-osm-way-1111036767", "name": "PT", "nameTh": null, "nameEn": "PT", "cat": ["transport"], "province": "cm", "slug": "pt-1111036767", "rank": 1}}, {"type": "Feature", "geometry": {"type": "Point", "coordinates": [99.05195, 18.67086]}, "properties": {"id": "cm-osm-way-1136060016", "name": "PT", "nameTh": null, "nameEn": "PT", "cat": ["transport"], "province": "cm", "slug": "pt-1136060016", "rank": 1}}, {"type": "Feature", "geometry": {"type": "Point", "coordinates": [99.11175, 18.80275]}, "properties": {"id": "cm-osm-way-116918505", "name": "PT", "nameTh": "พีที", "nameEn": "PT", "cat": ["transport"], "province": "cm", "slug": "pt-116918505", "rank": 2}}, {"type": "Feature", "geometry": {"type": "Point", "coordinates": [98.93116, 18.63531]}, "properties": {"id": "cm-osm-way-1341573365", "name": "PT", "nameTh": "พีที", "nameEn": "PT", "cat": ["transport"], "province": "cm", "slug": "pt-1341573365", "rank": 2}}, {"type": "Feature", "geometry": {"type": "Point", "coordinates": [99.01132, 18.81927]}, "properties": {"id": "cm-osm-way-1446633474", "name": "PT", "nameTh": null, "nameEn": "PT", "cat": ["transport"], "province": "cm", "slug": "pt-1446633474", "rank": 1}}, {"type": "Feature", "geometry": {"type": "Point", "coordinates": [99.08631, 18.60241]}, "properties": {"id": "cm-osm-way-1462558645", "name": "PT", "nameTh": null, "nameEn": "PT", "cat": ["transport"], "province": "cm", "slug": "pt-1462558645", "rank": 1}}, {"type": "Feature", "geometry": {"type": "Point", "coordinates": [98.94422, 19.00759]}, "properties": {"id": "cm-osm-way-1478526243", "name": "PT", "nameTh": null, "nameEn": "PT", "cat": ["transport"], "province": "cm", "slug": "pt-1478526243", "rank": 1}}, {"type": "Feature", "geometry": {"type": "Point", "coordinates": [98.91236, 18.91846]}, "properties": {"id": "cm-osm-way-206239586", "name": "PT", "nameTh": "พีที", "nameEn": "PT", "cat": ["transport"], "province": "cm", "slug": "pt-206239586", "rank": 2}}, {"type": "Feature", "geometry": {"type": "Point", "coordinates": [99.09206, 18.85335]}, "properties": {"id": "cm-osm-way-285310094", "name": "PT", "nameTh": "พีที", "nameEn": "PT", "cat": ["transport"], "province": "cm", "slug": "pt-285310094", "rank": 2}}, {"type": "Feature", "geometry": {"type": "Point", "coordinates": [98.94396, 18.91797]}, "properties": {"id": "cm-osm-way-311355727", "name": "PT", "nameTh": null, "nameEn": "PT", "cat": ["transport"], "province": "cm", "slug": "pt-311355727", "rank": 1}}, {"type": "Feature", "geometry": {"type": "Point", "coordinates": [98.9422, 18.92049]}, "properties": {"id": "cm-osm-way-311355787", "name": "PT", "nameTh": null, "nameEn": "PT", "cat": ["transport"], "province": "cm", "slug": "pt-311355787", "rank": 1}}, {"type": "Feature", "geometry": {"type": "Point", "coordinates": [98.98209, 18.81792]}, "properties": {"id": "cm-osm-way-314668092", "name": "PT", "nameTh": null, "nameEn": "PT", "cat": ["transport"], "province": "cm", "slug": "pt-314668092", "rank": 3}}, {"type": "Feature", "geometry": {"type": "Point", "coordinates": [98.95768, 18.73996]}, "properties": {"id": "cm-osm-way-371575211", "name": "PT", "nameTh": "พีที", "nameEn": "PT", "cat": ["transport"], "province": "cm", "slug": "pt-371575211", "rank": 2}}, {"type": "Feature", "geometry": {"type": "Point", "coordinates": [98.92636, 18.69474]}, "properties": {"id": "cm-osm-way-387362901", "name": "PT", "nameTh": null, "nameEn": "PT", "cat": ["transport"], "province": "cm", "slug": "pt-387362901", "rank": 1}}, {"type": "Feature", "geometry": {"type": "Point", "coordinates": [99.03339, 18.82143]}, "properties": {"id": "cm-osm-way-543610650", "name": "PT", "nameTh": null, "nameEn": "PT", "cat": ["transport"], "province": "cm", "slug": "pt-543610650", "rank": 1}}, {"type": "Feature", "geometry": {"type": "Point", "coordinates": [99.02862, 18.65677]}, "properties": {"id": "cm-osm-way-548087846", "name": "PT", "nameTh": "พีที", "nameEn": "PT", "cat": ["transport"], "province": "cm", "slug": "pt-548087846", "rank": 2}}, {"type": "Feature", "geometry": {"type": "Point", "coordinates": [98.94472, 19.01227]}, "properties": {"id": "cm-osm-way-629505654", "name": "PT", "nameTh": null, "nameEn": "PT", "cat": ["transport"], "province": "cm", "slug": "pt-629505654", "rank": 1}}, {"type": "Feature", "geometry": {"type": "Point", "coordinates": [98.98427, 18.96075]}, "properties": {"id": "cm-osm-way-661061354", "name": "PT", "nameTh": null, "nameEn": "PT", "cat": ["transport"], "province": "cm", "slug": "pt-661061354", "rank": 1}}, {"type": "Feature", "geometry": {"type": "Point", "coordinates": [98.95161, 18.68903]}, "properties": {"id": "cm-osm-way-675336757", "name": "PT", "nameTh": "พีที", "nameEn": "PT", "cat": ["transport"], "province": "cm", "slug": "pt-675336757", "rank": 2}}, {"type": "Feature", "geometry": {"type": "Point", "coordinates": [98.99553, 18.91914]}, "properties": {"id": "cm-osm-way-701386415", "name": "PT", "nameTh": null, "nameEn": "PT", "cat": ["transport"], "province": "cm", "slug": "pt-701386415", "rank": 1}}, {"type": "Feature", "geometry": {"type": "Point", "coordinates": [99.07027, 18.84084]}, "properties": {"id": "cm-osm-way-739012123", "name": "PT", "nameTh": "พีที", "nameEn": "PT", "cat": ["transport"], "province": "cm", "slug": "pt-739012123", "rank": 2}}, {"type": "Feature", "geometry": {"type": "Point", "coordinates": [99.13133, 18.84789]}, "properties": {"id": "cm-osm-way-758720372", "name": "PT", "nameTh": null, "nameEn": "PT", "cat": ["transport"], "province": "cm", "slug": "pt-758720372", "rank": 1}}]}