{"type": "FeatureCollection", "features": [{"type": "Feature", "geometry": {"type": "Point", "coordinates": [99.00975, 18.82379]}, "properties": {"id": "cm-osm-node-10067757531", "name": "Pizza Hut", "nameTh": null, "nameEn": "Pizza Hut", "cat": ["food"], "province": "cm", "slug": "pizza-hut-10067757531", "rank": 1}}, {"type": "Feature", "geometry": {"type": "Point", "coordinates": [98.97573, 18.76913]}, "properties": {"id": "cm-osm-node-3347633200", "name": "Pizza Hut", "nameTh": null, "nameEn": "Pizza Hut", "cat": ["food"], "province": "cm", "slug": "pizza-hut-3347633200", "rank": 2}}, {"type": "Feature", "geometry": {"type": "Point", "coordinates": [99.0005, 18.78585]}, "properties": {"id": "cm-osm-node-3417307157", "name": "Pizza Hut", "nameTh": null, "nameEn": "Pizza Hut", "cat": ["food"], "province": "cm", "slug": "pizza-hut-3417307157", "rank": 1}}, {"type": "Feature", "geometry": {"type": "Point", "coordinates": [98.97511, 18.76539]}, "properties": {"id": "cm-osm-node-3419871309", "name": "Pizza Hut", "nameTh": "เดอะ พิซซ่า ฮัช", "nameEn": "The Pizza hut", "cat": ["food"], "province": "cm", "slug": "the-pizza-hut-3419871309", "rank": 4}}, {"type": "Feature", "geometry": {"type": "Point", "coordinates": [99.02269, 18.79823]}, "properties": {"id": "cm-osm-node-3490774893", "name": "Pizza Hut", "nameTh": null, "nameEn": "Pizza Hut", "cat": ["food"], "province": "cm", "slug": "pizza-hut-3490774893", "rank": 1}}, {"type": "Feature", "geometry": {"type": "Point", "coordinates": [98.98138, 18.7961]}, "properties": {"id": "cm-osm-node-5117302921", "name": "Pizza Hut", "nameTh": null, "nameEn": "Pizza Hut", "cat": ["food"], "province": "cm", "slug": "pizza-hut-5117302921", "rank": 1}}]}