{"type": "FeatureCollection", "features": [{"type": "Feature", "geometry": {"type": "Point", "coordinates": [98.99726, 18.78412]}, "properties": {"id": "cm-osm-node-3416948044", "name": "Alice's Restaurant", "nameTh": null, "nameEn": "Alice's Restaurant", "cat": ["food"], "province": "cm", "slug": "alice-s-restaurant-3416948044", "rank": 2}}, {"type": "Feature", "geometry": {"type": "Point", "coordinates": [99.09678, 18.74563]}, "properties": {"id": "cm-osm-node-13426244005", "name": "Brewology 89 Coffee", "nameTh": null, "nameEn": "Brewology 89 Coffee", "cat": ["food"], "province": "cm", "slug": "brewology-89-coffee-13426244005", "rank": 3}}, {"type": "Feature", "geometry": {"type": "Point", "coordinates": [98.96838, 18.79977]}, "properties": {"id": "cm-osm-node-12313948644", "name": "Chit Hole CNX", "nameTh": null, "nameEn": "Chit Hole CNX", "cat": ["food"], "province": "cm", "slug": "chit-hole-cnx-12313948644", "rank": 4}}, {"type": "Feature", "geometry": {"type": "Point", "coordinates": [98.97359, 18.79525]}, "properties": {"id": "cm-osm-node-12620112808", "name": "Creativitea", "nameTh": null, "nameEn": "Creativitea", "cat": ["food"], "province": "cm", "slug": "creativitea-12620112808", "rank": 3}}, {"type": "Feature", "geometry": {"type": "Point", "coordinates": [99.00168, 18.79325]}, "properties": {"id": "cm-osm-node-13138044415", "name": "Patus Pasta", "nameTh": null, "nameEn": "Patus Pasta", "cat": ["food"], "province": "cm", "slug": "patus-pasta-13138044415", "rank": 3}}, {"type": "Feature", "geometry": {"type": "Point", "coordinates": [98.99421, 18.78221]}, "properties": {"id": "cm-osm-node-9821661982", "name": "Sababa Chiang Mai", "nameTh": null, "nameEn": "Sababa Chiang Mai", "cat": ["food"], "province": "cm", "slug": "sababa-chiang-mai-9821661982", "rank": 4}}, {"type": "Feature", "geometry": {"type": "Point", "coordinates": [99.03899, 18.87808]}, "properties": {"id": "cm-osm-node-13004478307", "name": "Slow Bar Coffee", "nameTh": null, "nameEn": "Slow Bar Coffee", "cat": ["food"], "province": "cm", "slug": "slow-bar-coffee-13004478307", "rank": 3}}, {"type": "Feature", "geometry": {"type": "Point", "coordinates": [98.98026, 18.78952]}, "properties": {"id": "cm-osm-node-13142229920", "name": "Sunflower Smoothie & Coffee", "nameTh": null, "nameEn": "Sunflower Smoothie & Coffee", "cat": ["food"], "province": "cm", "slug": "sunflower-smoothie-coffee-13142229920", "rank": 4}}, {"type": "Feature", "geometry": {"type": "Point", "coordinates": [99.03562, 18.82443]}, "properties": {"id": "cm-osm-node-13140373505", "name": "The Extraction Sansai", "nameTh": null, "nameEn": "The Extraction Sansai", "cat": ["food"], "province": "cm", "slug": "the-extraction-sansai-13140373505", "rank": 3}}, {"type": "Feature", "geometry": {"type": "Point", "coordinates": [98.97194, 18.79666]}, "properties": {"id": "cm-osm-node-13232117762", "name": "YND A Drink & Coffee", "nameTh": null, "nameEn": "YND A Drink & Coffee", "cat": ["food"], "province": "cm", "slug": "ynd-a-drink-coffee-13232117762", "rank": 3}}, {"type": "Feature", "geometry": {"type": "Point", "coordinates": [99.01786, 18.80839]}, "properties": {"id": "cm-osm-node-12864717489", "name": "Yuzu House Central Chiangmai", "nameTh": null, "nameEn": "Yuzu House Central Chiangmai", "cat": ["food"], "province": "cm", "slug": "yuzu-house-central-chiangmai-12864717489", "rank": 4}}, {"type": "Feature", "geometry": {"type": "Point", "coordinates": [99.04038, 18.83068]}, "properties": {"id": "cm-osm-node-12709665779", "name": "ก๋วยเตียวเรือครูใหญ่ อนุบาลสันทราย", "nameTh": "ก๋วยเตียวเรือครูใหญ่ อนุบาลสันทราย", "nameEn": null, "cat": ["food"], "province": "cm", "slug": "12709665779", "rank": 3}}, {"type": "Feature", "geometry": {"type": "Point", "coordinates": [98.98996, 18.80625]}, "properties": {"id": "cm-osm-node-12695955103", "name": "ข้าวมันไก่สามเซียน ราชภัฏ เชียงใหม่", "nameTh": "ข้าวมันไก่สามเซียน ราชภัฏ เชียงใหม่", "nameEn": null, "cat": ["food"], "province": "cm", "slug": "12695955103", "rank": 3}}, {"type": "Feature", "geometry": {"type": "Point", "coordinates": [99.01262, 18.82762]}, "properties": {"id": "cm-osm-node-13303153000", "name": "Weed Wiw", "nameTh": "ร้านกัญชา วี๊ด.วิ้ว รวมโชค", "nameEn": "Weed Wiw", "cat": ["cannabis"], "province": "cm", "slug": "weed-wiw-13303153000", "rank": 5}}, {"type": "Feature", "geometry": {"type": "Point", "coordinates": [98.96749, 18.85716]}, "properties": {"id": "cm-osm-node-13303176356", "name": "Weed Wiw", "nameTh": "ร้านกัญชา วี๊ด.วิ้ว ดอนแก้ว", "nameEn": "Weed Wiw", "cat": ["cannabis"], "province": "cm", "slug": "weed-wiw-13303176356", "rank": 4}}, {"type": "Feature", "geometry": {"type": "Point", "coordinates": [98.92589, 18.74331]}, "properties": {"id": "cm-osm-node-11295824999", "name": "stuff cannabis dispensary", "nameTh": null, "nameEn": "stuff cannabis dispensary", "cat": ["cannabis"], "province": "cm", "slug": "stuff-cannabis-dispensary-11295824999", "rank": 4}}, {"type": "Feature", "geometry": {"type": "Point", "coordinates": [98.95131, 18.73159]}, "properties": {"id": "cm-osm-node-13996857490", "name": "กัญชา วี๊ด.วิ้ว หางดง", "nameTh": "กัญชา วี๊ด.วิ้ว หางดง", "nameEn": null, "cat": ["cannabis"], "province": "cm", "slug": "13996857490", "rank": 3}}, {"type": "Feature", "geometry": {"type": "Point", "coordinates": [98.95475, 18.76922]}, "properties": {"id": "cm-osm-node-13483514193", "name": "Alla Home Chiangmai", "nameTh": null, "nameEn": "Alla Home Chiangmai", "cat": ["hotel"], "province": "cm", "slug": "alla-home-chiangmai-13483514193", "rank": 3}}, {"type": "Feature", "geometry": {"type": "Point", "coordinates": [98.9054, 18.84196]}, "properties": {"id": "cm-osm-way-1214209668", "name": "Ba Rung Cafe & Home Stay", "nameTh": null, "nameEn": "Ba Rung Cafe & Home Stay", "cat": ["hotel"], "province": "cm", "slug": "ba-rung-cafe-home-stay-1214209668", "rank": 2}}, {"type": "Feature", "geometry": {"type": "Point", "coordinates": [98.92557, 18.74299]}, "properties": {"id": "cm-osm-node-11295829592", "name": "Chandra Residence", "nameTh": null, "nameEn": "Chandra Residence", "cat": ["hotel"], "province": "cm", "slug": "chandra-residence-11295829592", "rank": 3}}, {"type": "Feature", "geometry": {"type": "Point", "coordinates": [98.972, 18.79667]}, "properties": {"id": "cm-osm-node-13208709144", "name": "Chern Chiangmai Boutique Hotel", "nameTh": null, "nameEn": "Chern Chiangmai Boutique Hotel", "cat": ["hotel"], "province": "cm", "slug": "chern-chiangmai-boutique-hotel-13208709144", "rank": 3}}, {"type": "Feature", "geometry": {"type": "Point", "coordinates": [98.96697, 18.91682]}, "properties": {"id": "cm-osm-node-11638724310", "name": "Maerim Hostel", "nameTh": null, "nameEn": "Maerim Hostel", "cat": ["hotel"], "province": "cm", "slug": "maerim-hostel-11638724310", "rank": 3}}, {"type": "Feature", "geometry": {"type": "Point", "coordinates": [98.96439, 18.8029]}, "properties": {"id": "cm-osm-node-13227263593", "name": "Mai Residence", "nameTh": null, "nameEn": "Mai Residence", "cat": ["hotel"], "province": "cm", "slug": "mai-residence-13227263593", "rank": 3}}, {"type": "Feature", "geometry": {"type": "Point", "coordinates": [98.9675, 18.79663]}, "properties": {"id": "cm-osm-node-12573495524", "name": "October Hostel", "nameTh": null, "nameEn": "October Hostel", "cat": ["hotel"], "province": "cm", "slug": "october-hostel-12573495524", "rank": 2}}, {"type": "Feature", "geometry": {"type": "Point", "coordinates": [98.99211, 18.83261]}, "properties": {"id": "cm-osm-node-13076053766", "name": "Tonnam Homestay", "nameTh": "ต้นน้ำโฮมสเตย์", "nameEn": "Tonnam Homestay", "cat": ["hotel"], "province": "cm", "slug": "tonnam-homestay-13076053766", "rank": 4}}, {"type": "Feature", "geometry": {"type": "Point", "coordinates": [98.97356, 18.79525]}, "properties": {"id": "cm-osm-node-11432627426", "name": "Steampunk Studio", "nameTh": null, "nameEn": "Steampunk Studio", "cat": ["school"], "province": "cm", "slug": "steampunk-studio-11432627426", "rank": 3}}, {"type": "Feature", "geometry": {"type": "Point", "coordinates": [99.06946, 18.88074]}, "properties": {"id": "cm-osm-way-961802207", "name": "Thai Secret Cooking School & Organic Garden Farm", "nameTh": null, "nameEn": "Thai Secret Cooking School & Organic Garden Farm", "cat": ["cooking", "school"], "province": "cm", "slug": "thai-secret-cooking-school-organic-garden-farm-961802207", "rank": 3}}, {"type": "Feature", "geometry": {"type": "Point", "coordinates": [98.98608, 18.77615]}, "properties": {"id": "cm-osm-node-13347188164", "name": "Kaparti Crafting Hub", "nameTh": null, "nameEn": "Kaparti Crafting Hub", "cat": ["shopping"], "province": "cm", "slug": "kaparti-crafting-hub-13347188164", "rank": 3}}, {"type": "Feature", "geometry": {"type": "Point", "coordinates": [98.9781, 18.80181]}, "properties": {"id": "cm-osm-node-12372820542", "name": "ตัดแหลก-haircut (Tat Laek)", "nameTh": "ตัดแหลก-haircut (Tat Laek)", "nameEn": null, "cat": ["beauty"], "province": "cm", "slug": "haircut-tat-laek-12372820542", "rank": 3}}, {"type": "Feature", "geometry": {"type": "Point", "coordinates": [99.00196, 18.79365]}, "properties": {"id": "cm-osm-node-13138185003", "name": "Bitcoin Learning Center", "nameTh": null, "nameEn": "Bitcoin Learning Center", "cat": ["community"], "province": "cm", "slug": "bitcoin-learning-center-13138185003", "rank": 3}}]}