{"type": "FeatureCollection", "features": [{"type": "Feature", "geometry": {"type": "Point", "coordinates": [98.9972, 18.80884]}, "properties": {"id": "cm-osm-node-1616141788", "name": "MK Restaurants", "nameTh": "ภัตตาคารเอ็มเค", "nameEn": "MK Restaurants", "cat": ["food"], "province": "cm", "slug": "mk-restaurants-1616141788", "rank": 4}}, {"type": "Feature", "geometry": {"type": "Point", "coordinates": [99.01399, 18.82438]}, "properties": {"id": "cm-osm-node-2517081493", "name": "MK Restaurants", "nameTh": null, "nameEn": "MK Restaurants", "cat": ["food"], "province": "cm", "slug": "mk-restaurants-2517081493", "rank": 3}}, {"type": "Feature", "geometry": {"type": "Point", "coordinates": [99.02297, 18.79854]}, "properties": {"id": "cm-osm-node-2610782948", "name": "MK Restaurants", "nameTh": null, "nameEn": "MK Restaurants", "cat": ["food"], "province": "cm", "slug": "mk-restaurants-2610782948", "rank": 3}}, {"type": "Feature", "geometry": {"type": "Point", "coordinates": [99.01781, 18.80612]}, "properties": {"id": "cm-osm-node-3249112262", "name": "MK Restaurants", "nameTh": null, "nameEn": "MK Restaurants", "cat": ["food"], "province": "cm", "slug": "mk-restaurants-3249112262", "rank": 3}}, {"type": "Feature", "geometry": {"type": "Point", "coordinates": [98.9674, 18.802]}, "properties": {"id": "cm-osm-node-3287356496", "name": "MK Restaurants", "nameTh": null, "nameEn": "MK Restaurants", "cat": ["food"], "province": "cm", "slug": "mk-restaurants-3287356496", "rank": 3}}, {"type": "Feature", "geometry": {"type": "Point", "coordinates": [98.97558, 18.7695]}, "properties": {"id": "cm-osm-node-3347633196", "name": "MK Restaurants", "nameTh": null, "nameEn": "MK Restaurants", "cat": ["food"], "province": "cm", "slug": "mk-restaurants-3347633196", "rank": 4}}, {"type": "Feature", "geometry": {"type": "Point", "coordinates": [98.97226, 18.75847]}, "properties": {"id": "cm-osm-node-3419871307", "name": "MK Restaurants", "nameTh": null, "nameEn": "MK Restaurants", "cat": ["food"], "province": "cm", "slug": "mk-restaurants-3419871307", "rank": 3}}, {"type": "Feature", "geometry": {"type": "Point", "coordinates": [99.03269, 18.76878]}, "properties": {"id": "cm-osm-node-4358601791", "name": "MK Restaurants", "nameTh": null, "nameEn": "MK Restaurants", "cat": ["food"], "province": "cm", "slug": "mk-restaurants-4358601791", "rank": 1}}, {"type": "Feature", "geometry": {"type": "Point", "coordinates": [98.96252, 18.74342]}, "properties": {"id": "cm-osm-node-907784571", "name": "MK Restaurants", "nameTh": null, "nameEn": "MK Restaurants", "cat": ["food"], "province": "cm", "slug": "mk-restaurants-907784571", "rank": 3}}]}