{"type": "FeatureCollection", "features": [{"type": "Feature", "geometry": {"type": "Point", "coordinates": [99.05455, 18.77731]}, "properties": {"id": "cm-osm-node-725620369", "name": "Caltex", "nameTh": "คาลเท็กซ์", "nameEn": "Caltex", "cat": ["transport"], "province": "cm", "slug": "caltex-725620369", "rank": 3}}, {"type": "Feature", "geometry": {"type": "Point", "coordinates": [99.09119, 18.85299]}, "properties": {"id": "cm-osm-way-1012663308", "name": "Caltex", "nameTh": null, "nameEn": "Caltex", "cat": ["transport"], "province": "cm", "slug": "caltex-1012663308", "rank": 1}}, {"type": "Feature", "geometry": {"type": "Point", "coordinates": [99.01493, 18.75979]}, "properties": {"id": "cm-osm-way-283054964", "name": "Caltex", "nameTh": null, "nameEn": "Caltex", "cat": ["transport"], "province": "cm", "slug": "caltex-283054964", "rank": 1}}, {"type": "Feature", "geometry": {"type": "Point", "coordinates": [99.04518, 18.71226]}, "properties": {"id": "cm-osm-way-418321503", "name": "Caltex", "nameTh": "คาลเท็กซ์", "nameEn": "Caltex", "cat": ["transport"], "province": "cm", "slug": "caltex-418321503", "rank": 3}}, {"type": "Feature", "geometry": {"type": "Point", "coordinates": [99.01553, 18.87752]}, "properties": {"id": "cm-osm-way-449481101", "name": "Caltex", "nameTh": "คาลเท็กซ์", "nameEn": "Caltex", "cat": ["transport"], "province": "cm", "slug": "caltex-449481101", "rank": 2}}, {"type": "Feature", "geometry": {"type": "Point", "coordinates": [99.00596, 18.76573]}, "properties": {"id": "cm-osm-way-676272921", "name": "Caltex", "nameTh": "คาลเท็กซ์", "nameEn": "Caltex", "cat": ["transport"], "province": "cm", "slug": "caltex-676272921", "rank": 3}}, {"type": "Feature", "geometry": {"type": "Point", "coordinates": [98.98254, 18.76819]}, "properties": {"id": "cm-osm-way-537034669", "name": "คาลเท็กซ์", "nameTh": "คาลเท็กซ์", "nameEn": "Caltex", "cat": ["transport"], "province": "cm", "slug": "caltex-537034669", "rank": 3}}]}