{"type": "FeatureCollection", "features": [{"type": "Feature", "geometry": {"type": "Point", "coordinates": [98.99682, 18.78299]}, "properties": {"id": "cm-osm-node-6780184285", "name": "Auf der Au Garden (new location)", "nameTh": null, "nameEn": "Auf der Au Garden (new location)", "cat": ["food"], "province": "cm", "slug": "auf-der-au-garden-new-location-6780184285", "rank": 1}}, {"type": "Feature", "geometry": {"type": "Point", "coordinates": [99.00805, 18.77588]}, "properties": {"id": "cm-osm-node-2648502951", "name": "Auf der Au Garden Restaurant & Bistro", "nameTh": null, "nameEn": "Auf der Au Garden Restaurant & Bistro", "cat": ["food"], "province": "cm", "slug": "auf-der-au-garden-restaurant-bistro-2648502951", "rank": 4}}, {"type": "Feature", "geometry": {"type": "Point", "coordinates": [99.13975, 18.85872]}, "properties": {"id": "cm-osm-node-9014065710", "name": "Baan Na Coffee and Restaurant", "nameTh": null, "nameEn": "Baan Na Coffee and Restaurant", "cat": ["food"], "province": "cm", "slug": "baan-na-coffee-and-restaurant-9014065710", "rank": 2}}, {"type": "Feature", "geometry": {"type": "Point", "coordinates": [98.97994, 18.72012]}, "properties": {"id": "cm-osm-node-5515633961", "name": "Bavarian Garden Restaurant", "nameTh": null, "nameEn": "Bavarian Garden Restaurant", "cat": ["food"], "province": "cm", "slug": "bavarian-garden-restaurant-5515633961", "rank": 1}}, {"type": "Feature", "geometry": {"type": "Point", "coordinates": [98.99171, 18.78414]}, "properties": {"id": "cm-osm-node-4149593989", "name": "ChiangMai Breakfast World", "nameTh": null, "nameEn": "ChiangMai Breakfast World", "cat": ["food"], "province": "cm", "slug": "chiangmai-breakfast-world-4149593989", "rank": 2}}, {"type": "Feature", "geometry": {"type": "Point", "coordinates": [98.99965, 18.76583]}, "properties": {"id": "cm-osm-node-3845452923", "name": "Green Fox", "nameTh": null, "nameEn": "Green Fox", "cat": ["food"], "province": "cm", "slug": "green-fox-3845452923", "rank": 1}}, {"type": "Feature", "geometry": {"type": "Point", "coordinates": [98.89576, 18.68227]}, "properties": {"id": "cm-osm-node-13533499755", "name": "Hangdong Family Minigolf  + German Rrestaurant", "nameTh": null, "nameEn": "Hangdong Family Minigolf  + German Rrestaurant", "cat": ["food"], "province": "cm", "slug": "hangdong-family-minigolf-german-rrestaurant-13533499755", "rank": 4}}, {"type": "Feature", "geometry": {"type": "Point", "coordinates": [99.10285, 18.76766]}, "properties": {"id": "cm-osm-node-6748872637", "name": "Happy Munich", "nameTh": null, "nameEn": "Happy Munich", "cat": ["food"], "province": "cm", "slug": "happy-munich-6748872637", "rank": 2}}, {"type": "Feature", "geometry": {"type": "Point", "coordinates": [99.00464, 18.82758]}, "properties": {"id": "cm-osm-node-3251606161", "name": "Sangsuma", "nameTh": "แสงสุมา", "nameEn": "Sangsuma", "cat": ["food"], "province": "cm", "slug": "sangsuma-3251606161", "rank": 4}}, {"type": "Feature", "geometry": {"type": "Point", "coordinates": [98.9528, 18.71701]}, "properties": {"id": "cm-osm-node-5260174926", "name": "jasmine restaurant", "nameTh": null, "nameEn": "jasmine restaurant", "cat": ["food"], "province": "cm", "slug": "jasmine-restaurant-5260174926", "rank": 2}}, {"type": "Feature", "geometry": {"type": "Point", "coordinates": [99.14178, 18.79744]}, "properties": {"id": "cm-osm-node-1628665593", "name": "ร้านไส้กรอก จีแอนด์เอ็ม", "nameTh": "ร้านไส้กรอก จีแอนด์เอ็ม", "nameEn": "G&M Sausage", "cat": ["food"], "province": "cm", "slug": "g-m-sausage-1628665593", "rank": 2}}]}