{"type": "FeatureCollection", "features": [{"type": "Feature", "geometry": {"type": "Point", "coordinates": [98.98686, 18.78697]}, "properties": {"id": "cm-osm-way-243018795", "name": "Wat Chedi Luang", "nameTh": "วัดเจดีย์หลวงวรวิหาร", "nameEn": "Wat Chedi Luang", "cat": ["wat"], "province": "cm", "slug": "wat-chedi-luang-243018795", "rank": 3}}, {"type": "Feature", "geometry": {"type": "Point", "coordinates": [98.98138, 18.78858]}, "properties": {"id": "cm-osm-way-93414647", "name": "Wat Phra Singh", "nameTh": null, "nameEn": "Wat Phra Singh", "cat": ["wat"], "province": "cm", "slug": "wat-phra-singh-93414647", "rank": 1}}, {"type": "Feature", "geometry": {"type": "Point", "coordinates": [98.9221, 18.80492]}, "properties": {"id": "cm-osm-way-114651040", "name": "วัดพระธาตุดอยสุเทพ", "nameTh": "วัดพระธาตุดอยสุเทพ", "nameEn": "wat Phrathat Doi Suthep Racha Worawihan", "cat": ["wat"], "province": "cm", "slug": "wat-phrathat-doi-suthep-racha-worawihan-114651040", "rank": 3}}, {"type": "Feature", "geometry": {"type": "Point", "coordinates": [98.92023, 18.80359]}, "properties": {"id": "cm-osm-node-4228028194", "name": "วัดพระธาตุดอยสุเทพราชวรวิหาร", "nameTh": "วัดพระธาตุดอยสุเทพราชวรวิหาร", "nameEn": "Wat Phra That Doi Suthep", "cat": ["wat"], "province": "cm", "slug": "wat-phra-that-doi-suthep-4228028194", "rank": 2}}, {"type": "Feature", "geometry": {"type": "Point", "coordinates": [98.946, 18.81392]}, "properties": {"id": "cm-osm-way-205009315", "name": "วัดศรีโสดา", "nameTh": "วัดศรีโสดา", "nameEn": "Wat Si Soda (Phra Aram Luang)", "cat": ["wat"], "province": "cm", "slug": "wat-si-soda-phra-aram-luang-205009315", "rank": 2}}, {"type": "Feature", "geometry": {"type": "Point", "coordinates": [98.96778, 18.78816]}, "properties": {"id": "cm-osm-way-322604682", "name": "วัดสวนดอก", "nameTh": "วัดสวนดอก", "nameEn": "Wat Suan Dok Monk Chat", "cat": ["wat"], "province": "cm", "slug": "wat-suan-dok-monk-chat-322604682", "rank": 3}}, {"type": "Feature", "geometry": {"type": "Point", "coordinates": [98.97217, 18.80906]}, "properties": {"id": "cm-osm-way-314697470", "name": "วัดเจ็ดยอด", "nameTh": "วัดเจ็ดยอด", "nameEn": "Wat Jed Yod", "cat": ["wat"], "province": "cm", "slug": "wat-jed-yod-314697470", "rank": 3}}]}