{"type": "FeatureCollection", "features": [{"type": "Feature", "geometry": {"type": "Point", "coordinates": [98.97842, 18.78937]}, "properties": {"id": "cm-osm-node-4877117021", "name": "@suan dok gate chiangmai", "nameTh": "@suan dok gate chiangmai", "nameEn": null, "cat": ["food"], "province": "cm", "slug": "suan-dok-gate-chiangmai-4877117021", "rank": 2}}, {"type": "Feature", "geometry": {"type": "Point", "coordinates": [98.83382, 18.60914]}, "properties": {"id": "cm-osm-node-5842059486", "name": "Ban Bon Doi", "nameTh": null, "nameEn": "Ban Bon Doi", "cat": ["food"], "province": "cm", "slug": "ban-bon-doi-5842059486", "rank": 1}}, {"type": "Feature", "geometry": {"type": "Point", "coordinates": [98.95322, 18.7337]}, "properties": {"id": "cm-osm-node-12608747501", "name": "Burma Kitchen", "nameTh": null, "nameEn": "Burma Kitchen", "cat": ["food"], "province": "cm", "slug": "burma-kitchen-12608747501", "rank": 2}}, {"type": "Feature", "geometry": {"type": "Point", "coordinates": [98.99462, 18.79247]}, "properties": {"id": "cm-osm-node-4430796190", "name": "Cat House", "nameTh": null, "nameEn": "Cat house", "cat": ["food"], "province": "cm", "slug": "cat-house-4430796190", "rank": 1}}, {"type": "Feature", "geometry": {"type": "Point", "coordinates": [98.99121, 18.79426]}, "properties": {"id": "cm-osm-way-256266491", "name": "Chaochau", "nameTh": null, "nameEn": "Chaochau", "cat": ["food"], "province": "cm", "slug": "chaochau-256266491", "rank": 3}}, {"type": "Feature", "geometry": {"type": "Point", "coordinates": [98.96882, 18.79695]}, "properties": {"id": "cm-osm-node-4830093022", "name": "Chinese noodle", "nameTh": null, "nameEn": "Chinese noodle", "cat": ["food"], "province": "cm", "slug": "chinese-noodle-4830093022", "rank": 3}}, {"type": "Feature", "geometry": {"type": "Point", "coordinates": [98.9844, 18.79541]}, "properties": {"id": "cm-osm-node-7183762886", "name": "Dr. Manny Cafe", "nameTh": null, "nameEn": "Dr. Manny Cafe", "cat": ["food"], "province": "cm", "slug": "dr-manny-cafe-7183762886", "rank": 1}}, {"type": "Feature", "geometry": {"type": "Point", "coordinates": [98.99093, 18.78868]}, "properties": {"id": "cm-osm-node-4352166790", "name": "Farm Story House Room & Restaurant", "nameTh": null, "nameEn": "Farm Story House Room & Restaurant", "cat": ["food"], "province": "cm", "slug": "farm-story-house-room-restaurant-4352166790", "rank": 1}}, {"type": "Feature", "geometry": {"type": "Point", "coordinates": [98.99956, 18.78387]}, "properties": {"id": "cm-osm-node-1617102559", "name": "Fueng Fah", "nameTh": null, "nameEn": "Fueng Fah", "cat": ["food"], "province": "cm", "slug": "fueng-fah-1617102559", "rank": 1}}, {"type": "Feature", "geometry": {"type": "Point", "coordinates": [99.00181, 18.79453]}, "properties": {"id": "cm-osm-node-7150405587", "name": "Happy Time - Vegan Foods & Salad bar", "nameTh": null, "nameEn": "Happy Time - Vegan Foods & Salad bar", "cat": ["food"], "province": "cm", "slug": "happy-time-vegan-foods-salad-bar-7150405587", "rank": 3}}, {"type": "Feature", "geometry": {"type": "Point", "coordinates": [98.99554, 18.77769]}, "properties": {"id": "cm-osm-node-6160991685", "name": "Heartwork the Sharing Space", "nameTh": null, "nameEn": "Heartwork the Sharing Space", "cat": ["business", "food"], "province": "cm", "slug": "heartwork-the-sharing-space-6160991685", "rank": 2}}, {"type": "Feature", "geometry": {"type": "Point", "coordinates": [98.97884, 18.8006]}, "properties": {"id": "cm-osm-node-4519103091", "name": "Imm Aim vegetarian restaurant", "nameTh": null, "nameEn": "Imm Aim vegetarian restaurant", "cat": ["food"], "province": "cm", "slug": "imm-aim-vegetarian-restaurant-4519103091", "rank": 1}}, {"type": "Feature", "geometry": {"type": "Point", "coordinates": [98.97812, 18.78316]}, "properties": {"id": "cm-osm-node-4721967593", "name": "Le Kaa", "nameTh": null, "nameEn": "Le Kaa", "cat": ["food"], "province": "cm", "slug": "le-kaa-4721967593", "rank": 1}}, {"type": "Feature", "geometry": {"type": "Point", "coordinates": [98.97809, 18.78272]}, "properties": {"id": "cm-osm-node-11364009412", "name": "Madam Koh", "nameTh": null, "nameEn": "Madam Koh", "cat": ["food"], "province": "cm", "slug": "madam-koh-11364009412", "rank": 3}}, {"type": "Feature", "geometry": {"type": "Point", "coordinates": [98.9863, 18.79509]}, "properties": {"id": "cm-osm-node-4333699923", "name": "Mountain view garden restaurant", "nameTh": null, "nameEn": "Mountain view garden restaurant", "cat": ["food"], "province": "cm", "slug": "mountain-view-garden-restaurant-4333699923", "rank": 4}}, {"type": "Feature", "geometry": {"type": "Point", "coordinates": [98.97087, 18.79487]}, "properties": {"id": "cm-osm-node-2099411790", "name": "Pa Ploen", "nameTh": null, "nameEn": "Pa Ploen", "cat": ["food"], "province": "cm", "slug": "pa-ploen-2099411790", "rank": 1}}, {"type": "Feature", "geometry": {"type": "Point", "coordinates": [98.99161, 18.78404]}, "properties": {"id": "cm-osm-node-3385473032", "name": "Paris", "nameTh": null, "nameEn": "Paris", "cat": ["food"], "province": "cm", "slug": "paris-3385473032", "rank": 3}}, {"type": "Feature", "geometry": {"type": "Point", "coordinates": [98.97778, 18.76363]}, "properties": {"id": "cm-osm-node-12913876246", "name": "Rainbownoodle ก๋วยเตี๋ยวรุ้งเสวย", "nameTh": "Rainbownoodle ก๋วยเตี๋ยวรุ้งเสวย", "nameEn": null, "cat": ["food"], "province": "cm", "slug": "rainbownoodle-12913876246", "rank": 3}}, {"type": "Feature", "geometry": {"type": "Point", "coordinates": [98.99336, 18.79491]}, "properties": {"id": "cm-osm-way-578863886", "name": "Riders Corner Bar & Restaurant", "nameTh": null, "nameEn": "Riders Corner Bar & Restaurant", "cat": ["food"], "province": "cm", "slug": "riders-corner-bar-restaurant-578863886", "rank": 4}}, {"type": "Feature", "geometry": {"type": "Point", "coordinates": [99.00844, 18.79416]}, "properties": {"id": "cm-osm-node-10926013205", "name": "Salad Khunnai", "nameTh": null, "nameEn": "Salad Khunnai", "cat": ["food"], "province": "cm", "slug": "salad-khunnai-10926013205", "rank": 3}}, {"type": "Feature", "geometry": {"type": "Point", "coordinates": [98.9674, 18.80251]}, "properties": {"id": "cm-osm-node-6052593885", "name": "Shan Tou Hao Chi - Vegetarian & Vegan", "nameTh": null, "nameEn": "Shan Tou Hao Chi - Vegetarian & Vegan", "cat": ["food"], "province": "cm", "slug": "shan-tou-hao-chi-vegetarian-vegan-6052593885", "rank": 3}}, {"type": "Feature", "geometry": {"type": "Point", "coordinates": [99.01068, 18.82445]}, "properties": {"id": "cm-osm-node-8770776633", "name": "Superhotpot", "nameTh": null, "nameEn": "Superhotpot", "cat": ["food"], "province": "cm", "slug": "superhotpot-8770776633", "rank": 2}}, {"type": "Feature", "geometry": {"type": "Point", "coordinates": [98.98787, 18.78809]}, "properties": {"id": "cm-osm-node-4115990789", "name": "Terrace", "nameTh": null, "nameEn": "Terrace", "cat": ["food"], "province": "cm", "slug": "terrace-4115990789", "rank": 1}}, {"type": "Feature", "geometry": {"type": "Point", "coordinates": [98.95694, 18.80706]}, "properties": {"id": "cm-osm-node-5436937744", "name": "The Boat Chiangmai", "nameTh": null, "nameEn": "The Boat Chiangmai", "cat": ["food"], "province": "cm", "slug": "the-boat-chiangmai-5436937744", "rank": 1}}, {"type": "Feature", "geometry": {"type": "Point", "coordinates": [99.0036, 18.78183]}, "properties": {"id": "cm-osm-node-4865979294", "name": "The Service 1921 Restaurant & Bar", "nameTh": null, "nameEn": "The Service 1921 Restaurant & Bar", "cat": ["food"], "province": "cm", "slug": "the-service-1921-restaurant-bar-4865979294", "rank": 2}}, {"type": "Feature", "geometry": {"type": "Point", "coordinates": [98.99584, 18.7947]}, "properties": {"id": "cm-osm-node-5008711822", "name": "Vegeterian Thai Orchid", "nameTh": null, "nameEn": "Vegeterian Thai Orchid", "cat": ["food"], "province": "cm", "slug": "vegeterian-thai-orchid-5008711822", "rank": 3}}, {"type": "Feature", "geometry": {"type": "Point", "coordinates": [98.99148, 18.79214]}, "properties": {"id": "cm-osm-node-4431911392", "name": "baan khao tork", "nameTh": null, "nameEn": "baan khao tork", "cat": ["food"], "province": "cm", "slug": "baan-khao-tork-4431911392", "rank": 1}}, {"type": "Feature", "geometry": {"type": "Point", "coordinates": [98.98646, 18.79624]}, "properties": {"id": "cm-osm-node-9784520917", "name": "big big Shabu", "nameTh": null, "nameEn": "big big Shabu", "cat": ["food"], "province": "cm", "slug": "big-big-shabu-9784520917", "rank": 1}}, {"type": "Feature", "geometry": {"type": "Point", "coordinates": [99.00093, 18.78104]}, "properties": {"id": "cm-osm-node-13103277801", "name": "little stove kitchen", "nameTh": null, "nameEn": "little stove kitchen", "cat": ["food"], "province": "cm", "slug": "little-stove-kitchen-13103277801", "rank": 3}}, {"type": "Feature", "geometry": {"type": "Point", "coordinates": [99.12603, 18.7283]}, "properties": {"id": "cm-osm-node-13040779448", "name": "ข้าวขาหมู บ้านแม่ ออเดย์ ดอนปีน ป่าไผ่ สันกำแพง", "nameTh": "ข้าวขาหมู บ้านแม่ ออเดย์ ดอนปีน ป่าไผ่ สันกำแพง", "nameEn": "ฺBAN MAE ALL DAY Braised Pork Leg with Rice", "cat": ["food"], "province": "cm", "slug": "ban-mae-all-day-braised-pork-leg-with-rice-13040779448", "rank": 4}}, {"type": "Feature", "geometry": {"type": "Point", "coordinates": [98.96622, 18.91647]}, "properties": {"id": "cm-osm-node-7908728067", "name": "หวานละมุนเครป", "nameTh": "หวานละมุนเครป", "nameEn": "Crepe Waan", "cat": ["food"], "province": "cm", "slug": "crepe-waan-7908728067", "rank": 3}}, {"type": "Feature", "geometry": {"type": "Point", "coordinates": [98.96037, 18.80124]}, "properties": {"id": "cm-osm-node-13277096501", "name": "เพชรรัตน์ ติ่มซำ เชียงใหม่", "nameTh": "เพชรรัตน์ ติ่มซำ เชียงใหม่", "nameEn": "Phetcharat Dim Sum Chiang Mai", "cat": ["food"], "province": "cm", "slug": "phetcharat-dim-sum-chiang-mai-13277096501", "rank": 4}}, {"type": "Feature", "geometry": {"type": "Point", "coordinates": [99.14836, 18.88151]}, "properties": {"id": "cm-osm-node-7252225925", "name": "เสน่ห์แม่กวง", "nameTh": "เสน่ห์แม่กวง", "nameEn": "Charm of Mae Kuang", "cat": ["food"], "province": "cm", "slug": "charm-of-mae-kuang-7252225925", "rank": 4}}, {"type": "Feature", "geometry": {"type": "Point", "coordinates": [98.98516, 18.78584]}, "properties": {"id": "cm-osm-node-1628665600", "name": "เฮือนเพ็ญ", "nameTh": "เฮือนเพ็ญ", "nameEn": "Huen Phen", "cat": ["food"], "province": "cm", "slug": "huen-phen-1628665600", "rank": 4}}, {"type": "Feature", "geometry": {"type": "Point", "coordinates": [98.96797, 18.81073]}, "properties": {"id": "cm-osm-node-13981970601", "name": "စစ်ကိုင်းသူ", "nameTh": null, "nameEn": "Sagaing Thu", "cat": ["food"], "province": "cm", "slug": "sagaing-thu-13981970601", "rank": 3}}]}