{"type": "FeatureCollection", "features": [{"type": "Feature", "geometry": {"type": "Point", "coordinates": [98.97387, 18.80999]}, "properties": {"id": "cm-osm-node-10970962604", "name": "MIlada Thai-Chinese Medical Clinic", "nameTh": null, "nameEn": "MIlada Thai-Chinese Medical Clinic", "cat": ["medical"], "province": "cm", "slug": "milada-thai-chinese-medical-clinic-10970962604", "rank": 4}}, {"type": "Feature", "geometry": {"type": "Point", "coordinates": [98.98353, 18.7098]}, "properties": {"id": "cm-osm-node-11228627553", "name": "Pumrapee Chinese Medicine Clinic", "nameTh": null, "nameEn": "Pumrapee Chinese Medicine Clinic", "cat": ["medical"], "province": "cm", "slug": "pumrapee-chinese-medicine-clinic-11228627553", "rank": 3}}, {"type": "Feature", "geometry": {"type": "Point", "coordinates": [98.99178, 18.78512]}, "properties": {"id": "cm-osm-way-793410613", "name": "มังคละโอสถ", "nameTh": "มังคละโอสถ", "nameEn": "Mungkala Traditonal Chinese Medicine (acupuncture) Clinic", "cat": ["medical"], "province": "cm", "slug": "mungkala-traditonal-chinese-medicine-acupuncture-clinic-793410613", "rank": 4}}]}