{"type": "FeatureCollection", "features": [{"type": "Feature", "geometry": {"type": "Point", "coordinates": [98.97442, 18.76885]}, "properties": {"id": "cm-osm-node-3347631791", "name": "ธนาคารอิสลามแห่งประเทศไทย", "nameTh": "ธนาคารอิสลามแห่งประเทศไทย", "nameEn": "Islamic Bank of Thailand", "cat": ["essentials"], "province": "cm", "slug": "islamic-bank-of-thailand-3347631791", "rank": 2}}, {"type": "Feature", "geometry": {"type": "Point", "coordinates": [99.00053, 18.78445]}, "properties": {"id": "cm-osm-node-3416994635", "name": "ธนาคารอิสลามแห่งประเทศไทย", "nameTh": "ธนาคารอิสลามแห่งประเทศไทย", "nameEn": "Islamic Bank of Thailand", "cat": ["essentials"], "province": "cm", "slug": "islamic-bank-of-thailand-3416994635", "rank": 3}}, {"type": "Feature", "geometry": {"type": "Point", "coordinates": [98.9313, 18.70115]}, "properties": {"id": "cm-osm-node-5149373658", "name": "ธนาคารอิสลามแห่งประเทศไทย", "nameTh": "ธนาคารอิสลามแห่งประเทศไทย", "nameEn": "Islamic Bank of Thailand", "cat": ["essentials"], "province": "cm", "slug": "islamic-bank-of-thailand-5149373658", "rank": 3}}, {"type": "Feature", "geometry": {"type": "Point", "coordinates": [98.9859, 18.79961]}, "properties": {"id": "cm-osm-way-324506879", "name": "ธนาคารอิสลามแห่งประเทศไทย", "nameTh": "ธนาคารอิสลามแห่งประเทศไทย", "nameEn": "Islamic Bank of Thailand", "cat": ["essentials"], "province": "cm", "slug": "islamic-bank-of-thailand-324506879", "rank": 2}}]}