{"type": "FeatureCollection", "features": [{"type": "Feature", "geometry": {"type": "Point", "coordinates": [99.08837, 18.73399]}, "properties": {"id": "cm-osm-node-11285129143", "name": "Cafe Amazon", "nameTh": null, "nameEn": "Cafe Amazon", "cat": ["food"], "province": "cm", "slug": "cafe-amazon-11285129143", "rank": 1}}, {"type": "Feature", "geometry": {"type": "Point", "coordinates": [99.13401, 18.87216]}, "properties": {"id": "cm-osm-node-12347254201", "name": "Cafe Amazon", "nameTh": null, "nameEn": "Cafe Amazon", "cat": ["food"], "province": "cm", "slug": "cafe-amazon-12347254201", "rank": 1}}, {"type": "Feature", "geometry": {"type": "Point", "coordinates": [99.01188, 18.82853]}, "properties": {"id": "cm-osm-node-2519563448", "name": "Cafe Amazon", "nameTh": null, "nameEn": "Cafe Amazon", "cat": ["food"], "province": "cm", "slug": "cafe-amazon-2519563448", "rank": 2}}, {"type": "Feature", "geometry": {"type": "Point", "coordinates": [98.95705, 18.80738]}, "properties": {"id": "cm-osm-node-4413425463", "name": "Cafe Amazon", "nameTh": null, "nameEn": "Cafe Amazon", "cat": ["food"], "province": "cm", "slug": "cafe-amazon-4413425463", "rank": 1}}, {"type": "Feature", "geometry": {"type": "Point", "coordinates": [99.03606, 18.79473]}, "properties": {"id": "cm-osm-node-5348338286", "name": "Cafe Amazon", "nameTh": null, "nameEn": "Cafe Amazon", "cat": ["food"], "province": "cm", "slug": "cafe-amazon-5348338286", "rank": 1}}, {"type": "Feature", "geometry": {"type": "Point", "coordinates": [99.01928, 18.74708]}, "properties": {"id": "cm-osm-way-1046158877", "name": "Cafe Amazon", "nameTh": null, "nameEn": "Cafe Amazon", "cat": ["food"], "province": "cm", "slug": "cafe-amazon-1046158877", "rank": 1}}, {"type": "Feature", "geometry": {"type": "Point", "coordinates": [99.01629, 18.86705]}, "properties": {"id": "cm-osm-way-739554805", "name": "Cafe Amazon", "nameTh": null, "nameEn": "Cafe Amazon", "cat": ["food"], "province": "cm", "slug": "cafe-amazon-739554805", "rank": 2}}, {"type": "Feature", "geometry": {"type": "Point", "coordinates": [98.97497, 18.72075]}, "properties": {"id": "cm-osm-node-10773546986", "name": "Café Amazon", "nameTh": null, "nameEn": "Café Amazon", "cat": ["food"], "province": "cm", "slug": "caf-amazon-10773546986", "rank": 1}}, {"type": "Feature", "geometry": {"type": "Point", "coordinates": [98.966, 18.74241]}, "properties": {"id": "cm-osm-node-10778022015", "name": "Café Amazon", "nameTh": null, "nameEn": "Café Amazon", "cat": ["food"], "province": "cm", "slug": "caf-amazon-10778022015", "rank": 1}}, {"type": "Feature", "geometry": {"type": "Point", "coordinates": [98.98565, 18.80187]}, "properties": {"id": "cm-osm-node-11121177294", "name": "Café Amazon", "nameTh": null, "nameEn": "Café Amazon", "cat": ["food"], "province": "cm", "slug": "caf-amazon-11121177294", "rank": 1}}, {"type": "Feature", "geometry": {"type": "Point", "coordinates": [99.13109, 18.65877]}, "properties": {"id": "cm-osm-node-11581270446", "name": "Café Amazon", "nameTh": null, "nameEn": "Café Amazon", "cat": ["food"], "province": "cm", "slug": "caf-amazon-11581270446", "rank": 1}}, {"type": "Feature", "geometry": {"type": "Point", "coordinates": [98.96088, 18.79688]}, "properties": {"id": "cm-osm-node-12031519067", "name": "Café Amazon", "nameTh": null, "nameEn": "Café Amazon", "cat": ["food"], "province": "cm", "slug": "caf-amazon-12031519067", "rank": 2}}, {"type": "Feature", "geometry": {"type": "Point", "coordinates": [99.00884, 18.7525]}, "properties": {"id": "cm-osm-node-13052183920", "name": "Café Amazon", "nameTh": null, "nameEn": "Café Amazon", "cat": ["food"], "province": "cm", "slug": "caf-amazon-13052183920", "rank": 1}}, {"type": "Feature", "geometry": {"type": "Point", "coordinates": [99.07153, 18.76987]}, "properties": {"id": "cm-osm-node-1381345475", "name": "Café Amazon", "nameTh": "คาเฟ่ อเมซอน", "nameEn": "Café Amazon", "cat": ["food"], "province": "cm", "slug": "caf-amazon-1381345475", "rank": 2}}, {"type": "Feature", "geometry": {"type": "Point", "coordinates": [98.88785, 18.67139]}, "properties": {"id": "cm-osm-node-3121493939", "name": "Café Amazon", "nameTh": "คาเฟ่ อเมซอน", "nameEn": "Café Amazon", "cat": ["food"], "province": "cm", "slug": "caf-amazon-3121493939", "rank": 2}}, {"type": "Feature", "geometry": {"type": "Point", "coordinates": [99.0119, 18.80889]}, "properties": {"id": "cm-osm-node-3184594339", "name": "Café Amazon", "nameTh": "คาเฟ่ อเมซอน", "nameEn": "Café Amazon", "cat": ["food"], "province": "cm", "slug": "caf-amazon-3184594339", "rank": 2}}, {"type": "Feature", "geometry": {"type": "Point", "coordinates": [99.01626, 18.79666]}, "properties": {"id": "cm-osm-node-3242156462", "name": "Café Amazon", "nameTh": "คาเฟ่ อเมซอน", "nameEn": "Café Amazon", "cat": ["food"], "province": "cm", "slug": "caf-amazon-3242156462", "rank": 2}}, {"type": "Feature", "geometry": {"type": "Point", "coordinates": [98.98303, 18.79642]}, "properties": {"id": "cm-osm-node-3317920525", "name": "Café Amazon", "nameTh": "คาเฟ่ อเมซอน", "nameEn": "Café Amazon", "cat": ["food"], "province": "cm", "slug": "caf-amazon-3317920525", "rank": 3}}, {"type": "Feature", "geometry": {"type": "Point", "coordinates": [99.01437, 18.73861]}, "properties": {"id": "cm-osm-node-3409866633", "name": "Café Amazon", "nameTh": "คาเฟ่ อเมซอน", "nameEn": "Café Amazon", "cat": ["food"], "province": "cm", "slug": "caf-amazon-3409866633", "rank": 2}}, {"type": "Feature", "geometry": {"type": "Point", "coordinates": [98.9592, 18.78462]}, "properties": {"id": "cm-osm-node-3498459991", "name": "Café Amazon", "nameTh": "คาเฟ่ อเมซอน", "nameEn": "Café Amazon", "cat": ["food"], "province": "cm", "slug": "caf-amazon-3498459991", "rank": 2}}, {"type": "Feature", "geometry": {"type": "Point", "coordinates": [98.97252, 18.77216]}, "properties": {"id": "cm-osm-node-3810861066", "name": "Café Amazon", "nameTh": "คาเฟ่ อเมซอน", "nameEn": "Café Amazon", "cat": ["food"], "province": "cm", "slug": "caf-amazon-3810861066", "rank": 2}}, {"type": "Feature", "geometry": {"type": "Point", "coordinates": [99.06353, 18.75149]}, "properties": {"id": "cm-osm-node-4115297791", "name": "Café Amazon", "nameTh": "คาเฟ่ อเมซอน", "nameEn": "Café Amazon", "cat": ["food"], "province": "cm", "slug": "caf-amazon-4115297791", "rank": 2}}, {"type": "Feature", "geometry": {"type": "Point", "coordinates": [98.95159, 18.73068]}, "properties": {"id": "cm-osm-node-8990242296", "name": "Café Amazon", "nameTh": null, "nameEn": "Café Amazon", "cat": ["food"], "province": "cm", "slug": "caf-amazon-8990242296", "rank": 1}}, {"type": "Feature", "geometry": {"type": "Point", "coordinates": [99.04942, 18.6787]}, "properties": {"id": "cm-osm-way-1017739602", "name": "Café Amazon", "nameTh": "คาเฟ่ อเมซอน", "nameEn": "Café Amazon", "cat": ["food"], "province": "cm", "slug": "caf-amazon-1017739602", "rank": 3}}, {"type": "Feature", "geometry": {"type": "Point", "coordinates": [99.03809, 18.72173]}, "properties": {"id": "cm-osm-way-1029578473", "name": "Café Amazon", "nameTh": null, "nameEn": "Café Amazon", "cat": ["food"], "province": "cm", "slug": "caf-amazon-1029578473", "rank": 1}}, {"type": "Feature", "geometry": {"type": "Point", "coordinates": [99.02976, 18.76942]}, "properties": {"id": "cm-osm-way-365937068", "name": "Café Amazon", "nameTh": "คาเฟ่ อเมซอน", "nameEn": "Café Amazon", "cat": ["food"], "province": "cm", "slug": "caf-amazon-365937068", "rank": 2}}, {"type": "Feature", "geometry": {"type": "Point", "coordinates": [99.01274, 18.8147]}, "properties": {"id": "cm-osm-node-12347384601", "name": "คาเฟ่ อเมซอน", "nameTh": "คาเฟ่ อเมซอน", "nameEn": "Café Amazon", "cat": ["food"], "province": "cm", "slug": "caf-amazon-12347384601", "rank": 3}}, {"type": "Feature", "geometry": {"type": "Point", "coordinates": [98.82963, 18.60422]}, "properties": {"id": "cm-osm-node-12528710125", "name": "คาเฟ่ อเมซอน", "nameTh": "คาเฟ่ อเมซอน", "nameEn": "Café Amazon", "cat": ["food"], "province": "cm", "slug": "caf-amazon-12528710125", "rank": 2}}, {"type": "Feature", "geometry": {"type": "Point", "coordinates": [99.02152, 18.80682]}, "properties": {"id": "cm-osm-node-12603110776", "name": "คาเฟ่ อเมซอน", "nameTh": "คาเฟ่ อเมซอน", "nameEn": "Café Amazon", "cat": ["food"], "province": "cm", "slug": "caf-amazon-12603110776", "rank": 2}}, {"type": "Feature", "geometry": {"type": "Point", "coordinates": [99.01479, 18.87559]}, "properties": {"id": "cm-osm-node-3340982844", "name": "คาเฟ่ อเมซอน", "nameTh": "คาเฟ่ อเมซอน", "nameEn": "Café Amazon", "cat": ["food"], "province": "cm", "slug": "caf-amazon-3340982844", "rank": 2}}, {"type": "Feature", "geometry": {"type": "Point", "coordinates": [98.9706, 18.78986]}, "properties": {"id": "cm-osm-node-3369589470", "name": "คาเฟ่ อเมซอน", "nameTh": "คาเฟ่ อเมซอน", "nameEn": "Café Amazon", "cat": ["food"], "province": "cm", "slug": "caf-amazon-3369589470", "rank": 3}}, {"type": "Feature", "geometry": {"type": "Point", "coordinates": [98.94325, 18.91918]}, "properties": {"id": "cm-osm-node-3924966402", "name": "คาเฟ่ อเมซอน", "nameTh": "คาเฟ่ อเมซอน", "nameEn": "Café Amazon", "cat": ["food"], "province": "cm", "slug": "caf-amazon-3924966402", "rank": 3}}, {"type": "Feature", "geometry": {"type": "Point", "coordinates": [98.92521, 18.7508]}, "properties": {"id": "cm-osm-node-3927203442", "name": "คาเฟ่ อเมซอน", "nameTh": "คาเฟ่ อเมซอน", "nameEn": "Café Amazon", "cat": ["food"], "province": "cm", "slug": "caf-amazon-3927203442", "rank": 2}}, {"type": "Feature", "geometry": {"type": "Point", "coordinates": [99.07922, 18.8462]}, "properties": {"id": "cm-osm-node-5338188740", "name": "คาเฟ่ อเมซอน", "nameTh": "คาเฟ่ อเมซอน", "nameEn": "Café Amazon", "cat": ["food"], "province": "cm", "slug": "caf-amazon-5338188740", "rank": 2}}, {"type": "Feature", "geometry": {"type": "Point", "coordinates": [98.98371, 18.76842]}, "properties": {"id": "cm-osm-node-5455786827", "name": "คาเฟ่ อเมซอน", "nameTh": "คาเฟ่ อเมซอน", "nameEn": "Café Amazon", "cat": ["food"], "province": "cm", "slug": "caf-amazon-5455786827", "rank": 2}}, {"type": "Feature", "geometry": {"type": "Point", "coordinates": [98.98285, 18.95755]}, "properties": {"id": "cm-osm-node-6189013981", "name": "คาเฟ่ อเมซอน", "nameTh": "คาเฟ่ อเมซอน", "nameEn": "Café Amazon", "cat": ["food"], "province": "cm", "slug": "caf-amazon-6189013981", "rank": 2}}, {"type": "Feature", "geometry": {"type": "Point", "coordinates": [98.95826, 18.79218]}, "properties": {"id": "cm-osm-node-7579280681", "name": "คาเฟ่ อเมซอน", "nameTh": "คาเฟ่ อเมซอน", "nameEn": "Café Amazon", "cat": ["food"], "province": "cm", "slug": "caf-amazon-7579280681", "rank": 3}}, {"type": "Feature", "geometry": {"type": "Point", "coordinates": [98.97257, 18.7595]}, "properties": {"id": "cm-osm-node-7882686681", "name": "คาเฟ่ อเมซอน", "nameTh": "คาเฟ่ อเมซอน", "nameEn": "Café Amazon", "cat": ["food"], "province": "cm", "slug": "caf-amazon-7882686681", "rank": 2}}, {"type": "Feature", "geometry": {"type": "Point", "coordinates": [98.97291, 18.76354]}, "properties": {"id": "cm-osm-node-9288145517", "name": "คาเฟ่ อเมซอน", "nameTh": "คาเฟ่ อเมซอน", "nameEn": "Café Amazon", "cat": ["food"], "province": "cm", "slug": "caf-amazon-9288145517", "rank": 3}}, {"type": "Feature", "geometry": {"type": "Point", "coordinates": [98.97086, 18.84845]}, "properties": {"id": "cm-osm-node-9316918017", "name": "คาเฟ่ อเมซอน", "nameTh": "คาเฟ่ อเมซอน", "nameEn": "Café Amazon", "cat": ["food"], "province": "cm", "slug": "caf-amazon-9316918017", "rank": 3}}, {"type": "Feature", "geometry": {"type": "Point", "coordinates": [98.99145, 18.76394]}, "properties": {"id": "cm-osm-way-1037512548", "name": "คาเฟ่ อเมซอน", "nameTh": "คาเฟ่ อเมซอน", "nameEn": "Café Amazon", "cat": ["food"], "province": "cm", "slug": "caf-amazon-1037512548", "rank": 2}}, {"type": "Feature", "geometry": {"type": "Point", "coordinates": [99.01178, 18.82423]}, "properties": {"id": "cm-osm-way-1099750976", "name": "คาเฟ่ อเมซอน", "nameTh": "คาเฟ่ อเมซอน", "nameEn": "Café Amazon", "cat": ["food"], "province": "cm", "slug": "caf-amazon-1099750976", "rank": 2}}, {"type": "Feature", "geometry": {"type": "Point", "coordinates": [99.06749, 18.79608]}, "properties": {"id": "cm-osm-way-1112896522", "name": "คาเฟ่ อเมซอน", "nameTh": "คาเฟ่ อเมซอน", "nameEn": "Café Amazon", "cat": ["food"], "province": "cm", "slug": "caf-amazon-1112896522", "rank": 2}}, {"type": "Feature", "geometry": {"type": "Point", "coordinates": [99.05688, 18.83453]}, "properties": {"id": "cm-osm-way-1251033565", "name": "คาเฟ่ อเมซอน", "nameTh": "คาเฟ่ อเมซอน", "nameEn": "Café Amazon", "cat": ["food"], "province": "cm", "slug": "caf-amazon-1251033565", "rank": 2}}, {"type": "Feature", "geometry": {"type": "Point", "coordinates": [99.03468, 18.7477]}, "properties": {"id": "cm-osm-way-544243074", "name": "คาเฟ่ อเมซอน", "nameTh": "คาเฟ่ อเมซอน", "nameEn": "Café Amazon", "cat": ["food"], "province": "cm", "slug": "caf-amazon-544243074", "rank": 2}}, {"type": "Feature", "geometry": {"type": "Point", "coordinates": [99.05231, 18.66914]}, "properties": {"id": "cm-osm-way-663794597", "name": "คาเฟ่ อเมซอน", "nameTh": "คาเฟ่ อเมซอน", "nameEn": "Café Amazon", "cat": ["food"], "province": "cm", "slug": "caf-amazon-663794597", "rank": 2}}, {"type": "Feature", "geometry": {"type": "Point", "coordinates": [98.93984, 18.92177]}, "properties": {"id": "cm-osm-way-741830430", "name": "คาเฟ่ อเมซอน", "nameTh": "คาเฟ่ อเมซอน", "nameEn": "Café Amazon", "cat": ["food"], "province": "cm", "slug": "caf-amazon-741830430", "rank": 3}}]}