{"type": "FeatureCollection", "features": [{"type": "Feature", "geometry": {"type": "Point", "coordinates": [98.98794, 18.77844]}, "properties": {"id": "cm-osm-node-5484616521", "name": "Aum Vegetarian Restaurant", "nameTh": null, "nameEn": "Aum Vegetarian Restaurant", "cat": ["food"], "province": "cm", "slug": "aum-vegetarian-restaurant-5484616521", "rank": 2}}, {"type": "Feature", "geometry": {"type": "Point", "coordinates": [98.98311, 18.78867]}, "properties": {"id": "cm-osm-node-7005708718", "name": "Baan Buri Cafe & Restaurant", "nameTh": null, "nameEn": "Baan Buri Cafe & Restaurant", "cat": ["food"], "province": "cm", "slug": "baan-buri-cafe-restaurant-7005708718", "rank": 2}}, {"type": "Feature", "geometry": {"type": "Point", "coordinates": [98.97593, 18.80218]}, "properties": {"id": "cm-osm-node-11915089170", "name": "Bannom", "nameTh": null, "nameEn": "Bannom", "cat": ["food"], "province": "cm", "slug": "bannom-11915089170", "rank": 2}}, {"type": "Feature", "geometry": {"type": "Point", "coordinates": [98.97735, 18.70978]}, "properties": {"id": "cm-osm-way-1038999093", "name": "Bella Goose Cafe on the Pond", "nameTh": null, "nameEn": "Bella Goose Cafe on the Pond", "cat": ["food"], "province": "cm", "slug": "bella-goose-cafe-on-the-pond-1038999093", "rank": 2}}, {"type": "Feature", "geometry": {"type": "Point", "coordinates": [98.96793, 18.76744]}, "properties": {"id": "cm-osm-node-12609032485", "name": "Black Canyon", "nameTh": null, "nameEn": "Black Canyon", "cat": ["food"], "province": "cm", "slug": "black-canyon-12609032485", "rank": 2}}, {"type": "Feature", "geometry": {"type": "Point", "coordinates": [98.96829, 18.77037]}, "properties": {"id": "cm-osm-node-1474872898", "name": "Black Canyon Coffee", "nameTh": null, "nameEn": "Black Canyon Coffee", "cat": ["food"], "province": "cm", "slug": "black-canyon-coffee-1474872898", "rank": 2}}, {"type": "Feature", "geometry": {"type": "Point", "coordinates": [98.96802, 18.76782]}, "properties": {"id": "cm-osm-node-14016401747", "name": "Burger King", "nameTh": null, "nameEn": "Burger King", "cat": ["food"], "province": "cm", "slug": "burger-king-14016401747", "rank": 2}}, {"type": "Feature", "geometry": {"type": "Point", "coordinates": [98.99308, 18.79034]}, "properties": {"id": "cm-osm-node-3624377794", "name": "Burgers & Springrolls", "nameTh": null, "nameEn": "Burgers & Springrolls", "cat": ["food"], "province": "cm", "slug": "burgers-springrolls-3624377794", "rank": 2}}, {"type": "Feature", "geometry": {"type": "Point", "coordinates": [99.01629, 18.86705]}, "properties": {"id": "cm-osm-way-739554805", "name": "Cafe Amazon", "nameTh": null, "nameEn": "Cafe Amazon", "cat": ["food"], "province": "cm", "slug": "cafe-amazon-739554805", "rank": 2}}, {"type": "Feature", "geometry": {"type": "Point", "coordinates": [98.98848, 18.78547]}, "properties": {"id": "cm-osm-node-1006843145", "name": "Cafe de Thaan Aoan", "nameTh": null, "nameEn": "Cafe de Thaan Aoan", "cat": ["food"], "province": "cm", "slug": "cafe-de-thaan-aoan-1006843145", "rank": 2}}, {"type": "Feature", "geometry": {"type": "Point", "coordinates": [98.96088, 18.79688]}, "properties": {"id": "cm-osm-node-12031519067", "name": "Café Amazon", "nameTh": null, "nameEn": "Café Amazon", "cat": ["food"], "province": "cm", "slug": "caf-amazon-12031519067", "rank": 2}}, {"type": "Feature", "geometry": {"type": "Point", "coordinates": [98.94452, 19.0261]}, "properties": {"id": "cm-osm-node-4594764320", "name": "Cat's Coffee", "nameTh": null, "nameEn": "Cat's Coffee", "cat": ["food"], "province": "cm", "slug": "cat-s-coffee-4594764320", "rank": 1}}, {"type": "Feature", "geometry": {"type": "Point", "coordinates": [98.99043, 18.78637]}, "properties": {"id": "cm-osm-node-9872196618", "name": "Chada Vegetarian", "nameTh": null, "nameEn": "Chada Vegetarian", "cat": ["food"], "province": "cm", "slug": "chada-vegetarian-9872196618", "rank": 2}}, {"type": "Feature", "geometry": {"type": "Point", "coordinates": [98.98623, 18.78826]}, "properties": {"id": "cm-osm-node-7178932385", "name": "Chanya’s", "nameTh": null, "nameEn": "Chanya’s", "cat": ["food"], "province": "cm", "slug": "chanya-s-7178932385", "rank": 1}}, {"type": "Feature", "geometry": {"type": "Point", "coordinates": [98.9672, 18.80253]}, "properties": {"id": "cm-osm-node-3287356490", "name": "Chester's", "nameTh": null, "nameEn": "Chester's", "cat": ["food"], "province": "cm", "slug": "chester-s-3287356490", "rank": 1}}, {"type": "Feature", "geometry": {"type": "Point", "coordinates": [98.96981, 18.79752]}, "properties": {"id": "cm-osm-node-12573253643", "name": "Chinda Hotpot", "nameTh": null, "nameEn": "Chinda Hotpot", "cat": ["food"], "province": "cm", "slug": "chinda-hotpot-12573253643", "rank": 2}}, {"type": "Feature", "geometry": {"type": "Point", "coordinates": [98.96873, 18.79927]}, "properties": {"id": "cm-osm-node-12577832141", "name": "Clove&Co", "nameTh": null, "nameEn": "Clove&Co", "cat": ["food"], "province": "cm", "slug": "clove-co-12577832141", "rank": 1}}, {"type": "Feature", "geometry": {"type": "Point", "coordinates": [98.97034, 18.79833]}, "properties": {"id": "cm-osm-node-11425558688", "name": "Coffee INC. Nicohub", "nameTh": null, "nameEn": "Coffee INC. Nicohub", "cat": ["food"], "province": "cm", "slug": "coffee-inc-nicohub-11425558688", "rank": 3}}, {"type": "Feature", "geometry": {"type": "Point", "coordinates": [98.99312, 18.78845]}, "properties": {"id": "cm-osm-node-5758046621", "name": "CoolMuang", "nameTh": null, "nameEn": "CoolMuang", "cat": ["food"], "province": "cm", "slug": "coolmuang-5758046621", "rank": 2}}, {"type": "Feature", "geometry": {"type": "Point", "coordinates": [98.99146, 18.78327]}, "properties": {"id": "cm-osm-node-3385473024", "name": "Dash", "nameTh": null, "nameEn": "Dash", "cat": ["food"], "province": "cm", "slug": "dash-3385473024", "rank": 3}}, {"type": "Feature", "geometry": {"type": "Point", "coordinates": [98.98773, 18.79074]}, "properties": {"id": "cm-osm-node-4358697789", "name": "Doi Chang", "nameTh": null, "nameEn": "Doi Chang", "cat": ["food"], "province": "cm", "slug": "doi-chang-4358697789", "rank": 2}}, {"type": "Feature", "geometry": {"type": "Point", "coordinates": [98.98743, 18.79347]}, "properties": {"id": "cm-osm-node-6611483785", "name": "Doi Chang", "nameTh": null, "nameEn": "Doi Chang", "cat": ["food"], "province": "cm", "slug": "doi-chang-6611483785", "rank": 1}}, {"type": "Feature", "geometry": {"type": "Point", "coordinates": [98.953, 18.80368]}, "properties": {"id": "cm-osm-node-2434785831", "name": "Double Click Cafe", "nameTh": null, "nameEn": "Double Click Cafe", "cat": ["food"], "province": "cm", "slug": "double-click-cafe-2434785831", "rank": 1}}, {"type": "Feature", "geometry": {"type": "Point", "coordinates": [98.96667, 18.79836]}, "properties": {"id": "cm-osm-node-1074594027", "name": "Ember", "nameTh": null, "nameEn": "Ember", "cat": ["food"], "province": "cm", "slug": "ember-1074594027", "rank": 1}}, {"type": "Feature", "geometry": {"type": "Point", "coordinates": [98.96928, 18.78869]}, "properties": {"id": "cm-osm-node-4539213082", "name": "Everest 8848", "nameTh": null, "nameEn": "Everest 8848", "cat": ["food"], "province": "cm", "slug": "everest-8848-4539213082", "rank": 1}}, {"type": "Feature", "geometry": {"type": "Point", "coordinates": [98.98622, 18.79296]}, "properties": {"id": "cm-osm-way-492846842", "name": "Fahtara", "nameTh": null, "nameEn": "Fahtara", "cat": ["food"], "province": "cm", "slug": "fahtara-492846842", "rank": 1}}, {"type": "Feature", "geometry": {"type": "Point", "coordinates": [98.98203, 18.79339]}, "properties": {"id": "cm-osm-node-3385494997", "name": "Fern Forest Cafe", "nameTh": null, "nameEn": "Fern Forest Cafe", "cat": ["food"], "province": "cm", "slug": "fern-forest-cafe-3385494997", "rank": 3}}, {"type": "Feature", "geometry": {"type": "Point", "coordinates": [98.99268, 18.78792]}, "properties": {"id": "cm-osm-node-4748011323", "name": "Fruiturday", "nameTh": null, "nameEn": "Fruiturday", "cat": ["food"], "province": "cm", "slug": "fruiturday-4748011323", "rank": 1}}, {"type": "Feature", "geometry": {"type": "Point", "coordinates": [98.96689, 18.80243]}, "properties": {"id": "cm-osm-node-3287356491", "name": "Fuji", "nameTh": null, "nameEn": "Fuji", "cat": ["food"], "province": "cm", "slug": "fuji-3287356491", "rank": 1}}, {"type": "Feature", "geometry": {"type": "Point", "coordinates": [98.96753, 18.79992]}, "properties": {"id": "cm-osm-node-5928092288", "name": "Ginger Farm", "nameTh": null, "nameEn": "Ginger Farm", "cat": ["food"], "province": "cm", "slug": "ginger-farm-5928092288", "rank": 1}}, {"type": "Feature", "geometry": {"type": "Point", "coordinates": [98.99758, 18.7877]}, "properties": {"id": "cm-osm-node-5231429625", "name": "Gold land coffe", "nameTh": null, "nameEn": "Gold land coffe", "cat": ["food"], "province": "cm", "slug": "gold-land-coffe-5231429625", "rank": 1}}, {"type": "Feature", "geometry": {"type": "Point", "coordinates": [98.98631, 18.79088]}, "properties": {"id": "cm-osm-way-580333283", "name": "Golden Bee", "nameTh": null, "nameEn": "Golden Bee", "cat": ["food"], "province": "cm", "slug": "golden-bee-580333283", "rank": 1}}, {"type": "Feature", "geometry": {"type": "Point", "coordinates": [98.95415, 18.80302]}, "properties": {"id": "cm-osm-node-2434777647", "name": "Him Tang", "nameTh": null, "nameEn": "Him Tang", "cat": ["food"], "province": "cm", "slug": "him-tang-2434777647", "rank": 1}}, {"type": "Feature", "geometry": {"type": "Point", "coordinates": [99.02758, 18.77286]}, "properties": {"id": "cm-osm-node-13413161152", "name": "Honey Bee Coffee & Meal", "nameTh": null, "nameEn": "Honey Bee Coffee & Meal", "cat": ["food"], "province": "cm", "slug": "honey-bee-coffee-meal-13413161152", "rank": 3}}, {"type": "Feature", "geometry": {"type": "Point", "coordinates": [98.97875, 18.79276]}, "properties": {"id": "cm-osm-node-11383883701", "name": "House Kitchen", "nameTh": null, "nameEn": "House Kitchen", "cat": ["food"], "province": "cm", "slug": "house-kitchen-11383883701", "rank": 3}}, {"type": "Feature", "geometry": {"type": "Point", "coordinates": [98.96754, 18.80193]}, "properties": {"id": "cm-osm-node-13392865738", "name": "Imjai Vegan", "nameTh": null, "nameEn": "Imjai Vegan", "cat": ["food"], "province": "cm", "slug": "imjai-vegan-13392865738", "rank": 1}}, {"type": "Feature", "geometry": {"type": "Point", "coordinates": [98.96707, 18.80253]}, "properties": {"id": "cm-osm-node-3287356493", "name": "Jeffer Steak", "nameTh": null, "nameEn": "Jeffer Steak", "cat": ["food"], "province": "cm", "slug": "jeffer-steak-3287356493", "rank": 1}}, {"type": "Feature", "geometry": {"type": "Point", "coordinates": [98.99044, 18.78784]}, "properties": {"id": "cm-osm-node-6169881285", "name": "Juice Hub", "nameTh": null, "nameEn": "Juice Hub", "cat": ["food"], "province": "cm", "slug": "juice-hub-6169881285", "rank": 1}}, {"type": "Feature", "geometry": {"type": "Point", "coordinates": [98.96701, 18.80251]}, "properties": {"id": "cm-osm-node-3287356494", "name": "KFC", "nameTh": "เค เอฟ ซี", "nameEn": "KFC", "cat": ["food"], "province": "cm", "slug": "kfc-3287356494", "rank": 3}}, {"type": "Feature", "geometry": {"type": "Point", "coordinates": [98.98768, 18.79081]}, "properties": {"id": "cm-osm-node-2598509572", "name": "Kaffe 151", "nameTh": null, "nameEn": "Kaffe 151", "cat": ["food"], "province": "cm", "slug": "kaffe-151-2598509572", "rank": 1}}, {"type": "Feature", "geometry": {"type": "Point", "coordinates": [98.98653, 18.78823]}, "properties": {"id": "cm-osm-node-4212373091", "name": "Kalapela Tea House", "nameTh": null, "nameEn": "Kalapela Tea House", "cat": ["food"], "province": "cm", "slug": "kalapela-tea-house-4212373091", "rank": 3}}, {"type": "Feature", "geometry": {"type": "Point", "coordinates": [98.98682, 18.78815]}, "properties": {"id": "cm-osm-node-4132247489", "name": "Kaldi Coffee House", "nameTh": null, "nameEn": "Kaldi Coffee House", "cat": ["food"], "province": "cm", "slug": "kaldi-coffee-house-4132247489", "rank": 1}}, {"type": "Feature", "geometry": {"type": "Point", "coordinates": [98.99039, 18.79081]}, "properties": {"id": "cm-osm-node-1491290179", "name": "Kebab House", "nameTh": null, "nameEn": "Kebab House", "cat": ["food"], "province": "cm", "slug": "kebab-house-1491290179", "rank": 2}}, {"type": "Feature", "geometry": {"type": "Point", "coordinates": [98.95355, 18.80159]}, "properties": {"id": "cm-osm-node-2434791094", "name": "Kopi Gusto", "nameTh": null, "nameEn": "Kopi Gusto", "cat": ["food"], "province": "cm", "slug": "kopi-gusto-2434791094", "rank": 1}}, {"type": "Feature", "geometry": {"type": "Point", "coordinates": [98.99112, 18.79109]}, "properties": {"id": "cm-osm-way-97923157", "name": "Lanna Square Market", "nameTh": "ลานนา สแควร์", "nameEn": "Lanna Square Market", "cat": ["food"], "province": "cm", "slug": "lanna-square-market-97923157", "rank": 3}}, {"type": "Feature", "geometry": {"type": "Point", "coordinates": [98.94992, 18.80497]}, "properties": {"id": "cm-osm-way-311212963", "name": "Living a Dream", "nameTh": null, "nameEn": "Living a Dream", "cat": ["food"], "province": "cm", "slug": "living-a-dream-311212963", "rank": 1}}, {"type": "Feature", "geometry": {"type": "Point", "coordinates": [98.99318, 18.79028]}, "properties": {"id": "cm-osm-way-481723939", "name": "Loco Elvis", "nameTh": null, "nameEn": "Loco Elvis", "cat": ["food"], "province": "cm", "slug": "loco-elvis-481723939", "rank": 1}}, {"type": "Feature", "geometry": {"type": "Point", "coordinates": [98.9674, 18.802]}, "properties": {"id": "cm-osm-node-3287356496", "name": "MK Restaurants", "nameTh": null, "nameEn": "MK Restaurants", "cat": ["food"], "province": "cm", "slug": "mk-restaurants-3287356496", "rank": 3}}, {"type": "Feature", "geometry": {"type": "Point", "coordinates": [98.96649, 18.79805]}, "properties": {"id": "cm-osm-node-4349789389", "name": "McDonald's", "nameTh": "Macdonald's", "nameEn": "McDonald's", "cat": ["food"], "province": "cm", "slug": "mcdonald-s-4349789389", "rank": 2}}, {"type": "Feature", "geometry": {"type": "Point", "coordinates": [98.96909, 18.79941]}, "properties": {"id": "cm-osm-node-3426415666", "name": "Mix", "nameTh": null, "nameEn": "Mix", "cat": ["food"], "province": "cm", "slug": "mix-3426415666", "rank": 1}}, {"type": "Feature", "geometry": {"type": "Point", "coordinates": [98.98642, 18.78824]}, "properties": {"id": "cm-osm-node-5245253221", "name": "Moon pie", "nameTh": null, "nameEn": "Moon pie", "cat": ["food"], "province": "cm", "slug": "moon-pie-5245253221", "rank": 1}}, {"type": "Feature", "geometry": {"type": "Point", "coordinates": [98.96689, 18.8022]}, "properties": {"id": "cm-osm-node-3217455861", "name": "Myst", "nameTh": null, "nameEn": "Myst", "cat": ["food"], "province": "cm", "slug": "myst-3217455861", "rank": 1}}, {"type": "Feature", "geometry": {"type": "Point", "coordinates": [98.99065, 18.79074]}, "properties": {"id": "cm-osm-node-1491262428", "name": "New Delhi", "nameTh": null, "nameEn": "New Delhi", "cat": ["food"], "province": "cm", "slug": "new-delhi-1491262428", "rank": 1}}, {"type": "Feature", "geometry": {"type": "Point", "coordinates": [98.94841, 18.7768]}, "properties": {"id": "cm-osm-node-6176059286", "name": "Obchoei Original Homemade", "nameTh": null, "nameEn": "Obchoei Original Homemade", "cat": ["food"], "province": "cm", "slug": "obchoei-original-homemade-6176059286", "rank": 2}}, {"type": "Feature", "geometry": {"type": "Point", "coordinates": [98.95232, 18.80389]}, "properties": {"id": "cm-osm-node-2434787311", "name": "PAK Cafe", "nameTh": null, "nameEn": "PAK Cafe", "cat": ["food"], "province": "cm", "slug": "pak-cafe-2434787311", "rank": 2}}, {"type": "Feature", "geometry": {"type": "Point", "coordinates": [99.01128, 18.78634]}, "properties": {"id": "cm-osm-way-255708708", "name": "Plearn Coffee", "nameTh": null, "nameEn": "Plearn Coffee", "cat": ["food"], "province": "cm", "slug": "plearn-coffee-255708708", "rank": 2}}, {"type": "Feature", "geometry": {"type": "Point", "coordinates": [98.99396, 18.78816]}, "properties": {"id": "cm-osm-node-4538160419", "name": "Pulcinella de Stefano", "nameTh": null, "nameEn": "Pulcinella de Stefano", "cat": ["food"], "province": "cm", "slug": "pulcinella-de-stefano-4538160419", "rank": 1}}, {"type": "Feature", "geometry": {"type": "Point", "coordinates": [98.96755, 18.80202]}, "properties": {"id": "cm-osm-node-3217335963", "name": "Raya Cafe", "nameTh": null, "nameEn": "Raya Cafe", "cat": ["food"], "province": "cm", "slug": "raya-cafe-3217335963", "rank": 1}}, {"type": "Feature", "geometry": {"type": "Point", "coordinates": [98.99336, 18.79491]}, "properties": {"id": "cm-osm-way-578863886", "name": "Riders Corner Bar & Restaurant", "nameTh": null, "nameEn": "Riders Corner Bar & Restaurant", "cat": ["food"], "province": "cm", "slug": "riders-corner-bar-restaurant-578863886", "rank": 4}}, {"type": "Feature", "geometry": {"type": "Point", "coordinates": [98.96722, 18.7991]}, "properties": {"id": "cm-osm-node-2105726947", "name": "Ristr8to", "nameTh": "ด็อปปิโอ ริสเทรสโต้", "nameEn": "Ristr8to", "cat": ["food"], "province": "cm", "slug": "ristr8to-2105726947", "rank": 3}}, {"type": "Feature", "geometry": {"type": "Point", "coordinates": [99.14061, 18.89947]}, "properties": {"id": "cm-osm-node-3213766165", "name": "Roessli", "nameTh": null, "nameEn": "Roessli", "cat": ["food"], "province": "cm", "slug": "roessli-3213766165", "rank": 1}}, {"type": "Feature", "geometry": {"type": "Point", "coordinates": [98.96721, 18.79921]}, "properties": {"id": "cm-osm-node-4564569789", "name": "Rogu Roti", "nameTh": null, "nameEn": "Rogu Roti", "cat": ["food"], "province": "cm", "slug": "rogu-roti-4564569789", "rank": 2}}, {"type": "Feature", "geometry": {"type": "Point", "coordinates": [99.0354, 18.79841]}, "properties": {"id": "cm-osm-node-12084582995", "name": "Route 66 Diner Chiang Mai", "nameTh": null, "nameEn": "Route 66 Diner Chiang Mai", "cat": ["food"], "province": "cm", "slug": "route-66-diner-chiang-mai-12084582995", "rank": 4}}, {"type": "Feature", "geometry": {"type": "Point", "coordinates": [99.02525, 18.78395]}, "properties": {"id": "cm-osm-node-13851937467", "name": "Son Of A Brew", "nameTh": null, "nameEn": "Son Of A Brew", "cat": ["food"], "province": "cm", "slug": "son-of-a-brew-13851937467", "rank": 3}}, {"type": "Feature", "geometry": {"type": "Point", "coordinates": [98.96778, 18.80236]}, "properties": {"id": "cm-osm-node-3287356498", "name": "Starbucks", "nameTh": "สตาร์บัคส์", "nameEn": "Starbucks Coffee", "cat": ["food"], "province": "cm", "slug": "starbucks-coffee-3287356498", "rank": 3}}, {"type": "Feature", "geometry": {"type": "Point", "coordinates": [98.99366, 18.78802]}, "properties": {"id": "cm-osm-node-336237972", "name": "Starbucks", "nameTh": "สตาร์บัคส์", "nameEn": "Starbucks Coffee", "cat": ["food"], "province": "cm", "slug": "starbucks-coffee-336237972", "rank": 3}}, {"type": "Feature", "geometry": {"type": "Point", "coordinates": [98.97786, 18.79313]}, "properties": {"id": "cm-osm-way-461273739", "name": "Starbucks Coffee", "nameTh": null, "nameEn": "Starbucks Coffee", "cat": ["food"], "province": "cm", "slug": "starbucks-coffee-461273739", "rank": 1}}, {"type": "Feature", "geometry": {"type": "Point", "coordinates": [98.98965, 18.79067]}, "properties": {"id": "cm-osm-node-2039922767", "name": "Tanya", "nameTh": null, "nameEn": "Tanya", "cat": ["food"], "province": "cm", "slug": "tanya-2039922767", "rank": 1}}, {"type": "Feature", "geometry": {"type": "Point", "coordinates": [98.95602, 18.7925]}, "properties": {"id": "cm-osm-node-6217590685", "name": "Tea Inn", "nameTh": null, "nameEn": "Tea Inn", "cat": ["food"], "province": "cm", "slug": "tea-inn-6217590685", "rank": 1}}, {"type": "Feature", "geometry": {"type": "Point", "coordinates": [98.99294, 18.78791]}, "properties": {"id": "cm-osm-node-2716915567", "name": "The Coffee Club", "nameTh": null, "nameEn": "The Coffee Club", "cat": ["food"], "province": "cm", "slug": "the-coffee-club-2716915567", "rank": 1}}, {"type": "Feature", "geometry": {"type": "Point", "coordinates": [98.96681, 18.80228]}, "properties": {"id": "cm-osm-node-3673955770", "name": "The Duke's Maya", "nameTh": null, "nameEn": "The Duke's Maya", "cat": ["food"], "province": "cm", "slug": "the-duke-s-maya-3673955770", "rank": 3}}, {"type": "Feature", "geometry": {"type": "Point", "coordinates": [98.99071, 18.79073]}, "properties": {"id": "cm-osm-node-2292111473", "name": "The Peppermint", "nameTh": null, "nameEn": "The Peppermint", "cat": ["food"], "province": "cm", "slug": "the-peppermint-2292111473", "rank": 1}}, {"type": "Feature", "geometry": {"type": "Point", "coordinates": [98.96788, 18.79977]}, "properties": {"id": "cm-osm-node-5928090575", "name": "The Volcano", "nameTh": null, "nameEn": "The Volcano", "cat": ["food"], "province": "cm", "slug": "the-volcano-5928090575", "rank": 1}}, {"type": "Feature", "geometry": {"type": "Point", "coordinates": [98.92613, 18.69757]}, "properties": {"id": "cm-osm-way-1138543689", "name": "Triplets Eat & Play", "nameTh": null, "nameEn": "Triplets Eat & Play", "cat": ["food"], "province": "cm", "slug": "triplets-eat-play-1138543689", "rank": 4}}, {"type": "Feature", "geometry": {"type": "Point", "coordinates": [99.02127, 18.78467]}, "properties": {"id": "cm-osm-node-13991334836", "name": "Uncle moustache steak restaurant", "nameTh": null, "nameEn": "Uncle moustache steak restaurant", "cat": ["food"], "province": "cm", "slug": "uncle-moustache-steak-restaurant-13991334836", "rank": 2}}, {"type": "Feature", "geometry": {"type": "Point", "coordinates": [98.99016, 18.78786]}, "properties": {"id": "cm-osm-node-1598984446", "name": "Wawee Coffee", "nameTh": null, "nameEn": "Wawee Coffee", "cat": ["food"], "province": "cm", "slug": "wawee-coffee-1598984446", "rank": 1}}, {"type": "Feature", "geometry": {"type": "Point", "coordinates": [98.96609, 18.79708]}, "properties": {"id": "cm-osm-node-3417316793", "name": "Yesterday", "nameTh": null, "nameEn": "Yesterday", "cat": ["food"], "province": "cm", "slug": "yesterday-3417316793", "rank": 2}}, {"type": "Feature", "geometry": {"type": "Point", "coordinates": [98.99046, 18.79092]}, "properties": {"id": "cm-osm-node-1157479254", "name": "Zoe in Yellow Garden", "nameTh": null, "nameEn": "Zoe in Yellow Garden", "cat": ["food"], "province": "cm", "slug": "zoe-in-yellow-garden-1157479254", "rank": 1}}, {"type": "Feature", "geometry": {"type": "Point", "coordinates": [98.99657, 18.78811]}, "properties": {"id": "cm-osm-node-9568101417", "name": "asa vegan kitchen", "nameTh": null, "nameEn": "asa vegan kitchen", "cat": ["food"], "province": "cm", "slug": "asa-vegan-kitchen-9568101417", "rank": 2}}, {"type": "Feature", "geometry": {"type": "Point", "coordinates": [98.99075, 18.78459]}, "properties": {"id": "cm-osm-node-6357355018", "name": "breakfast", "nameTh": null, "nameEn": "breakfast", "cat": ["food"], "province": "cm", "slug": "breakfast-6357355018", "rank": 1}}, {"type": "Feature", "geometry": {"type": "Point", "coordinates": [99.00204, 18.79277]}, "properties": {"id": "cm-osm-node-11806453091", "name": "khna coffee brewers", "nameTh": null, "nameEn": "khna coffee brewers", "cat": ["food"], "province": "cm", "slug": "khna-coffee-brewers-11806453091", "rank": 2}}, {"type": "Feature", "geometry": {"type": "Point", "coordinates": [98.98741, 18.78817]}, "properties": {"id": "cm-osm-node-6466099585", "name": "padthai & seefood", "nameTh": null, "nameEn": "padthai & seefood", "cat": ["food"], "province": "cm", "slug": "padthai-seefood-6466099585", "rank": 1}}, {"type": "Feature", "geometry": {"type": "Point", "coordinates": [98.99225, 18.79055]}, "properties": {"id": "cm-osm-node-6083211685", "name": "pickles restaurant", "nameTh": null, "nameEn": "pickles restaurant", "cat": ["food"], "province": "cm", "slug": "pickles-restaurant-6083211685", "rank": 2}}, {"type": "Feature", "geometry": {"type": "Point", "coordinates": [98.94878, 18.8105]}, "properties": {"id": "cm-osm-node-5426264832", "name": "กาเเพลด ดอยหลาง", "nameTh": "กาเเพลด ดอยหลาง", "nameEn": "Doiluang Coffee", "cat": ["food"], "province": "cm", "slug": "doiluang-coffee-5426264832", "rank": 2}}, {"type": "Feature", "geometry": {"type": "Point", "coordinates": [98.95418, 18.80366]}, "properties": {"id": "cm-osm-node-2434783251", "name": "กาแฟรัฐศาสตร์", "nameTh": "กาแฟรัฐศาสตร์", "nameEn": null, "cat": ["food"], "province": "cm", "slug": "2434783251", "rank": 1}}, {"type": "Feature", "geometry": {"type": "Point", "coordinates": [98.96777, 18.79962]}, "properties": {"id": "cm-osm-node-3426416730", "name": "ก๋วยเตี๋ยวตำลึง", "nameTh": "ก๋วยเตี๋ยวตำลึง", "nameEn": "Tamlueng Noodle", "cat": ["food"], "province": "cm", "slug": "tamlueng-noodle-3426416730", "rank": 2}}, {"type": "Feature", "geometry": {"type": "Point", "coordinates": [98.98625, 18.78968]}, "properties": {"id": "cm-osm-node-1619287955", "name": "ก๋วยเตี๋ยวเป็ด", "nameTh": "ก๋วยเตี๋ยวเป็ด", "nameEn": null, "cat": ["food"], "province": "cm", "slug": "1619287955", "rank": 1}}, {"type": "Feature", "geometry": {"type": "Point", "coordinates": [98.97075, 18.79675]}, "properties": {"id": "cm-osm-node-7158628085", "name": "ข้าวต้ม บาทเดียว", "nameTh": "ข้าวต้ม บาทเดียว", "nameEn": "Khao Tom Baht Diao", "cat": ["food"], "province": "cm", "slug": "khao-tom-baht-diao-7158628085", "rank": 2}}, {"type": "Feature", "geometry": {"type": "Point", "coordinates": [98.96822, 18.79981]}, "properties": {"id": "cm-osm-node-3426416706", "name": "ชั้นหนึ่ง", "nameTh": "ชั้นหนึ่ง", "nameEn": "Chan Nueng", "cat": ["food"], "province": "cm", "slug": "chan-nueng-3426416706", "rank": 2}}, {"type": "Feature", "geometry": {"type": "Point", "coordinates": [98.96873, 18.79976]}, "properties": {"id": "cm-osm-node-3426415662", "name": "บ้านตะวันฉาย", "nameTh": "บ้านตะวันฉาย", "nameEn": "Baan Tawan Shine", "cat": ["food"], "province": "cm", "slug": "baan-tawan-shine-3426415662", "rank": 2}}, {"type": "Feature", "geometry": {"type": "Point", "coordinates": [98.96674, 18.79791]}, "properties": {"id": "cm-osm-node-1796984000", "name": "มนต์ นมสด", "nameTh": "มนต์ นมสด", "nameEn": "Mont Nomsod", "cat": ["food"], "province": "cm", "slug": "mont-nomsod-1796984000", "rank": 5}}, {"type": "Feature", "geometry": {"type": "Point", "coordinates": [98.98427, 18.78587]}, "properties": {"id": "cm-osm-node-6540348415", "name": "ร้านแม่บุปผา", "nameTh": "ร้านแม่บุปผา", "nameEn": null, "cat": ["food"], "province": "cm", "slug": "6540348415", "rank": 1}}, {"type": "Feature", "geometry": {"type": "Point", "coordinates": [98.95483, 18.78903]}, "properties": {"id": "cm-osm-node-4430887900", "name": "ฮ้านถึงเจียงใหม่ อาหารเหนือ อาหารพื้นเมือง", "nameTh": "ฮ้านถึงเจียงใหม่ อาหารเหนือ อาหารพื้นเมือง", "nameEn": "Han Teung Chiangmai", "cat": ["food"], "province": "cm", "slug": "han-teung-chiangmai-4430887900", "rank": 4}}, {"type": "Feature", "geometry": {"type": "Point", "coordinates": [99.0139, 18.74317]}, "properties": {"id": "cm-osm-node-2207833035", "name": "@Barnya Pharmacy", "nameTh": "ณ บ้านยา", "nameEn": "@Barnya Pharmacy", "cat": ["essentials", "medical"], "province": "cm", "slug": "barnya-pharmacy-2207833035", "rank": 3}}, {"type": "Feature", "geometry": {"type": "Point", "coordinates": [99.02654, 18.78873]}, "properties": {"id": "cm-osm-way-294031574", "name": "Bangkok Hospital", "nameTh": "โรงพยาบาลกรุงเทพ", "nameEn": "Bangkok Hospital", "cat": ["medical"], "province": "cm", "slug": "bangkok-hospital-294031574", "rank": 6}}, {"type": "Feature", "geometry": {"type": "Point", "coordinates": [98.96704, 18.80222]}, "properties": {"id": "cm-osm-node-13533539045", "name": "Boots", "nameTh": null, "nameEn": "Boots", "cat": ["essentials", "medical"], "province": "cm", "slug": "boots-13533539045", "rank": 1}}, {"type": "Feature", "geometry": {"type": "Point", "coordinates": [98.96698, 18.80217]}, "properties": {"id": "cm-osm-node-3287356489", "name": "Boots", "nameTh": null, "nameEn": "Boots", "cat": ["essentials", "medical"], "province": "cm", "slug": "boots-3287356489", "rank": 2}}, {"type": "Feature", "geometry": {"type": "Point", "coordinates": [98.99397, 18.78803]}, "properties": {"id": "cm-osm-way-482773004", "name": "Boots", "nameTh": null, "nameEn": "Boots", "cat": ["essentials", "medical"], "province": "cm", "slug": "boots-482773004", "rank": 2}}, {"type": "Feature", "geometry": {"type": "Point", "coordinates": [98.98665, 18.78822]}, "properties": {"id": "cm-osm-node-6303088885", "name": "C&R", "nameTh": null, "nameEn": "Natural Herb", "cat": ["essentials", "medical"], "province": "cm", "slug": "natural-herb-6303088885", "rank": 1}}, {"type": "Feature", "geometry": {"type": "Point", "coordinates": [98.97785, 18.7928]}, "properties": {"id": "cm-osm-way-461273738", "name": "Chiangmai Ram Dental Center", "nameTh": null, "nameEn": "Chiangmai Ram Dental Center", "cat": ["medical"], "province": "cm", "slug": "chiangmai-ram-dental-center-461273738", "rank": 2}}, {"type": "Feature", "geometry": {"type": "Point", "coordinates": [98.97705, 18.79307]}, "properties": {"id": "cm-osm-way-1111972742", "name": "Chiangmai Ram Health Centre", "nameTh": null, "nameEn": "Chiangmai Ram Health Centre", "cat": ["medical"], "province": "cm", "slug": "chiangmai-ram-health-centre-1111972742", "rank": 1}}, {"type": "Feature", "geometry": {"type": "Point", "coordinates": [98.95742, 18.79196]}, "properties": {"id": "cm-osm-node-6519106998", "name": "Fairy", "nameTh": null, "nameEn": "Fairy", "cat": ["medical"], "province": "cm", "slug": "fairy-6519106998", "rank": 1}}, {"type": "Feature", "geometry": {"type": "Point", "coordinates": [98.97387, 18.80999]}, "properties": {"id": "cm-osm-node-10970962604", "name": "MIlada Thai-Chinese Medical Clinic", "nameTh": null, "nameEn": "MIlada Thai-Chinese Medical Clinic", "cat": ["medical"], "province": "cm", "slug": "milada-thai-chinese-medical-clinic-10970962604", "rank": 4}}, {"type": "Feature", "geometry": {"type": "Point", "coordinates": [98.96704, 18.80213]}, "properties": {"id": "cm-osm-node-3287356497", "name": "Pharmacare Plus", "nameTh": null, "nameEn": "Pharmacare Plus", "cat": ["essentials", "medical"], "province": "cm", "slug": "pharmacare-plus-3287356497", "rank": 1}}, {"type": "Feature", "geometry": {"type": "Point", "coordinates": [98.96647, 18.798]}, "properties": {"id": "cm-osm-node-1074593976", "name": "Quality Drug", "nameTh": null, "nameEn": "Quality Drug", "cat": ["essentials", "medical"], "province": "cm", "slug": "quality-drug-1074593976", "rank": 1}}, {"type": "Feature", "geometry": {"type": "Point", "coordinates": [98.97751, 18.79277]}, "properties": {"id": "cm-osm-way-679152513", "name": "Skin Centre", "nameTh": null, "nameEn": "Skin Centre", "cat": ["medical"], "province": "cm", "slug": "skin-centre-679152513", "rank": 2}}, {"type": "Feature", "geometry": {"type": "Point", "coordinates": [98.96704, 18.80265]}, "properties": {"id": "cm-osm-node-11609521632", "name": "Tsuruha", "nameTh": null, "nameEn": "Tsuruha", "cat": ["essentials", "medical"], "province": "cm", "slug": "tsuruha-11609521632", "rank": 1}}, {"type": "Feature", "geometry": {"type": "Point", "coordinates": [98.96702, 18.80264]}, "properties": {"id": "cm-osm-node-3287356500", "name": "Watsons", "nameTh": null, "nameEn": "Watsons", "cat": ["essentials", "medical"], "province": "cm", "slug": "watsons-3287356500", "rank": 1}}, {"type": "Feature", "geometry": {"type": "Point", "coordinates": [99.09215, 18.84574]}, "properties": {"id": "cm-osm-node-11015761268", "name": "ศูนย์ดูแลผู้ป่วยและผู้สูงอายุ ธนรัฎ เฮลท์แคร์", "nameTh": "ศูนย์ดูแลผู้ป่วยและผู้สูงอายุ ธนรัฎ เฮลท์แคร์", "nameEn": null, "cat": ["medical"], "province": "cm", "slug": "11015761268", "rank": 1}}, {"type": "Feature", "geometry": {"type": "Point", "coordinates": [98.97749, 18.79494]}, "properties": {"id": "cm-osm-way-257214959", "name": "โรงพยาบาลเชียงใหม่ราม", "nameTh": "โรงพยาบาลเชียงใหม่ราม", "nameEn": "Chiang Mai Ram Hospital", "cat": ["medical"], "province": "cm", "slug": "chiang-mai-ram-hospital-257214959", "rank": 5}}, {"type": "Feature", "geometry": {"type": "Point", "coordinates": [99.01702, 18.8016]}, "properties": {"id": "cm-osm-node-10617407225", "name": "7-Eleven", "nameTh": null, "nameEn": "7-Eleven", "cat": ["essentials"], "province": "cm", "slug": "7-eleven-10617407225", "rank": 2}}, {"type": "Feature", "geometry": {"type": "Point", "coordinates": [98.96643, 18.79794]}, "properties": {"id": "cm-osm-node-1074593974", "name": "7-Eleven", "nameTh": null, "nameEn": "7-Eleven", "cat": ["essentials"], "province": "cm", "slug": "7-eleven-1074593974", "rank": 3}}, {"type": "Feature", "geometry": {"type": "Point", "coordinates": [98.96607, 18.79683]}, "properties": {"id": "cm-osm-node-1131144927", "name": "7-Eleven", "nameTh": null, "nameEn": "7-Eleven", "cat": ["essentials"], "province": "cm", "slug": "7-eleven-1131144927", "rank": 3}}, {"type": "Feature", "geometry": {"type": "Point", "coordinates": [98.99546, 18.77718]}, "properties": {"id": "cm-osm-node-11648354865", "name": "7-Eleven", "nameTh": null, "nameEn": "7-Eleven", "cat": ["essentials"], "province": "cm", "slug": "7-eleven-11648354865", "rank": 1}}, {"type": "Feature", "geometry": {"type": "Point", "coordinates": [98.95683, 18.79217]}, "properties": {"id": "cm-osm-node-4018140121", "name": "7-Eleven", "nameTh": null, "nameEn": "7-Eleven", "cat": ["essentials"], "province": "cm", "slug": "7-eleven-4018140121", "rank": 2}}, {"type": "Feature", "geometry": {"type": "Point", "coordinates": [98.99036, 18.78433]}, "properties": {"id": "cm-osm-node-6117383885", "name": "7-Eleven", "nameTh": null, "nameEn": "7-Eleven", "cat": ["essentials"], "province": "cm", "slug": "7-eleven-6117383885", "rank": 1}}, {"type": "Feature", "geometry": {"type": "Point", "coordinates": [98.98165, 18.78374]}, "properties": {"id": "cm-osm-node-6352082587", "name": "7-Eleven", "nameTh": null, "nameEn": "7-Eleven", "cat": ["essentials"], "province": "cm", "slug": "7-eleven-6352082587", "rank": 2}}, {"type": "Feature", "geometry": {"type": "Point", "coordinates": [98.96486, 18.80273]}, "properties": {"id": "cm-osm-way-314670472", "name": "7-Eleven", "nameTh": null, "nameEn": "7-Eleven", "cat": ["essentials"], "province": "cm", "slug": "7-eleven-314670472", "rank": 3}}, {"type": "Feature", "geometry": {"type": "Point", "coordinates": [98.97263, 18.77185]}, "properties": {"id": "cm-osm-way-676260810", "name": "7-Eleven", "nameTh": null, "nameEn": "7-Eleven", "cat": ["essentials"], "province": "cm", "slug": "7-eleven-676260810", "rank": 3}}, {"type": "Feature", "geometry": {"type": "Point", "coordinates": [98.98943, 18.79067]}, "properties": {"id": "cm-osm-node-1619218793", "name": "CP Fresh Mart", "nameTh": null, "nameEn": "CP Fresh Mart", "cat": ["essentials"], "province": "cm", "slug": "cp-fresh-mart-1619218793", "rank": 2}}, {"type": "Feature", "geometry": {"type": "Point", "coordinates": [98.967, 18.80291]}, "properties": {"id": "cm-osm-node-7055916587", "name": "Krungsri Bank", "nameTh": null, "nameEn": "Krungsri Bank", "cat": ["essentials"], "province": "cm", "slug": "krungsri-bank-7055916587", "rank": 2}}, {"type": "Feature", "geometry": {"type": "Point", "coordinates": [98.98194, 18.81656]}, "properties": {"id": "cm-osm-way-331504419", "name": "Lotus's go fresh", "nameTh": null, "nameEn": "Lotus's go fresh", "cat": ["essentials"], "province": "cm", "slug": "lotus-s-go-fresh-331504419", "rank": 1}}, {"type": "Feature", "geometry": {"type": "Point", "coordinates": [98.9663, 18.79755]}, "properties": {"id": "cm-osm-way-481786770", "name": "Lotus's go fresh", "nameTh": null, "nameEn": "Lotus's go fresh", "cat": ["essentials"], "province": "cm", "slug": "lotus-s-go-fresh-481786770", "rank": 2}}, {"type": "Feature", "geometry": {"type": "Point", "coordinates": [98.99068, 18.78792]}, "properties": {"id": "cm-osm-node-5783761753", "name": "flea market Friday", "nameTh": null, "nameEn": "flea market Friday", "cat": ["essentials"], "province": "cm", "slug": "flea-market-friday-5783761753", "rank": 1}}, {"type": "Feature", "geometry": {"type": "Point", "coordinates": [98.96731, 18.80208]}, "properties": {"id": "cm-osm-node-3287356488", "name": "ธนาคารกรุงศรีอยุธยา", "nameTh": "ธนาคารกรุงศรีอยุธยา", "nameEn": "Bank of Ayudhya", "cat": ["essentials"], "province": "cm", "slug": "bank-of-ayudhya-3287356488", "rank": 2}}, {"type": "Feature", "geometry": {"type": "Point", "coordinates": [98.96706, 18.80261]}, "properties": {"id": "cm-osm-node-3287356495", "name": "ธนาคารกสิกรไทย", "nameTh": "ธนาคารกสิกรไทย", "nameEn": "Kasikornbank", "cat": ["essentials"], "province": "cm", "slug": "kasikornbank-3287356495", "rank": 3}}, {"type": "Feature", "geometry": {"type": "Point", "coordinates": [98.96693, 18.80247]}, "properties": {"id": "cm-osm-node-3287356499", "name": "ธนาคารทหารไทย", "nameTh": "ธนาคารทหารไทย", "nameEn": "TMBThanachart Bank", "cat": ["essentials"], "province": "cm", "slug": "tmbthanachart-bank-3287356499", "rank": 3}}, {"type": "Feature", "geometry": {"type": "Point", "coordinates": [98.96699, 18.80257]}, "properties": {"id": "cm-osm-node-3287356492", "name": "ธนาคารออมสิน", "nameTh": "ธนาคารออมสิน", "nameEn": "Government Savings Bank", "cat": ["essentials"], "province": "cm", "slug": "government-savings-bank-3287356492", "rank": 3}}, {"type": "Feature", "geometry": {"type": "Point", "coordinates": [99.0027, 18.79835]}, "properties": {"id": "cm-osm-way-695908692", "name": "สำนักงานสรรพสามิตภาคที่ 5", "nameTh": "สำนักงานสรรพสามิตภาคที่ 5", "nameEn": null, "cat": ["essentials"], "province": "cm", "slug": "5-695908692", "rank": 1}}, {"type": "Feature", "geometry": {"type": "Point", "coordinates": [98.96036, 18.79145]}, "properties": {"id": "cm-osm-way-91933367", "name": "โครงการหลวง", "nameTh": "โครงการหลวง", "nameEn": "Royal Project Shop", "cat": ["essentials"], "province": "cm", "slug": "royal-project-shop-91933367", "rank": 3}}, {"type": "Feature", "geometry": {"type": "Point", "coordinates": [98.9825, 18.78639]}, "properties": {"id": "cm-osm-way-238831216", "name": "ไปรษณีย์พระสิงห์", "nameTh": "ไปรษณีย์พระสิงห์", "nameEn": "Phra Singh post office", "cat": ["essentials"], "province": "cm", "slug": "phra-singh-post-office-238831216", "rank": 3}}, {"type": "Feature", "geometry": {"type": "Point", "coordinates": [98.95949, 18.74196]}, "properties": {"id": "cm-osm-way-825349196", "name": "ไปรษณีย์ไทย", "nameTh": "ไปรษณีย์ไทย", "nameEn": null, "cat": ["essentials"], "province": "cm", "slug": "825349196", "rank": 1}}, {"type": "Feature", "geometry": {"type": "Point", "coordinates": [98.95434, 18.80418]}, "properties": {"id": "cm-osm-way-325238406", "name": "ไปรษณีย์ไทย มหาวิทยาลัยเชียงใหม่", "nameTh": "ไปรษณีย์ไทย มหาวิทยาลัยเชียงใหม่", "nameEn": "Chiangmai University Post Office", "cat": ["essentials"], "province": "cm", "slug": "chiangmai-university-post-office-325238406", "rank": 2}}, {"type": "Feature", "geometry": {"type": "Point", "coordinates": [98.98304, 18.78943]}, "properties": {"id": "cm-osm-node-3804433413", "name": "99 Gallery Hotel", "nameTh": null, "nameEn": "99 Gallery Hotel", "cat": ["hotel"], "province": "cm", "slug": "99-gallery-hotel-3804433413", "rank": 2}}, {"type": "Feature", "geometry": {"type": "Point", "coordinates": [98.99399, 18.78937]}, "properties": {"id": "cm-osm-way-481700410", "name": "Amora Chiang Mai", "nameTh": null, "nameEn": "Amora Chiang Mai", "cat": ["hotel"], "province": "cm", "slug": "amora-chiang-mai-481700410", "rank": 4}}, {"type": "Feature", "geometry": {"type": "Point", "coordinates": [98.97598, 18.96773]}, "properties": {"id": "cm-osm-node-13408873756", "name": "Baansuanpurajit", "nameTh": "บ้านสวนภูรจิตร", "nameEn": "Baansuanpurajit", "cat": ["hotel"], "province": "cm", "slug": "baansuanpurajit-13408873756", "rank": 2}}, {"type": "Feature", "geometry": {"type": "Point", "coordinates": [98.99249, 18.79253]}, "properties": {"id": "cm-osm-way-361016496", "name": "CM Apartment", "nameTh": null, "nameEn": "CM Apartment", "cat": ["hotel"], "province": "cm", "slug": "cm-apartment-361016496", "rank": 1}}, {"type": "Feature", "geometry": {"type": "Point", "coordinates": [98.99049, 18.78341]}, "properties": {"id": "cm-osm-node-1618868155", "name": "Come Chiangmai", "nameTh": null, "nameEn": "Come Chiangmai", "cat": ["hotel"], "province": "cm", "slug": "come-chiangmai-1618868155", "rank": 2}}, {"type": "Feature", "geometry": {"type": "Point", "coordinates": [98.98247, 18.79068]}, "properties": {"id": "cm-osm-node-6138692197", "name": "De Charme Hotel", "nameTh": null, "nameEn": "De Charme Hotel", "cat": ["hotel"], "province": "cm", "slug": "de-charme-hotel-6138692197", "rank": 1}}, {"type": "Feature", "geometry": {"type": "Point", "coordinates": [98.99904, 18.78363]}, "properties": {"id": "cm-osm-node-3619455600", "name": "Duangtawan Hotel", "nameTh": null, "nameEn": "Duangtawan Hotel", "cat": ["hotel"], "province": "cm", "slug": "duangtawan-hotel-3619455600", "rank": 1}}, {"type": "Feature", "geometry": {"type": "Point", "coordinates": [98.967, 18.80116]}, "properties": {"id": "cm-osm-way-254597955", "name": "Eastin Tan", "nameTh": null, "nameEn": "Eastin Tan", "cat": ["hotel"], "province": "cm", "slug": "eastin-tan-254597955", "rank": 3}}, {"type": "Feature", "geometry": {"type": "Point", "coordinates": [99.00099, 18.77472]}, "properties": {"id": "cm-osm-node-6897448545", "name": "Empress Premier Hotel Chiang Mai", "nameTh": null, "nameEn": "Empress Premier Hotel Chiang Mai", "cat": ["hotel"], "province": "cm", "slug": "empress-premier-hotel-chiang-mai-6897448545", "rank": 3}}, {"type": "Feature", "geometry": {"type": "Point", "coordinates": [98.98429, 18.79952]}, "properties": {"id": "cm-osm-node-9401545617", "name": "Glory Boutique Suites", "nameTh": null, "nameEn": "Glory Boutique Suites", "cat": ["hotel"], "province": "cm", "slug": "glory-boutique-suites-9401545617", "rank": 3}}, {"type": "Feature", "geometry": {"type": "Point", "coordinates": [98.99598, 18.78156]}, "properties": {"id": "cm-osm-node-1477524075", "name": "Maninarakorn", "nameTh": null, "nameEn": "Maninarakorn", "cat": ["hotel"], "province": "cm", "slug": "maninarakorn-1477524075", "rank": 1}}, {"type": "Feature", "geometry": {"type": "Point", "coordinates": [98.98782, 18.78793]}, "properties": {"id": "cm-osm-node-1618892756", "name": "Parasol Inn", "nameTh": null, "nameEn": "Parasol Inn", "cat": ["hotel"], "province": "cm", "slug": "parasol-inn-1618892756", "rank": 2}}, {"type": "Feature", "geometry": {"type": "Point", "coordinates": [98.96354, 18.81819]}, "properties": {"id": "cm-osm-way-443317068", "name": "Pause and Play Hotel", "nameTh": null, "nameEn": "Pause and Play Hotel", "cat": ["hotel"], "province": "cm", "slug": "pause-and-play-hotel-443317068", "rank": 1}}, {"type": "Feature", "geometry": {"type": "Point", "coordinates": [99.09743, 18.7811]}, "properties": {"id": "cm-osm-way-314940925", "name": "Secret Garden", "nameTh": "ซิเคร์ท การร์เด้นท์", "nameEn": "Secret Garden", "cat": ["hotel"], "province": "cm", "slug": "secret-garden-314940925", "rank": 4}}, {"type": "Feature", "geometry": {"type": "Point", "coordinates": [99.14036, 18.89976]}, "properties": {"id": "cm-osm-way-583749814", "name": "Vivobene Village", "nameTh": null, "nameEn": "Vivobene Village", "cat": ["hotel"], "province": "cm", "slug": "vivobene-village-583749814", "rank": 2}}, {"type": "Feature", "geometry": {"type": "Point", "coordinates": [98.95999, 18.80615]}, "properties": {"id": "cm-osm-way-285999615", "name": "ibis Styles", "nameTh": null, "nameEn": "ibis Styles", "cat": ["hotel"], "province": "cm", "slug": "ibis-styles-285999615", "rank": 3}}, {"type": "Feature", "geometry": {"type": "Point", "coordinates": [98.8436, 18.78667]}, "properties": {"id": "cm-osm-node-2438297981", "name": "โรงแรม สวนบัวรีสอร์ท", "nameTh": "โรงแรม สวนบัวรีสอร์ท", "nameEn": "Suan Bua Hotel & Resort", "cat": ["hotel"], "province": "cm", "slug": "suan-bua-hotel-resort-2438297981", "rank": 4}}, {"type": "Feature", "geometry": {"type": "Point", "coordinates": [98.92888, 18.74335]}, "properties": {"id": "cm-osm-node-2650554915", "name": "Hanna Christian International Kindergarten", "nameTh": null, "nameEn": "Hanna Christian International Kindergarten", "cat": ["school", "school-intl"], "province": "cm", "slug": "hanna-christian-international-kindergarten-2650554915", "rank": 1}}, {"type": "Feature", "geometry": {"type": "Point", "coordinates": [98.98741, 18.78736]}, "properties": {"id": "cm-osm-node-6611332086", "name": "Mahamakut Buddhist University", "nameTh": null, "nameEn": "Mahamakut Buddhist University", "cat": ["school"], "province": "cm", "slug": "mahamakut-buddhist-university-6611332086", "rank": 1}}, {"type": "Feature", "geometry": {"type": "Point", "coordinates": [98.95296, 18.80981]}, "properties": {"id": "cm-osm-node-1196596733", "name": "Rajamangala University of Technology Lanna", "nameTh": null, "nameEn": "Rajamangala University of Technology Lanna", "cat": ["school"], "province": "cm", "slug": "rajamangala-university-of-technology-lanna-1196596733", "rank": 1}}, {"type": "Feature", "geometry": {"type": "Point", "coordinates": [98.95409, 18.89339]}, "properties": {"id": "cm-osm-node-5599660472", "name": "เซฟไดร์ฟ เชียงใหม่", "nameTh": "เซฟไดร์ฟ เชียงใหม่", "nameEn": "Safe Drive Chiang Mai", "cat": ["school"], "province": "cm", "slug": "safe-drive-chiang-mai-5599660472", "rank": 3}}, {"type": "Feature", "geometry": {"type": "Point", "coordinates": [98.98891, 18.792]}, "properties": {"id": "cm-osm-way-272979974", "name": "โรงเรียนยุพราชวิทยาลัย", "nameTh": "โรงเรียนยุพราชวิทยาลัย", "nameEn": "Yupparaj Wittayalai School", "cat": ["school"], "province": "cm", "slug": "yupparaj-wittayalai-school-272979974", "rank": 4}}, {"type": "Feature", "geometry": {"type": "Point", "coordinates": [98.9878, 18.78845]}, "properties": {"id": "cm-osm-node-6052324285", "name": "SangSom", "nameTh": null, "nameEn": "SangSom", "cat": ["shopping"], "province": "cm", "slug": "sangsom-6052324285", "rank": 1}}, {"type": "Feature", "geometry": {"type": "Point", "coordinates": [98.98782, 18.78838]}, "properties": {"id": "cm-osm-node-6052327100", "name": "Things Called Art", "nameTh": null, "nameEn": "Things Called Art", "cat": ["shopping"], "province": "cm", "slug": "things-called-art-6052327100", "rank": 1}}, {"type": "Feature", "geometry": {"type": "Point", "coordinates": [99.082, 18.76461]}, "properties": {"id": "cm-osm-node-633404706", "name": "ศูนย์ทำร่มบ่อสร้าง​", "nameTh": "ศูนย์ทำร่มบ่อสร้าง​", "nameEn": "Umbrella Making Centre", "cat": ["shopping"], "province": "cm", "slug": "umbrella-making-centre-633404706", "rank": 4}}, {"type": "Feature", "geometry": {"type": "Point", "coordinates": [98.96727, 18.80246]}, "properties": {"id": "cm-osm-way-249154472", "name": "เมญ่า", "nameTh": "เมญ่า", "nameEn": "Maya Lifestyle Shopping Center", "cat": ["shopping"], "province": "cm", "slug": "maya-lifestyle-shopping-center-249154472", "rank": 4}}, {"type": "Feature", "geometry": {"type": "Point", "coordinates": [98.96828, 18.76781]}, "properties": {"id": "cm-osm-node-1474870805", "name": "Avis", "nameTh": null, "nameEn": "Avis", "cat": ["transport"], "province": "cm", "slug": "avis-1474870805", "rank": 2}}, {"type": "Feature", "geometry": {"type": "Point", "coordinates": [98.96778, 18.77031]}, "properties": {"id": "cm-osm-node-3281905418", "name": "Avis", "nameTh": null, "nameEn": "Avis", "cat": ["transport"], "province": "cm", "slug": "avis-3281905418", "rank": 2}}, {"type": "Feature", "geometry": {"type": "Point", "coordinates": [98.96777, 18.77052]}, "properties": {"id": "cm-osm-node-3281905419", "name": "Budget", "nameTh": null, "nameEn": "Budget", "cat": ["transport"], "province": "cm", "slug": "budget-3281905419", "rank": 2}}, {"type": "Feature", "geometry": {"type": "Point", "coordinates": [99.02073, 18.7846]}, "properties": {"id": "cm-osm-node-13991350701", "name": "Barber Shop", "nameTh": null, "nameEn": "Barber Shop", "cat": ["beauty"], "province": "cm", "slug": "barber-shop-13991350701", "rank": 2}}, {"type": "Feature", "geometry": {"type": "Point", "coordinates": [98.99306, 18.78989]}, "properties": {"id": "cm-osm-node-5328427821", "name": "Barber by DON'S", "nameTh": null, "nameEn": "Barber by DON'S", "cat": ["beauty"], "province": "cm", "slug": "barber-by-don-s-5328427821", "rank": 3}}, {"type": "Feature", "geometry": {"type": "Point", "coordinates": [98.9857, 18.79053]}, "properties": {"id": "cm-osm-node-4788941122", "name": "Chiang mai d'Oman correctional institution vocational (massage/spa)", "nameTh": null, "nameEn": "Women's prison rehabilitation centre (massage/spa)", "cat": ["beauty"], "province": "cm", "slug": "women-s-prison-rehabilitation-centre-massage-spa-4788941122", "rank": 1}}, {"type": "Feature", "geometry": {"type": "Point", "coordinates": [98.97124, 18.79875]}, "properties": {"id": "cm-osm-node-11612597268", "name": "Nine Kim", "nameTh": null, "nameEn": "Nine Kim", "cat": ["beauty"], "province": "cm", "slug": "nine-kim-11612597268", "rank": 2}}, {"type": "Feature", "geometry": {"type": "Point", "coordinates": [98.98158, 18.78283]}, "properties": {"id": "cm-osm-way-406928384", "name": "มะซาลอน", "nameTh": "มะซาลอน", "nameEn": "Ma Salon", "cat": ["beauty"], "province": "cm", "slug": "ma-salon-406928384", "rank": 2}}, {"type": "Feature", "geometry": {"type": "Point", "coordinates": [98.95905, 18.7914]}, "properties": {"id": "cm-osm-node-4359589496", "name": "สาขาหลังมอ", "nameTh": "สาขาหลังมอ", "nameEn": "Faircut 2", "cat": ["beauty"], "province": "cm", "slug": "faircut-2-4359589496", "rank": 2}}, {"type": "Feature", "geometry": {"type": "Point", "coordinates": [98.95516, 18.79583]}, "properties": {"id": "cm-osm-way-313513917", "name": "อาคารพลศึกษา", "nameTh": "อาคารพลศึกษา", "nameEn": null, "cat": ["sport"], "province": "cm", "slug": "313513917", "rank": 2}}, {"type": "Feature", "geometry": {"type": "Point", "coordinates": [98.9667, 18.80231]}, "properties": {"id": "cm-osm-node-2692460179", "name": "C.A.M.P.", "nameTh": null, "nameEn": "C.A.M.P.", "cat": ["business"], "province": "cm", "slug": "c-a-m-p-2692460179", "rank": 2}}, {"type": "Feature", "geometry": {"type": "Point", "coordinates": [98.96715, 18.80274]}, "properties": {"id": "cm-osm-node-2717002069", "name": "SFX Cinema Maya", "nameTh": null, "nameEn": "SFX Cinema Maya", "cat": ["whats-on"], "province": "cm", "slug": "sfx-cinema-maya-2717002069", "rank": 1}}, {"type": "Feature", "geometry": {"type": "Point", "coordinates": [98.98647, 18.79024]}, "properties": {"id": "cm-osm-node-4501920590", "name": "Chiang Mai Historical Centre", "nameTh": null, "nameEn": "Chiang Mai Historical Centre", "cat": ["museums-galleries"], "province": "cm", "slug": "chiang-mai-historical-centre-4501920590", "rank": 1}}, {"type": "Feature", "geometry": {"type": "Point", "coordinates": [98.98625, 18.79018]}, "properties": {"id": "cm-osm-node-4750233535", "name": "Chiang Mai Historical Centre", "nameTh": null, "nameEn": "Chiang Mai Historical Centre", "cat": ["museums-galleries"], "province": "cm", "slug": "chiang-mai-historical-centre-4750233535", "rank": 1}}, {"type": "Feature", "geometry": {"type": "Point", "coordinates": [99.09364, 18.75705]}, "properties": {"id": "cm-osm-way-98600701", "name": "Maiiam", "nameTh": null, "nameEn": "Maiiam", "cat": ["museums-galleries"], "province": "cm", "slug": "maiiam-98600701", "rank": 2}}, {"type": "Feature", "geometry": {"type": "Point", "coordinates": [98.98832, 18.7879]}, "properties": {"id": "cm-osm-node-5988609528", "name": "คุ้มเจ้าบุรีรัตน์", "nameTh": "คุ้มเจ้าบุรีรัตน์", "nameEn": "Khum Chao Burirat House", "cat": ["museums-galleries"], "province": "cm", "slug": "khum-chao-burirat-house-5988609528", "rank": 4}}, {"type": "Feature", "geometry": {"type": "Point", "coordinates": [98.98841, 18.79023]}, "properties": {"id": "cm-osm-way-261338789", "name": "พิพิธภัณฑ์พื้นถิ่นล้านนา", "nameTh": "พิพิธภัณฑ์พื้นถิ่นล้านนา", "nameEn": "Lanna Folklife Museum", "cat": ["museums-galleries"], "province": "cm", "slug": "lanna-folklife-museum-261338789", "rank": 3}}, {"type": "Feature", "geometry": {"type": "Point", "coordinates": [98.93324, 18.79141]}, "properties": {"id": "cm-osm-node-245227907", "name": "Chaloem Phra Kiat Pavilion Viewpoint", "nameTh": null, "nameEn": "Chaloem Phra Kiat Pavilion Viewpoint", "cat": ["sights"], "province": "cm", "slug": "chaloem-phra-kiat-pavilion-viewpoint-245227907", "rank": 2}}, {"type": "Feature", "geometry": {"type": "Point", "coordinates": [99.22811, 18.81582]}, "properties": {"id": "cm-osm-way-95223020", "name": "น้ำพุร้อนสันกำแพง", "nameTh": "น้ำพุร้อนสันกำแพง", "nameEn": "Sankampaeng Hot Springs", "cat": ["sights"], "province": "cm", "slug": "sankampaeng-hot-springs-95223020", "rank": 5}}, {"type": "Feature", "geometry": {"type": "Point", "coordinates": [98.98735, 18.79023]}, "properties": {"id": "cm-osm-node-1619287904", "name": "อนุสาวรีย์สามกษัตริย์", "nameTh": "อนุสาวรีย์สามกษัตริย์", "nameEn": "Three Kings Monument", "cat": ["sights"], "province": "cm", "slug": "three-kings-monument-1619287904", "rank": 2}}]}