{"type": "FeatureCollection", "features": [{"type": "Feature", "geometry": {"type": "Point", "coordinates": [98.97086, 18.79545]}, "properties": {"id": "cm-osm-node-3421202368", "name": "Jang Kub Coffee", "nameTh": null, "nameEn": "Jang Kub Coffee", "cat": ["food"], "province": "cm", "slug": "jang-kub-coffee-3421202368", "rank": 2}}, {"type": "Feature", "geometry": {"type": "Point", "coordinates": [99.0152, 18.75975]}, "properties": {"id": "cm-osm-node-1548373092", "name": "Mingmitr Coffee", "nameTh": null, "nameEn": "Mingmitr Coffee", "cat": ["food"], "province": "cm", "slug": "mingmitr-coffee-1548373092", "rank": 1}}, {"type": "Feature", "geometry": {"type": "Point", "coordinates": [98.99119, 18.81221]}, "properties": {"id": "cm-osm-node-3195504332", "name": "Mingmitr Coffee", "nameTh": null, "nameEn": "Mingmitr Coffee", "cat": ["food"], "province": "cm", "slug": "mingmitr-coffee-3195504332", "rank": 1}}, {"type": "Feature", "geometry": {"type": "Point", "coordinates": [99.01292, 18.79983]}, "properties": {"id": "cm-osm-node-8712823742", "name": "Mingmitr Coffee", "nameTh": null, "nameEn": "Mingmitr Coffee", "cat": ["food"], "province": "cm", "slug": "mingmitr-coffee-8712823742", "rank": 1}}, {"type": "Feature", "geometry": {"type": "Point", "coordinates": [98.99427, 18.76579]}, "properties": {"id": "cm-osm-node-9351789417", "name": "Mingmitr Coffee", "nameTh": null, "nameEn": "Mingmitr Coffee", "cat": ["food"], "province": "cm", "slug": "mingmitr-coffee-9351789417", "rank": 3}}, {"type": "Feature", "geometry": {"type": "Point", "coordinates": [99.02422, 18.72736]}, "properties": {"id": "cm-osm-node-9626362481", "name": "Mingmitr Coffee", "nameTh": null, "nameEn": "Mingmitr Coffee", "cat": ["food"], "province": "cm", "slug": "mingmitr-coffee-9626362481", "rank": 1}}, {"type": "Feature", "geometry": {"type": "Point", "coordinates": [98.9536, 18.77773]}, "properties": {"id": "cm-osm-way-772861537", "name": "Mingmitr Coffee", "nameTh": null, "nameEn": "Mingmitr Coffee", "cat": ["food"], "province": "cm", "slug": "mingmitr-coffee-772861537", "rank": 2}}]}