{"type": "FeatureCollection", "features": [{"type": "Feature", "geometry": {"type": "Point", "coordinates": [98.96513, 18.78898]}, "properties": {"id": "cm-osm-node-4359739852", "name": "100 Flavors: Chiang Mai Craft Ice Cream", "nameTh": null, "nameEn": "100 Flavors: Chiang Mai Craft Ice Cream", "cat": ["food"], "province": "cm", "slug": "100-flavors-chiang-mai-craft-ice-cream-4359739852", "rank": 3}}, {"type": "Feature", "geometry": {"type": "Point", "coordinates": [98.97523, 18.80541]}, "properties": {"id": "cm-osm-node-8891760799", "name": "29 Coffties", "nameTh": null, "nameEn": "29 Coffties", "cat": ["food"], "province": "cm", "slug": "29-coffties-8891760799", "rank": 3}}, {"type": "Feature", "geometry": {"type": "Point", "coordinates": [98.98894, 18.78196]}, "properties": {"id": "cm-osm-node-4233033292", "name": "A ROI", "nameTh": "โจ๊กต้มเลือดหมู ประตูเชียงใหม่", "nameEn": "A ROI", "cat": ["food"], "province": "cm", "slug": "a-roi-4233033292", "rank": 2}}, {"type": "Feature", "geometry": {"type": "Point", "coordinates": [98.98365, 18.79531]}, "properties": {"id": "cm-osm-node-12513656179", "name": "ASMR Cafe & Wellness", "nameTh": null, "nameEn": "ASMR Cafe & Wellness", "cat": ["food"], "province": "cm", "slug": "asmr-cafe-wellness-12513656179", "rank": 2}}, {"type": "Feature", "geometry": {"type": "Point", "coordinates": [98.98219, 18.79238]}, "properties": {"id": "cm-osm-node-11369869429", "name": "Air's Kitchen and Cafe", "nameTh": null, "nameEn": "Air's Kitchen and Cafe", "cat": ["food"], "province": "cm", "slug": "air-s-kitchen-and-cafe-11369869429", "rank": 2}}, {"type": "Feature", "geometry": {"type": "Point", "coordinates": [98.98075, 18.77692]}, "properties": {"id": "cm-osm-node-8808240817", "name": "Alchemy Vegan", "nameTh": null, "nameEn": "Alchemy Vegan", "cat": ["food"], "province": "cm", "slug": "alchemy-vegan-8808240817", "rank": 3}}, {"type": "Feature", "geometry": {"type": "Point", "coordinates": [98.9655, 18.79669]}, "properties": {"id": "cm-osm-node-4477017880", "name": "Anchan", "nameTh": null, "nameEn": "Anchan", "cat": ["food"], "province": "cm", "slug": "anchan-4477017880", "rank": 2}}, {"type": "Feature", "geometry": {"type": "Point", "coordinates": [98.98794, 18.77844]}, "properties": {"id": "cm-osm-node-5484616521", "name": "Aum Vegetarian Restaurant", "nameTh": null, "nameEn": "Aum Vegetarian Restaurant", "cat": ["food"], "province": "cm", "slug": "aum-vegetarian-restaurant-5484616521", "rank": 2}}, {"type": "Feature", "geometry": {"type": "Point", "coordinates": [98.95226, 18.92459]}, "properties": {"id": "cm-osm-way-1168313004", "name": "Bantunglom Resort", "nameTh": null, "nameEn": "Bantunglom Resort", "cat": ["food"], "province": "cm", "slug": "bantunglom-resort-1168313004", "rank": 3}}, {"type": "Feature", "geometry": {"type": "Point", "coordinates": [98.98017, 18.7928]}, "properties": {"id": "cm-osm-way-623146118", "name": "Bird's Nest Cafe", "nameTh": null, "nameEn": "Bird's Nest Cafe", "cat": ["food"], "province": "cm", "slug": "bird-s-nest-cafe-623146118", "rank": 3}}, {"type": "Feature", "geometry": {"type": "Point", "coordinates": [98.99142, 18.7939]}, "properties": {"id": "cm-osm-way-259707860", "name": "Blue Diamond The Breakfast Club", "nameTh": null, "nameEn": "Blue Diamond The Breakfast Club", "cat": ["food"], "province": "cm", "slug": "blue-diamond-the-breakfast-club-259707860", "rank": 3}}, {"type": "Feature", "geometry": {"type": "Point", "coordinates": [98.99147, 18.78603]}, "properties": {"id": "cm-osm-node-3957108529", "name": "Bodhi Tree 1 Café", "nameTh": null, "nameEn": "Bodhi Tree 1 Café", "cat": ["food"], "province": "cm", "slug": "bodhi-tree-1-caf-3957108529", "rank": 1}}, {"type": "Feature", "geometry": {"type": "Point", "coordinates": [98.99106, 18.78916]}, "properties": {"id": "cm-osm-node-4925330150", "name": "Bodhi Tree Cafe", "nameTh": null, "nameEn": "Bodhi Tree Cafe", "cat": ["food"], "province": "cm", "slug": "bodhi-tree-cafe-4925330150", "rank": 1}}, {"type": "Feature", "geometry": {"type": "Point", "coordinates": [99.01277, 18.78369]}, "properties": {"id": "cm-osm-node-2294540781", "name": "Bun Song", "nameTh": null, "nameEn": "Bun Song", "cat": ["food"], "province": "cm", "slug": "bun-song-2294540781", "rank": 1}}, {"type": "Feature", "geometry": {"type": "Point", "coordinates": [98.99043, 18.78637]}, "properties": {"id": "cm-osm-node-9872196618", "name": "Chada Vegetarian", "nameTh": null, "nameEn": "Chada Vegetarian", "cat": ["food"], "province": "cm", "slug": "chada-vegetarian-9872196618", "rank": 2}}, {"type": "Feature", "geometry": {"type": "Point", "coordinates": [98.96928, 18.78869]}, "properties": {"id": "cm-osm-node-4539213082", "name": "Everest 8848", "nameTh": null, "nameEn": "Everest 8848", "cat": ["food"], "province": "cm", "slug": "everest-8848-4539213082", "rank": 1}}, {"type": "Feature", "geometry": {"type": "Point", "coordinates": [99.00768, 18.79609]}, "properties": {"id": "cm-osm-node-11849670169", "name": "Food4Thought East", "nameTh": null, "nameEn": "Food4Thought East", "cat": ["food"], "province": "cm", "slug": "food4thought-east-11849670169", "rank": 3}}, {"type": "Feature", "geometry": {"type": "Point", "coordinates": [98.9886, 18.78493]}, "properties": {"id": "cm-osm-way-761867078", "name": "Fresh Time Vegetarian", "nameTh": null, "nameEn": "Fresh Time Vegetarian", "cat": ["food"], "province": "cm", "slug": "fresh-time-vegetarian-761867078", "rank": 2}}, {"type": "Feature", "geometry": {"type": "Point", "coordinates": [98.98209, 18.79326]}, "properties": {"id": "cm-osm-way-623140246", "name": "Goodsouls Kitchen", "nameTh": null, "nameEn": "Goodsouls Kitchen", "cat": ["food"], "province": "cm", "slug": "goodsouls-kitchen-623140246", "rank": 3}}, {"type": "Feature", "geometry": {"type": "Point", "coordinates": [98.99415, 18.79048]}, "properties": {"id": "cm-osm-node-7127576609", "name": "Goodsouls Kitchen - Chang Moi", "nameTh": null, "nameEn": "Goodsouls Kitchen - Chang Moi", "cat": ["food"], "province": "cm", "slug": "goodsouls-kitchen-chang-moi-7127576609", "rank": 3}}, {"type": "Feature", "geometry": {"type": "Point", "coordinates": [99.0118, 18.82554]}, "properties": {"id": "cm-osm-node-6269055188", "name": "Happy Mushroom Vegan & Vegetarian Jae Restaurant", "nameTh": null, "nameEn": "Happy Mushroom Vegan & Vegetarian Jae Restaurant", "cat": ["food"], "province": "cm", "slug": "happy-mushroom-vegan-vegetarian-jae-restaurant-6269055188", "rank": 1}}, {"type": "Feature", "geometry": {"type": "Point", "coordinates": [99.00181, 18.79453]}, "properties": {"id": "cm-osm-node-7150405587", "name": "Happy Time - Vegan Foods & Salad bar", "nameTh": null, "nameEn": "Happy Time - Vegan Foods & Salad bar", "cat": ["food"], "province": "cm", "slug": "happy-time-vegan-foods-salad-bar-7150405587", "rank": 3}}, {"type": "Feature", "geometry": {"type": "Point", "coordinates": [98.94836, 18.90635]}, "properties": {"id": "cm-osm-node-3562442293", "name": "Homboon", "nameTh": null, "nameEn": "Homboon", "cat": ["food"], "province": "cm", "slug": "homboon-3562442293", "rank": 1}}, {"type": "Feature", "geometry": {"type": "Point", "coordinates": [98.96754, 18.80193]}, "properties": {"id": "cm-osm-node-13392865738", "name": "Imjai Vegan", "nameTh": null, "nameEn": "Imjai Vegan", "cat": ["food"], "province": "cm", "slug": "imjai-vegan-13392865738", "rank": 1}}, {"type": "Feature", "geometry": {"type": "Point", "coordinates": [98.97884, 18.8006]}, "properties": {"id": "cm-osm-node-4519103091", "name": "Imm Aim vegetarian restaurant", "nameTh": null, "nameEn": "Imm Aim vegetarian restaurant", "cat": ["food"], "province": "cm", "slug": "imm-aim-vegetarian-restaurant-4519103091", "rank": 1}}, {"type": "Feature", "geometry": {"type": "Point", "coordinates": [98.99238, 18.79196]}, "properties": {"id": "cm-osm-node-6312076385", "name": "Indish", "nameTh": null, "nameEn": "Indish", "cat": ["food"], "province": "cm", "slug": "indish-6312076385", "rank": 2}}, {"type": "Feature", "geometry": {"type": "Point", "coordinates": [99.00785, 18.77578]}, "properties": {"id": "cm-osm-node-11161006605", "name": "Je Pa Phon Vegetarian Restaurant", "nameTh": null, "nameEn": "Je Pa Phon Vegetarian Restaurant", "cat": ["food"], "province": "cm", "slug": "je-pa-phon-vegetarian-restaurant-11161006605", "rank": 2}}, {"type": "Feature", "geometry": {"type": "Point", "coordinates": [98.99257, 18.78508]}, "properties": {"id": "cm-osm-node-2040042303", "name": "Juicy4U", "nameTh": null, "nameEn": "Juicy4U", "cat": ["food"], "province": "cm", "slug": "juicy4u-2040042303", "rank": 2}}, {"type": "Feature", "geometry": {"type": "Point", "coordinates": [98.96677, 18.79547]}, "properties": {"id": "cm-osm-node-2292083007", "name": "Khun Churn", "nameTh": null, "nameEn": "Khun Churn", "cat": ["food"], "province": "cm", "slug": "khun-churn-2292083007", "rank": 1}}, {"type": "Feature", "geometry": {"type": "Point", "coordinates": [98.99975, 18.77561]}, "properties": {"id": "cm-osm-node-5263165321", "name": "Kin Lum Vegetarian", "nameTh": null, "nameEn": "Kin Lum Vegetarian", "cat": ["food"], "province": "cm", "slug": "kin-lum-vegetarian-5263165321", "rank": 2}}, {"type": "Feature", "geometry": {"type": "Point", "coordinates": [98.94495, 18.72153]}, "properties": {"id": "cm-osm-way-1160344819", "name": "King Lio", "nameTh": null, "nameEn": "King Lio", "cat": ["food"], "province": "cm", "slug": "king-lio-1160344819", "rank": 3}}, {"type": "Feature", "geometry": {"type": "Point", "coordinates": [98.98112, 18.80305]}, "properties": {"id": "cm-osm-node-9872146918", "name": "Kinphak Cafe (Cmu vegan Food)", "nameTh": null, "nameEn": "Kinphak Cafe (Cmu vegan Food)", "cat": ["food"], "province": "cm", "slug": "kinphak-cafe-cmu-vegan-food-9872146918", "rank": 2}}, {"type": "Feature", "geometry": {"type": "Point", "coordinates": [98.95985, 18.80896]}, "properties": {"id": "cm-osm-node-11111283605", "name": "Kinphak Cafe Shan Vegetarian", "nameTh": null, "nameEn": "Kinphak Cafe Shan Vegetarian", "cat": ["food"], "province": "cm", "slug": "kinphak-cafe-shan-vegetarian-11111283605", "rank": 1}}, {"type": "Feature", "geometry": {"type": "Point", "coordinates": [98.91217, 18.9668]}, "properties": {"id": "cm-osm-node-13394591201", "name": "La Factoria", "nameTh": null, "nameEn": "La Factoria", "cat": ["food"], "province": "cm", "slug": "la-factoria-13394591201", "rank": 2}}, {"type": "Feature", "geometry": {"type": "Point", "coordinates": [98.99192, 18.79277]}, "properties": {"id": "cm-osm-node-5271447023", "name": "LadyBake", "nameTh": null, "nameEn": "LadyBake", "cat": ["food"], "province": "cm", "slug": "ladybake-5271447023", "rank": 1}}, {"type": "Feature", "geometry": {"type": "Point", "coordinates": [98.99112, 18.79109]}, "properties": {"id": "cm-osm-way-97923157", "name": "Lanna Square Market", "nameTh": "ลานนา สแควร์", "nameEn": "Lanna Square Market", "cat": ["food"], "province": "cm", "slug": "lanna-square-market-97923157", "rank": 3}}, {"type": "Feature", "geometry": {"type": "Point", "coordinates": [98.98891, 18.78224]}, "properties": {"id": "cm-osm-node-6278120085", "name": "Local restaurant", "nameTh": null, "nameEn": "Local restaurant", "cat": ["food"], "province": "cm", "slug": "local-restaurant-6278120085", "rank": 2}}, {"type": "Feature", "geometry": {"type": "Point", "coordinates": [99.00642, 18.78885]}, "properties": {"id": "cm-osm-node-12500290176", "name": "May Kaidee vegan cooking classes", "nameTh": null, "nameEn": "May Kaidee vegan cooking classes", "cat": ["cooking", "food"], "province": "cm", "slug": "may-kaidee-vegan-cooking-classes-12500290176", "rank": 4}}, {"type": "Feature", "geometry": {"type": "Point", "coordinates": [98.9944, 18.78972]}, "properties": {"id": "cm-osm-node-4529653891", "name": "May Kaidee's Restaurant & Cooking School (Thai Vegetarian, Vegan Food)", "nameTh": null, "nameEn": "May Kaidee's Restaurant & Cooking School (Thai Vegetarian, Vegan Food)", "cat": ["cooking", "food"], "province": "cm", "slug": "may-kaidee-s-restaurant-cooking-school-thai-vegetarian-vegan-4529653891", "rank": 4}}, {"type": "Feature", "geometry": {"type": "Point", "coordinates": [98.954, 18.80902]}, "properties": {"id": "cm-osm-node-10793159227", "name": "Ming Zhen", "nameTh": null, "nameEn": "Ming Zhen", "cat": ["food"], "province": "cm", "slug": "ming-zhen-10793159227", "rank": 2}}, {"type": "Feature", "geometry": {"type": "Point", "coordinates": [98.99318, 18.79257]}, "properties": {"id": "cm-osm-node-7865151033", "name": "Mr. Green Restaurant", "nameTh": null, "nameEn": "Mr. Green Restaurant", "cat": ["food"], "province": "cm", "slug": "mr-green-restaurant-7865151033", "rank": 2}}, {"type": "Feature", "geometry": {"type": "Point", "coordinates": [98.98991, 18.78226]}, "properties": {"id": "cm-osm-node-6439003685", "name": "Munchies", "nameTh": null, "nameEn": "Munchies", "cat": ["food"], "province": "cm", "slug": "munchies-6439003685", "rank": 1}}, {"type": "Feature", "geometry": {"type": "Point", "coordinates": [98.98586, 18.79052]}, "properties": {"id": "cm-osm-node-4403625389", "name": "Naree Coffee De'Klangwaing", "nameTh": null, "nameEn": "Naree Coffee De'Klangwaing", "cat": ["food"], "province": "cm", "slug": "naree-coffee-de-klangwaing-4403625389", "rank": 1}}, {"type": "Feature", "geometry": {"type": "Point", "coordinates": [98.94804, 18.77064]}, "properties": {"id": "cm-osm-node-13444747901", "name": "Neo Shokudou Aeeen Japanese Vegan", "nameTh": null, "nameEn": "Neo Shokudou Aeeen Japanese Vegan", "cat": ["food"], "province": "cm", "slug": "neo-shokudou-aeeen-japanese-vegan-13444747901", "rank": 3}}, {"type": "Feature", "geometry": {"type": "Point", "coordinates": [98.96585, 18.79662]}, "properties": {"id": "cm-osm-node-3057318301", "name": "Nong Bee's Burmese Restaurant", "nameTh": null, "nameEn": "Nong Bee's Burmese Restaurant", "cat": ["food"], "province": "cm", "slug": "nong-bee-s-burmese-restaurant-3057318301", "rank": 1}}, {"type": "Feature", "geometry": {"type": "Point", "coordinates": [99.0165, 18.77864]}, "properties": {"id": "cm-osm-node-10917037905", "name": "POHSOP local-rice eatery vegetarian", "nameTh": null, "nameEn": "POHSOP local-rice eatery vegetarian", "cat": ["food"], "province": "cm", "slug": "pohsop-local-rice-eatery-vegetarian-10917037905", "rank": 3}}, {"type": "Feature", "geometry": {"type": "Point", "coordinates": [98.98027, 18.80005]}, "properties": {"id": "cm-osm-node-8891851001", "name": "Pac Mor Yon Yook Vegetarian Tradtitional Food", "nameTh": null, "nameEn": "Pac Mor Yon Yook Vegetarian Tradtitional Food", "cat": ["food"], "province": "cm", "slug": "pac-mor-yon-yook-vegetarian-tradtitional-food-8891851001", "rank": 1}}, {"type": "Feature", "geometry": {"type": "Point", "coordinates": [98.99178, 18.79571]}, "properties": {"id": "cm-osm-way-1161677813", "name": "Payod Shanfood Chiangmai", "nameTh": null, "nameEn": "Payod Shanfood Chiangmai", "cat": ["food"], "province": "cm", "slug": "payod-shanfood-chiangmai-1161677813", "rank": 3}}, {"type": "Feature", "geometry": {"type": "Point", "coordinates": [98.9673, 18.78757]}, "properties": {"id": "cm-osm-node-5992439094", "name": "Pun Pun", "nameTh": null, "nameEn": "Pun Pun", "cat": ["food"], "province": "cm", "slug": "pun-pun-5992439094", "rank": 3}}, {"type": "Feature", "geometry": {"type": "Point", "coordinates": [99.01545, 18.73023]}, "properties": {"id": "cm-osm-node-6474200194", "name": "Punnee's Lisu Kitchen", "nameTh": null, "nameEn": "Punnee's Lisu Kitchen", "cat": ["food"], "province": "cm", "slug": "punnee-s-lisu-kitchen-6474200194", "rank": 3}}, {"type": "Feature", "geometry": {"type": "Point", "coordinates": [98.99013, 18.78668]}, "properties": {"id": "cm-osm-node-11421707570", "name": "Pure vegan heaven", "nameTh": null, "nameEn": "Pure vegan heaven", "cat": ["food"], "province": "cm", "slug": "pure-vegan-heaven-11421707570", "rank": 1}}, {"type": "Feature", "geometry": {"type": "Point", "coordinates": [98.99213, 18.79386]}, "properties": {"id": "cm-osm-way-492846789", "name": "RAD RABBIT VEGAN PIZZERIA", "nameTh": null, "nameEn": "RAD RABBIT VEGAN PIZZERIA", "cat": ["food"], "province": "cm", "slug": "rad-rabbit-vegan-pizzeria-492846789", "rank": 4}}, {"type": "Feature", "geometry": {"type": "Point", "coordinates": [98.99885, 18.78417]}, "properties": {"id": "cm-osm-node-2132019005", "name": "Rajdarbar", "nameTh": null, "nameEn": "Rajdarbar", "cat": ["food"], "province": "cm", "slug": "rajdarbar-2132019005", "rank": 3}}, {"type": "Feature", "geometry": {"type": "Point", "coordinates": [98.9843, 18.79454]}, "properties": {"id": "cm-osm-node-5237522624", "name": "Reform Kafé", "nameTh": null, "nameEn": "Reform Kafé", "cat": ["food"], "province": "cm", "slug": "reform-kaf-5237522624", "rank": 3}}, {"type": "Feature", "geometry": {"type": "Point", "coordinates": [99.00072, 18.78157]}, "properties": {"id": "cm-osm-node-5743516159", "name": "Sababa Chiang Mai", "nameTh": null, "nameEn": "Sababa Chiang Mai", "cat": ["food"], "province": "cm", "slug": "sababa-chiang-mai-5743516159", "rank": 3}}, {"type": "Feature", "geometry": {"type": "Point", "coordinates": [99.00844, 18.79416]}, "properties": {"id": "cm-osm-node-10926013205", "name": "Salad Khunnai", "nameTh": null, "nameEn": "Salad Khunnai", "cat": ["food"], "province": "cm", "slug": "salad-khunnai-10926013205", "rank": 3}}, {"type": "Feature", "geometry": {"type": "Point", "coordinates": [98.97413, 18.79814]}, "properties": {"id": "cm-osm-node-3134796412", "name": "Salsa Kitchen", "nameTh": null, "nameEn": "Salsa Kitchen", "cat": ["food"], "province": "cm", "slug": "salsa-kitchen-3134796412", "rank": 2}}, {"type": "Feature", "geometry": {"type": "Point", "coordinates": [98.95394, 18.82704]}, "properties": {"id": "cm-osm-node-5643026621", "name": "Santi Bar & Bistro", "nameTh": null, "nameEn": "Santi Bar & Bistro", "cat": ["food"], "province": "cm", "slug": "santi-bar-bistro-5643026621", "rank": 2}}, {"type": "Feature", "geometry": {"type": "Point", "coordinates": [98.9674, 18.80251]}, "properties": {"id": "cm-osm-node-6052593885", "name": "Shan Tou Hao Chi - Vegetarian & Vegan", "nameTh": null, "nameEn": "Shan Tou Hao Chi - Vegetarian & Vegan", "cat": ["food"], "province": "cm", "slug": "shan-tou-hao-chi-vegetarian-vegan-6052593885", "rank": 3}}, {"type": "Feature", "geometry": {"type": "Point", "coordinates": [99.01095, 18.78643]}, "properties": {"id": "cm-osm-way-528011072", "name": "Shewe Cafe", "nameTh": null, "nameEn": "Shewe Cafe", "cat": ["food"], "province": "cm", "slug": "shewe-cafe-528011072", "rank": 2}}, {"type": "Feature", "geometry": {"type": "Point", "coordinates": [99.00632, 18.78733]}, "properties": {"id": "cm-osm-node-8719658314", "name": "Sukjai by Pata Obasan", "nameTh": null, "nameEn": "Sukjai by Pata Obasan", "cat": ["food"], "province": "cm", "slug": "sukjai-by-pata-obasan-8719658314", "rank": 2}}, {"type": "Feature", "geometry": {"type": "Point", "coordinates": [98.99217, 18.78527]}, "properties": {"id": "cm-osm-way-623162100", "name": "Taste From Heaven", "nameTh": "เทสฟรอมเฮเว่น", "nameEn": "Taste From Heaven", "cat": ["food"], "province": "cm", "slug": "taste-from-heaven-623162100", "rank": 4}}, {"type": "Feature", "geometry": {"type": "Point", "coordinates": [98.98895, 18.78234]}, "properties": {"id": "cm-osm-node-1107238261", "name": "Tein Sieng", "nameTh": null, "nameEn": "Tein Sieng", "cat": ["food"], "province": "cm", "slug": "tein-sieng-1107238261", "rank": 2}}, {"type": "Feature", "geometry": {"type": "Point", "coordinates": [98.97296, 18.79912]}, "properties": {"id": "cm-osm-node-10837362067", "name": "The Donut Cafe", "nameTh": null, "nameEn": "The Donut Cafe", "cat": ["food"], "province": "cm", "slug": "the-donut-cafe-10837362067", "rank": 3}}, {"type": "Feature", "geometry": {"type": "Point", "coordinates": [99.00315, 18.79098]}, "properties": {"id": "cm-osm-node-2648382124", "name": "The Gallery", "nameTh": null, "nameEn": "The Gallery", "cat": ["food"], "province": "cm", "slug": "the-gallery-2648382124", "rank": 2}}, {"type": "Feature", "geometry": {"type": "Point", "coordinates": [98.99071, 18.79073]}, "properties": {"id": "cm-osm-node-2292111473", "name": "The Peppermint", "nameTh": null, "nameEn": "The Peppermint", "cat": ["food"], "province": "cm", "slug": "the-peppermint-2292111473", "rank": 1}}, {"type": "Feature", "geometry": {"type": "Point", "coordinates": [98.99395, 18.79263]}, "properties": {"id": "cm-osm-node-3418990696", "name": "The Salad Concept", "nameTh": null, "nameEn": "The Salad Concept", "cat": ["food"], "province": "cm", "slug": "the-salad-concept-3418990696", "rank": 2}}, {"type": "Feature", "geometry": {"type": "Point", "coordinates": [99.00061, 18.7867]}, "properties": {"id": "cm-osm-node-7035091585", "name": "V's Secret Street Food", "nameTh": null, "nameEn": "V's Secret Street Food", "cat": ["food"], "province": "cm", "slug": "v-s-secret-street-food-7035091585", "rank": 1}}, {"type": "Feature", "geometry": {"type": "Point", "coordinates": [98.99597, 18.78429]}, "properties": {"id": "cm-osm-node-4609268191", "name": "Vegan Heaven Restaurant", "nameTh": null, "nameEn": "Vegan Heaven Restaurant", "cat": ["food"], "province": "cm", "slug": "vegan-heaven-restaurant-4609268191", "rank": 3}}, {"type": "Feature", "geometry": {"type": "Point", "coordinates": [98.97873, 18.81058]}, "properties": {"id": "cm-osm-node-6035864686", "name": "Vegan Kitchen", "nameTh": null, "nameEn": "Vegan Kitchen", "cat": ["food"], "province": "cm", "slug": "vegan-kitchen-6035864686", "rank": 3}}, {"type": "Feature", "geometry": {"type": "Point", "coordinates": [98.9919, 18.78995]}, "properties": {"id": "cm-osm-node-10028765917", "name": "Vegan Meals", "nameTh": null, "nameEn": "Vegan Meals", "cat": ["food"], "province": "cm", "slug": "vegan-meals-10028765917", "rank": 1}}, {"type": "Feature", "geometry": {"type": "Point", "coordinates": [98.99599, 18.78433]}, "properties": {"id": "cm-osm-node-4792051421", "name": "Vegan Restaurant", "nameTh": null, "nameEn": "Vegan Restaurant", "cat": ["food"], "province": "cm", "slug": "vegan-restaurant-4792051421", "rank": 1}}, {"type": "Feature", "geometry": {"type": "Point", "coordinates": [98.9824, 18.78369]}, "properties": {"id": "cm-osm-node-10791281005", "name": "Vegan society", "nameTh": null, "nameEn": "Vegan society", "cat": ["food"], "province": "cm", "slug": "vegan-society-10791281005", "rank": 1}}, {"type": "Feature", "geometry": {"type": "Point", "coordinates": [99.02762, 18.7926]}, "properties": {"id": "cm-osm-node-13503710001", "name": "Vegetarian Restaurant", "nameTh": null, "nameEn": "Vegetarian Restaurant", "cat": ["food"], "province": "cm", "slug": "vegetarian-restaurant-13503710001", "rank": 1}}, {"type": "Feature", "geometry": {"type": "Point", "coordinates": [98.99584, 18.7947]}, "properties": {"id": "cm-osm-node-5008711822", "name": "Vegeterian Thai Orchid", "nameTh": null, "nameEn": "Vegeterian Thai Orchid", "cat": ["food"], "province": "cm", "slug": "vegeterian-thai-orchid-5008711822", "rank": 3}}, {"type": "Feature", "geometry": {"type": "Point", "coordinates": [98.99068, 18.78533]}, "properties": {"id": "cm-osm-node-10821771284", "name": "Vipuya Bowls & Juice", "nameTh": null, "nameEn": "Vipuya Bowls & Juice", "cat": ["food"], "province": "cm", "slug": "vipuya-bowls-juice-10821771284", "rank": 2}}, {"type": "Feature", "geometry": {"type": "Point", "coordinates": [98.9846, 18.77491]}, "properties": {"id": "cm-osm-node-6249725792", "name": "Yok Vegetarian Restaurant", "nameTh": null, "nameEn": "Yok Vegetarian Restaurant", "cat": ["food"], "province": "cm", "slug": "yok-vegetarian-restaurant-6249725792", "rank": 3}}, {"type": "Feature", "geometry": {"type": "Point", "coordinates": [98.99657, 18.78811]}, "properties": {"id": "cm-osm-node-9568101417", "name": "asa vegan kitchen", "nameTh": null, "nameEn": "asa vegan kitchen", "cat": ["food"], "province": "cm", "slug": "asa-vegan-kitchen-9568101417", "rank": 2}}, {"type": "Feature", "geometry": {"type": "Point", "coordinates": [98.98371, 18.78861]}, "properties": {"id": "cm-osm-way-1160323326", "name": "มิ่งขวัญ", "nameTh": "มิ่งขวัญ", "nameEn": "Ming Kwan", "cat": ["food"], "province": "cm", "slug": "ming-kwan-1160323326", "rank": 3}}, {"type": "Feature", "geometry": {"type": "Point", "coordinates": [99.04596, 18.78459]}, "properties": {"id": "cm-osm-node-4686351107", "name": "ร้านอาหารมีนามีข้าว", "nameTh": "ร้านอาหารมีนา", "nameEn": "Meena Rice Based Cuisine", "cat": ["food"], "province": "cm", "slug": "meena-rice-based-cuisine-4686351107", "rank": 4}}, {"type": "Feature", "geometry": {"type": "Point", "coordinates": [98.98375, 18.7959]}, "properties": {"id": "cm-osm-node-5027579121", "name": "เจ", "nameTh": "เจ", "nameEn": "J Station vegetarian restaurant", "cat": ["food"], "province": "cm", "slug": "j-station-vegetarian-restaurant-5027579121", "rank": 2}}, {"type": "Feature", "geometry": {"type": "Point", "coordinates": [98.95889, 18.79114]}, "properties": {"id": "cm-osm-node-4430745091", "name": "เจไม่จำเจ", "nameTh": "เจไม่จำเจ", "nameEn": "CMU Vegan", "cat": ["food"], "province": "cm", "slug": "cmu-vegan-4430745091", "rank": 4}}, {"type": "Feature", "geometry": {"type": "Point", "coordinates": [98.99222, 18.79564]}, "properties": {"id": "cm-osm-node-8891761479", "name": "เจไม่จำเจ เชียงใหม่", "nameTh": "เจไม่จำเจ เชียงใหม่", "nameEn": "Jay Mai Jamjay", "cat": ["food"], "province": "cm", "slug": "jay-mai-jamjay-8891761479", "rank": 4}}, {"type": "Feature", "geometry": {"type": "Point", "coordinates": [98.96559, 18.8064]}, "properties": {"id": "cm-osm-way-442372056", "name": "เอกทิพย์โชคดี", "nameTh": "เอกทิพย์โชคดี", "nameEn": "Ekathip Chokedee", "cat": ["food"], "province": "cm", "slug": "ekathip-chokedee-442372056", "rank": 4}}, {"type": "Feature", "geometry": {"type": "Point", "coordinates": [98.98025, 18.80001]}, "properties": {"id": "cm-osm-node-3283614977", "name": "แสงวิรุณ", "nameTh": "แสงวิรุณ", "nameEn": "Sangwiroon", "cat": ["food"], "province": "cm", "slug": "sangwiroon-3283614977", "rank": 3}}]}