{"type": "FeatureCollection", "features": [{"type": "Feature", "geometry": {"type": "Point", "coordinates": [99.03947, 18.78083]}, "properties": {"id": "cm-osm-node-5561163722", "name": "Lamdee Cafe", "nameTh": null, "nameEn": "Lamdee Cafe", "cat": ["food"], "province": "cm", "slug": "lamdee-cafe-5561163722", "rank": 3}}, {"type": "Feature", "geometry": {"type": "Point", "coordinates": [98.96976, 18.80212]}, "properties": {"id": "cm-osm-node-2768972017", "name": "Le Gong Kum", "nameTh": null, "nameEn": "Le Gong Kum", "cat": ["food"], "province": "cm", "slug": "le-gong-kum-2768972017", "rank": 2}}, {"type": "Feature", "geometry": {"type": "Point", "coordinates": [98.97779, 18.80472]}, "properties": {"id": "cm-osm-node-9864967717", "name": "Lucky's vietnamiese", "nameTh": null, "nameEn": "Lucky's vietnamiese", "cat": ["food"], "province": "cm", "slug": "lucky-s-vietnamiese-9864967717", "rank": 2}}, {"type": "Feature", "geometry": {"type": "Point", "coordinates": [98.95133, 18.91238]}, "properties": {"id": "cm-osm-node-5230589921", "name": "Mai Saigon", "nameTh": null, "nameEn": "Mai Saigon", "cat": ["food"], "province": "cm", "slug": "mai-saigon-5230589921", "rank": 2}}, {"type": "Feature", "geometry": {"type": "Point", "coordinates": [99.07536, 18.74313]}, "properties": {"id": "cm-osm-node-8629229273", "name": "My Vietnam", "nameTh": null, "nameEn": "My Vietnam", "cat": ["food"], "province": "cm", "slug": "my-vietnam-8629229273", "rank": 1}}, {"type": "Feature", "geometry": {"type": "Point", "coordinates": [98.97069, 18.79011]}, "properties": {"id": "cm-osm-node-9352537020", "name": "My Vietnam", "nameTh": null, "nameEn": "My Vietnam", "cat": ["food"], "province": "cm", "slug": "my-vietnam-9352537020", "rank": 5}}, {"type": "Feature", "geometry": {"type": "Point", "coordinates": [99.00838, 18.7518]}, "properties": {"id": "cm-osm-node-11302344083", "name": "My Vietnamese Food", "nameTh": null, "nameEn": "My Vietnamese Food", "cat": ["food"], "province": "cm", "slug": "my-vietnamese-food-11302344083", "rank": 2}}, {"type": "Feature", "geometry": {"type": "Point", "coordinates": [98.93183, 18.70127]}, "properties": {"id": "cm-osm-node-3476128745", "name": "My Vietnamese Food", "nameTh": null, "nameEn": "My Vietnamese Food", "cat": ["food"], "province": "cm", "slug": "my-vietnamese-food-3476128745", "rank": 2}}, {"type": "Feature", "geometry": {"type": "Point", "coordinates": [99.00288, 18.78482]}, "properties": {"id": "cm-osm-node-3907871478", "name": "Pho Anh", "nameTh": null, "nameEn": "Pho Anh", "cat": ["food"], "province": "cm", "slug": "pho-anh-3907871478", "rank": 1}}, {"type": "Feature", "geometry": {"type": "Point", "coordinates": [99.01029, 18.82422]}, "properties": {"id": "cm-osm-node-1948728346", "name": "Pho Saigon", "nameTh": null, "nameEn": "Pho Saigon", "cat": ["food"], "province": "cm", "slug": "pho-saigon-1948728346", "rank": 1}}, {"type": "Feature", "geometry": {"type": "Point", "coordinates": [99.00817, 18.8379]}, "properties": {"id": "cm-osm-node-13332987301", "name": "Sai Gon Oi Vietnamese Cuisine", "nameTh": null, "nameEn": "Sai Gon Oi Vietnamese Cuisine", "cat": ["food"], "province": "cm", "slug": "sai-gon-oi-vietnamese-cuisine-13332987301", "rank": 3}}, {"type": "Feature", "geometry": {"type": "Point", "coordinates": [99.0036, 18.78183]}, "properties": {"id": "cm-osm-node-4865979294", "name": "The Service 1921 Restaurant & Bar", "nameTh": null, "nameEn": "The Service 1921 Restaurant & Bar", "cat": ["food"], "province": "cm", "slug": "the-service-1921-restaurant-bar-4865979294", "rank": 2}}, {"type": "Feature", "geometry": {"type": "Point", "coordinates": [99.00008, 18.83784]}, "properties": {"id": "cm-osm-way-529099892", "name": "VT แหนมเนือง", "nameTh": "VT แหนมเนือง", "nameEn": "VT Nam Neung", "cat": ["food"], "province": "cm", "slug": "vt-nam-neung-529099892", "rank": 3}}, {"type": "Feature", "geometry": {"type": "Point", "coordinates": [98.96045, 18.80275]}, "properties": {"id": "cm-osm-node-2604017614", "name": "งอน หลำ", "nameTh": "งอน หลำ", "nameEn": "Ngon Lam Vietnamese Restaurant", "cat": ["food"], "province": "cm", "slug": "ngon-lam-vietnamese-restaurant-2604017614", "rank": 3}}, {"type": "Feature", "geometry": {"type": "Point", "coordinates": [98.99576, 18.79186]}, "properties": {"id": "cm-osm-node-3418977912", "name": "ดาราอาหารเวียดนาม", "nameTh": "ดาราอาหารเวียดนาม", "nameEn": "Dara", "cat": ["food"], "province": "cm", "slug": "dara-3418977912", "rank": 2}}, {"type": "Feature", "geometry": {"type": "Point", "coordinates": [98.95015, 18.76755]}, "properties": {"id": "cm-osm-way-846389447", "name": "มายเวียดนาม", "nameTh": "มายเวียดนาม", "nameEn": "My Vietnam", "cat": ["food"], "province": "cm", "slug": "my-vietnam-846389447", "rank": 2}}, {"type": "Feature", "geometry": {"type": "Point", "coordinates": [98.9541, 18.80903]}, "properties": {"id": "cm-osm-node-3318028216", "name": "มายเวียดนาม(หนองคายแหนมเนือง)", "nameTh": "มายเวียดนาม(หนองคายแหนมเนือง)", "nameEn": null, "cat": ["food"], "province": "cm", "slug": "3318028216", "rank": 2}}, {"type": "Feature", "geometry": {"type": "Point", "coordinates": [99.00524, 18.78553]}, "properties": {"id": "cm-osm-way-511631883", "name": "วีที่ แหนมเนือง", "nameTh": "วีที่ แหนมเนือง", "nameEn": "VT Namnueng", "cat": ["food"], "province": "cm", "slug": "vt-namnueng-511631883", "rank": 3}}, {"type": "Feature", "geometry": {"type": "Point", "coordinates": [98.99865, 18.77826]}, "properties": {"id": "cm-osm-node-1681127596", "name": "เฝอเวียงจันทร์", "nameTh": "เฝอเวียงจันทร์", "nameEn": "Pho", "cat": ["food"], "province": "cm", "slug": "pho-1681127596", "rank": 3}}, {"type": "Feature", "geometry": {"type": "Point", "coordinates": [99.03056, 18.78207]}, "properties": {"id": "cm-osm-node-2094319760", "name": "เวียดนามล้านนา", "nameTh": "เวียดนามล้านนา", "nameEn": null, "cat": ["food"], "province": "cm", "slug": "2094319760", "rank": 1}}, {"type": "Feature", "geometry": {"type": "Point", "coordinates": [98.96797, 18.81073]}, "properties": {"id": "cm-osm-node-13981970601", "name": "စစ်ကိုင်းသူ", "nameTh": null, "nameEn": "Sagaing Thu", "cat": ["food"], "province": "cm", "slug": "sagaing-thu-13981970601", "rank": 3}}]}