{"type": "FeatureCollection", "features": [{"type": "Feature", "geometry": {"type": "Point", "coordinates": [98.96802, 18.76782]}, "properties": {"id": "cm-osm-node-14016401747", "name": "Burger King", "nameTh": null, "nameEn": "Burger King", "cat": ["food"], "province": "cm", "slug": "burger-king-14016401747", "rank": 2}}, {"type": "Feature", "geometry": {"type": "Point", "coordinates": [98.96827, 18.76877]}, "properties": {"id": "cm-osm-node-1474876241", "name": "Burger King", "nameTh": null, "nameEn": "Burger King", "cat": ["food"], "province": "cm", "slug": "burger-king-1474876241", "rank": 2}}, {"type": "Feature", "geometry": {"type": "Point", "coordinates": [98.99305, 18.78798]}, "properties": {"id": "cm-osm-node-3123387493", "name": "Burger King", "nameTh": null, "nameEn": "Burger King", "cat": ["food"], "province": "cm", "slug": "burger-king-3123387493", "rank": 2}}, {"type": "Feature", "geometry": {"type": "Point", "coordinates": [99.02305, 18.76281]}, "properties": {"id": "cm-osm-node-4572686702", "name": "Burger King", "nameTh": null, "nameEn": "Burger King", "cat": ["food"], "province": "cm", "slug": "burger-king-4572686702", "rank": 1}}, {"type": "Feature", "geometry": {"type": "Point", "coordinates": [99.00047, 18.78409]}, "properties": {"id": "cm-osm-node-907621996", "name": "Burger King", "nameTh": null, "nameEn": "Burger King", "cat": ["food"], "province": "cm", "slug": "burger-king-907621996", "rank": 2}}, {"type": "Feature", "geometry": {"type": "Point", "coordinates": [98.94003, 18.92157]}, "properties": {"id": "cm-osm-node-9312199019", "name": "Burger King", "nameTh": null, "nameEn": "Burger King", "cat": ["food"], "province": "cm", "slug": "burger-king-9312199019", "rank": 1}}, {"type": "Feature", "geometry": {"type": "Point", "coordinates": [98.97426, 18.76326]}, "properties": {"id": "cm-osm-node-9328871817", "name": "Burger King", "nameTh": null, "nameEn": "Burger King", "cat": ["food"], "province": "cm", "slug": "burger-king-9328871817", "rank": 2}}]}