{"type": "FeatureCollection", "features": [{"type": "Feature", "geometry": {"type": "Point", "coordinates": [98.96704, 18.79678]}, "properties": {"id": "cm-osm-node-1797049146", "name": "8-inch Pizza", "nameTh": null, "nameEn": "8-inch Pizza", "cat": ["food"], "province": "cm", "slug": "8-inch-pizza-1797049146", "rank": 1}}, {"type": "Feature", "geometry": {"type": "Point", "coordinates": [98.99428, 18.79028]}, "properties": {"id": "cm-osm-node-13301450301", "name": "Adirak Pizza", "nameTh": null, "nameEn": "Adirak Pizza", "cat": ["food"], "province": "cm", "slug": "adirak-pizza-13301450301", "rank": 1}}, {"type": "Feature", "geometry": {"type": "Point", "coordinates": [98.97424, 18.81538]}, "properties": {"id": "cm-osm-way-1462194252", "name": "Alieno Pizza", "nameTh": null, "nameEn": "Alieno Pizza", "cat": ["food"], "province": "cm", "slug": "alieno-pizza-1462194252", "rank": 3}}, {"type": "Feature", "geometry": {"type": "Point", "coordinates": [98.99395, 18.78786]}, "properties": {"id": "cm-osm-node-5258746823", "name": "Art Cafe", "nameTh": null, "nameEn": "Art Cafe", "cat": ["food"], "province": "cm", "slug": "art-cafe-5258746823", "rank": 2}}, {"type": "Feature", "geometry": {"type": "Point", "coordinates": [98.97247, 18.80536]}, "properties": {"id": "cm-osm-node-3311562693", "name": "Assara Cafe & Restaurant", "nameTh": null, "nameEn": "Assara Cafe & Restaurant", "cat": ["food"], "province": "cm", "slug": "assara-cafe-restaurant-3311562693", "rank": 2}}, {"type": "Feature", "geometry": {"type": "Point", "coordinates": [98.99135, 18.79048]}, "properties": {"id": "cm-osm-node-13088539301", "name": "Aunty's Corner", "nameTh": null, "nameEn": "Aunty's Corner", "cat": ["food"], "province": "cm", "slug": "aunty-s-corner-13088539301", "rank": 3}}, {"type": "Feature", "geometry": {"type": "Point", "coordinates": [98.94834, 18.79415]}, "properties": {"id": "cm-osm-node-10855533287", "name": "Basecamp trail cafe", "nameTh": null, "nameEn": "Basecamp trail cafe", "cat": ["food"], "province": "cm", "slug": "basecamp-trail-cafe-10855533287", "rank": 2}}, {"type": "Feature", "geometry": {"type": "Point", "coordinates": [99.00417, 18.78625]}, "properties": {"id": "cm-osm-node-12458538707", "name": "Bebibee Woodfire Pizza", "nameTh": null, "nameEn": "Bebibee Woodfire Pizza", "cat": ["food"], "province": "cm", "slug": "bebibee-woodfire-pizza-12458538707", "rank": 1}}, {"type": "Feature", "geometry": {"type": "Point", "coordinates": [99.00057, 18.7954]}, "properties": {"id": "cm-osm-node-3207247633", "name": "Buono Italian Restaurant", "nameTh": null, "nameEn": "Buono Italian Restaurant", "cat": ["food"], "province": "cm", "slug": "buono-italian-restaurant-3207247633", "rank": 1}}, {"type": "Feature", "geometry": {"type": "Point", "coordinates": [98.99114, 18.79286]}, "properties": {"id": "cm-osm-node-2610448151", "name": "By Hand Pizza Cafe", "nameTh": null, "nameEn": "By Hand Pizza Cafe", "cat": ["food"], "province": "cm", "slug": "by-hand-pizza-cafe-2610448151", "rank": 2}}, {"type": "Feature", "geometry": {"type": "Point", "coordinates": [98.95951, 18.8247]}, "properties": {"id": "cm-osm-way-333203173", "name": "Cafe de Oasis", "nameTh": null, "nameEn": "Cafe de Oasis", "cat": ["food"], "province": "cm", "slug": "cafe-de-oasis-333203173", "rank": 4}}, {"type": "Feature", "geometry": {"type": "Point", "coordinates": [98.96873, 18.79927]}, "properties": {"id": "cm-osm-node-12577832141", "name": "Clove&Co", "nameTh": null, "nameEn": "Clove&Co", "cat": ["food"], "province": "cm", "slug": "clove-co-12577832141", "rank": 1}}, {"type": "Feature", "geometry": {"type": "Point", "coordinates": [98.93546, 18.73701]}, "properties": {"id": "cm-osm-node-1588330054", "name": "Coach's Pizza", "nameTh": null, "nameEn": "Coach's Pizza", "cat": ["food"], "province": "cm", "slug": "coach-s-pizza-1588330054", "rank": 1}}, {"type": "Feature", "geometry": {"type": "Point", "coordinates": [99.00031, 18.78337]}, "properties": {"id": "cm-osm-node-3416994633", "name": "Daddy's", "nameTh": null, "nameEn": "Daddy's", "cat": ["food"], "province": "cm", "slug": "daddy-s-3416994633", "rank": 2}}, {"type": "Feature", "geometry": {"type": "Point", "coordinates": [99.02146, 18.76472]}, "properties": {"id": "cm-osm-node-3888816845", "name": "Delicieux Fondu and Pizza", "nameTh": null, "nameEn": "Delicieux Fondu and Pizza", "cat": ["food"], "province": "cm", "slug": "delicieux-fondu-and-pizza-3888816845", "rank": 1}}, {"type": "Feature", "geometry": {"type": "Point", "coordinates": [98.99554, 18.77769]}, "properties": {"id": "cm-osm-node-6160991685", "name": "Heartwork the Sharing Space", "nameTh": null, "nameEn": "Heartwork the Sharing Space", "cat": ["business", "food"], "province": "cm", "slug": "heartwork-the-sharing-space-6160991685", "rank": 2}}, {"type": "Feature", "geometry": {"type": "Point", "coordinates": [98.97909, 18.78533]}, "properties": {"id": "cm-osm-node-11572062055", "name": "I Am Pizza", "nameTh": null, "nameEn": "I Am Pizza", "cat": ["food"], "province": "cm", "slug": "i-am-pizza-11572062055", "rank": 1}}, {"type": "Feature", "geometry": {"type": "Point", "coordinates": [98.92853, 18.69381]}, "properties": {"id": "cm-osm-node-12149897104", "name": "Indy's", "nameTh": null, "nameEn": "Indy's", "cat": ["food"], "province": "cm", "slug": "indy-s-12149897104", "rank": 3}}, {"type": "Feature", "geometry": {"type": "Point", "coordinates": [98.99212, 18.7921]}, "properties": {"id": "cm-osm-node-7033502868", "name": "Jaidee Bamboo Huts", "nameTh": null, "nameEn": "Jaidee Bamboo Huts", "cat": ["food"], "province": "cm", "slug": "jaidee-bamboo-huts-7033502868", "rank": 1}}, {"type": "Feature", "geometry": {"type": "Point", "coordinates": [98.99206, 18.79214]}, "properties": {"id": "cm-osm-node-5419968421", "name": "Jaidee Restaurant Bar", "nameTh": null, "nameEn": "Jaidee Restaurant Bar", "cat": ["food"], "province": "cm", "slug": "jaidee-restaurant-bar-5419968421", "rank": 1}}, {"type": "Feature", "geometry": {"type": "Point", "coordinates": [98.98212, 18.79528]}, "properties": {"id": "cm-osm-node-10958910205", "name": "Khum Hom Cafe", "nameTh": null, "nameEn": "Khum Hom Cafe", "cat": ["food"], "province": "cm", "slug": "khum-hom-cafe-10958910205", "rank": 2}}, {"type": "Feature", "geometry": {"type": "Point", "coordinates": [98.99212, 18.79051]}, "properties": {"id": "cm-osm-node-4646626289", "name": "La Boutique della Pasta", "nameTh": null, "nameEn": "La Boutique della Pasta", "cat": ["food"], "province": "cm", "slug": "la-boutique-della-pasta-4646626289", "rank": 1}}, {"type": "Feature", "geometry": {"type": "Point", "coordinates": [98.91217, 18.9668]}, "properties": {"id": "cm-osm-node-13394591201", "name": "La Factoria", "nameTh": null, "nameEn": "La Factoria", "cat": ["food"], "province": "cm", "slug": "la-factoria-13394591201", "rank": 2}}, {"type": "Feature", "geometry": {"type": "Point", "coordinates": [98.92286, 18.72448]}, "properties": {"id": "cm-osm-node-12468617443", "name": "Levain", "nameTh": null, "nameEn": "Levain", "cat": ["food"], "province": "cm", "slug": "levain-12468617443", "rank": 1}}, {"type": "Feature", "geometry": {"type": "Point", "coordinates": [98.98376, 18.79678]}, "properties": {"id": "cm-osm-node-3317919569", "name": "Little Cook Cafe", "nameTh": "ลิตเติ้ลคุ๊กคาเฟ่", "nameEn": "Little Cook Cafe", "cat": ["food"], "province": "cm", "slug": "little-cook-cafe-3317919569", "rank": 3}}, {"type": "Feature", "geometry": {"type": "Point", "coordinates": [98.95252, 18.89542]}, "properties": {"id": "cm-osm-node-12401813058", "name": "Little Red Oven", "nameTh": null, "nameEn": "Little Red Oven", "cat": ["food"], "province": "cm", "slug": "little-red-oven-12401813058", "rank": 1}}, {"type": "Feature", "geometry": {"type": "Point", "coordinates": [98.99281, 18.7844]}, "properties": {"id": "cm-osm-node-964686601", "name": "Mad Dog", "nameTh": null, "nameEn": "Mad Dog", "cat": ["food"], "province": "cm", "slug": "mad-dog-964686601", "rank": 3}}, {"type": "Feature", "geometry": {"type": "Point", "coordinates": [99.01523, 18.87091]}, "properties": {"id": "cm-osm-node-3237980730", "name": "Mamma Mia Pizza", "nameTh": null, "nameEn": "Mamma Mia Pizza", "cat": ["food"], "province": "cm", "slug": "mamma-mia-pizza-3237980730", "rank": 1}}, {"type": "Feature", "geometry": {"type": "Point", "coordinates": [98.99054, 18.78402]}, "properties": {"id": "cm-osm-node-6463555785", "name": "Mickey Cafe", "nameTh": null, "nameEn": "Mickey Cafe", "cat": ["food"], "province": "cm", "slug": "mickey-cafe-6463555785", "rank": 1}}, {"type": "Feature", "geometry": {"type": "Point", "coordinates": [98.9959, 18.7843]}, "properties": {"id": "cm-osm-node-3414272480", "name": "Mike Pizza", "nameTh": null, "nameEn": "Mike Pizza", "cat": ["food"], "province": "cm", "slug": "mike-pizza-3414272480", "rank": 1}}, {"type": "Feature", "geometry": {"type": "Point", "coordinates": [99.0278, 18.73402]}, "properties": {"id": "cm-osm-node-4098824485", "name": "Mine Pizza", "nameTh": null, "nameEn": "Mine Pizza", "cat": ["food"], "province": "cm", "slug": "mine-pizza-4098824485", "rank": 1}}, {"type": "Feature", "geometry": {"type": "Point", "coordinates": [98.99075, 18.79111]}, "properties": {"id": "cm-osm-node-4822717922", "name": "New York Pizza", "nameTh": null, "nameEn": "New York Pizza", "cat": ["food"], "province": "cm", "slug": "new-york-pizza-4822717922", "rank": 1}}, {"type": "Feature", "geometry": {"type": "Point", "coordinates": [98.97885, 18.70265]}, "properties": {"id": "cm-osm-node-13449486844", "name": "Olio Restaurant", "nameTh": null, "nameEn": "Olio Restaurant", "cat": ["food"], "province": "cm", "slug": "olio-restaurant-13449486844", "rank": 2}}, {"type": "Feature", "geometry": {"type": "Point", "coordinates": [98.9654, 18.80784]}, "properties": {"id": "cm-osm-node-4973476822", "name": "Paris Chiang Mai", "nameTh": null, "nameEn": "Paris Chiang Mai", "cat": ["food"], "province": "cm", "slug": "paris-chiang-mai-4973476822", "rank": 2}}, {"type": "Feature", "geometry": {"type": "Point", "coordinates": [99.00781, 18.75213]}, "properties": {"id": "cm-osm-node-3394945824", "name": "Pepino Pizza Pasta", "nameTh": null, "nameEn": "Pepino Pizza Pasta", "cat": ["food"], "province": "cm", "slug": "pepino-pizza-pasta-3394945824", "rank": 1}}, {"type": "Feature", "geometry": {"type": "Point", "coordinates": [98.99767, 18.78425]}, "properties": {"id": "cm-osm-node-13607272363", "name": "Pizza & Bar", "nameTh": null, "nameEn": "Pizza & Bar", "cat": ["food"], "province": "cm", "slug": "pizza-bar-13607272363", "rank": 1}}, {"type": "Feature", "geometry": {"type": "Point", "coordinates": [99.00975, 18.82379]}, "properties": {"id": "cm-osm-node-10067757531", "name": "Pizza Hut", "nameTh": null, "nameEn": "Pizza Hut", "cat": ["food"], "province": "cm", "slug": "pizza-hut-10067757531", "rank": 1}}, {"type": "Feature", "geometry": {"type": "Point", "coordinates": [98.97573, 18.76913]}, "properties": {"id": "cm-osm-node-3347633200", "name": "Pizza Hut", "nameTh": null, "nameEn": "Pizza Hut", "cat": ["food"], "province": "cm", "slug": "pizza-hut-3347633200", "rank": 2}}, {"type": "Feature", "geometry": {"type": "Point", "coordinates": [99.0005, 18.78585]}, "properties": {"id": "cm-osm-node-3417307157", "name": "Pizza Hut", "nameTh": null, "nameEn": "Pizza Hut", "cat": ["food"], "province": "cm", "slug": "pizza-hut-3417307157", "rank": 1}}, {"type": "Feature", "geometry": {"type": "Point", "coordinates": [98.97511, 18.76539]}, "properties": {"id": "cm-osm-node-3419871309", "name": "Pizza Hut", "nameTh": "เดอะ พิซซ่า ฮัช", "nameEn": "The Pizza hut", "cat": ["food"], "province": "cm", "slug": "the-pizza-hut-3419871309", "rank": 4}}, {"type": "Feature", "geometry": {"type": "Point", "coordinates": [99.02269, 18.79823]}, "properties": {"id": "cm-osm-node-3490774893", "name": "Pizza Hut", "nameTh": null, "nameEn": "Pizza Hut", "cat": ["food"], "province": "cm", "slug": "pizza-hut-3490774893", "rank": 1}}, {"type": "Feature", "geometry": {"type": "Point", "coordinates": [98.99385, 18.79055]}, "properties": {"id": "cm-osm-way-658994145", "name": "Pizza Lover", "nameTh": null, "nameEn": "Pizza Lover", "cat": ["food"], "province": "cm", "slug": "pizza-lover-658994145", "rank": 1}}, {"type": "Feature", "geometry": {"type": "Point", "coordinates": [99.13151, 18.85561]}, "properties": {"id": "cm-osm-node-1363493098", "name": "Pizza Plus", "nameTh": null, "nameEn": "Pizza Plus", "cat": ["food"], "province": "cm", "slug": "pizza-plus-1363493098", "rank": 2}}, {"type": "Feature", "geometry": {"type": "Point", "coordinates": [99.01199, 18.82811]}, "properties": {"id": "cm-osm-node-2450538523", "name": "Pizzamania", "nameTh": null, "nameEn": "Pizzamania", "cat": ["food"], "province": "cm", "slug": "pizzamania-2450538523", "rank": 1}}, {"type": "Feature", "geometry": {"type": "Point", "coordinates": [99.0105, 18.82422]}, "properties": {"id": "cm-osm-node-3541548834", "name": "Pizzeria Giotto", "nameTh": null, "nameEn": "Pizzeria Giotto", "cat": ["food"], "province": "cm", "slug": "pizzeria-giotto-3541548834", "rank": 1}}, {"type": "Feature", "geometry": {"type": "Point", "coordinates": [98.96682, 18.79759]}, "properties": {"id": "cm-osm-node-3287869061", "name": "Proudfa Pizzeria", "nameTh": null, "nameEn": "Proudfa Pizzeria", "cat": ["food"], "province": "cm", "slug": "proudfa-pizzeria-3287869061", "rank": 1}}, {"type": "Feature", "geometry": {"type": "Point", "coordinates": [98.97082, 18.79553]}, "properties": {"id": "cm-osm-node-11465354682", "name": "Prova Cafe & Pizza", "nameTh": null, "nameEn": "Prova Cafe & Pizza", "cat": ["food"], "province": "cm", "slug": "prova-cafe-pizza-11465354682", "rank": 1}}, {"type": "Feature", "geometry": {"type": "Point", "coordinates": [98.99213, 18.79386]}, "properties": {"id": "cm-osm-way-492846789", "name": "RAD RABBIT VEGAN PIZZERIA", "nameTh": null, "nameEn": "RAD RABBIT VEGAN PIZZERIA", "cat": ["food"], "province": "cm", "slug": "rad-rabbit-vegan-pizzeria-492846789", "rank": 4}}, {"type": "Feature", "geometry": {"type": "Point", "coordinates": [98.95427, 18.74553]}, "properties": {"id": "cm-osm-node-1433472018", "name": "Rose's Roadhouse", "nameTh": null, "nameEn": "Rose's Roadhouse", "cat": ["food"], "province": "cm", "slug": "rose-s-roadhouse-1433472018", "rank": 3}}, {"type": "Feature", "geometry": {"type": "Point", "coordinates": [99.00079, 18.78789]}, "properties": {"id": "cm-osm-node-3008119561", "name": "Street Pizza & The Wine House", "nameTh": null, "nameEn": "Street Pizza & The Wine House", "cat": ["food"], "province": "cm", "slug": "street-pizza-the-wine-house-3008119561", "rank": 2}}, {"type": "Feature", "geometry": {"type": "Point", "coordinates": [98.95604, 18.80841]}, "properties": {"id": "cm-osm-node-4413196489", "name": "Success Italian Food", "nameTh": null, "nameEn": "Success Italian Food", "cat": ["food"], "province": "cm", "slug": "success-italian-food-4413196489", "rank": 3}}, {"type": "Feature", "geometry": {"type": "Point", "coordinates": [98.96681, 18.80228]}, "properties": {"id": "cm-osm-node-3673955770", "name": "The Duke's Maya", "nameTh": null, "nameEn": "The Duke's Maya", "cat": ["food"], "province": "cm", "slug": "the-duke-s-maya-3673955770", "rank": 3}}, {"type": "Feature", "geometry": {"type": "Point", "coordinates": [99.0051, 18.78509]}, "properties": {"id": "cm-osm-node-2021464366", "name": "The Duke's Ping River", "nameTh": null, "nameEn": "The Duke's Ping River", "cat": ["food"], "province": "cm", "slug": "the-duke-s-ping-river-2021464366", "rank": 3}}, {"type": "Feature", "geometry": {"type": "Point", "coordinates": [98.98737, 18.78186]}, "properties": {"id": "cm-osm-way-793933944", "name": "The Faces - Gallery & Gastrobar", "nameTh": null, "nameEn": "The Faces - Gallery & Gastrobar", "cat": ["food"], "province": "cm", "slug": "the-faces-gallery-gastrobar-793933944", "rank": 3}}, {"type": "Feature", "geometry": {"type": "Point", "coordinates": [98.99297, 18.78671]}, "properties": {"id": "cm-osm-node-7416623842", "name": "The Pizza Co.", "nameTh": null, "nameEn": "The Pizza Co.", "cat": ["food"], "province": "cm", "slug": "the-pizza-co-7416623842", "rank": 1}}, {"type": "Feature", "geometry": {"type": "Point", "coordinates": [99.01181, 18.82524]}, "properties": {"id": "cm-osm-node-10067723211", "name": "The Pizza Company", "nameTh": null, "nameEn": "The Pizza Company", "cat": ["food"], "province": "cm", "slug": "the-pizza-company-10067723211", "rank": 1}}, {"type": "Feature", "geometry": {"type": "Point", "coordinates": [99.0274, 18.78349]}, "properties": {"id": "cm-osm-node-1418968709", "name": "The Pizza Company", "nameTh": "เดอะ พิซซ่า คอมปะนี", "nameEn": "The Pizza Company", "cat": ["food"], "province": "cm", "slug": "the-pizza-company-1418968709", "rank": 4}}, {"type": "Feature", "geometry": {"type": "Point", "coordinates": [99.00988, 18.89333]}, "properties": {"id": "cm-osm-node-2601003840", "name": "The Pizza Company", "nameTh": "เดอะ พิซซ่า คอมปะนี", "nameEn": "The Pizza Company", "cat": ["food"], "province": "cm", "slug": "the-pizza-company-2601003840", "rank": 4}}, {"type": "Feature", "geometry": {"type": "Point", "coordinates": [99.01787, 18.80608]}, "properties": {"id": "cm-osm-node-3249112266", "name": "The Pizza Company", "nameTh": "เดอะ พิซซ่า คอมปะนี", "nameEn": "The Pizza Company", "cat": ["food"], "province": "cm", "slug": "the-pizza-company-3249112266", "rank": 4}}, {"type": "Feature", "geometry": {"type": "Point", "coordinates": [98.97455, 18.76903]}, "properties": {"id": "cm-osm-node-3347633209", "name": "The Pizza Company", "nameTh": "เดอะ พิซซ่า คอมปะนี", "nameEn": "The Pizza Company", "cat": ["food"], "province": "cm", "slug": "the-pizza-company-3347633209", "rank": 5}}, {"type": "Feature", "geometry": {"type": "Point", "coordinates": [98.98215, 18.81608]}, "properties": {"id": "cm-osm-node-3385661335", "name": "The Pizza Company", "nameTh": "เดอะ พิซซ่า คอมปะนี", "nameEn": "The Pizza Company", "cat": ["food"], "province": "cm", "slug": "the-pizza-company-3385661335", "rank": 4}}, {"type": "Feature", "geometry": {"type": "Point", "coordinates": [99.07794, 18.76606]}, "properties": {"id": "cm-osm-node-3602308247", "name": "The Pizza Company", "nameTh": "เดอะ พิซซ่า คอมปะนี", "nameEn": "The Pizza Company", "cat": ["food"], "province": "cm", "slug": "the-pizza-company-3602308247", "rank": 4}}, {"type": "Feature", "geometry": {"type": "Point", "coordinates": [98.9972, 18.80865]}, "properties": {"id": "cm-osm-node-4359152131", "name": "The Pizza Company", "nameTh": null, "nameEn": "The Pizza Company", "cat": ["food"], "province": "cm", "slug": "the-pizza-company-4359152131", "rank": 1}}, {"type": "Feature", "geometry": {"type": "Point", "coordinates": [98.9745, 18.76319]}, "properties": {"id": "cm-osm-node-9328874217", "name": "The Pizza Company", "nameTh": null, "nameEn": "The Pizza Company", "cat": ["food"], "province": "cm", "slug": "the-pizza-company-9328874217", "rank": 2}}, {"type": "Feature", "geometry": {"type": "Point", "coordinates": [98.93992, 18.92213]}, "properties": {"id": "cm-osm-way-741830428", "name": "The Pizza Company", "nameTh": null, "nameEn": "The Pizza Company", "cat": ["food"], "province": "cm", "slug": "the-pizza-company-741830428", "rank": 1}}, {"type": "Feature", "geometry": {"type": "Point", "coordinates": [99.01846, 18.8002]}, "properties": {"id": "cm-osm-node-2533358009", "name": "Thin Thin Pizza", "nameTh": null, "nameEn": "Thin Thin Pizza", "cat": ["food"], "province": "cm", "slug": "thin-thin-pizza-2533358009", "rank": 3}}, {"type": "Feature", "geometry": {"type": "Point", "coordinates": [98.99855, 18.78605]}, "properties": {"id": "cm-osm-node-6819234386", "name": "Two Sisters Pizza", "nameTh": null, "nameEn": "Two Sisters Pizza", "cat": ["food"], "province": "cm", "slug": "two-sisters-pizza-6819234386", "rank": 3}}, {"type": "Feature", "geometry": {"type": "Point", "coordinates": [98.99328, 18.79139]}, "properties": {"id": "cm-osm-node-3298818264", "name": "Uno Pizza Italy", "nameTh": null, "nameEn": "Uno Pizza Italy", "cat": ["food"], "province": "cm", "slug": "uno-pizza-italy-3298818264", "rank": 1}}, {"type": "Feature", "geometry": {"type": "Point", "coordinates": [98.99018, 18.79483]}, "properties": {"id": "cm-osm-node-4280108475", "name": "Uno pizza", "nameTh": null, "nameEn": "Uno Pizza", "cat": ["food"], "province": "cm", "slug": "uno-pizza-4280108475", "rank": 1}}, {"type": "Feature", "geometry": {"type": "Point", "coordinates": [98.99111, 18.79044]}, "properties": {"id": "cm-osm-node-1491302514", "name": "Viva Pizza", "nameTh": null, "nameEn": "Viva Pizza", "cat": ["food"], "province": "cm", "slug": "viva-pizza-1491302514", "rank": 1}}, {"type": "Feature", "geometry": {"type": "Point", "coordinates": [98.92355, 18.71121]}, "properties": {"id": "cm-osm-node-2642106196", "name": "Viva Pizza & Coffee", "nameTh": null, "nameEn": "Viva Pizza & Coffee", "cat": ["food"], "province": "cm", "slug": "viva-pizza-coffee-2642106196", "rank": 3}}, {"type": "Feature", "geometry": {"type": "Point", "coordinates": [98.9679, 18.79681]}, "properties": {"id": "cm-osm-node-1797043367", "name": "Why Not?", "nameTh": null, "nameEn": "Why Not?", "cat": ["food"], "province": "cm", "slug": "why-not-1797043367", "rank": 2}}, {"type": "Feature", "geometry": {"type": "Point", "coordinates": [98.9381, 18.7414]}, "properties": {"id": "cm-osm-way-562707358", "name": "Yummy Pizza", "nameTh": null, "nameEn": "Yummy Pizza", "cat": ["food"], "province": "cm", "slug": "yummy-pizza-562707358", "rank": 1}}, {"type": "Feature", "geometry": {"type": "Point", "coordinates": [98.99225, 18.79055]}, "properties": {"id": "cm-osm-node-6083211685", "name": "pickles restaurant", "nameTh": null, "nameEn": "pickles restaurant", "cat": ["food"], "province": "cm", "slug": "pickles-restaurant-6083211685", "rank": 2}}, {"type": "Feature", "geometry": {"type": "Point", "coordinates": [99.07349, 18.84428]}, "properties": {"id": "cm-osm-node-1388461069", "name": "พิซซ่า จาร์ดิโน่", "nameTh": "พิซซ่า จาร์ดิโน่", "nameEn": "Pizza Giardino", "cat": ["food"], "province": "cm", "slug": "pizza-giardino-1388461069", "rank": 4}}, {"type": "Feature", "geometry": {"type": "Point", "coordinates": [98.87037, 18.89987]}, "properties": {"id": "cm-osm-node-11502670881", "name": "ริเวอร์ร็อคคาเฟ่ฮิลล์", "nameTh": "ริเวอร์ร็อคคาเฟ่ฮิลล์", "nameEn": "River Rock Cafe Hill", "cat": ["food"], "province": "cm", "slug": "river-rock-cafe-hill-11502670881", "rank": 3}}, {"type": "Feature", "geometry": {"type": "Point", "coordinates": [98.92448, 18.74273]}, "properties": {"id": "cm-osm-node-5276808922", "name": "สหภาพกระต่าย", "nameTh": "สหภาพกระต่าย", "nameEn": "The Rabbit Union", "cat": ["food"], "province": "cm", "slug": "the-rabbit-union-5276808922", "rank": 3}}, {"type": "Feature", "geometry": {"type": "Point", "coordinates": [98.94147, 18.74849]}, "properties": {"id": "cm-osm-node-2569501895", "name": "สเต็ก", "nameTh": "สเต็ก", "nameEn": "Texas BBQ", "cat": ["food"], "province": "cm", "slug": "texas-bbq-2569501895", "rank": 3}}]}