{"type": "FeatureCollection", "features": [{"type": "Feature", "geometry": {"type": "Point", "coordinates": [98.95303, 18.76498]}, "properties": {"id": "cm-osm-node-4555359052", "name": "ครัวย่า", "nameTh": "ครัวย่า", "nameEn": "Grandmother's Kitchen (Krua Ya)", "cat": ["food"], "province": "cm", "slug": "grandmother-s-kitchen-krua-ya-4555359052", "rank": 3}}, {"type": "Feature", "geometry": {"type": "Point", "coordinates": [98.95029, 18.77063]}, "properties": {"id": "cm-osm-node-4681879190", "name": "คุ้มเวียงยอง", "nameTh": "คุ้มเวียงยอง", "nameEn": null, "cat": ["food"], "province": "cm", "slug": "4681879190", "rank": 1}}, {"type": "Feature", "geometry": {"type": "Point", "coordinates": [98.97547, 18.79982]}, "properties": {"id": "cm-osm-node-3287049585", "name": "เฮือนม่วนใจ๋", "nameTh": "เฮือนม่วนใจ๋", "nameEn": "Huen Muan Jai", "cat": ["food"], "province": "cm", "slug": "huen-muan-jai-3287049585", "rank": 5}}, {"type": "Feature", "geometry": {"type": "Point", "coordinates": [99.10272, 18.72535]}, "properties": {"id": "cm-osm-node-1505942280", "name": "เฮือนใจ๋ยอง", "nameTh": "เฮือนใจ๋ยอง", "nameEn": "Huen Jai Yong", "cat": ["food"], "province": "cm", "slug": "huen-jai-yong-1505942280", "rank": 2}}, {"type": "Feature", "geometry": {"type": "Point", "coordinates": [98.96179, 18.82101]}, "properties": {"id": "cm-osm-node-1826308733", "name": "แกงร้อนบ้านสวน", "nameTh": "แกงร้อนบ้านสวน", "nameEn": "Kaeng Ron", "cat": ["food"], "province": "cm", "slug": "kaeng-ron-1826308733", "rank": 2}}]}