{"type": "FeatureCollection", "features": [{"type": "Feature", "geometry": {"type": "Point", "coordinates": [99.02654, 18.78873]}, "properties": {"id": "cm-osm-way-294031574", "name": "Bangkok Hospital", "nameTh": "โรงพยาบาลกรุงเทพ", "nameEn": "Bangkok Hospital", "cat": ["medical"], "province": "cm", "slug": "bangkok-hospital-294031574", "rank": 6}}, {"type": "Feature", "geometry": {"type": "Point", "coordinates": [98.96698, 18.80217]}, "properties": {"id": "cm-osm-node-3287356489", "name": "Boots", "nameTh": null, "nameEn": "Boots", "cat": ["essentials", "medical"], "province": "cm", "slug": "boots-3287356489", "rank": 2}}, {"type": "Feature", "geometry": {"type": "Point", "coordinates": [98.99397, 18.78803]}, "properties": {"id": "cm-osm-way-482773004", "name": "Boots", "nameTh": null, "nameEn": "Boots", "cat": ["essentials", "medical"], "province": "cm", "slug": "boots-482773004", "rank": 2}}, {"type": "Feature", "geometry": {"type": "Point", "coordinates": [98.97539, 18.80024]}, "properties": {"id": "cm-osm-node-3311199585", "name": "CK Pharmacy", "nameTh": "กาแฟสารภี", "nameEn": "CK Pharmacy", "cat": ["essentials", "medical"], "province": "cm", "slug": "ck-pharmacy-3311199585", "rank": 3}}, {"type": "Feature", "geometry": {"type": "Point", "coordinates": [98.98257, 18.78775]}, "properties": {"id": "cm-osm-node-6354525187", "name": "NAT Pharmacy", "nameTh": null, "nameEn": "NAT Pharmacy", "cat": ["essentials", "medical"], "province": "cm", "slug": "nat-pharmacy-6354525187", "rank": 2}}, {"type": "Feature", "geometry": {"type": "Point", "coordinates": [98.97087, 18.79609]}, "properties": {"id": "cm-osm-node-3420974159", "name": "Pharmatist", "nameTh": null, "nameEn": "Pharmatist", "cat": ["essentials", "medical"], "province": "cm", "slug": "pharmatist-3420974159", "rank": 2}}, {"type": "Feature", "geometry": {"type": "Point", "coordinates": [98.97249, 18.78892]}, "properties": {"id": "cm-osm-node-12486500701", "name": "Shandon Pharma", "nameTh": null, "nameEn": "Shandon Pharma", "cat": ["essentials", "medical"], "province": "cm", "slug": "shandon-pharma-12486500701", "rank": 2}}, {"type": "Feature", "geometry": {"type": "Point", "coordinates": [99.02538, 18.78946]}, "properties": {"id": "cm-osm-node-2595902501", "name": "Super Drug", "nameTh": null, "nameEn": "Super Drug", "cat": ["essentials", "medical"], "province": "cm", "slug": "super-drug-2595902501", "rank": 2}}, {"type": "Feature", "geometry": {"type": "Point", "coordinates": [98.98279, 18.80937]}, "properties": {"id": "cm-osm-node-7053637677", "name": "The River Rehab", "nameTh": null, "nameEn": "The River Rehab", "cat": ["medical"], "province": "cm", "slug": "the-river-rehab-7053637677", "rank": 3}}, {"type": "Feature", "geometry": {"type": "Point", "coordinates": [98.97833, 18.80343]}, "properties": {"id": "cm-osm-node-3283898388", "name": "กนกศักดิ์เภสัช", "nameTh": "กนกศักดิ์เภสัช", "nameEn": "Kanok Sak", "cat": ["essentials", "medical"], "province": "cm", "slug": "kanok-sak-3283898388", "rank": 3}}, {"type": "Feature", "geometry": {"type": "Point", "coordinates": [99.02099, 18.77361]}, "properties": {"id": "cm-osm-node-4334725589", "name": "บ้านต้นขาม 2", "nameTh": "บ้านต้นขาม 2", "nameEn": null, "cat": ["medical"], "province": "cm", "slug": "2-4334725589", "rank": 2}}, {"type": "Feature", "geometry": {"type": "Point", "coordinates": [98.97843, 18.80239]}, "properties": {"id": "cm-osm-node-2530435324", "name": "ฟาร์ม่าคลับ", "nameTh": "ฟาร์ม่าคลับ", "nameEn": "Pharma Club", "cat": ["essentials", "medical"], "province": "cm", "slug": "pharma-club-2530435324", "rank": 3}}, {"type": "Feature", "geometry": {"type": "Point", "coordinates": [99.01776, 18.79395]}, "properties": {"id": "cm-osm-node-4584097442", "name": "มีนาเภสัช", "nameTh": "มีนาเภสัช", "nameEn": "Mina Pharmacy", "cat": ["essentials", "medical"], "province": "cm", "slug": "mina-pharmacy-4584097442", "rank": 3}}, {"type": "Feature", "geometry": {"type": "Point", "coordinates": [98.9964, 18.78419]}, "properties": {"id": "cm-osm-node-822570174", "name": "ร้าน 56เภสัชกร", "nameTh": "ร้าน 56เภสัชกร", "nameEn": "56 Pharmacy", "cat": ["essentials", "medical"], "province": "cm", "slug": "56-pharmacy-822570174", "rank": 3}}, {"type": "Feature", "geometry": {"type": "Point", "coordinates": [98.96104, 18.79937]}, "properties": {"id": "cm-osm-node-2638612443", "name": "ร้านยา เอพลัส", "nameTh": "ร้านยา เอพลัส", "nameEn": "A+ Pharmacy", "cat": ["essentials", "medical"], "province": "cm", "slug": "a-pharmacy-2638612443", "rank": 3}}, {"type": "Feature", "geometry": {"type": "Point", "coordinates": [98.98931, 18.83755]}, "properties": {"id": "cm-osm-node-2102708913", "name": "ร้านโชว์ห่วย", "nameTh": "ร้านโชว์ห่วย", "nameEn": null, "cat": ["essentials", "medical"], "province": "cm", "slug": "2102708913", "rank": 2}}, {"type": "Feature", "geometry": {"type": "Point", "coordinates": [98.9945, 18.77328]}, "properties": {"id": "cm-osm-node-5650846061", "name": "ศูนย์อนามัยที่ 10", "nameTh": "ศูนย์อนามัยที่ 10", "nameEn": "Medical Center 10", "cat": ["medical"], "province": "cm", "slug": "medical-center-10-5650846061", "rank": 3}}, {"type": "Feature", "geometry": {"type": "Point", "coordinates": [98.98843, 18.78101]}, "properties": {"id": "cm-osm-node-1026006144", "name": "สยามชัย เภสัช", "nameTh": "สยามชัย เภสัช", "nameEn": "Sayam Chai Pharmacy", "cat": ["essentials", "medical"], "province": "cm", "slug": "sayam-chai-pharmacy-1026006144", "rank": 3}}, {"type": "Feature", "geometry": {"type": "Point", "coordinates": [98.98694, 18.79911]}, "properties": {"id": "cm-osm-way-103540040", "name": "โรงพยาบาลช้างเผือก", "nameTh": "โรงพยาบาลช้างเผือก", "nameEn": "Chang Puak Hospital", "cat": ["medical"], "province": "cm", "slug": "chang-puak-hospital-103540040", "rank": 3}}, {"type": "Feature", "geometry": {"type": "Point", "coordinates": [98.96803, 18.79655]}, "properties": {"id": "cm-osm-node-9983193656", "name": "Cannabee", "nameTh": null, "nameEn": "Cannabee", "cat": ["cannabis"], "province": "cm", "slug": "cannabee-9983193656", "rank": 2}}, {"type": "Feature", "geometry": {"type": "Point", "coordinates": [98.99119, 18.79224]}, "properties": {"id": "cm-osm-node-13266867246", "name": "Hannah Organic", "nameTh": null, "nameEn": "Hannah Organic", "cat": ["cannabis"], "province": "cm", "slug": "hannah-organic-13266867246", "rank": 3}}, {"type": "Feature", "geometry": {"type": "Point", "coordinates": [98.97024, 18.79807]}, "properties": {"id": "cm-osm-node-10177747877", "name": "Old Town", "nameTh": null, "nameEn": "Old Town", "cat": ["cannabis"], "province": "cm", "slug": "old-town-10177747877", "rank": 2}}, {"type": "Feature", "geometry": {"type": "Point", "coordinates": [98.97122, 18.7987]}, "properties": {"id": "cm-osm-node-10177747875", "name": "Space Trees Thailand", "nameTh": null, "nameEn": "Space Trees Thailand", "cat": ["cannabis"], "province": "cm", "slug": "space-trees-thailand-10177747875", "rank": 2}}, {"type": "Feature", "geometry": {"type": "Point", "coordinates": [98.99376, 18.79022]}, "properties": {"id": "cm-osm-node-10281777733", "name": "Space Weed", "nameTh": null, "nameEn": "Space Weed", "cat": ["cannabis"], "province": "cm", "slug": "space-weed-10281777733", "rank": 2}}, {"type": "Feature", "geometry": {"type": "Point", "coordinates": [98.98949, 18.78383]}, "properties": {"id": "cm-osm-node-13016037946", "name": "WEED HANDSOMECnX", "nameTh": null, "nameEn": "WEED HANDSOMECnX", "cat": ["cannabis"], "province": "cm", "slug": "weed-handsomecnx-13016037946", "rank": 3}}, {"type": "Feature", "geometry": {"type": "Point", "coordinates": [99.01262, 18.82762]}, "properties": {"id": "cm-osm-node-13303153000", "name": "Weed Wiw", "nameTh": "ร้านกัญชา วี๊ด.วิ้ว รวมโชค", "nameEn": "Weed Wiw", "cat": ["cannabis"], "province": "cm", "slug": "weed-wiw-13303153000", "rank": 5}}, {"type": "Feature", "geometry": {"type": "Point", "coordinates": [99.20976, 19.92061]}, "properties": {"id": "cm-osm-node-10559319309", "name": "Yield lab cannabis dispensary", "nameTh": null, "nameEn": "Yield lab cannabis dispensary", "cat": ["cannabis"], "province": "cm", "slug": "yield-lab-cannabis-dispensary-10559319309", "rank": 2}}, {"type": "Feature", "geometry": {"type": "Point", "coordinates": [98.95131, 18.73159]}, "properties": {"id": "cm-osm-node-13996857490", "name": "กัญชา วี๊ด.วิ้ว หางดง", "nameTh": "กัญชา วี๊ด.วิ้ว หางดง", "nameEn": null, "cat": ["cannabis"], "province": "cm", "slug": "13996857490", "rank": 3}}]}