{"type": "FeatureCollection", "features": [{"type": "Feature", "geometry": {"type": "Point", "coordinates": [99.07735, 18.76612]}, "properties": {"id": "cm-osm-node-8333233834", "name": "Dek-Cha บ่อสร้าง", "nameTh": "Dek-Cha บ่อสร้าง", "nameEn": null, "cat": ["food"], "province": "cm", "slug": "dek-cha-8333233834", "rank": 1}}, {"type": "Feature", "geometry": {"type": "Point", "coordinates": [98.9419, 18.74705]}, "properties": {"id": "cm-osm-node-12587547446", "name": "Hop Chafe", "nameTh": null, "nameEn": "Hop Chafe", "cat": ["food"], "province": "cm", "slug": "hop-chafe-12587547446", "rank": 2}}, {"type": "Feature", "geometry": {"type": "Point", "coordinates": [98.95286, 18.79267]}, "properties": {"id": "cm-osm-node-13658267212", "name": "Mixue", "nameTh": null, "nameEn": "Mixue", "cat": ["food"], "province": "cm", "slug": "mixue-13658267212", "rank": 1}}, {"type": "Feature", "geometry": {"type": "Point", "coordinates": [99.00042, 18.79092]}, "properties": {"id": "cm-osm-node-6972562985", "name": "ชาตรามือ สาขาตลาดวโรรส", "nameTh": "ชาตรามือ สาขาตลาดวโรรส", "nameEn": "Cha Tra Mue", "cat": ["food"], "province": "cm", "slug": "cha-tra-mue-6972562985", "rank": 6}}, {"type": "Feature", "geometry": {"type": "Point", "coordinates": [98.97719, 18.78131]}, "properties": {"id": "cm-osm-node-13870668983", "name": "ถิงถิง Ting Ting บิงซูน้ำขิง เชียงใหม่", "nameTh": "ถิงถิง Ting Ting บิงซูน้ำขิง เชียงใหม่", "nameEn": null, "cat": ["food"], "province": "cm", "slug": "ting-ting-13870668983", "rank": 3}}]}