{"type": "FeatureCollection", "features": [{"type": "Feature", "geometry": {"type": "Point", "coordinates": [99.00644, 18.89932]}, "properties": {"id": "cm-osm-node-2601028742", "name": "ธนาคารเพื่อการเกษตรและสหกรณ์การเกษตร ธ.ก.ส.", "nameTh": "ธนาคารเพื่อการเกษตรและสหกรณ์การเกษตร ธ.ก.ส.", "nameEn": "Bank for Agriculture and Agricultural Cooperatives (BAAC)", "cat": ["essentials"], "province": "cm", "slug": "bank-for-agriculture-and-agricultural-cooperatives-baac-2601028742", "rank": 2}}, {"type": "Feature", "geometry": {"type": "Point", "coordinates": [98.94192, 18.74673]}, "properties": {"id": "cm-osm-node-3243798862", "name": "ธนาคารเพื่อการเกษตรและสหกรณ์การเกษตร ธ.ก.ส.", "nameTh": "ธนาคารเพื่อการเกษตรและสหกรณ์การเกษตร ธ.ก.ส.", "nameEn": "Bank for Agriculture and Agricultural Cooperatives (BAAC)", "cat": ["essentials"], "province": "cm", "slug": "bank-for-agriculture-and-agricultural-cooperatives-baac-3243798862", "rank": 3}}, {"type": "Feature", "geometry": {"type": "Point", "coordinates": [98.96147, 18.74315]}, "properties": {"id": "cm-osm-node-3406304425", "name": "ธนาคารเพื่อการเกษตรและสหกรณ์การเกษตร ธ.ก.ส.", "nameTh": "ธนาคารเพื่อการเกษตรและสหกรณ์การเกษตร ธ.ก.ส.", "nameEn": "Bank for Agriculture and Agricultural Cooperatives (BAAC)", "cat": ["essentials"], "province": "cm", "slug": "bank-for-agriculture-and-agricultural-cooperatives-baac-3406304425", "rank": 2}}, {"type": "Feature", "geometry": {"type": "Point", "coordinates": [98.9821, 18.68083]}, "properties": {"id": "cm-osm-node-7868520192", "name": "ธนาคารเพื่อการเกษตรและสหกรณ์การเกษตร ธ.ก.ส.", "nameTh": "ธนาคารเพื่อการเกษตรและสหกรณ์การเกษตร ธ.ก.ส.", "nameEn": "Bank for Agriculture and Agricultural Cooperatives (BAAC)", "cat": ["essentials"], "province": "cm", "slug": "bank-for-agriculture-and-agricultural-cooperatives-baac-7868520192", "rank": 2}}, {"type": "Feature", "geometry": {"type": "Point", "coordinates": [98.98719, 18.7936]}, "properties": {"id": "cm-osm-way-251437032", "name": "ธนาคารเพื่อการเกษตรและสหกรณ์การเกษตร ธ.ก.ส.", "nameTh": "ธนาคารเพื่อการเกษตรและสหกรณ์การเกษตร ธ.ก.ส.", "nameEn": "Bank for Agriculture and Agricultural Cooperatives (BAAC)", "cat": ["essentials"], "province": "cm", "slug": "bank-for-agriculture-and-agricultural-cooperatives-baac-251437032", "rank": 2}}, {"type": "Feature", "geometry": {"type": "Point", "coordinates": [99.03232, 18.82004]}, "properties": {"id": "cm-osm-way-701970726", "name": "ธนาคารเพื่อการเกษตรและสหกรณ์การเกษตร ธ.ก.ส.", "nameTh": "ธนาคารเพื่อการเกษตรและสหกรณ์การเกษตร ธ.ก.ส.", "nameEn": "Bank for Agriculture and Agricultural Cooperatives (BAAC)", "cat": ["essentials"], "province": "cm", "slug": "bank-for-agriculture-and-agricultural-cooperatives-baac-701970726", "rank": 2}}, {"type": "Feature", "geometry": {"type": "Point", "coordinates": [99.11578, 18.74684]}, "properties": {"id": "cm-osm-way-97838956", "name": "ธนาคารเพื่อการเกษตรและสหกรณ์การเกษตร ธ.ก.ส.", "nameTh": "ธนาคารเพื่อการเกษตรและสหกรณ์การเกษตร ธ.ก.ส.", "nameEn": "Bank for Agriculture and Agricultural Cooperatives (BAAC)", "cat": ["essentials"], "province": "cm", "slug": "bank-for-agriculture-and-agricultural-cooperatives-baac-97838956", "rank": 2}}]}