{"type": "FeatureCollection", "features": [{"type": "Feature", "geometry": {"type": "Point", "coordinates": [98.96981, 18.79752]}, "properties": {"id": "cm-osm-node-12573253643", "name": "Chinda Hotpot", "nameTh": null, "nameEn": "Chinda Hotpot", "cat": ["food"], "province": "cm", "slug": "chinda-hotpot-12573253643", "rank": 2}}, {"type": "Feature", "geometry": {"type": "Point", "coordinates": [98.96882, 18.79695]}, "properties": {"id": "cm-osm-node-4830093022", "name": "Chinese noodle", "nameTh": null, "nameEn": "Chinese noodle", "cat": ["food"], "province": "cm", "slug": "chinese-noodle-4830093022", "rank": 3}}, {"type": "Feature", "geometry": {"type": "Point", "coordinates": [99.00294, 18.78601]}, "properties": {"id": "cm-osm-node-6163759185", "name": "Chow Chow", "nameTh": null, "nameEn": "Chow Chow", "cat": ["food"], "province": "cm", "slug": "chow-chow-6163759185", "rank": 1}}, {"type": "Feature", "geometry": {"type": "Point", "coordinates": [99.03823, 18.77853]}, "properties": {"id": "cm-osm-node-1413059050", "name": "Fujian", "nameTh": null, "nameEn": "Fujian", "cat": ["food"], "province": "cm", "slug": "fujian-1413059050", "rank": 2}}, {"type": "Feature", "geometry": {"type": "Point", "coordinates": [98.97498, 18.76939]}, "properties": {"id": "cm-osm-node-3347631789", "name": "HOT POT Buffet", "nameTh": null, "nameEn": "HOT POT Buffet", "cat": ["food"], "province": "cm", "slug": "hot-pot-buffet-3347631789", "rank": 2}}, {"type": "Feature", "geometry": {"type": "Point", "coordinates": [98.99366, 18.78703]}, "properties": {"id": "cm-osm-node-7416656942", "name": "Hello Chiengmai", "nameTh": null, "nameEn": "Hello Chiengmai", "cat": ["food"], "province": "cm", "slug": "hello-chiengmai-7416656942", "rank": 1}}, {"type": "Feature", "geometry": {"type": "Point", "coordinates": [98.98471, 18.78907]}, "properties": {"id": "cm-osm-node-3804433409", "name": "Hong Kong Lucky Restaurant", "nameTh": null, "nameEn": "Hong Kong Lucky Restaurant", "cat": ["food"], "province": "cm", "slug": "hong-kong-lucky-restaurant-3804433409", "rank": 1}}, {"type": "Feature", "geometry": {"type": "Point", "coordinates": [99.0003, 18.77056]}, "properties": {"id": "cm-osm-node-6934566482", "name": "Hualin Inn", "nameTh": null, "nameEn": "Hualin Inn", "cat": ["food"], "province": "cm", "slug": "hualin-inn-6934566482", "rank": 1}}, {"type": "Feature", "geometry": {"type": "Point", "coordinates": [98.99928, 18.77575]}, "properties": {"id": "cm-osm-node-12558292044", "name": "Je Hua", "nameTh": null, "nameEn": "Je Hua", "cat": ["food"], "province": "cm", "slug": "je-hua-12558292044", "rank": 1}}, {"type": "Feature", "geometry": {"type": "Point", "coordinates": [99.00182, 18.78139]}, "properties": {"id": "cm-osm-node-4876346922", "name": "Jiatong Hen Restaurant", "nameTh": null, "nameEn": "Jiatong Hen Restaurant", "cat": ["food"], "province": "cm", "slug": "jiatong-hen-restaurant-4876346922", "rank": 1}}, {"type": "Feature", "geometry": {"type": "Point", "coordinates": [98.97813, 18.78387]}, "properties": {"id": "cm-osm-node-5375687524", "name": "Krua Chanthaboon Restaurant", "nameTh": null, "nameEn": "Krua Chanthaboon Restaurant", "cat": ["food"], "province": "cm", "slug": "krua-chanthaboon-restaurant-5375687524", "rank": 2}}, {"type": "Feature", "geometry": {"type": "Point", "coordinates": [98.99392, 18.78787]}, "properties": {"id": "cm-osm-node-13115040801", "name": "Lanzhou Noodles", "nameTh": null, "nameEn": "Lanzhou Noodles", "cat": ["food"], "province": "cm", "slug": "lanzhou-noodles-13115040801", "rank": 2}}, {"type": "Feature", "geometry": {"type": "Point", "coordinates": [98.9938, 18.76508]}, "properties": {"id": "cm-osm-node-5643724022", "name": "Mei Jiang", "nameTh": null, "nameEn": "Mei Jiang", "cat": ["food"], "province": "cm", "slug": "mei-jiang-5643724022", "rank": 3}}, {"type": "Feature", "geometry": {"type": "Point", "coordinates": [98.98523, 18.77223]}, "properties": {"id": "cm-osm-node-13543188501", "name": "Qin Kitchen", "nameTh": null, "nameEn": "Qin Kitchen", "cat": ["food"], "province": "cm", "slug": "qin-kitchen-13543188501", "rank": 1}}, {"type": "Feature", "geometry": {"type": "Point", "coordinates": [98.9674, 18.80251]}, "properties": {"id": "cm-osm-node-6052593885", "name": "Shan Tou Hao Chi - Vegetarian & Vegan", "nameTh": null, "nameEn": "Shan Tou Hao Chi - Vegetarian & Vegan", "cat": ["food"], "province": "cm", "slug": "shan-tou-hao-chi-vegetarian-vegan-6052593885", "rank": 3}}, {"type": "Feature", "geometry": {"type": "Point", "coordinates": [99.01068, 18.82445]}, "properties": {"id": "cm-osm-node-8770776633", "name": "Superhotpot", "nameTh": null, "nameEn": "Superhotpot", "cat": ["food"], "province": "cm", "slug": "superhotpot-8770776633", "rank": 2}}, {"type": "Feature", "geometry": {"type": "Point", "coordinates": [99.10506, 18.72375]}, "properties": {"id": "cm-osm-node-7153805383", "name": "Taiton Cafe", "nameTh": null, "nameEn": "Taiton Cafe", "cat": ["food"], "province": "cm", "slug": "taiton-cafe-7153805383", "rank": 1}}, {"type": "Feature", "geometry": {"type": "Point", "coordinates": [98.98895, 18.78234]}, "properties": {"id": "cm-osm-node-1107238261", "name": "Tein Sieng", "nameTh": null, "nameEn": "Tein Sieng", "cat": ["food"], "province": "cm", "slug": "tein-sieng-1107238261", "rank": 2}}, {"type": "Feature", "geometry": {"type": "Point", "coordinates": [99.0036, 18.78183]}, "properties": {"id": "cm-osm-node-4865979294", "name": "The Service 1921 Restaurant & Bar", "nameTh": null, "nameEn": "The Service 1921 Restaurant & Bar", "cat": ["food"], "province": "cm", "slug": "the-service-1921-restaurant-bar-4865979294", "rank": 2}}, {"type": "Feature", "geometry": {"type": "Point", "coordinates": [99.00137, 18.78134]}, "properties": {"id": "cm-osm-node-2468796307", "name": "Tong Heng", "nameTh": null, "nameEn": "Tong Heng", "cat": ["food"], "province": "cm", "slug": "tong-heng-2468796307", "rank": 1}}, {"type": "Feature", "geometry": {"type": "Point", "coordinates": [99.00785, 18.78709]}, "properties": {"id": "cm-osm-node-13717805901", "name": "Wikunpanich Steamed Bun", "nameTh": null, "nameEn": "Wikunpanich Steamed Bun", "cat": ["food"], "province": "cm", "slug": "wikunpanich-steamed-bun-13717805901", "rank": 3}}, {"type": "Feature", "geometry": {"type": "Point", "coordinates": [98.96437, 18.82299]}, "properties": {"id": "cm-osm-way-333203045", "name": "Yunnan Restaurant", "nameTh": null, "nameEn": "Yunnan Restaurant", "cat": ["food"], "province": "cm", "slug": "yunnan-restaurant-333203045", "rank": 1}}, {"type": "Feature", "geometry": {"type": "Point", "coordinates": [99.12603, 18.7283]}, "properties": {"id": "cm-osm-node-13040779448", "name": "ข้าวขาหมู บ้านแม่ ออเดย์ ดอนปีน ป่าไผ่ สันกำแพง", "nameTh": "ข้าวขาหมู บ้านแม่ ออเดย์ ดอนปีน ป่าไผ่ สันกำแพง", "nameEn": "ฺBAN MAE ALL DAY Braised Pork Leg with Rice", "cat": ["food"], "province": "cm", "slug": "ban-mae-all-day-braised-pork-leg-with-rice-13040779448", "rank": 4}}, {"type": "Feature", "geometry": {"type": "Point", "coordinates": [98.97819, 18.80506]}, "properties": {"id": "cm-osm-node-10865560132", "name": "จางเลียงเลียงหมาล่าทั่ง", "nameTh": "จางเลียงเลียงหมาล่าทั่ง", "nameEn": "Zhang Liangling Malatang", "cat": ["food"], "province": "cm", "slug": "zhang-liangling-malatang-10865560132", "rank": 4}}, {"type": "Feature", "geometry": {"type": "Point", "coordinates": [98.98249, 18.77473]}, "properties": {"id": "cm-osm-way-405600680", "name": "ตูลู่", "nameTh": "ตูลู่", "nameEn": "Tulou Restaurant", "cat": ["food"], "province": "cm", "slug": "tulou-restaurant-405600680", "rank": 2}}, {"type": "Feature", "geometry": {"type": "Point", "coordinates": [98.97719, 18.78131]}, "properties": {"id": "cm-osm-node-13870668983", "name": "ถิงถิง Ting Ting บิงซูน้ำขิง เชียงใหม่", "nameTh": "ถิงถิง Ting Ting บิงซูน้ำขิง เชียงใหม่", "nameEn": null, "cat": ["food"], "province": "cm", "slug": "ting-ting-13870668983", "rank": 3}}, {"type": "Feature", "geometry": {"type": "Point", "coordinates": [99.01283, 18.82832]}, "properties": {"id": "cm-osm-node-3979200913", "name": "นายหมู บะกุ๊ดเต๋", "nameTh": "นายหมู บะกุ๊ดเต๋", "nameEn": "Nai Moo Bakutteh", "cat": ["food"], "province": "cm", "slug": "nai-moo-bakutteh-3979200913", "rank": 2}}, {"type": "Feature", "geometry": {"type": "Point", "coordinates": [99.01837, 18.75505]}, "properties": {"id": "cm-osm-node-1427607176", "name": "บัานสวนกินเส้น", "nameTh": "บัานสวนกินเส้น", "nameEn": null, "cat": ["food"], "province": "cm", "slug": "1427607176", "rank": 2}}, {"type": "Feature", "geometry": {"type": "Point", "coordinates": [99.05049, 18.77909]}, "properties": {"id": "cm-osm-node-1691814067", "name": "ร้านฝงหมิง", "nameTh": "ร้านฝงหมิง", "nameEn": "Fengming", "cat": ["food"], "province": "cm", "slug": "fengming-1691814067", "rank": 2}}, {"type": "Feature", "geometry": {"type": "Point", "coordinates": [98.991, 18.78541]}, "properties": {"id": "cm-osm-node-4679686491", "name": "ร้านมิตรใหม่", "nameTh": "ร้านมิตรใหม่", "nameEn": "Mit Mai", "cat": ["food"], "province": "cm", "slug": "mit-mai-4679686491", "rank": 4}}, {"type": "Feature", "geometry": {"type": "Point", "coordinates": [98.98657, 18.78974]}, "properties": {"id": "cm-osm-node-4871282121", "name": "ร้านสอาด", "nameTh": "ร้านสอาด", "nameEn": "Sa-Ard Fishball Noodle Shop", "cat": ["food"], "province": "cm", "slug": "sa-ard-fishball-noodle-shop-4871282121", "rank": 4}}, {"type": "Feature", "geometry": {"type": "Point", "coordinates": [99.02479, 18.78034]}, "properties": {"id": "cm-osm-node-4448768789", "name": "ร้านสอาด 2", "nameTh": "ร้านสอาด 2", "nameEn": "Sa-Ard Noodle Shop", "cat": ["food"], "province": "cm", "slug": "sa-ard-noodle-shop-4448768789", "rank": 4}}, {"type": "Feature", "geometry": {"type": "Point", "coordinates": [98.97432, 18.7992]}, "properties": {"id": "cm-osm-node-13253620901", "name": "ร้านอาหารไต้หวัน", "nameTh": "ร้านอาหารไต้หวัน", "nameEn": "Taiwan & Thai Restaurant", "cat": ["food"], "province": "cm", "slug": "taiwan-thai-restaurant-13253620901", "rank": 4}}, {"type": "Feature", "geometry": {"type": "Point", "coordinates": [98.9666, 18.79718]}, "properties": {"id": "cm-osm-node-13984742401", "name": "อาหารจีนเสฉวน", "nameTh": "อาหารจีนเสฉวน", "nameEn": null, "cat": ["food"], "province": "cm", "slug": "13984742401", "rank": 3}}, {"type": "Feature", "geometry": {"type": "Point", "coordinates": [99.01203, 18.74717]}, "properties": {"id": "cm-osm-node-13382564001", "name": "ฮาหลิง", "nameTh": "ฮาหลิง", "nameEn": null, "cat": ["food"], "province": "cm", "slug": "13382564001", "rank": 3}}, {"type": "Feature", "geometry": {"type": "Point", "coordinates": [99.01306, 18.8099]}, "properties": {"id": "cm-osm-node-2517098012", "name": "เจี่ยท้งเฮง", "nameTh": "เจี่ยท้งเฮง", "nameEn": "Jia Tong Heng", "cat": ["food"], "province": "cm", "slug": "jia-tong-heng-2517098012", "rank": 6}}, {"type": "Feature", "geometry": {"type": "Point", "coordinates": [98.97717, 18.80903]}, "properties": {"id": "cm-osm-way-542885990", "name": "เรือนนที เทอเรส", "nameTh": "เรือนนที เทอเรส", "nameEn": "Ruan Natee Terrace", "cat": ["food"], "province": "cm", "slug": "ruan-natee-terrace-542885990", "rank": 3}}, {"type": "Feature", "geometry": {"type": "Point", "coordinates": [98.96559, 18.8064]}, "properties": {"id": "cm-osm-way-442372056", "name": "เอกทิพย์โชคดี", "nameTh": "เอกทิพย์โชคดี", "nameEn": "Ekathip Chokedee", "cat": ["food"], "province": "cm", "slug": "ekathip-chokedee-442372056", "rank": 4}}, {"type": "Feature", "geometry": {"type": "Point", "coordinates": [98.97808, 18.81158]}, "properties": {"id": "cm-osm-way-314698038", "name": "แจ่วฮ้อนพะเยา", "nameTh": "แจ่วฮ้อนพะเยา", "nameEn": "Jown Hot Phayao (?)", "cat": ["food"], "province": "cm", "slug": "jown-hot-phayao-314698038", "rank": 2}}, {"type": "Feature", "geometry": {"type": "Point", "coordinates": [98.96646, 18.78939]}, "properties": {"id": "cm-osm-node-4356165927", "name": "โต้งติ่มซำ", "nameTh": "โต้งติ่มซำ", "nameEn": "Tong Dim Sum", "cat": ["food"], "province": "cm", "slug": "tong-dim-sum-4356165927", "rank": 4}}, {"type": "Feature", "geometry": {"type": "Point", "coordinates": [98.99999, 18.77775]}, "properties": {"id": "cm-osm-node-7979652795", "name": "清迈川味金牌火锅", "nameTh": null, "nameEn": "清迈川味金牌火锅", "cat": ["food"], "province": "cm", "slug": "7979652795", "rank": 2}}]}