{"type": "FeatureCollection", "features": [{"type": "Feature", "geometry": {"type": "Point", "coordinates": [99.01122, 18.82421]}, "properties": {"id": "cm-osm-node-4213709714", "name": "Cimb Thai", "nameTh": null, "nameEn": "Cimb Thai", "cat": ["essentials"], "province": "cm", "slug": "cimb-thai-4213709714", "rank": 1}}, {"type": "Feature", "geometry": {"type": "Point", "coordinates": [98.98644, 18.7978]}, "properties": {"id": "cm-osm-node-2420202284", "name": "ซีไอเอ็มบี ไทย", "nameTh": "ซีไอเอ็มบี ไทย", "nameEn": "CIMB THAI", "cat": ["essentials"], "province": "cm", "slug": "cimb-thai-2420202284", "rank": 2}}, {"type": "Feature", "geometry": {"type": "Point", "coordinates": [98.99929, 18.77567]}, "properties": {"id": "cm-osm-node-2610123126", "name": "ซีไอเอ็มบี ไทย", "nameTh": "ซีไอเอ็มบี ไทย", "nameEn": "CIMB THAI", "cat": ["essentials"], "province": "cm", "slug": "cimb-thai-2610123126", "rank": 2}}, {"type": "Feature", "geometry": {"type": "Point", "coordinates": [98.96575, 18.78941]}, "properties": {"id": "cm-osm-node-2638649036", "name": "ซีไอเอ็มบี ไทย", "nameTh": "ซีไอเอ็มบี ไทย", "nameEn": "CIMB THAI", "cat": ["essentials"], "province": "cm", "slug": "cimb-thai-2638649036", "rank": 2}}, {"type": "Feature", "geometry": {"type": "Point", "coordinates": [98.97414, 18.76881]}, "properties": {"id": "cm-osm-node-3347631781", "name": "ซีไอเอ็มบี ไทย", "nameTh": "ซีไอเอ็มบี ไทย", "nameEn": "CIMB THAI", "cat": ["essentials"], "province": "cm", "slug": "cimb-thai-3347631781", "rank": 2}}]}