{"type": "FeatureCollection", "features": [{"type": "Feature", "geometry": {"type": "Point", "coordinates": [98.97709, 18.77174]}, "properties": {"id": "cm-osm-node-1030382176", "name": "First Drug", "nameTh": null, "nameEn": "First Drug", "cat": ["essentials", "medical"], "province": "cm", "slug": "first-drug-1030382176", "rank": 2}}, {"type": "Feature", "geometry": {"type": "Point", "coordinates": [99.01771, 18.80694]}, "properties": {"id": "cm-osm-node-2865805502", "name": "First Drug", "nameTh": null, "nameEn": "First Drug", "cat": ["essentials", "medical"], "province": "cm", "slug": "first-drug-2865805502", "rank": 1}}, {"type": "Feature", "geometry": {"type": "Point", "coordinates": [98.9755, 18.76931]}, "properties": {"id": "cm-osm-node-3347631784", "name": "First Drug", "nameTh": null, "nameEn": "First Drug", "cat": ["essentials", "medical"], "province": "cm", "slug": "first-drug-3347631784", "rank": 2}}, {"type": "Feature", "geometry": {"type": "Point", "coordinates": [98.9322, 18.70154]}, "properties": {"id": "cm-osm-node-3476127843", "name": "First Drug", "nameTh": null, "nameEn": "First Drug", "cat": ["essentials", "medical"], "province": "cm", "slug": "first-drug-3476127843", "rank": 1}}, {"type": "Feature", "geometry": {"type": "Point", "coordinates": [98.97137, 18.8464]}, "properties": {"id": "cm-osm-node-4480923147", "name": "First Drug", "nameTh": "เฟิร์สดรัก", "nameEn": "First Drug", "cat": ["essentials", "medical"], "province": "cm", "slug": "first-drug-4480923147", "rank": 2}}, {"type": "Feature", "geometry": {"type": "Point", "coordinates": [99.00562, 18.78347]}, "properties": {"id": "cm-osm-node-4509283283", "name": "First Drug", "nameTh": null, "nameEn": "First Drug", "cat": ["essentials", "medical"], "province": "cm", "slug": "first-drug-4509283283", "rank": 1}}]}