{"type": "FeatureCollection", "features": [{"type": "Feature", "geometry": {"type": "Point", "coordinates": [99.02483, 18.79907]}, "properties": {"id": "cm-osm-node-4427268746", "name": "Drug & Beauty", "nameTh": null, "nameEn": "Drug & Beauty", "cat": ["essentials", "medical"], "province": "cm", "slug": "drug-beauty-4427268746", "rank": 1}}, {"type": "Feature", "geometry": {"type": "Point", "coordinates": [98.97387, 18.80999]}, "properties": {"id": "cm-osm-node-10970962604", "name": "MIlada Thai-Chinese Medical Clinic", "nameTh": null, "nameEn": "MIlada Thai-Chinese Medical Clinic", "cat": ["medical"], "province": "cm", "slug": "milada-thai-chinese-medical-clinic-10970962604", "rank": 4}}, {"type": "Feature", "geometry": {"type": "Point", "coordinates": [98.96428, 18.81974]}, "properties": {"id": "cm-osm-way-668012404", "name": "Narada Clinic", "nameTh": null, "nameEn": "Narada Clinic", "cat": ["medical"], "province": "cm", "slug": "narada-clinic-668012404", "rank": 2}}, {"type": "Feature", "geometry": {"type": "Point", "coordinates": [99.00863, 18.82365]}, "properties": {"id": "cm-osm-way-411355067", "name": "Pachara Clinic", "nameTh": null, "nameEn": "Pachara Clinic", "cat": ["medical"], "province": "cm", "slug": "pachara-clinic-411355067", "rank": 2}}, {"type": "Feature", "geometry": {"type": "Point", "coordinates": [98.97304, 18.7941]}, "properties": {"id": "cm-osm-node-3421245746", "name": "Ratika Skin Clinic", "nameTh": null, "nameEn": "Ratika Skin Clinic", "cat": ["medical"], "province": "cm", "slug": "ratika-skin-clinic-3421245746", "rank": 2}}, {"type": "Feature", "geometry": {"type": "Point", "coordinates": [98.97222, 18.79505]}, "properties": {"id": "cm-osm-node-3420998761", "name": "Sarinya Clinic", "nameTh": null, "nameEn": "Sarinya Clinic", "cat": ["medical"], "province": "cm", "slug": "sarinya-clinic-3420998761", "rank": 2}}, {"type": "Feature", "geometry": {"type": "Point", "coordinates": [98.97751, 18.79277]}, "properties": {"id": "cm-osm-way-679152513", "name": "Skin Centre", "nameTh": null, "nameEn": "Skin Centre", "cat": ["medical"], "province": "cm", "slug": "skin-centre-679152513", "rank": 2}}, {"type": "Feature", "geometry": {"type": "Point", "coordinates": [98.98762, 18.79375]}, "properties": {"id": "cm-osm-node-6611483885", "name": "Skin clinic", "nameTh": null, "nameEn": "Skin clinic", "cat": ["medical"], "province": "cm", "slug": "skin-clinic-6611483885", "rank": 1}}, {"type": "Feature", "geometry": {"type": "Point", "coordinates": [98.97391, 18.81298]}, "properties": {"id": "cm-osm-node-13411824165", "name": "U-shine Aesthetic Clinic", "nameTh": null, "nameEn": "U-shine Aesthetic Clinic", "cat": ["medical"], "province": "cm", "slug": "u-shine-aesthetic-clinic-13411824165", "rank": 1}}, {"type": "Feature", "geometry": {"type": "Point", "coordinates": [98.98842, 18.78603]}, "properties": {"id": "cm-osm-node-7026355500", "name": "Vitamin H Pharmacy & Beauty Bar", "nameTh": null, "nameEn": "Vitamin H Pharmacy & Beauty Bar", "cat": ["essentials", "medical"], "province": "cm", "slug": "vitamin-h-pharmacy-beauty-bar-7026355500", "rank": 1}}, {"type": "Feature", "geometry": {"type": "Point", "coordinates": [98.99883, 18.77312]}, "properties": {"id": "cm-curated-drwimon-clinic", "name": "คลินิกหมอวิมล", "nameTh": "คลินิกหมอวิมล", "nameEn": "Dr Wimon Clinic (plastic surgery)", "cat": ["medical"], "province": "cm", "slug": "dr-wimon-clinic-plastic-surgery-cmcurateddrwimonclinic", "rank": 6}}, {"type": "Feature", "geometry": {"type": "Point", "coordinates": [98.94751, 18.72494]}, "properties": {"id": "cm-osm-node-13950359721", "name": "พชรคลินิก สาขาหางดง Pachara Clinic Hang Dong", "nameTh": "พชรคลินิก สาขาหางดง Pachara Clinic Hang Dong", "nameEn": null, "cat": ["medical"], "province": "cm", "slug": "pachara-clinic-hang-dong-13950359721", "rank": 3}}, {"type": "Feature", "geometry": {"type": "Point", "coordinates": [98.97005, 18.80436]}, "properties": {"id": "cm-osm-way-1279060998", "name": "เซราคลินิก สาขาเชียงใหม่", "nameTh": "เซราคลินิก สาขาเชียงใหม่", "nameEn": null, "cat": ["medical"], "province": "cm", "slug": "1279060998", "rank": 2}}]}