{"type": "FeatureCollection", "features": [{"type": "Feature", "geometry": {"type": "Point", "coordinates": [98.99053, 18.78485]}, "properties": {"id": "cm-osm-node-5493659827", "name": "Arno's", "nameTh": null, "nameEn": "Arno's", "cat": ["food"], "province": "cm", "slug": "arno-s-5493659827", "rank": 1}}, {"type": "Feature", "geometry": {"type": "Point", "coordinates": [98.9677, 18.79509]}, "properties": {"id": "cm-osm-node-4328044391", "name": "Beast Burger", "nameTh": null, "nameEn": "Beast Burger", "cat": ["food"], "province": "cm", "slug": "beast-burger-4328044391", "rank": 3}}, {"type": "Feature", "geometry": {"type": "Point", "coordinates": [98.99283, 18.78448]}, "properties": {"id": "cm-osm-node-3385473039", "name": "Big Daddy's Diner", "nameTh": null, "nameEn": "Big Daddy's Diner", "cat": ["food"], "province": "cm", "slug": "big-daddy-s-diner-3385473039", "rank": 1}}, {"type": "Feature", "geometry": {"type": "Point", "coordinates": [98.99142, 18.7939]}, "properties": {"id": "cm-osm-way-259707860", "name": "Blue Diamond The Breakfast Club", "nameTh": null, "nameEn": "Blue Diamond The Breakfast Club", "cat": ["food"], "province": "cm", "slug": "blue-diamond-the-breakfast-club-259707860", "rank": 3}}, {"type": "Feature", "geometry": {"type": "Point", "coordinates": [99.00659, 18.78419]}, "properties": {"id": "cm-osm-node-9526112065", "name": "Burger Box", "nameTh": null, "nameEn": "Burger Box", "cat": ["food"], "province": "cm", "slug": "burger-box-9526112065", "rank": 1}}, {"type": "Feature", "geometry": {"type": "Point", "coordinates": [98.96827, 18.76877]}, "properties": {"id": "cm-osm-node-1474876241", "name": "Burger King", "nameTh": null, "nameEn": "Burger King", "cat": ["food"], "province": "cm", "slug": "burger-king-1474876241", "rank": 2}}, {"type": "Feature", "geometry": {"type": "Point", "coordinates": [98.99305, 18.78798]}, "properties": {"id": "cm-osm-node-3123387493", "name": "Burger King", "nameTh": null, "nameEn": "Burger King", "cat": ["food"], "province": "cm", "slug": "burger-king-3123387493", "rank": 2}}, {"type": "Feature", "geometry": {"type": "Point", "coordinates": [99.02305, 18.76281]}, "properties": {"id": "cm-osm-node-4572686702", "name": "Burger King", "nameTh": null, "nameEn": "Burger King", "cat": ["food"], "province": "cm", "slug": "burger-king-4572686702", "rank": 1}}, {"type": "Feature", "geometry": {"type": "Point", "coordinates": [99.00047, 18.78409]}, "properties": {"id": "cm-osm-node-907621996", "name": "Burger King", "nameTh": null, "nameEn": "Burger King", "cat": ["food"], "province": "cm", "slug": "burger-king-907621996", "rank": 2}}, {"type": "Feature", "geometry": {"type": "Point", "coordinates": [98.94003, 18.92157]}, "properties": {"id": "cm-osm-node-9312199019", "name": "Burger King", "nameTh": null, "nameEn": "Burger King", "cat": ["food"], "province": "cm", "slug": "burger-king-9312199019", "rank": 1}}, {"type": "Feature", "geometry": {"type": "Point", "coordinates": [98.97426, 18.76326]}, "properties": {"id": "cm-osm-node-9328871817", "name": "Burger King", "nameTh": null, "nameEn": "Burger King", "cat": ["food"], "province": "cm", "slug": "burger-king-9328871817", "rank": 2}}, {"type": "Feature", "geometry": {"type": "Point", "coordinates": [98.99308, 18.79034]}, "properties": {"id": "cm-osm-node-3624377794", "name": "Burgers & Springrolls", "nameTh": null, "nameEn": "Burgers & Springrolls", "cat": ["food"], "province": "cm", "slug": "burgers-springrolls-3624377794", "rank": 2}}, {"type": "Feature", "geometry": {"type": "Point", "coordinates": [98.95791, 18.80635]}, "properties": {"id": "cm-osm-node-3819711686", "name": "Catmosphere Cat Café", "nameTh": "แคทโมสเฟียร์ แคท คาเฟ่", "nameEn": "Catmosphere Cat Café", "cat": ["food"], "province": "cm", "slug": "catmosphere-cat-caf-3819711686", "rank": 3}}, {"type": "Feature", "geometry": {"type": "Point", "coordinates": [98.96882, 18.79695]}, "properties": {"id": "cm-osm-node-4830093022", "name": "Chinese noodle", "nameTh": null, "nameEn": "Chinese noodle", "cat": ["food"], "province": "cm", "slug": "chinese-noodle-4830093022", "rank": 3}}, {"type": "Feature", "geometry": {"type": "Point", "coordinates": [98.96832, 18.76998]}, "properties": {"id": "cm-osm-node-1474872538", "name": "Dairy Queen", "nameTh": null, "nameEn": "Dairy Queen", "cat": ["food"], "province": "cm", "slug": "dairy-queen-1474872538", "rank": 2}}, {"type": "Feature", "geometry": {"type": "Point", "coordinates": [98.97241, 18.75883]}, "properties": {"id": "cm-osm-node-7882686661", "name": "Dairy Queen", "nameTh": null, "nameEn": "Dairy Queen", "cat": ["food"], "province": "cm", "slug": "dairy-queen-7882686661", "rank": 1}}, {"type": "Feature", "geometry": {"type": "Point", "coordinates": [98.99043, 18.78391]}, "properties": {"id": "cm-osm-node-5162833822", "name": "Funky Monkey", "nameTh": null, "nameEn": "Funky Monkey", "cat": ["food"], "province": "cm", "slug": "funky-monkey-5162833822", "rank": 1}}, {"type": "Feature", "geometry": {"type": "Point", "coordinates": [98.97893, 18.80141]}, "properties": {"id": "cm-osm-node-11583605770", "name": "Ground Burger", "nameTh": null, "nameEn": "Ground Burger", "cat": ["food"], "province": "cm", "slug": "ground-burger-11583605770", "rank": 2}}, {"type": "Feature", "geometry": {"type": "Point", "coordinates": [98.99148, 18.78514]}, "properties": {"id": "cm-osm-way-243115903", "name": "I'P Burger", "nameTh": null, "nameEn": "I'P Burger", "cat": ["food"], "province": "cm", "slug": "i-p-burger-243115903", "rank": 1}}, {"type": "Feature", "geometry": {"type": "Point", "coordinates": [98.94979, 18.90188]}, "properties": {"id": "cm-osm-node-13733928801", "name": "KFC", "nameTh": null, "nameEn": "KFC", "cat": ["food"], "province": "cm", "slug": "kfc-13733928801", "rank": 1}}, {"type": "Feature", "geometry": {"type": "Point", "coordinates": [98.9915, 18.79283]}, "properties": {"id": "cm-osm-node-6579626510", "name": "Lamchang", "nameTh": null, "nameEn": "Lamchang", "cat": ["food"], "province": "cm", "slug": "lamchang-6579626510", "rank": 2}}, {"type": "Feature", "geometry": {"type": "Point", "coordinates": [98.98376, 18.79678]}, "properties": {"id": "cm-osm-node-3317919569", "name": "Little Cook Cafe", "nameTh": "ลิตเติ้ลคุ๊กคาเฟ่", "nameEn": "Little Cook Cafe", "cat": ["food"], "province": "cm", "slug": "little-cook-cafe-3317919569", "rank": 3}}, {"type": "Feature", "geometry": {"type": "Point", "coordinates": [98.99152, 18.78518]}, "properties": {"id": "cm-osm-node-5334375922", "name": "Locker", "nameTh": null, "nameEn": "Locker", "cat": ["food"], "province": "cm", "slug": "locker-5334375922", "rank": 3}}, {"type": "Feature", "geometry": {"type": "Point", "coordinates": [99.01917, 18.80034]}, "properties": {"id": "cm-osm-node-1936295529", "name": "McDonald's", "nameTh": "แมคโดนัลด์", "nameEn": "McDonald's", "cat": ["food"], "province": "cm", "slug": "mcdonald-s-1936295529", "rank": 5}}, {"type": "Feature", "geometry": {"type": "Point", "coordinates": [98.99165, 18.76515]}, "properties": {"id": "cm-osm-node-2559859302", "name": "McDonald's", "nameTh": "แมคโดนัลด์", "nameEn": "McDonald's", "cat": ["food"], "province": "cm", "slug": "mcdonald-s-2559859302", "rank": 4}}, {"type": "Feature", "geometry": {"type": "Point", "coordinates": [99.02276, 18.79897]}, "properties": {"id": "cm-osm-node-2610782959", "name": "McDonald's", "nameTh": "แมคโดนัลด์", "nameEn": "McDonald's", "cat": ["food"], "province": "cm", "slug": "mcdonald-s-2610782959", "rank": 4}}, {"type": "Feature", "geometry": {"type": "Point", "coordinates": [98.97065, 18.7586]}, "properties": {"id": "cm-osm-node-3190138862", "name": "McDonald's", "nameTh": "แมคโดนัลด์", "nameEn": "McDonald's", "cat": ["food"], "province": "cm", "slug": "mcdonald-s-3190138862", "rank": 5}}, {"type": "Feature", "geometry": {"type": "Point", "coordinates": [98.97058, 18.78934]}, "properties": {"id": "cm-osm-node-3291712479", "name": "McDonald's", "nameTh": "แมคโดนัลด์", "nameEn": "McDonald's", "cat": ["food"], "province": "cm", "slug": "mcdonald-s-3291712479", "rank": 5}}, {"type": "Feature", "geometry": {"type": "Point", "coordinates": [98.93109, 18.70072]}, "properties": {"id": "cm-osm-node-3306841368", "name": "McDonald's", "nameTh": "แมคโดนัลด์", "nameEn": "McDonald's", "cat": ["food"], "province": "cm", "slug": "mcdonald-s-3306841368", "rank": 5}}, {"type": "Feature", "geometry": {"type": "Point", "coordinates": [98.97461, 18.76877]}, "properties": {"id": "cm-osm-node-3347677634", "name": "McDonald's", "nameTh": "แมคโดนัลด์", "nameEn": "McDonald's", "cat": ["food"], "province": "cm", "slug": "mcdonald-s-3347677634", "rank": 5}}, {"type": "Feature", "geometry": {"type": "Point", "coordinates": [98.96649, 18.79805]}, "properties": {"id": "cm-osm-node-4349789389", "name": "McDonald's", "nameTh": "Macdonald's", "nameEn": "McDonald's", "cat": ["food"], "province": "cm", "slug": "mcdonald-s-4349789389", "rank": 2}}, {"type": "Feature", "geometry": {"type": "Point", "coordinates": [98.96827, 18.76863]}, "properties": {"id": "cm-osm-node-7026355370", "name": "McDonald's", "nameTh": null, "nameEn": "McDonald's", "cat": ["food"], "province": "cm", "slug": "mcdonald-s-7026355370", "rank": 1}}, {"type": "Feature", "geometry": {"type": "Point", "coordinates": [99.00043, 18.78375]}, "properties": {"id": "cm-osm-node-725620521", "name": "McDonald's", "nameTh": "แมคโดนัลด์", "nameEn": "McDonald's", "cat": ["food"], "province": "cm", "slug": "mcdonald-s-725620521", "rank": 5}}, {"type": "Feature", "geometry": {"type": "Point", "coordinates": [98.99393, 18.7875]}, "properties": {"id": "cm-osm-node-964809008", "name": "McDonald's", "nameTh": "แมคโดนัลด์", "nameEn": "McDonald's", "cat": ["food"], "province": "cm", "slug": "mcdonald-s-964809008", "rank": 5}}, {"type": "Feature", "geometry": {"type": "Point", "coordinates": [99.01151, 18.82396]}, "properties": {"id": "cm-osm-way-347940513", "name": "McDonald's", "nameTh": "แมคโดนัลด์", "nameEn": "McDonald's", "cat": ["food"], "province": "cm", "slug": "mcdonald-s-347940513", "rank": 4}}, {"type": "Feature", "geometry": {"type": "Point", "coordinates": [98.99054, 18.78402]}, "properties": {"id": "cm-osm-node-6463555785", "name": "Mickey Cafe", "nameTh": null, "nameEn": "Mickey Cafe", "cat": ["food"], "province": "cm", "slug": "mickey-cafe-6463555785", "rank": 1}}, {"type": "Feature", "geometry": {"type": "Point", "coordinates": [98.98991, 18.78226]}, "properties": {"id": "cm-osm-node-6439003685", "name": "Munchies", "nameTh": null, "nameEn": "Munchies", "cat": ["food"], "province": "cm", "slug": "munchies-6439003685", "rank": 1}}, {"type": "Feature", "geometry": {"type": "Point", "coordinates": [98.99743, 18.78412]}, "properties": {"id": "cm-osm-node-2300395636", "name": "My Place Lounge Chiang Mai - Sports Bar & Restaurant", "nameTh": null, "nameEn": "My Place Lounge Chiang Mai - Sports Bar & Restaurant", "cat": ["food"], "province": "cm", "slug": "my-place-lounge-chiang-mai-sports-bar-restaurant-2300395636", "rank": 5}}, {"type": "Feature", "geometry": {"type": "Point", "coordinates": [99.00047, 18.78242]}, "properties": {"id": "cm-osm-node-4711807589", "name": "O'Malley's Irish Pub", "nameTh": null, "nameEn": "O'Malley's Irish Pub", "cat": ["food"], "province": "cm", "slug": "o-malley-s-irish-pub-4711807589", "rank": 4}}, {"type": "Feature", "geometry": {"type": "Point", "coordinates": [98.9654, 18.80784]}, "properties": {"id": "cm-osm-node-4973476822", "name": "Paris Chiang Mai", "nameTh": null, "nameEn": "Paris Chiang Mai", "cat": ["food"], "province": "cm", "slug": "paris-chiang-mai-4973476822", "rank": 2}}, {"type": "Feature", "geometry": {"type": "Point", "coordinates": [98.9784, 18.78912]}, "properties": {"id": "cm-osm-node-11420299600", "name": "Primary", "nameTh": null, "nameEn": "Primary", "cat": ["food"], "province": "cm", "slug": "primary-11420299600", "rank": 3}}, {"type": "Feature", "geometry": {"type": "Point", "coordinates": [98.99336, 18.79491]}, "properties": {"id": "cm-osm-way-578863886", "name": "Riders Corner Bar & Restaurant", "nameTh": null, "nameEn": "Riders Corner Bar & Restaurant", "cat": ["food"], "province": "cm", "slug": "riders-corner-bar-restaurant-578863886", "rank": 4}}, {"type": "Feature", "geometry": {"type": "Point", "coordinates": [98.94894, 18.77626]}, "properties": {"id": "cm-osm-node-11806668532", "name": "Roamer Burger", "nameTh": null, "nameEn": "Roamer Burger", "cat": ["food"], "province": "cm", "slug": "roamer-burger-11806668532", "rank": 2}}, {"type": "Feature", "geometry": {"type": "Point", "coordinates": [98.96831, 18.79583]}, "properties": {"id": "cm-osm-node-10312586041", "name": "Rock Me Burger", "nameTh": null, "nameEn": "Rock Me Burger", "cat": ["food"], "province": "cm", "slug": "rock-me-burger-10312586041", "rank": 1}}, {"type": "Feature", "geometry": {"type": "Point", "coordinates": [98.95394, 18.82704]}, "properties": {"id": "cm-osm-node-5643026621", "name": "Santi Bar & Bistro", "nameTh": null, "nameEn": "Santi Bar & Bistro", "cat": ["food"], "province": "cm", "slug": "santi-bar-bistro-5643026621", "rank": 2}}, {"type": "Feature", "geometry": {"type": "Point", "coordinates": [98.9674, 18.80251]}, "properties": {"id": "cm-osm-node-6052593885", "name": "Shan Tou Hao Chi - Vegetarian & Vegan", "nameTh": null, "nameEn": "Shan Tou Hao Chi - Vegetarian & Vegan", "cat": ["food"], "province": "cm", "slug": "shan-tou-hao-chi-vegetarian-vegan-6052593885", "rank": 3}}, {"type": "Feature", "geometry": {"type": "Point", "coordinates": [98.97368, 18.79809]}, "properties": {"id": "cm-osm-node-13451733091", "name": "Smash Daddy's", "nameTh": null, "nameEn": "Smash Daddy's", "cat": ["food"], "province": "cm", "slug": "smash-daddy-s-13451733091", "rank": 2}}, {"type": "Feature", "geometry": {"type": "Point", "coordinates": [98.99685, 18.7906]}, "properties": {"id": "cm-osm-node-4704832790", "name": "Steak Woei Hoei", "nameTh": null, "nameEn": "Steak Woei Hoei", "cat": ["food"], "province": "cm", "slug": "steak-woei-hoei-4704832790", "rank": 3}}, {"type": "Feature", "geometry": {"type": "Point", "coordinates": [98.97405, 18.79818]}, "properties": {"id": "cm-osm-node-13307552701", "name": "Tawansy Restaurant & Cafe", "nameTh": null, "nameEn": "Tawansy Restaurant & Cafe", "cat": ["food"], "province": "cm", "slug": "tawansy-restaurant-cafe-13307552701", "rank": 4}}, {"type": "Feature", "geometry": {"type": "Point", "coordinates": [98.95694, 18.80706]}, "properties": {"id": "cm-osm-node-5436937744", "name": "The Boat Chiangmai", "nameTh": null, "nameEn": "The Boat Chiangmai", "cat": ["food"], "province": "cm", "slug": "the-boat-chiangmai-5436937744", "rank": 1}}, {"type": "Feature", "geometry": {"type": "Point", "coordinates": [98.99047, 18.78546]}, "properties": {"id": "cm-osm-node-4358697889", "name": "The Corner", "nameTh": null, "nameEn": "The Corner", "cat": ["food"], "province": "cm", "slug": "the-corner-4358697889", "rank": 1}}, {"type": "Feature", "geometry": {"type": "Point", "coordinates": [98.96681, 18.80228]}, "properties": {"id": "cm-osm-node-3673955770", "name": "The Duke's Maya", "nameTh": null, "nameEn": "The Duke's Maya", "cat": ["food"], "province": "cm", "slug": "the-duke-s-maya-3673955770", "rank": 3}}, {"type": "Feature", "geometry": {"type": "Point", "coordinates": [99.0051, 18.78509]}, "properties": {"id": "cm-osm-node-2021464366", "name": "The Duke's Ping River", "nameTh": null, "nameEn": "The Duke's Ping River", "cat": ["food"], "province": "cm", "slug": "the-duke-s-ping-river-2021464366", "rank": 3}}, {"type": "Feature", "geometry": {"type": "Point", "coordinates": [98.97184, 18.73625]}, "properties": {"id": "cm-osm-node-6819345031", "name": "Wild Hog Saloon", "nameTh": null, "nameEn": "Wild Hog Saloon", "cat": ["food"], "province": "cm", "slug": "wild-hog-saloon-6819345031", "rank": 3}}, {"type": "Feature", "geometry": {"type": "Point", "coordinates": [98.99381, 18.79111]}, "properties": {"id": "cm-osm-node-1491348441", "name": "Woody's", "nameTh": null, "nameEn": "Woody's", "cat": ["food"], "province": "cm", "slug": "woody-s-1491348441", "rank": 1}}, {"type": "Feature", "geometry": {"type": "Point", "coordinates": [98.99397, 18.78998]}, "properties": {"id": "cm-osm-node-4965389324", "name": "Zimple Resto & Cafe", "nameTh": null, "nameEn": "Zimple Resto & Cafe", "cat": ["food"], "province": "cm", "slug": "zimple-resto-cafe-4965389324", "rank": 2}}, {"type": "Feature", "geometry": {"type": "Point", "coordinates": [98.9528, 18.71701]}, "properties": {"id": "cm-osm-node-5260174926", "name": "jasmine restaurant", "nameTh": null, "nameEn": "jasmine restaurant", "cat": ["food"], "province": "cm", "slug": "jasmine-restaurant-5260174926", "rank": 2}}, {"type": "Feature", "geometry": {"type": "Point", "coordinates": [98.99225, 18.79055]}, "properties": {"id": "cm-osm-node-6083211685", "name": "pickles restaurant", "nameTh": null, "nameEn": "pickles restaurant", "cat": ["food"], "province": "cm", "slug": "pickles-restaurant-6083211685", "rank": 2}}, {"type": "Feature", "geometry": {"type": "Point", "coordinates": [98.98848, 18.84996]}, "properties": {"id": "cm-osm-node-11215147987", "name": "ของลุงสมหวัง", "nameTh": "ของลุงสมหวัง", "nameEn": "Homemade Hamburger", "cat": ["food"], "province": "cm", "slug": "homemade-hamburger-11215147987", "rank": 2}}, {"type": "Feature", "geometry": {"type": "Point", "coordinates": [98.92448, 18.74273]}, "properties": {"id": "cm-osm-node-5276808922", "name": "สหภาพกระต่าย", "nameTh": "สหภาพกระต่าย", "nameEn": "The Rabbit Union", "cat": ["food"], "province": "cm", "slug": "the-rabbit-union-5276808922", "rank": 3}}, {"type": "Feature", "geometry": {"type": "Point", "coordinates": [98.96919, 18.81863]}, "properties": {"id": "cm-osm-node-4180090391", "name": "ฮอห์ม คาเฟ่", "nameTh": "ฮอห์ม คาเฟ่", "nameEn": "Hohm cafe", "cat": ["food"], "province": "cm", "slug": "hohm-cafe-4180090391", "rank": 4}}, {"type": "Feature", "geometry": {"type": "Point", "coordinates": [98.99293, 18.78639]}, "properties": {"id": "cm-osm-way-482772359", "name": "7-11", "nameTh": "หลอด biers", "nameEn": "Bier Stube", "cat": ["essentials"], "province": "cm", "slug": "bier-stube-482772359", "rank": 5}}]}