{"type": "FeatureCollection", "features": [{"type": "Feature", "geometry": {"type": "Point", "coordinates": [98.99927, 18.77854]}, "properties": {"id": "cm-osm-node-4870779223", "name": "Al Reem Restaurant (UAE)", "nameTh": null, "nameEn": "Al Reem Restaurant (UAE)", "cat": ["food"], "province": "cm", "slug": "al-reem-restaurant-uae-4870779223", "rank": 1}}, {"type": "Feature", "geometry": {"type": "Point", "coordinates": [99.00051, 18.78243]}, "properties": {"id": "cm-osm-node-1062008854", "name": "Al-Hussain", "nameTh": null, "nameEn": "Al-Hussain", "cat": ["food"], "province": "cm", "slug": "al-hussain-1062008854", "rank": 1}}, {"type": "Feature", "geometry": {"type": "Point", "coordinates": [99.00069, 18.78243]}, "properties": {"id": "cm-osm-node-1062056726", "name": "Asma", "nameTh": null, "nameEn": "Asma", "cat": ["food"], "province": "cm", "slug": "asma-1062056726", "rank": 1}}, {"type": "Feature", "geometry": {"type": "Point", "coordinates": [98.98821, 18.78066]}, "properties": {"id": "cm-osm-node-2658286716", "name": "Bombay", "nameTh": null, "nameEn": "Bombay", "cat": ["food"], "province": "cm", "slug": "bombay-2658286716", "rank": 1}}, {"type": "Feature", "geometry": {"type": "Point", "coordinates": [98.96929, 18.79738]}, "properties": {"id": "cm-osm-node-1797005544", "name": "Chai n Thai", "nameTh": null, "nameEn": "Chai n Thai", "cat": ["food"], "province": "cm", "slug": "chai-n-thai-1797005544", "rank": 1}}, {"type": "Feature", "geometry": {"type": "Point", "coordinates": [98.99968, 18.78019]}, "properties": {"id": "cm-osm-node-8862959718", "name": "Curry Express", "nameTh": null, "nameEn": "Curry Express", "cat": ["food"], "province": "cm", "slug": "curry-express-8862959718", "rank": 1}}, {"type": "Feature", "geometry": {"type": "Point", "coordinates": [98.96928, 18.78869]}, "properties": {"id": "cm-osm-node-4539213082", "name": "Everest 8848", "nameTh": null, "nameEn": "Everest 8848", "cat": ["food"], "province": "cm", "slug": "everest-8848-4539213082", "rank": 1}}, {"type": "Feature", "geometry": {"type": "Point", "coordinates": [98.98878, 18.78319]}, "properties": {"id": "cm-osm-node-4483086589", "name": "Grill Of India", "nameTh": null, "nameEn": "Grill Of India", "cat": ["food"], "province": "cm", "slug": "grill-of-india-4483086589", "rank": 1}}, {"type": "Feature", "geometry": {"type": "Point", "coordinates": [99.00503, 18.79235]}, "properties": {"id": "cm-osm-node-1586546513", "name": "Hinlay Curry House", "nameTh": null, "nameEn": "Hinlay Curry House", "cat": ["food"], "province": "cm", "slug": "hinlay-curry-house-1586546513", "rank": 2}}, {"type": "Feature", "geometry": {"type": "Point", "coordinates": [98.99238, 18.79196]}, "properties": {"id": "cm-osm-node-6312076385", "name": "Indish", "nameTh": null, "nameEn": "Indish", "cat": ["food"], "province": "cm", "slug": "indish-6312076385", "rank": 2}}, {"type": "Feature", "geometry": {"type": "Point", "coordinates": [98.99914, 18.78097]}, "properties": {"id": "cm-osm-node-10801216207", "name": "Indish Indian Restaurant", "nameTh": null, "nameEn": "Indish Indian Restaurant", "cat": ["food"], "province": "cm", "slug": "indish-indian-restaurant-10801216207", "rank": 3}}, {"type": "Feature", "geometry": {"type": "Point", "coordinates": [98.99039, 18.79081]}, "properties": {"id": "cm-osm-node-1491290179", "name": "Kebab House", "nameTh": null, "nameEn": "Kebab House", "cat": ["food"], "province": "cm", "slug": "kebab-house-1491290179", "rank": 2}}, {"type": "Feature", "geometry": {"type": "Point", "coordinates": [99.00104, 18.78467]}, "properties": {"id": "cm-osm-node-3417307155", "name": "Le Spice", "nameTh": null, "nameEn": "Le Spice", "cat": ["food"], "province": "cm", "slug": "le-spice-3417307155", "rank": 2}}, {"type": "Feature", "geometry": {"type": "Point", "coordinates": [98.97637, 18.76421]}, "properties": {"id": "cm-osm-node-3272933233", "name": "Mama's Kitchen", "nameTh": null, "nameEn": "Mama's Kitchen", "cat": ["food"], "province": "cm", "slug": "mama-s-kitchen-3272933233", "rank": 2}}, {"type": "Feature", "geometry": {"type": "Point", "coordinates": [98.98821, 18.78073]}, "properties": {"id": "cm-osm-node-1108694113", "name": "New Delhi", "nameTh": null, "nameEn": "New Delhi", "cat": ["food"], "province": "cm", "slug": "new-delhi-1108694113", "rank": 1}}, {"type": "Feature", "geometry": {"type": "Point", "coordinates": [98.99065, 18.79074]}, "properties": {"id": "cm-osm-node-1491262428", "name": "New Delhi", "nameTh": null, "nameEn": "New Delhi", "cat": ["food"], "province": "cm", "slug": "new-delhi-1491262428", "rank": 1}}, {"type": "Feature", "geometry": {"type": "Point", "coordinates": [98.99885, 18.78417]}, "properties": {"id": "cm-osm-node-2132019005", "name": "Rajdarbar", "nameTh": null, "nameEn": "Rajdarbar", "cat": ["food"], "province": "cm", "slug": "rajdarbar-2132019005", "rank": 3}}, {"type": "Feature", "geometry": {"type": "Point", "coordinates": [98.99776, 18.79127]}, "properties": {"id": "cm-osm-node-11609573969", "name": "Sarita Kithen", "nameTh": null, "nameEn": "Sarita Kithen", "cat": ["food"], "province": "cm", "slug": "sarita-kithen-11609573969", "rank": 1}}, {"type": "Feature", "geometry": {"type": "Point", "coordinates": [98.99766, 18.79097]}, "properties": {"id": "cm-osm-node-9881245717", "name": "Sarita’s Indian Restaurant", "nameTh": null, "nameEn": "Sarita’s Indian Restaurant", "cat": ["food"], "province": "cm", "slug": "sarita-s-indian-restaurant-9881245717", "rank": 1}}, {"type": "Feature", "geometry": {"type": "Point", "coordinates": [99.00068, 18.78814]}, "properties": {"id": "cm-osm-node-2702444125", "name": "Spices", "nameTh": null, "nameEn": "Spices", "cat": ["food"], "province": "cm", "slug": "spices-2702444125", "rank": 2}}, {"type": "Feature", "geometry": {"type": "Point", "coordinates": [98.99419, 18.79131]}, "properties": {"id": "cm-osm-node-1449606755", "name": "Spicy Bollywood", "nameTh": null, "nameEn": "Spicy Bollywood", "cat": ["food"], "province": "cm", "slug": "spicy-bollywood-1449606755", "rank": 1}}, {"type": "Feature", "geometry": {"type": "Point", "coordinates": [98.99517, 18.7847]}, "properties": {"id": "cm-osm-node-7298169785", "name": "Taj Mahal Indian Food", "nameTh": null, "nameEn": "Taj Mahal Indian Restaurant", "cat": ["food"], "province": "cm", "slug": "taj-mahal-indian-restaurant-7298169785", "rank": 2}}, {"type": "Feature", "geometry": {"type": "Point", "coordinates": [98.99046, 18.78649]}, "properties": {"id": "cm-osm-node-8755383017", "name": "The Grill of Punjab", "nameTh": null, "nameEn": "The Grill of Punjab", "cat": ["food"], "province": "cm", "slug": "the-grill-of-punjab-8755383017", "rank": 1}}, {"type": "Feature", "geometry": {"type": "Point", "coordinates": [98.98053, 18.77766]}, "properties": {"id": "cm-osm-node-8862954017", "name": "Yummy India", "nameTh": null, "nameEn": "Yummy India", "cat": ["food"], "province": "cm", "slug": "yummy-india-8862954017", "rank": 3}}, {"type": "Feature", "geometry": {"type": "Point", "coordinates": [98.9528, 18.71701]}, "properties": {"id": "cm-osm-node-5260174926", "name": "jasmine restaurant", "nameTh": null, "nameEn": "jasmine restaurant", "cat": ["food"], "province": "cm", "slug": "jasmine-restaurant-5260174926", "rank": 2}}, {"type": "Feature", "geometry": {"type": "Point", "coordinates": [98.99498, 18.78398]}, "properties": {"id": "cm-osm-node-1477730810", "name": "ร้านอาหาร ปชาวร", "nameTh": "ร้านอาหาร ปชาวร", "nameEn": "Peshawar Restaurant", "cat": ["food"], "province": "cm", "slug": "peshawar-restaurant-1477730810", "rank": 3}}]}