{"type": "FeatureCollection", "features": [{"type": "Feature", "geometry": {"type": "Point", "coordinates": [98.99537, 18.78919]}, "properties": {"id": "cm-osm-node-13908740201", "name": "Aob-Sook", "nameTh": null, "nameEn": "Aob-Sook", "cat": ["food"], "province": "cm", "slug": "aob-sook-13908740201", "rank": 2}}, {"type": "Feature", "geometry": {"type": "Point", "coordinates": [99.02509, 18.82876]}, "properties": {"id": "cm-osm-node-6888545186", "name": "Baan a Din French Restaurant", "nameTh": null, "nameEn": "Baan a Din French Restaurant", "cat": ["food"], "province": "cm", "slug": "baan-a-din-french-restaurant-6888545186", "rank": 3}}, {"type": "Feature", "geometry": {"type": "Point", "coordinates": [98.99252, 18.76433]}, "properties": {"id": "cm-osm-node-3810861067", "name": "Chez Daniel le Normand", "nameTh": null, "nameEn": "Chez Daniel le Normand", "cat": ["food"], "province": "cm", "slug": "chez-daniel-le-normand-3810861067", "rank": 1}}, {"type": "Feature", "geometry": {"type": "Point", "coordinates": [98.99774, 18.77985]}, "properties": {"id": "cm-osm-node-3670614077", "name": "Elysa", "nameTh": null, "nameEn": "Elysa", "cat": ["food"], "province": "cm", "slug": "elysa-3670614077", "rank": 1}}, {"type": "Feature", "geometry": {"type": "Point", "coordinates": [98.98231, 18.79741]}, "properties": {"id": "cm-osm-node-513199451", "name": "Franco Thai", "nameTh": null, "nameEn": "Franco Thai", "cat": ["food"], "province": "cm", "slug": "franco-thai-513199451", "rank": 1}}, {"type": "Feature", "geometry": {"type": "Point", "coordinates": [99.00699, 18.76631]}, "properties": {"id": "cm-osm-node-3944284363", "name": "Funan Garden", "nameTh": null, "nameEn": "Funan Garden", "cat": ["food"], "province": "cm", "slug": "funan-garden-3944284363", "rank": 1}}, {"type": "Feature", "geometry": {"type": "Point", "coordinates": [99.01136, 18.76546]}, "properties": {"id": "cm-osm-node-7720588924", "name": "Jacky Show Restaurant", "nameTh": null, "nameEn": "Jacky Show Restaurant", "cat": ["food"], "province": "cm", "slug": "jacky-show-restaurant-7720588924", "rank": 2}}, {"type": "Feature", "geometry": {"type": "Point", "coordinates": [98.98818, 18.78736]}, "properties": {"id": "cm-osm-node-2039997655", "name": "La Fourchette", "nameTh": null, "nameEn": "La Fourchette", "cat": ["food"], "province": "cm", "slug": "la-fourchette-2039997655", "rank": 1}}, {"type": "Feature", "geometry": {"type": "Point", "coordinates": [98.99368, 18.78469]}, "properties": {"id": "cm-osm-node-820792823", "name": "La Terrasse", "nameTh": null, "nameEn": "La Terrasse", "cat": ["food"], "province": "cm", "slug": "la-terrasse-820792823", "rank": 2}}, {"type": "Feature", "geometry": {"type": "Point", "coordinates": [99.00616, 18.78724]}, "properties": {"id": "cm-osm-node-2411889059", "name": "Lapin", "nameTh": null, "nameEn": "Lapin", "cat": ["food"], "province": "cm", "slug": "lapin-2411889059", "rank": 1}}, {"type": "Feature", "geometry": {"type": "Point", "coordinates": [98.99846, 18.78526]}, "properties": {"id": "cm-osm-node-1041391290", "name": "Le Bistrot", "nameTh": null, "nameEn": "Le Bistrot de Chiang Mai", "cat": ["food"], "province": "cm", "slug": "le-bistrot-de-chiang-mai-1041391290", "rank": 3}}, {"type": "Feature", "geometry": {"type": "Point", "coordinates": [99.00315, 18.76083]}, "properties": {"id": "cm-osm-way-530971019", "name": "Le Coq d'Or", "nameTh": null, "nameEn": "Le Coq d'Or", "cat": ["food"], "province": "cm", "slug": "le-coq-d-or-530971019", "rank": 1}}, {"type": "Feature", "geometry": {"type": "Point", "coordinates": [98.99977, 18.81659]}, "properties": {"id": "cm-osm-way-256273906", "name": "Le Crystal Restaurant", "nameTh": null, "nameEn": "Le Crystal Restaurant", "cat": ["food"], "province": "cm", "slug": "le-crystal-restaurant-256273906", "rank": 2}}, {"type": "Feature", "geometry": {"type": "Point", "coordinates": [98.99166, 18.79404]}, "properties": {"id": "cm-osm-node-4476768997", "name": "Le Frenchie", "nameTh": null, "nameEn": "Le Frenchie", "cat": ["food"], "province": "cm", "slug": "le-frenchie-4476768997", "rank": 3}}, {"type": "Feature", "geometry": {"type": "Point", "coordinates": [99.00434, 18.80177]}, "properties": {"id": "cm-osm-node-8288873136", "name": "Oxygen Dining Room", "nameTh": null, "nameEn": "Oxygen Dining Room", "cat": ["food"], "province": "cm", "slug": "oxygen-dining-room-8288873136", "rank": 3}}, {"type": "Feature", "geometry": {"type": "Point", "coordinates": [98.99161, 18.78404]}, "properties": {"id": "cm-osm-node-3385473032", "name": "Paris", "nameTh": null, "nameEn": "Paris", "cat": ["food"], "province": "cm", "slug": "paris-3385473032", "rank": 3}}, {"type": "Feature", "geometry": {"type": "Point", "coordinates": [98.9528, 18.71701]}, "properties": {"id": "cm-osm-node-5260174926", "name": "jasmine restaurant", "nameTh": null, "nameEn": "jasmine restaurant", "cat": ["food"], "province": "cm", "slug": "jasmine-restaurant-5260174926", "rank": 2}}, {"type": "Feature", "geometry": {"type": "Point", "coordinates": [98.99293, 18.78639]}, "properties": {"id": "cm-osm-way-482772359", "name": "7-11", "nameTh": "หลอด biers", "nameEn": "Bier Stube", "cat": ["essentials"], "province": "cm", "slug": "bier-stube-482772359", "rank": 5}}]}