{"type": "FeatureCollection", "features": [{"type": "Feature", "geometry": {"type": "Point", "coordinates": [98.99053, 18.78485]}, "properties": {"id": "cm-osm-node-5493659827", "name": "Arno's", "nameTh": null, "nameEn": "Arno's", "cat": ["food"], "province": "cm", "slug": "arno-s-5493659827", "rank": 1}}, {"type": "Feature", "geometry": {"type": "Point", "coordinates": [98.98704, 18.79587]}, "properties": {"id": "cm-osm-node-6726826485", "name": "Chang Phueak Mu Kratha", "nameTh": null, "nameEn": "Chang Phueak Mu Kratha", "cat": ["food"], "province": "cm", "slug": "chang-phueak-mu-kratha-6726826485", "rank": 3}}, {"type": "Feature", "geometry": {"type": "Point", "coordinates": [98.95028, 18.77803]}, "properties": {"id": "cm-osm-node-9119623415", "name": "Dinky BBQ", "nameTh": null, "nameEn": "Dinky BBQ", "cat": ["food"], "province": "cm", "slug": "dinky-bbq-9119623415", "rank": 1}}, {"type": "Feature", "geometry": {"type": "Point", "coordinates": [98.9967, 18.79337]}, "properties": {"id": "cm-osm-node-13911344401", "name": "Good day Farm to Table", "nameTh": null, "nameEn": "Good day Farm to Table", "cat": ["food"], "province": "cm", "slug": "good-day-farm-to-table-13911344401", "rank": 1}}, {"type": "Feature", "geometry": {"type": "Point", "coordinates": [98.91141, 18.72711]}, "properties": {"id": "cm-osm-node-12430947101", "name": "Homie Mookrata", "nameTh": null, "nameEn": "Homie Mookrata", "cat": ["food"], "province": "cm", "slug": "homie-mookrata-12430947101", "rank": 1}}, {"type": "Feature", "geometry": {"type": "Point", "coordinates": [98.90306, 18.73584]}, "properties": {"id": "cm-osm-node-5416626639", "name": "Hoppipolla", "nameTh": null, "nameEn": "Hoppipolla", "cat": ["food"], "province": "cm", "slug": "hoppipolla-5416626639", "rank": 3}}, {"type": "Feature", "geometry": {"type": "Point", "coordinates": [98.95496, 18.79281]}, "properties": {"id": "cm-osm-node-7068404392", "name": "La Bor Larb and Grill", "nameTh": null, "nameEn": "La Bor Larb and Grill", "cat": ["food"], "province": "cm", "slug": "la-bor-larb-and-grill-7068404392", "rank": 1}}, {"type": "Feature", "geometry": {"type": "Point", "coordinates": [98.94604, 18.72826]}, "properties": {"id": "cm-osm-way-844534426", "name": "Meedee Cafe in the Jungle", "nameTh": null, "nameEn": "Meedee Cafe in the Jungle", "cat": ["food"], "province": "cm", "slug": "meedee-cafe-in-the-jungle-844534426", "rank": 2}}, {"type": "Feature", "geometry": {"type": "Point", "coordinates": [98.99054, 18.78402]}, "properties": {"id": "cm-osm-node-6463555785", "name": "Mickey Cafe", "nameTh": null, "nameEn": "Mickey Cafe", "cat": ["food"], "province": "cm", "slug": "mickey-cafe-6463555785", "rank": 1}}, {"type": "Feature", "geometry": {"type": "Point", "coordinates": [98.99336, 18.79491]}, "properties": {"id": "cm-osm-way-578863886", "name": "Riders Corner Bar & Restaurant", "nameTh": null, "nameEn": "Riders Corner Bar & Restaurant", "cat": ["food"], "province": "cm", "slug": "riders-corner-bar-restaurant-578863886", "rank": 4}}, {"type": "Feature", "geometry": {"type": "Point", "coordinates": [98.98385, 18.76835]}, "properties": {"id": "cm-osm-node-6310955599", "name": "Smoke Everyday", "nameTh": null, "nameEn": "Smoke Everyday", "cat": ["food"], "province": "cm", "slug": "smoke-everyday-6310955599", "rank": 2}}, {"type": "Feature", "geometry": {"type": "Point", "coordinates": [98.98619, 18.78106]}, "properties": {"id": "cm-osm-node-4558018790", "name": "Steak Mr. Nu", "nameTh": null, "nameEn": "Steak Mr. Nu", "cat": ["food"], "province": "cm", "slug": "steak-mr-nu-4558018790", "rank": 2}}, {"type": "Feature", "geometry": {"type": "Point", "coordinates": [98.99685, 18.7906]}, "properties": {"id": "cm-osm-node-4704832790", "name": "Steak Woei Hoei", "nameTh": null, "nameEn": "Steak Woei Hoei", "cat": ["food"], "province": "cm", "slug": "steak-woei-hoei-4704832790", "rank": 3}}, {"type": "Feature", "geometry": {"type": "Point", "coordinates": [98.97118, 18.7992]}, "properties": {"id": "cm-osm-node-12393037201", "name": "Sucking Stones Brewing Co.", "nameTh": null, "nameEn": "Sucking Stones Brewing Co.", "cat": ["food"], "province": "cm", "slug": "sucking-stones-brewing-co-12393037201", "rank": 2}}, {"type": "Feature", "geometry": {"type": "Point", "coordinates": [98.98292, 18.80115]}, "properties": {"id": "cm-osm-node-7757279603", "name": "Sunny Shrimp", "nameTh": null, "nameEn": "Sunny Shrimp", "cat": ["food"], "province": "cm", "slug": "sunny-shrimp-7757279603", "rank": 3}}, {"type": "Feature", "geometry": {"type": "Point", "coordinates": [98.98014, 18.81101]}, "properties": {"id": "cm-osm-node-7757294771", "name": "Sunny Shrimp กุ้งกะทะ สาขากาดทรัพย์ทองคำ", "nameTh": "กุ้งกะทะ สาขากาดทรัพย์ทองคำ", "nameEn": "Sunny Shrimp", "cat": ["food"], "province": "cm", "slug": "sunny-shrimp-7757294771", "rank": 4}}, {"type": "Feature", "geometry": {"type": "Point", "coordinates": [98.9528, 18.71701]}, "properties": {"id": "cm-osm-node-5260174926", "name": "jasmine restaurant", "nameTh": null, "nameEn": "jasmine restaurant", "cat": ["food"], "province": "cm", "slug": "jasmine-restaurant-5260174926", "rank": 2}}, {"type": "Feature", "geometry": {"type": "Point", "coordinates": [99.13384, 18.86146]}, "properties": {"id": "cm-osm-node-3412084438", "name": "บ้านหมูจุ่ม", "nameTh": "บ้านหมูจุ่ม", "nameEn": null, "cat": ["food"], "province": "cm", "slug": "3412084438", "rank": 1}}, {"type": "Feature", "geometry": {"type": "Point", "coordinates": [98.92448, 18.74273]}, "properties": {"id": "cm-osm-node-5276808922", "name": "สหภาพกระต่าย", "nameTh": "สหภาพกระต่าย", "nameEn": "The Rabbit Union", "cat": ["food"], "province": "cm", "slug": "the-rabbit-union-5276808922", "rank": 3}}, {"type": "Feature", "geometry": {"type": "Point", "coordinates": [99.1359, 18.87053]}, "properties": {"id": "cm-osm-node-3412084415", "name": "เบิร์ด หมูกะทะ", "nameTh": "เบิร์ด หมูกะทะ", "nameEn": "Bird", "cat": ["food"], "province": "cm", "slug": "bird-3412084415", "rank": 2}}, {"type": "Feature", "geometry": {"type": "Point", "coordinates": [98.93315, 18.72367]}, "properties": {"id": "cm-osm-node-5447299922", "name": "เมล ซาเ้ลง ฮอทดอก", "nameTh": "เมล ซาเ้ลง ฮอทดอก", "nameEn": "Mel's Saleng Hotdogs", "cat": ["food"], "province": "cm", "slug": "mel-s-saleng-hotdogs-5447299922", "rank": 4}}, {"type": "Feature", "geometry": {"type": "Point", "coordinates": [98.94748, 18.90936]}, "properties": {"id": "cm-osm-node-3341015119", "name": "แก้ม หมูกระทะ", "nameTh": "แก้ม หมูกระทะ", "nameEn": "Khaem Moo Kata", "cat": ["food"], "province": "cm", "slug": "khaem-moo-kata-3341015119", "rank": 2}}]}