{"type": "FeatureCollection", "features": [{"type": "Feature", "geometry": {"type": "Point", "coordinates": [99.02851, 18.78365]}, "properties": {"id": "cm-osm-node-1192339580", "name": "Jiffy", "nameTh": null, "nameEn": "Jiffy", "cat": ["essentials"], "province": "cm", "slug": "jiffy-1192339580", "rank": 1}}, {"type": "Feature", "geometry": {"type": "Point", "coordinates": [99.028, 18.77897]}, "properties": {"id": "cm-osm-node-1795272241", "name": "Jiffy", "nameTh": null, "nameEn": "Jiffy", "cat": ["essentials"], "province": "cm", "slug": "jiffy-1795272241", "rank": 1}}, {"type": "Feature", "geometry": {"type": "Point", "coordinates": [98.97296, 18.76348]}, "properties": {"id": "cm-osm-node-2442339904", "name": "Jiffy", "nameTh": "จิฟฟี่", "nameEn": "Jiffy", "cat": ["essentials"], "province": "cm", "slug": "jiffy-2442339904", "rank": 2}}, {"type": "Feature", "geometry": {"type": "Point", "coordinates": [98.98303, 18.79638]}, "properties": {"id": "cm-osm-node-3317920526", "name": "Jiffy", "nameTh": null, "nameEn": "Jiffy", "cat": ["essentials"], "province": "cm", "slug": "jiffy-3317920526", "rank": 1}}, {"type": "Feature", "geometry": {"type": "Point", "coordinates": [99.01196, 18.82909]}, "properties": {"id": "cm-osm-way-317524263", "name": "Jiffy", "nameTh": "จิฟฟี่", "nameEn": "Jiffy", "cat": ["essentials"], "province": "cm", "slug": "jiffy-317524263", "rank": 2}}, {"type": "Feature", "geometry": {"type": "Point", "coordinates": [98.95138, 18.73074]}, "properties": {"id": "cm-osm-way-599074125", "name": "Jiffy", "nameTh": null, "nameEn": "Jiffy", "cat": ["essentials"], "province": "cm", "slug": "jiffy-599074125", "rank": 1}}, {"type": "Feature", "geometry": {"type": "Point", "coordinates": [99.01569, 18.86675]}, "properties": {"id": "cm-osm-way-739554804", "name": "Jiffy", "nameTh": null, "nameEn": "Jiffy", "cat": ["essentials"], "province": "cm", "slug": "jiffy-739554804", "rank": 1}}]}