{"type": "FeatureCollection", "features": [{"type": "Feature", "geometry": {"type": "Point", "coordinates": [98.98133, 18.78239]}, "properties": {"id": "cm-osm-node-12543092215", "name": "Dr.Direk ophthalmic clinic", "nameTh": null, "nameEn": "Dr.Direk ophthalmic clinic", "cat": ["medical"], "province": "cm", "slug": "dr-direk-ophthalmic-clinic-12543092215", "rank": 2}}, {"type": "Feature", "geometry": {"type": "Point", "coordinates": [98.99314, 18.79081]}, "properties": {"id": "cm-osm-node-6973265152", "name": "Jaksu Pattana Eye Clinic", "nameTh": null, "nameEn": "Jaksu Pattana Eye Clinic", "cat": ["medical"], "province": "cm", "slug": "jaksu-pattana-eye-clinic-6973265152", "rank": 2}}, {"type": "Feature", "geometry": {"type": "Point", "coordinates": [98.99088, 18.81136]}, "properties": {"id": "cm-osm-way-331487129", "name": "โรงพยาบาลตาเซนต์ปีเตอร์", "nameTh": "โรงพยาบาลตาเซนต์ปีเตอร์", "nameEn": "St. Peter Eye Hospital", "cat": ["medical"], "province": "cm", "slug": "st-peter-eye-hospital-331487129", "rank": 3}}]}