{"type": "FeatureCollection", "features": [{"type": "Feature", "geometry": {"type": "Point", "coordinates": [99.0159, 18.80801]}, "properties": {"id": "cm-osm-node-10110426947", "name": "7-Eleven", "nameTh": null, "nameEn": "7-Eleven", "cat": ["essentials"], "province": "cm", "slug": "7-eleven-10110426947", "rank": 2}}, {"type": "Feature", "geometry": {"type": "Point", "coordinates": [99.11745, 18.74645]}, "properties": {"id": "cm-osm-node-1020060071", "name": "7-Eleven", "nameTh": null, "nameEn": "7-Eleven", "cat": ["essentials"], "province": "cm", "slug": "7-eleven-1020060071", "rank": 3}}, {"type": "Feature", "geometry": {"type": "Point", "coordinates": [98.98751, 18.78092]}, "properties": {"id": "cm-osm-node-1030391638", "name": "7-Eleven", "nameTh": null, "nameEn": "7-Eleven", "cat": ["essentials"], "province": "cm", "slug": "7-eleven-1030391638", "rank": 3}}, {"type": "Feature", "geometry": {"type": "Point", "coordinates": [98.99942, 18.77701]}, "properties": {"id": "cm-osm-node-1034645681", "name": "7-Eleven", "nameTh": null, "nameEn": "7-Eleven", "cat": ["essentials"], "province": "cm", "slug": "7-eleven-1034645681", "rank": 3}}, {"type": "Feature", "geometry": {"type": "Point", "coordinates": [99.0416, 18.76179]}, "properties": {"id": "cm-osm-node-1042837264", "name": "7-Eleven", "nameTh": null, "nameEn": "7-Eleven", "cat": ["essentials"], "province": "cm", "slug": "7-eleven-1042837264", "rank": 3}}, {"type": "Feature", "geometry": {"type": "Point", "coordinates": [98.906, 18.65438]}, "properties": {"id": "cm-osm-node-1058644297", "name": "7-Eleven", "nameTh": null, "nameEn": "7-Eleven", "cat": ["essentials"], "province": "cm", "slug": "7-eleven-1058644297", "rank": 3}}, {"type": "Feature", "geometry": {"type": "Point", "coordinates": [98.9227, 18.69143]}, "properties": {"id": "cm-osm-node-10604213354", "name": "7-Eleven", "nameTh": null, "nameEn": "7-Eleven", "cat": ["essentials"], "province": "cm", "slug": "7-eleven-10604213354", "rank": 1}}, {"type": "Feature", "geometry": {"type": "Point", "coordinates": [99.01702, 18.8016]}, "properties": {"id": "cm-osm-node-10617407225", "name": "7-Eleven", "nameTh": null, "nameEn": "7-Eleven", "cat": ["essentials"], "province": "cm", "slug": "7-eleven-10617407225", "rank": 2}}, {"type": "Feature", "geometry": {"type": "Point", "coordinates": [98.96643, 18.79794]}, "properties": {"id": "cm-osm-node-1074593974", "name": "7-Eleven", "nameTh": null, "nameEn": "7-Eleven", "cat": ["essentials"], "province": "cm", "slug": "7-eleven-1074593974", "rank": 3}}, {"type": "Feature", "geometry": {"type": "Point", "coordinates": [98.96602, 18.74146]}, "properties": {"id": "cm-osm-node-10778022018", "name": "7-Eleven", "nameTh": null, "nameEn": "7-Eleven", "cat": ["essentials"], "province": "cm", "slug": "7-eleven-10778022018", "rank": 2}}, {"type": "Feature", "geometry": {"type": "Point", "coordinates": [98.94577, 18.68934]}, "properties": {"id": "cm-osm-node-11030137805", "name": "7-Eleven", "nameTh": null, "nameEn": "7-Eleven", "cat": ["essentials"], "province": "cm", "slug": "7-eleven-11030137805", "rank": 2}}, {"type": "Feature", "geometry": {"type": "Point", "coordinates": [98.98757, 18.81635]}, "properties": {"id": "cm-osm-node-11135208705", "name": "7-Eleven", "nameTh": null, "nameEn": "7/11", "cat": ["essentials"], "province": "cm", "slug": "7-11-11135208705", "rank": 1}}, {"type": "Feature", "geometry": {"type": "Point", "coordinates": [99.0053, 18.81381]}, "properties": {"id": "cm-osm-node-11217695113", "name": "7-Eleven", "nameTh": null, "nameEn": "7-Eleven", "cat": ["essentials"], "province": "cm", "slug": "7-eleven-11217695113", "rank": 2}}, {"type": "Feature", "geometry": {"type": "Point", "coordinates": [98.96607, 18.79683]}, "properties": {"id": "cm-osm-node-1131144927", "name": "7-Eleven", "nameTh": null, "nameEn": "7-Eleven", "cat": ["essentials"], "province": "cm", "slug": "7-eleven-1131144927", "rank": 3}}, {"type": "Feature", "geometry": {"type": "Point", "coordinates": [99.0065, 18.77023]}, "properties": {"id": "cm-osm-node-11414225140", "name": "7-Eleven", "nameTh": null, "nameEn": "7-Eleven", "cat": ["essentials"], "province": "cm", "slug": "7-eleven-11414225140", "rank": 1}}, {"type": "Feature", "geometry": {"type": "Point", "coordinates": [98.96581, 18.70232]}, "properties": {"id": "cm-osm-node-11575590342", "name": "7-Eleven", "nameTh": null, "nameEn": "7-Eleven", "cat": ["essentials"], "province": "cm", "slug": "7-eleven-11575590342", "rank": 2}}, {"type": "Feature", "geometry": {"type": "Point", "coordinates": [99.13071, 18.65873]}, "properties": {"id": "cm-osm-node-11581270440", "name": "7-Eleven", "nameTh": null, "nameEn": "7-Eleven", "cat": ["essentials"], "province": "cm", "slug": "7-eleven-11581270440", "rank": 2}}, {"type": "Feature", "geometry": {"type": "Point", "coordinates": [98.96919, 19.03895]}, "properties": {"id": "cm-osm-node-11610147635", "name": "7-Eleven", "nameTh": null, "nameEn": "7-Eleven", "cat": ["essentials"], "province": "cm", "slug": "7-eleven-11610147635", "rank": 1}}, {"type": "Feature", "geometry": {"type": "Point", "coordinates": [98.993, 18.7446]}, "properties": {"id": "cm-osm-node-11647437407", "name": "7-Eleven", "nameTh": null, "nameEn": "7-Eleven", "cat": ["essentials"], "province": "cm", "slug": "7-eleven-11647437407", "rank": 2}}, {"type": "Feature", "geometry": {"type": "Point", "coordinates": [98.99546, 18.77718]}, "properties": {"id": "cm-osm-node-11648354865", "name": "7-Eleven", "nameTh": null, "nameEn": "7-Eleven", "cat": ["essentials"], "province": "cm", "slug": "7-eleven-11648354865", "rank": 1}}, {"type": "Feature", "geometry": {"type": "Point", "coordinates": [98.94601, 18.77098]}, "properties": {"id": "cm-osm-node-11668248426", "name": "7-Eleven", "nameTh": null, "nameEn": "7-Eleven", "cat": ["essentials"], "province": "cm", "slug": "7-eleven-11668248426", "rank": 2}}, {"type": "Feature", "geometry": {"type": "Point", "coordinates": [99.0671, 18.7953]}, "properties": {"id": "cm-osm-node-11755248961", "name": "7-Eleven", "nameTh": null, "nameEn": "7-Eleven", "cat": ["essentials"], "province": "cm", "slug": "7-eleven-11755248961", "rank": 1}}, {"type": "Feature", "geometry": {"type": "Point", "coordinates": [98.97507, 18.72023]}, "properties": {"id": "cm-osm-node-12213166971", "name": "7-Eleven", "nameTh": null, "nameEn": "7-Eleven", "cat": ["essentials"], "province": "cm", "slug": "7-eleven-12213166971", "rank": 2}}, {"type": "Feature", "geometry": {"type": "Point", "coordinates": [99.01169, 18.81446]}, "properties": {"id": "cm-osm-node-12347384603", "name": "7-Eleven", "nameTh": null, "nameEn": "7-Eleven", "cat": ["essentials"], "province": "cm", "slug": "7-eleven-12347384603", "rank": 1}}, {"type": "Feature", "geometry": {"type": "Point", "coordinates": [99.02189, 18.80677]}, "properties": {"id": "cm-osm-node-12603110771", "name": "7-Eleven", "nameTh": null, "nameEn": "7-Eleven", "cat": ["essentials"], "province": "cm", "slug": "7-eleven-12603110771", "rank": 1}}, {"type": "Feature", "geometry": {"type": "Point", "coordinates": [98.9383, 18.62267]}, "properties": {"id": "cm-osm-node-1285741655", "name": "7-Eleven", "nameTh": null, "nameEn": "7-Eleven", "cat": ["essentials"], "province": "cm", "slug": "7-eleven-1285741655", "rank": 2}}, {"type": "Feature", "geometry": {"type": "Point", "coordinates": [98.89685, 18.61758]}, "properties": {"id": "cm-osm-node-1287571782", "name": "7-Eleven", "nameTh": null, "nameEn": "7-Eleven", "cat": ["essentials"], "province": "cm", "slug": "7-eleven-1287571782", "rank": 3}}, {"type": "Feature", "geometry": {"type": "Point", "coordinates": [99.02373, 18.7843]}, "properties": {"id": "cm-osm-node-13027791819", "name": "7-Eleven", "nameTh": null, "nameEn": "7-Eleven", "cat": ["essentials"], "province": "cm", "slug": "7-eleven-13027791819", "rank": 3}}, {"type": "Feature", "geometry": {"type": "Point", "coordinates": [98.92516, 18.94963]}, "properties": {"id": "cm-osm-node-13406787533", "name": "7-Eleven", "nameTh": null, "nameEn": "7-Eleven", "cat": ["essentials"], "province": "cm", "slug": "7-eleven-13406787533", "rank": 1}}, {"type": "Feature", "geometry": {"type": "Point", "coordinates": [99.01284, 18.83957]}, "properties": {"id": "cm-osm-node-13457321727", "name": "7-Eleven", "nameTh": null, "nameEn": "7-Eleven", "cat": ["essentials"], "province": "cm", "slug": "7-eleven-13457321727", "rank": 1}}, {"type": "Feature", "geometry": {"type": "Point", "coordinates": [99.02946, 18.79415]}, "properties": {"id": "cm-osm-node-1350007396", "name": "7-Eleven", "nameTh": null, "nameEn": "7-Eleven", "cat": ["essentials"], "province": "cm", "slug": "7-eleven-1350007396", "rank": 3}}, {"type": "Feature", "geometry": {"type": "Point", "coordinates": [99.02814, 18.79406]}, "properties": {"id": "cm-osm-node-1350009156", "name": "7-Eleven", "nameTh": null, "nameEn": "7-Eleven", "cat": ["essentials"], "province": "cm", "slug": "7-eleven-1350009156", "rank": 2}}, {"type": "Feature", "geometry": {"type": "Point", "coordinates": [98.96902, 18.79861]}, "properties": {"id": "cm-osm-node-13516631656", "name": "7-Eleven", "nameTh": "7-Eleven", "nameEn": null, "cat": ["essentials"], "province": "cm", "slug": "7-eleven-13516631656", "rank": 1}}, {"type": "Feature", "geometry": {"type": "Point", "coordinates": [98.96917, 18.79858]}, "properties": {"id": "cm-osm-node-13531386802", "name": "7-Eleven", "nameTh": null, "nameEn": "7-Eleven", "cat": ["essentials"], "province": "cm", "slug": "7-eleven-13531386802", "rank": 1}}, {"type": "Feature", "geometry": {"type": "Point", "coordinates": [99.02361, 18.76232]}, "properties": {"id": "cm-osm-node-1353289156", "name": "7-Eleven", "nameTh": null, "nameEn": "7-Eleven", "cat": ["essentials"], "province": "cm", "slug": "7-eleven-1353289156", "rank": 3}}, {"type": "Feature", "geometry": {"type": "Point", "coordinates": [99.00937, 18.75262]}, "properties": {"id": "cm-osm-node-1358869282", "name": "7-Eleven", "nameTh": null, "nameEn": "7-Eleven", "cat": ["essentials"], "province": "cm", "slug": "7-eleven-1358869282", "rank": 3}}, {"type": "Feature", "geometry": {"type": "Point", "coordinates": [98.95846, 18.77892]}, "properties": {"id": "cm-osm-node-1489645366", "name": "7-Eleven", "nameTh": null, "nameEn": "7-Eleven", "cat": ["essentials"], "province": "cm", "slug": "7-eleven-1489645366", "rank": 3}}, {"type": "Feature", "geometry": {"type": "Point", "coordinates": [98.99381, 18.79117]}, "properties": {"id": "cm-osm-node-1491349953", "name": "7-Eleven", "nameTh": null, "nameEn": "7-Eleven", "cat": ["essentials"], "province": "cm", "slug": "7-eleven-1491349953", "rank": 3}}, {"type": "Feature", "geometry": {"type": "Point", "coordinates": [98.96149, 18.79053]}, "properties": {"id": "cm-osm-node-1492467188", "name": "7-Eleven", "nameTh": null, "nameEn": "7-Eleven", "cat": ["essentials"], "province": "cm", "slug": "7-eleven-1492467188", "rank": 3}}, {"type": "Feature", "geometry": {"type": "Point", "coordinates": [99.12201, 18.74322]}, "properties": {"id": "cm-osm-node-1508535774", "name": "7-Eleven", "nameTh": null, "nameEn": "7-Eleven", "cat": ["essentials"], "province": "cm", "slug": "7-eleven-1508535774", "rank": 3}}, {"type": "Feature", "geometry": {"type": "Point", "coordinates": [99.04263, 18.68112]}, "properties": {"id": "cm-osm-node-1539268410", "name": "7-Eleven", "nameTh": null, "nameEn": "7-Eleven", "cat": ["essentials"], "province": "cm", "slug": "7-eleven-1539268410", "rank": 3}}, {"type": "Feature", "geometry": {"type": "Point", "coordinates": [99.05657, 18.75436]}, "properties": {"id": "cm-osm-node-1563350803", "name": "7-Eleven", "nameTh": null, "nameEn": "7-Eleven", "cat": ["essentials"], "province": "cm", "slug": "7-eleven-1563350803", "rank": 3}}, {"type": "Feature", "geometry": {"type": "Point", "coordinates": [99.02846, 18.88879]}, "properties": {"id": "cm-osm-node-1577804363", "name": "7-Eleven", "nameTh": null, "nameEn": "7-Eleven", "cat": ["essentials"], "province": "cm", "slug": "7-eleven-1577804363", "rank": 3}}, {"type": "Feature", "geometry": {"type": "Point", "coordinates": [98.95552, 18.72214]}, "properties": {"id": "cm-osm-node-1579924982", "name": "7-Eleven", "nameTh": null, "nameEn": "7-Eleven", "cat": ["essentials"], "province": "cm", "slug": "7-eleven-1579924982", "rank": 3}}, {"type": "Feature", "geometry": {"type": "Point", "coordinates": [98.92572, 18.6941]}, "properties": {"id": "cm-osm-node-1583821997", "name": "7-Eleven", "nameTh": null, "nameEn": "7-Eleven", "cat": ["essentials"], "province": "cm", "slug": "7-eleven-1583821997", "rank": 2}}, {"type": "Feature", "geometry": {"type": "Point", "coordinates": [98.9415, 18.7484]}, "properties": {"id": "cm-osm-node-1588327464", "name": "7-Eleven", "nameTh": null, "nameEn": "7-Eleven", "cat": ["essentials"], "province": "cm", "slug": "7-eleven-1588327464", "rank": 3}}, {"type": "Feature", "geometry": {"type": "Point", "coordinates": [98.92071, 18.68887]}, "properties": {"id": "cm-osm-node-1589074360", "name": "7-Eleven", "nameTh": null, "nameEn": "7-Eleven", "cat": ["essentials"], "province": "cm", "slug": "7-eleven-1589074360", "rank": 3}}, {"type": "Feature", "geometry": {"type": "Point", "coordinates": [98.9562, 18.80738]}, "properties": {"id": "cm-osm-node-1595585874", "name": "7-Eleven", "nameTh": null, "nameEn": "7-Eleven", "cat": ["essentials"], "province": "cm", "slug": "7-eleven-1595585874", "rank": 3}}, {"type": "Feature", "geometry": {"type": "Point", "coordinates": [98.98616, 18.79597]}, "properties": {"id": "cm-osm-node-1595614860", "name": "7-Eleven", "nameTh": null, "nameEn": "7-Eleven", "cat": ["essentials"], "province": "cm", "slug": "7-eleven-1595614860", "rank": 3}}, {"type": "Feature", "geometry": {"type": "Point", "coordinates": [98.95899, 18.80595]}, "properties": {"id": "cm-osm-node-1595614864", "name": "7-Eleven", "nameTh": null, "nameEn": "7-Eleven", "cat": ["essentials"], "province": "cm", "slug": "7-eleven-1595614864", "rank": 3}}, {"type": "Feature", "geometry": {"type": "Point", "coordinates": [99.01122, 18.80905]}, "properties": {"id": "cm-osm-node-1616141878", "name": "7-Eleven", "nameTh": null, "nameEn": "7-Eleven", "cat": ["essentials"], "province": "cm", "slug": "7-eleven-1616141878", "rank": 3}}, {"type": "Feature", "geometry": {"type": "Point", "coordinates": [98.99392, 18.79634]}, "properties": {"id": "cm-osm-node-1617076614", "name": "7-Eleven", "nameTh": null, "nameEn": "7-Eleven", "cat": ["essentials"], "province": "cm", "slug": "7-eleven-1617076614", "rank": 3}}, {"type": "Feature", "geometry": {"type": "Point", "coordinates": [98.98195, 18.79194]}, "properties": {"id": "cm-osm-node-1618122063", "name": "7-Eleven", "nameTh": null, "nameEn": "7-Eleven", "cat": ["essentials"], "province": "cm", "slug": "7-eleven-1618122063", "rank": 3}}, {"type": "Feature", "geometry": {"type": "Point", "coordinates": [98.98762, 18.79145]}, "properties": {"id": "cm-osm-node-1619287964", "name": "7-Eleven", "nameTh": null, "nameEn": "7-Eleven", "cat": ["essentials"], "province": "cm", "slug": "7-eleven-1619287964", "rank": 3}}, {"type": "Feature", "geometry": {"type": "Point", "coordinates": [98.98285, 18.78868]}, "properties": {"id": "cm-osm-node-1619445283", "name": "7-Eleven", "nameTh": null, "nameEn": "7-Eleven", "cat": ["essentials"], "province": "cm", "slug": "7-eleven-1619445283", "rank": 3}}, {"type": "Feature", "geometry": {"type": "Point", "coordinates": [99.12563, 18.65109]}, "properties": {"id": "cm-osm-node-1664177330", "name": "7-Eleven", "nameTh": null, "nameEn": "7-Eleven", "cat": ["essentials"], "province": "cm", "slug": "7-eleven-1664177330", "rank": 2}}, {"type": "Feature", "geometry": {"type": "Point", "coordinates": [98.95625, 18.79058]}, "properties": {"id": "cm-osm-node-1814987327", "name": "7-Eleven", "nameTh": null, "nameEn": "7-Eleven", "cat": ["essentials"], "province": "cm", "slug": "7-eleven-1814987327", "rank": 3}}, {"type": "Feature", "geometry": {"type": "Point", "coordinates": [98.96107, 18.79927]}, "properties": {"id": "cm-osm-node-1819823722", "name": "7-Eleven", "nameTh": null, "nameEn": "7-Eleven", "cat": ["essentials"], "province": "cm", "slug": "7-eleven-1819823722", "rank": 3}}, {"type": "Feature", "geometry": {"type": "Point", "coordinates": [99.02077, 18.84785]}, "properties": {"id": "cm-osm-node-1862656725", "name": "7-Eleven", "nameTh": null, "nameEn": "7-Eleven", "cat": ["essentials"], "province": "cm", "slug": "7-eleven-1862656725", "rank": 2}}, {"type": "Feature", "geometry": {"type": "Point", "coordinates": [99.01713, 18.84564]}, "properties": {"id": "cm-osm-node-1862656739", "name": "7-Eleven", "nameTh": null, "nameEn": "7-Eleven", "cat": ["essentials"], "province": "cm", "slug": "7-eleven-1862656739", "rank": 3}}, {"type": "Feature", "geometry": {"type": "Point", "coordinates": [99.05154, 18.87413]}, "properties": {"id": "cm-osm-node-1874844752", "name": "7-Eleven", "nameTh": null, "nameEn": "7-Eleven", "cat": ["essentials"], "province": "cm", "slug": "7-eleven-1874844752", "rank": 3}}, {"type": "Feature", "geometry": {"type": "Point", "coordinates": [99.00687, 18.76023]}, "properties": {"id": "cm-osm-node-1931786094", "name": "7-Eleven", "nameTh": null, "nameEn": "7-Eleven", "cat": ["essentials"], "province": "cm", "slug": "7-eleven-1931786094", "rank": 3}}, {"type": "Feature", "geometry": {"type": "Point", "coordinates": [99.00547, 18.76555]}, "properties": {"id": "cm-osm-node-1931787953", "name": "7-Eleven", "nameTh": null, "nameEn": "7-Eleven", "cat": ["essentials"], "province": "cm", "slug": "7-eleven-1931787953", "rank": 3}}, {"type": "Feature", "geometry": {"type": "Point", "coordinates": [99.00885, 18.79763]}, "properties": {"id": "cm-osm-node-1936293993", "name": "7-Eleven", "nameTh": null, "nameEn": "7-Eleven", "cat": ["essentials"], "province": "cm", "slug": "7-eleven-1936293993", "rank": 3}}, {"type": "Feature", "geometry": {"type": "Point", "coordinates": [98.96298, 18.72003]}, "properties": {"id": "cm-osm-node-1954752006", "name": "7-Eleven", "nameTh": null, "nameEn": "7-Eleven", "cat": ["essentials"], "province": "cm", "slug": "7-eleven-1954752006", "rank": 3}}, {"type": "Feature", "geometry": {"type": "Point", "coordinates": [98.99499, 18.74369]}, "properties": {"id": "cm-osm-node-1956905698", "name": "7-Eleven", "nameTh": null, "nameEn": "7-Eleven", "cat": ["essentials"], "province": "cm", "slug": "7-eleven-1956905698", "rank": 3}}, {"type": "Feature", "geometry": {"type": "Point", "coordinates": [99.01925, 18.80061]}, "properties": {"id": "cm-osm-node-2002017233", "name": "7-Eleven", "nameTh": null, "nameEn": "7-Eleven", "cat": ["essentials"], "province": "cm", "slug": "7-eleven-2002017233", "rank": 3}}, {"type": "Feature", "geometry": {"type": "Point", "coordinates": [98.98145, 18.80589]}, "properties": {"id": "cm-osm-node-2038072655", "name": "7-Eleven", "nameTh": null, "nameEn": "7-Eleven", "cat": ["essentials"], "province": "cm", "slug": "7-eleven-2038072655", "rank": 3}}, {"type": "Feature", "geometry": {"type": "Point", "coordinates": [98.98841, 18.78609]}, "properties": {"id": "cm-osm-node-2040001657", "name": "7-Eleven", "nameTh": null, "nameEn": "7-Eleven", "cat": ["essentials"], "province": "cm", "slug": "7-eleven-2040001657", "rank": 3}}, {"type": "Feature", "geometry": {"type": "Point", "coordinates": [99.01629, 18.78399]}, "properties": {"id": "cm-osm-node-2062356171", "name": "7-Eleven", "nameTh": null, "nameEn": "7-Eleven", "cat": ["essentials"], "province": "cm", "slug": "7-eleven-2062356171", "rank": 3}}, {"type": "Feature", "geometry": {"type": "Point", "coordinates": [99.06849, 18.7898]}, "properties": {"id": "cm-osm-node-2089617386", "name": "7-Eleven", "nameTh": null, "nameEn": "7-Eleven", "cat": ["essentials"], "province": "cm", "slug": "7-eleven-2089617386", "rank": 3}}, {"type": "Feature", "geometry": {"type": "Point", "coordinates": [98.99024, 18.79913]}, "properties": {"id": "cm-osm-node-2090246433", "name": "7-Eleven", "nameTh": null, "nameEn": "7-Eleven", "cat": ["essentials"], "province": "cm", "slug": "7-eleven-2090246433", "rank": 3}}, {"type": "Feature", "geometry": {"type": "Point", "coordinates": [99.04076, 18.79663]}, "properties": {"id": "cm-osm-node-2095787886", "name": "7-Eleven", "nameTh": null, "nameEn": "7-Eleven", "cat": ["essentials"], "province": "cm", "slug": "7-eleven-2095787886", "rank": 2}}, {"type": "Feature", "geometry": {"type": "Point", "coordinates": [98.97087, 18.79504]}, "properties": {"id": "cm-osm-node-2099113282", "name": "7-Eleven", "nameTh": null, "nameEn": "7-Eleven", "cat": ["essentials"], "province": "cm", "slug": "7-eleven-2099113282", "rank": 3}}, {"type": "Feature", "geometry": {"type": "Point", "coordinates": [98.97997, 18.80012]}, "properties": {"id": "cm-osm-node-2099426586", "name": "7-Eleven", "nameTh": null, "nameEn": "7-Eleven", "cat": ["essentials"], "province": "cm", "slug": "7-eleven-2099426586", "rank": 3}}, {"type": "Feature", "geometry": {"type": "Point", "coordinates": [98.98524, 18.80476]}, "properties": {"id": "cm-osm-node-2100755383", "name": "7-Eleven", "nameTh": null, "nameEn": "7-Eleven", "cat": ["essentials"], "province": "cm", "slug": "7-eleven-2100755383", "rank": 3}}, {"type": "Feature", "geometry": {"type": "Point", "coordinates": [98.98938, 18.83756]}, "properties": {"id": "cm-osm-node-2102612742", "name": "7-Eleven", "nameTh": null, "nameEn": "7-Eleven", "cat": ["essentials"], "province": "cm", "slug": "7-eleven-2102612742", "rank": 3}}, {"type": "Feature", "geometry": {"type": "Point", "coordinates": [98.9933, 18.79203]}, "properties": {"id": "cm-osm-node-2292110790", "name": "7-Eleven", "nameTh": null, "nameEn": "7-Eleven", "cat": ["essentials"], "province": "cm", "slug": "7-eleven-2292110790", "rank": 2}}, {"type": "Feature", "geometry": {"type": "Point", "coordinates": [99.08355, 18.73934]}, "properties": {"id": "cm-osm-node-2307998393", "name": "7-Eleven", "nameTh": null, "nameEn": "7-Eleven", "cat": ["essentials"], "province": "cm", "slug": "7-eleven-2307998393", "rank": 3}}, {"type": "Feature", "geometry": {"type": "Point", "coordinates": [98.97573, 18.78979]}, "properties": {"id": "cm-osm-node-2337768921", "name": "7-Eleven", "nameTh": null, "nameEn": "7-Eleven", "cat": ["essentials"], "province": "cm", "slug": "7-eleven-2337768921", "rank": 3}}, {"type": "Feature", "geometry": {"type": "Point", "coordinates": [99.04042, 18.76825]}, "properties": {"id": "cm-osm-node-2342018523", "name": "7-Eleven", "nameTh": null, "nameEn": "7-Eleven", "cat": ["essentials"], "province": "cm", "slug": "7-eleven-2342018523", "rank": 2}}, {"type": "Feature", "geometry": {"type": "Point", "coordinates": [98.95018, 18.79167]}, "properties": {"id": "cm-osm-node-2435124433", "name": "7-Eleven", "nameTh": null, "nameEn": "7-Eleven", "cat": ["essentials"], "province": "cm", "slug": "7-eleven-2435124433", "rank": 2}}, {"type": "Feature", "geometry": {"type": "Point", "coordinates": [98.97845, 18.78984]}, "properties": {"id": "cm-osm-node-2466325290", "name": "7-Eleven", "nameTh": null, "nameEn": "7-Eleven", "cat": ["essentials"], "province": "cm", "slug": "7-eleven-2466325290", "rank": 3}}, {"type": "Feature", "geometry": {"type": "Point", "coordinates": [99.12772, 18.86939]}, "properties": {"id": "cm-osm-node-2477476570", "name": "7-Eleven", "nameTh": null, "nameEn": "7-Eleven", "cat": ["essentials"], "province": "cm", "slug": "7-eleven-2477476570", "rank": 3}}, {"type": "Feature", "geometry": {"type": "Point", "coordinates": [98.97873, 18.80455]}, "properties": {"id": "cm-osm-node-2509993172", "name": "7-Eleven", "nameTh": null, "nameEn": "7-Eleven", "cat": ["essentials"], "province": "cm", "slug": "7-eleven-2509993172", "rank": 3}}, {"type": "Feature", "geometry": {"type": "Point", "coordinates": [99.01097, 18.81416]}, "properties": {"id": "cm-osm-node-2517090141", "name": "7-Eleven", "nameTh": null, "nameEn": "7-Eleven", "cat": ["essentials"], "province": "cm", "slug": "7-eleven-2517090141", "rank": 3}}, {"type": "Feature", "geometry": {"type": "Point", "coordinates": [98.98111, 18.80282]}, "properties": {"id": "cm-osm-node-2530336690", "name": "7-Eleven", "nameTh": null, "nameEn": "7-Eleven", "cat": ["essentials"], "province": "cm", "slug": "7-eleven-2530336690", "rank": 3}}, {"type": "Feature", "geometry": {"type": "Point", "coordinates": [98.97299, 18.80381]}, "properties": {"id": "cm-osm-node-2530413336", "name": "7-Eleven", "nameTh": null, "nameEn": "7-Eleven", "cat": ["essentials"], "province": "cm", "slug": "7-eleven-2530413336", "rank": 3}}, {"type": "Feature", "geometry": {"type": "Point", "coordinates": [98.97817, 18.8024]}, "properties": {"id": "cm-osm-node-2530435337", "name": "7-Eleven", "nameTh": null, "nameEn": "7-Eleven", "cat": ["essentials"], "province": "cm", "slug": "7-eleven-2530435337", "rank": 3}}, {"type": "Feature", "geometry": {"type": "Point", "coordinates": [98.94583, 18.91339]}, "properties": {"id": "cm-osm-node-2556193498", "name": "7-Eleven", "nameTh": null, "nameEn": "7-Eleven", "cat": ["essentials"], "province": "cm", "slug": "7-eleven-2556193498", "rank": 3}}, {"type": "Feature", "geometry": {"type": "Point", "coordinates": [98.94482, 18.91526]}, "properties": {"id": "cm-osm-node-2556220802", "name": "7-Eleven", "nameTh": null, "nameEn": "7-Eleven", "cat": ["essentials"], "province": "cm", "slug": "7-eleven-2556220802", "rank": 3}}, {"type": "Feature", "geometry": {"type": "Point", "coordinates": [98.99344, 18.80516]}, "properties": {"id": "cm-osm-node-2580478784", "name": "7-Eleven", "nameTh": null, "nameEn": "7-Eleven", "cat": ["essentials"], "province": "cm", "slug": "7-eleven-2580478784", "rank": 3}}, {"type": "Feature", "geometry": {"type": "Point", "coordinates": [99.1272, 18.73453]}, "properties": {"id": "cm-osm-node-2581651718", "name": "7-Eleven", "nameTh": null, "nameEn": "7-Eleven", "cat": ["essentials"], "province": "cm", "slug": "7-eleven-2581651718", "rank": 3}}, {"type": "Feature", "geometry": {"type": "Point", "coordinates": [99.00515, 18.90186]}, "properties": {"id": "cm-osm-node-2587314929", "name": "7-Eleven", "nameTh": null, "nameEn": "7-Eleven", "cat": ["essentials"], "province": "cm", "slug": "7-eleven-2587314929", "rank": 3}}, {"type": "Feature", "geometry": {"type": "Point", "coordinates": [99.04346, 18.84515]}, "properties": {"id": "cm-osm-node-2590185736", "name": "7-Eleven", "nameTh": null, "nameEn": "7-Eleven", "cat": ["essentials"], "province": "cm", "slug": "7-eleven-2590185736", "rank": 3}}, {"type": "Feature", "geometry": {"type": "Point", "coordinates": [99.03122, 18.78279]}, "properties": {"id": "cm-osm-node-2595939982", "name": "7-Eleven", "nameTh": null, "nameEn": "7-Eleven", "cat": ["essentials"], "province": "cm", "slug": "7-eleven-2595939982", "rank": 3}}, {"type": "Feature", "geometry": {"type": "Point", "coordinates": [99.029, 18.81587]}, "properties": {"id": "cm-osm-node-2600091532", "name": "7-Eleven", "nameTh": null, "nameEn": "7-Eleven", "cat": ["essentials"], "province": "cm", "slug": "7-eleven-2600091532", "rank": 3}}, {"type": "Feature", "geometry": {"type": "Point", "coordinates": [99.0145, 18.86138]}, "properties": {"id": "cm-osm-node-2600943728", "name": "7-Eleven", "nameTh": null, "nameEn": "7-Eleven", "cat": ["essentials"], "province": "cm", "slug": "7-eleven-2600943728", "rank": 3}}, {"type": "Feature", "geometry": {"type": "Point", "coordinates": [99.01172, 18.89112]}, "properties": {"id": "cm-osm-node-2600986664", "name": "7-Eleven", "nameTh": null, "nameEn": "7-Eleven", "cat": ["essentials"], "province": "cm", "slug": "7-eleven-2600986664", "rank": 3}}, {"type": "Feature", "geometry": {"type": "Point", "coordinates": [98.99895, 18.77262]}, "properties": {"id": "cm-osm-node-2609696943", "name": "7-Eleven", "nameTh": null, "nameEn": "7-Eleven", "cat": ["essentials"], "province": "cm", "slug": "7-eleven-2609696943", "rank": 3}}, {"type": "Feature", "geometry": {"type": "Point", "coordinates": [98.98706, 18.78155]}, "properties": {"id": "cm-osm-node-2609696944", "name": "7-Eleven", "nameTh": null, "nameEn": "7-Eleven", "cat": ["essentials"], "province": "cm", "slug": "7-eleven-2609696944", "rank": 3}}, {"type": "Feature", "geometry": {"type": "Point", "coordinates": [98.98793, 18.78154]}, "properties": {"id": "cm-osm-node-2609696945", "name": "7-Eleven", "nameTh": null, "nameEn": "7-Eleven", "cat": ["essentials"], "province": "cm", "slug": "7-eleven-2609696945", "rank": 3}}, {"type": "Feature", "geometry": {"type": "Point", "coordinates": [98.97571, 18.79734]}, "properties": {"id": "cm-osm-node-2609696946", "name": "7-Eleven", "nameTh": null, "nameEn": "7-Eleven", "cat": ["essentials"], "province": "cm", "slug": "7-eleven-2609696946", "rank": 3}}, {"type": "Feature", "geometry": {"type": "Point", "coordinates": [98.99866, 18.76917]}, "properties": {"id": "cm-osm-node-2610123180", "name": "7-Eleven", "nameTh": null, "nameEn": "7-Eleven", "cat": ["essentials"], "province": "cm", "slug": "7-eleven-2610123180", "rank": 3}}, {"type": "Feature", "geometry": {"type": "Point", "coordinates": [98.99939, 18.7796]}, "properties": {"id": "cm-osm-node-2610123183", "name": "7-Eleven", "nameTh": null, "nameEn": "7-Eleven", "cat": ["essentials"], "province": "cm", "slug": "7-eleven-2610123183", "rank": 3}}, {"type": "Feature", "geometry": {"type": "Point", "coordinates": [99.02499, 18.76334]}, "properties": {"id": "cm-osm-node-2610146257", "name": "7-Eleven", "nameTh": null, "nameEn": "7-Eleven", "cat": ["essentials"], "province": "cm", "slug": "7-eleven-2610146257", "rank": 3}}, {"type": "Feature", "geometry": {"type": "Point", "coordinates": [98.97035, 18.79176]}, "properties": {"id": "cm-osm-node-2632210804", "name": "7-Eleven", "nameTh": null, "nameEn": "7-Eleven", "cat": ["essentials"], "province": "cm", "slug": "7-eleven-2632210804", "rank": 2}}, {"type": "Feature", "geometry": {"type": "Point", "coordinates": [98.96555, 18.78947]}, "properties": {"id": "cm-osm-node-2638649069", "name": "7-Eleven", "nameTh": null, "nameEn": "7-Eleven", "cat": ["essentials"], "province": "cm", "slug": "7-eleven-2638649069", "rank": 3}}, {"type": "Feature", "geometry": {"type": "Point", "coordinates": [98.97279, 18.78891]}, "properties": {"id": "cm-osm-node-2638687780", "name": "7-Eleven", "nameTh": null, "nameEn": "7-Eleven", "cat": ["essentials"], "province": "cm", "slug": "7-eleven-2638687780", "rank": 3}}, {"type": "Feature", "geometry": {"type": "Point", "coordinates": [98.96984, 18.78904]}, "properties": {"id": "cm-osm-node-2638687785", "name": "7-Eleven", "nameTh": null, "nameEn": "7-Eleven", "cat": ["essentials"], "province": "cm", "slug": "7-eleven-2638687785", "rank": 3}}, {"type": "Feature", "geometry": {"type": "Point", "coordinates": [99.00532, 18.78381]}, "properties": {"id": "cm-osm-node-2648382126", "name": "7-Eleven", "nameTh": null, "nameEn": "7-Eleven", "cat": ["essentials"], "province": "cm", "slug": "7-eleven-2648382126", "rank": 3}}, {"type": "Feature", "geometry": {"type": "Point", "coordinates": [98.99908, 18.79636]}, "properties": {"id": "cm-osm-node-2649636478", "name": "7-Eleven", "nameTh": null, "nameEn": "7-Eleven", "cat": ["essentials"], "province": "cm", "slug": "7-eleven-2649636478", "rank": 3}}, {"type": "Feature", "geometry": {"type": "Point", "coordinates": [98.95814, 18.7917]}, "properties": {"id": "cm-osm-node-2650752229", "name": "7-Eleven", "nameTh": null, "nameEn": "7-Eleven", "cat": ["essentials"], "province": "cm", "slug": "7-eleven-2650752229", "rank": 3}}, {"type": "Feature", "geometry": {"type": "Point", "coordinates": [99.00085, 18.80124]}, "properties": {"id": "cm-osm-node-2650782949", "name": "7-Eleven", "nameTh": null, "nameEn": "7-Eleven", "cat": ["essentials"], "province": "cm", "slug": "7-eleven-2650782949", "rank": 3}}, {"type": "Feature", "geometry": {"type": "Point", "coordinates": [98.99907, 18.78413]}, "properties": {"id": "cm-osm-node-2655201559", "name": "7-Eleven", "nameTh": null, "nameEn": "7-Eleven", "cat": ["essentials"], "province": "cm", "slug": "7-eleven-2655201559", "rank": 3}}, {"type": "Feature", "geometry": {"type": "Point", "coordinates": [98.96004, 18.80042]}, "properties": {"id": "cm-osm-node-2660452152", "name": "7-Eleven", "nameTh": null, "nameEn": "7-Eleven", "cat": ["essentials"], "province": "cm", "slug": "7-eleven-2660452152", "rank": 3}}, {"type": "Feature", "geometry": {"type": "Point", "coordinates": [98.96924, 18.80478]}, "properties": {"id": "cm-osm-node-2660469647", "name": "7-Eleven", "nameTh": null, "nameEn": "7-Eleven", "cat": ["essentials"], "province": "cm", "slug": "7-eleven-2660469647", "rank": 3}}, {"type": "Feature", "geometry": {"type": "Point", "coordinates": [99.00241, 18.81053]}, "properties": {"id": "cm-osm-node-2660472373", "name": "7-Eleven", "nameTh": null, "nameEn": "7-Eleven", "cat": ["essentials"], "province": "cm", "slug": "7-eleven-2660472373", "rank": 3}}, {"type": "Feature", "geometry": {"type": "Point", "coordinates": [99.00587, 18.76343]}, "properties": {"id": "cm-osm-node-2661432120", "name": "7-Eleven", "nameTh": null, "nameEn": "7-Eleven", "cat": ["essentials"], "province": "cm", "slug": "7-eleven-2661432120", "rank": 3}}, {"type": "Feature", "geometry": {"type": "Point", "coordinates": [98.92127, 18.7093]}, "properties": {"id": "cm-osm-node-2670834423", "name": "7-Eleven", "nameTh": null, "nameEn": "7-Eleven", "cat": ["essentials"], "province": "cm", "slug": "7-eleven-2670834423", "rank": 3}}, {"type": "Feature", "geometry": {"type": "Point", "coordinates": [99.01658, 18.79615]}, "properties": {"id": "cm-osm-node-2682488387", "name": "7-Eleven", "nameTh": null, "nameEn": "7-Eleven", "cat": ["essentials"], "province": "cm", "slug": "7-eleven-2682488387", "rank": 3}}, {"type": "Feature", "geometry": {"type": "Point", "coordinates": [99.00986, 18.80121]}, "properties": {"id": "cm-osm-node-2682539780", "name": "7-Eleven", "nameTh": null, "nameEn": "7-Eleven", "cat": ["essentials"], "province": "cm", "slug": "7-eleven-2682539780", "rank": 3}}, {"type": "Feature", "geometry": {"type": "Point", "coordinates": [99.0133, 18.89202]}, "properties": {"id": "cm-osm-node-2682577301", "name": "7-Eleven", "nameTh": null, "nameEn": "7-Eleven", "cat": ["essentials"], "province": "cm", "slug": "7-eleven-2682577301", "rank": 3}}, {"type": "Feature", "geometry": {"type": "Point", "coordinates": [98.8956, 18.6253]}, "properties": {"id": "cm-osm-node-2684213287", "name": "7-Eleven", "nameTh": null, "nameEn": "7-Eleven", "cat": ["essentials"], "province": "cm", "slug": "7-eleven-2684213287", "rank": 3}}, {"type": "Feature", "geometry": {"type": "Point", "coordinates": [98.91863, 18.68225]}, "properties": {"id": "cm-osm-node-2685558607", "name": "7-Eleven", "nameTh": null, "nameEn": "7-Eleven", "cat": ["essentials"], "province": "cm", "slug": "7-eleven-2685558607", "rank": 3}}, {"type": "Feature", "geometry": {"type": "Point", "coordinates": [98.95372, 18.73508]}, "properties": {"id": "cm-osm-node-2685576115", "name": "7-Eleven", "nameTh": null, "nameEn": "7-Eleven", "cat": ["essentials"], "province": "cm", "slug": "7-eleven-2685576115", "rank": 3}}, {"type": "Feature", "geometry": {"type": "Point", "coordinates": [98.95434, 18.7353]}, "properties": {"id": "cm-osm-node-2685576116", "name": "7-Eleven", "nameTh": null, "nameEn": "7-Eleven", "cat": ["essentials"], "province": "cm", "slug": "7-eleven-2685576116", "rank": 3}}, {"type": "Feature", "geometry": {"type": "Point", "coordinates": [98.97104, 18.79773]}, "properties": {"id": "cm-osm-node-2696290620", "name": "7-Eleven", "nameTh": null, "nameEn": "7-Eleven", "cat": ["essentials"], "province": "cm", "slug": "7-eleven-2696290620", "rank": 3}}, {"type": "Feature", "geometry": {"type": "Point", "coordinates": [98.97972, 18.82519]}, "properties": {"id": "cm-osm-node-2799031404", "name": "7-Eleven", "nameTh": null, "nameEn": "7-Eleven", "cat": ["essentials"], "province": "cm", "slug": "7-eleven-2799031404", "rank": 2}}, {"type": "Feature", "geometry": {"type": "Point", "coordinates": [98.99475, 18.75716]}, "properties": {"id": "cm-osm-node-2982575644", "name": "7-Eleven", "nameTh": null, "nameEn": "7-Eleven", "cat": ["essentials"], "province": "cm", "slug": "7-eleven-2982575644", "rank": 2}}, {"type": "Feature", "geometry": {"type": "Point", "coordinates": [99.00989, 18.78512]}, "properties": {"id": "cm-osm-node-2984533333", "name": "7-Eleven", "nameTh": null, "nameEn": "7-Eleven", "cat": ["essentials"], "province": "cm", "slug": "7-eleven-2984533333", "rank": 2}}, {"type": "Feature", "geometry": {"type": "Point", "coordinates": [99.04865, 18.75729]}, "properties": {"id": "cm-osm-node-3124163116", "name": "7-Eleven", "nameTh": null, "nameEn": "7-Eleven", "cat": ["essentials"], "province": "cm", "slug": "7-eleven-3124163116", "rank": 3}}, {"type": "Feature", "geometry": {"type": "Point", "coordinates": [99.01694, 18.79945]}, "properties": {"id": "cm-osm-node-3152484461", "name": "7-Eleven", "nameTh": null, "nameEn": "7-Eleven", "cat": ["essentials"], "province": "cm", "slug": "7-eleven-3152484461", "rank": 2}}, {"type": "Feature", "geometry": {"type": "Point", "coordinates": [99.11095, 18.72118]}, "properties": {"id": "cm-osm-node-3153832561", "name": "7-Eleven", "nameTh": null, "nameEn": "7-Eleven", "cat": ["essentials"], "province": "cm", "slug": "7-eleven-3153832561", "rank": 2}}, {"type": "Feature", "geometry": {"type": "Point", "coordinates": [98.99325, 18.8111]}, "properties": {"id": "cm-osm-node-3184683033", "name": "7-Eleven", "nameTh": null, "nameEn": "7-Eleven", "cat": ["essentials"], "province": "cm", "slug": "7-eleven-3184683033", "rank": 3}}, {"type": "Feature", "geometry": {"type": "Point", "coordinates": [98.9974, 18.79976]}, "properties": {"id": "cm-osm-node-3297927098", "name": "7-Eleven", "nameTh": null, "nameEn": "7-Eleven", "cat": ["essentials"], "province": "cm", "slug": "7-eleven-3297927098", "rank": 3}}, {"type": "Feature", "geometry": {"type": "Point", "coordinates": [98.99644, 18.78127]}, "properties": {"id": "cm-osm-node-3298800097", "name": "7-Eleven", "nameTh": null, "nameEn": "7-Eleven", "cat": ["essentials"], "province": "cm", "slug": "7-eleven-3298800097", "rank": 3}}, {"type": "Feature", "geometry": {"type": "Point", "coordinates": [98.98833, 18.79519]}, "properties": {"id": "cm-osm-node-3298800098", "name": "7-Eleven", "nameTh": null, "nameEn": "7-Eleven", "cat": ["essentials"], "province": "cm", "slug": "7-eleven-3298800098", "rank": 3}}, {"type": "Feature", "geometry": {"type": "Point", "coordinates": [98.9751, 18.80556]}, "properties": {"id": "cm-osm-node-3311589186", "name": "7-Eleven", "nameTh": null, "nameEn": "7-Eleven", "cat": ["essentials"], "province": "cm", "slug": "7-eleven-3311589186", "rank": 3}}, {"type": "Feature", "geometry": {"type": "Point", "coordinates": [98.95382, 18.79308]}, "properties": {"id": "cm-osm-node-3319117712", "name": "7-Eleven", "nameTh": null, "nameEn": "7-Eleven", "cat": ["essentials"], "province": "cm", "slug": "7-eleven-3319117712", "rank": 2}}, {"type": "Feature", "geometry": {"type": "Point", "coordinates": [98.95013, 18.77009]}, "properties": {"id": "cm-osm-node-3341640391", "name": "7-Eleven", "nameTh": null, "nameEn": "7-Eleven", "cat": ["essentials"], "province": "cm", "slug": "7-eleven-3341640391", "rank": 3}}, {"type": "Feature", "geometry": {"type": "Point", "coordinates": [98.97035, 18.74171]}, "properties": {"id": "cm-osm-node-3342167098", "name": "7-Eleven", "nameTh": null, "nameEn": "7-Eleven", "cat": ["essentials"], "province": "cm", "slug": "7-eleven-3342167098", "rank": 3}}, {"type": "Feature", "geometry": {"type": "Point", "coordinates": [99.01723, 18.8856]}, "properties": {"id": "cm-osm-node-3359291367", "name": "7-Eleven", "nameTh": null, "nameEn": "7-Eleven", "cat": ["essentials"], "province": "cm", "slug": "7-eleven-3359291367", "rank": 2}}, {"type": "Feature", "geometry": {"type": "Point", "coordinates": [99.05057, 18.77868]}, "properties": {"id": "cm-osm-node-3383962933", "name": "7-Eleven", "nameTh": null, "nameEn": "7-Eleven", "cat": ["essentials"], "province": "cm", "slug": "7-eleven-3383962933", "rank": 3}}, {"type": "Feature", "geometry": {"type": "Point", "coordinates": [99.13649, 18.73704]}, "properties": {"id": "cm-osm-node-3383965571", "name": "7-Eleven", "nameTh": null, "nameEn": "7-Eleven", "cat": ["essentials"], "province": "cm", "slug": "7-eleven-3383965571", "rank": 3}}, {"type": "Feature", "geometry": {"type": "Point", "coordinates": [98.97962, 18.77254]}, "properties": {"id": "cm-osm-node-3401514793", "name": "7-Eleven", "nameTh": null, "nameEn": "7-Eleven", "cat": ["essentials"], "province": "cm", "slug": "7-eleven-3401514793", "rank": 2}}, {"type": "Feature", "geometry": {"type": "Point", "coordinates": [98.9955, 18.78461]}, "properties": {"id": "cm-osm-node-3415499426", "name": "7-Eleven", "nameTh": null, "nameEn": "7-Eleven", "cat": ["essentials"], "province": "cm", "slug": "7-eleven-3415499426", "rank": 3}}, {"type": "Feature", "geometry": {"type": "Point", "coordinates": [99.00039, 18.78351]}, "properties": {"id": "cm-osm-node-3416994640", "name": "7-Eleven", "nameTh": null, "nameEn": "7-Eleven", "cat": ["essentials"], "province": "cm", "slug": "7-eleven-3416994640", "rank": 3}}, {"type": "Feature", "geometry": {"type": "Point", "coordinates": [99.0008, 18.78579]}, "properties": {"id": "cm-osm-node-3417307169", "name": "7-Eleven", "nameTh": null, "nameEn": "7-Eleven", "cat": ["essentials"], "province": "cm", "slug": "7-eleven-3417307169", "rank": 3}}, {"type": "Feature", "geometry": {"type": "Point", "coordinates": [99.01143, 18.76227]}, "properties": {"id": "cm-osm-node-3606253655", "name": "7-Eleven", "nameTh": null, "nameEn": "7-Eleven", "cat": ["essentials"], "province": "cm", "slug": "7-eleven-3606253655", "rank": 2}}, {"type": "Feature", "geometry": {"type": "Point", "coordinates": [98.99544, 18.75876]}, "properties": {"id": "cm-osm-node-3607394779", "name": "7-Eleven", "nameTh": null, "nameEn": "7-Eleven", "cat": ["essentials"], "province": "cm", "slug": "7-eleven-3607394779", "rank": 2}}, {"type": "Feature", "geometry": {"type": "Point", "coordinates": [98.98971, 18.75457]}, "properties": {"id": "cm-osm-node-3607456993", "name": "7-Eleven", "nameTh": null, "nameEn": "7-Eleven", "cat": ["essentials"], "province": "cm", "slug": "7-eleven-3607456993", "rank": 2}}, {"type": "Feature", "geometry": {"type": "Point", "coordinates": [98.98528, 18.77103]}, "properties": {"id": "cm-osm-node-3652948358", "name": "7-Eleven", "nameTh": null, "nameEn": "7-Eleven", "cat": ["essentials"], "province": "cm", "slug": "7-eleven-3652948358", "rank": 2}}, {"type": "Feature", "geometry": {"type": "Point", "coordinates": [98.97369, 18.80824]}, "properties": {"id": "cm-osm-node-3779647860", "name": "7-Eleven", "nameTh": null, "nameEn": "7-Eleven", "cat": ["essentials"], "province": "cm", "slug": "7-eleven-3779647860", "rank": 3}}, {"type": "Feature", "geometry": {"type": "Point", "coordinates": [99.01569, 18.73681]}, "properties": {"id": "cm-osm-node-3870411642", "name": "7-Eleven", "nameTh": null, "nameEn": "7-Eleven", "cat": ["essentials"], "province": "cm", "slug": "7-eleven-3870411642", "rank": 3}}, {"type": "Feature", "geometry": {"type": "Point", "coordinates": [99.02027, 18.81659]}, "properties": {"id": "cm-osm-node-3912487238", "name": "7-Eleven", "nameTh": null, "nameEn": "7-Eleven", "cat": ["essentials"], "province": "cm", "slug": "7-eleven-3912487238", "rank": 3}}, {"type": "Feature", "geometry": {"type": "Point", "coordinates": [99.01838, 18.81964]}, "properties": {"id": "cm-osm-node-3915585391", "name": "7-Eleven", "nameTh": null, "nameEn": "7-Eleven", "cat": ["essentials"], "province": "cm", "slug": "7-eleven-3915585391", "rank": 3}}, {"type": "Feature", "geometry": {"type": "Point", "coordinates": [98.96904, 18.85089]}, "properties": {"id": "cm-osm-node-3937204911", "name": "7-Eleven", "nameTh": null, "nameEn": "7-Eleven", "cat": ["essentials"], "province": "cm", "slug": "7-eleven-3937204911", "rank": 3}}, {"type": "Feature", "geometry": {"type": "Point", "coordinates": [98.95683, 18.79217]}, "properties": {"id": "cm-osm-node-4018140121", "name": "7-Eleven", "nameTh": null, "nameEn": "7-Eleven", "cat": ["essentials"], "province": "cm", "slug": "7-eleven-4018140121", "rank": 2}}, {"type": "Feature", "geometry": {"type": "Point", "coordinates": [98.99342, 18.77263]}, "properties": {"id": "cm-osm-node-4064638403", "name": "7-Eleven", "nameTh": null, "nameEn": "7-Eleven", "cat": ["essentials"], "province": "cm", "slug": "7-eleven-4064638403", "rank": 3}}, {"type": "Feature", "geometry": {"type": "Point", "coordinates": [98.9805, 18.73979]}, "properties": {"id": "cm-osm-node-4067902170", "name": "7-Eleven", "nameTh": null, "nameEn": "7-Eleven", "cat": ["essentials"], "province": "cm", "slug": "7-eleven-4067902170", "rank": 3}}, {"type": "Feature", "geometry": {"type": "Point", "coordinates": [99.00068, 18.72053]}, "properties": {"id": "cm-osm-node-4098825737", "name": "7-Eleven", "nameTh": null, "nameEn": "7-Eleven", "cat": ["essentials"], "province": "cm", "slug": "7-eleven-4098825737", "rank": 2}}, {"type": "Feature", "geometry": {"type": "Point", "coordinates": [99.02553, 18.78925]}, "properties": {"id": "cm-osm-node-4102796840", "name": "7-Eleven", "nameTh": null, "nameEn": "7-Eleven", "cat": ["essentials"], "province": "cm", "slug": "7-eleven-4102796840", "rank": 2}}, {"type": "Feature", "geometry": {"type": "Point", "coordinates": [99.06344, 18.75086]}, "properties": {"id": "cm-osm-node-4115297795", "name": "7-Eleven", "nameTh": null, "nameEn": "7-Eleven", "cat": ["essentials"], "province": "cm", "slug": "7-eleven-4115297795", "rank": 3}}, {"type": "Feature", "geometry": {"type": "Point", "coordinates": [99.03014, 18.80497]}, "properties": {"id": "cm-osm-node-4160790070", "name": "7-Eleven", "nameTh": null, "nameEn": "7-Eleven", "cat": ["essentials"], "province": "cm", "slug": "7-eleven-4160790070", "rank": 3}}, {"type": "Feature", "geometry": {"type": "Point", "coordinates": [99.01181, 18.82534]}, "properties": {"id": "cm-osm-node-4213689893", "name": "7-Eleven", "nameTh": null, "nameEn": "7-Eleven", "cat": ["essentials"], "province": "cm", "slug": "7-eleven-4213689893", "rank": 3}}, {"type": "Feature", "geometry": {"type": "Point", "coordinates": [98.9824, 18.81566]}, "properties": {"id": "cm-osm-node-4216607001", "name": "7-Eleven", "nameTh": null, "nameEn": "7-Eleven", "cat": ["essentials"], "province": "cm", "slug": "7-eleven-4216607001", "rank": 3}}, {"type": "Feature", "geometry": {"type": "Point", "coordinates": [98.98499, 18.8074]}, "properties": {"id": "cm-osm-node-4252082831", "name": "7-Eleven", "nameTh": null, "nameEn": "7-Eleven", "cat": ["essentials"], "province": "cm", "slug": "7-eleven-4252082831", "rank": 3}}, {"type": "Feature", "geometry": {"type": "Point", "coordinates": [98.96536, 18.75135]}, "properties": {"id": "cm-osm-node-4358814722", "name": "7-Eleven", "nameTh": null, "nameEn": "7-Eleven", "cat": ["essentials"], "province": "cm", "slug": "7-eleven-4358814722", "rank": 1}}, {"type": "Feature", "geometry": {"type": "Point", "coordinates": [99.02514, 18.82836]}, "properties": {"id": "cm-osm-node-4384883557", "name": "7-Eleven", "nameTh": null, "nameEn": "7-Eleven", "cat": ["essentials"], "province": "cm", "slug": "7-eleven-4384883557", "rank": 1}}, {"type": "Feature", "geometry": {"type": "Point", "coordinates": [99.02472, 18.79906]}, "properties": {"id": "cm-osm-node-4427268745", "name": "7-Eleven", "nameTh": null, "nameEn": "7-Eleven", "cat": ["essentials"], "province": "cm", "slug": "7-eleven-4427268745", "rank": 1}}, {"type": "Feature", "geometry": {"type": "Point", "coordinates": [98.969, 18.85265]}, "properties": {"id": "cm-osm-node-4480923151", "name": "7-Eleven", "nameTh": null, "nameEn": "7-Eleven", "cat": ["essentials"], "province": "cm", "slug": "7-eleven-4480923151", "rank": 2}}, {"type": "Feature", "geometry": {"type": "Point", "coordinates": [98.97186, 18.84525]}, "properties": {"id": "cm-osm-node-4480923768", "name": "7-Eleven", "nameTh": null, "nameEn": "7-Eleven", "cat": ["essentials"], "province": "cm", "slug": "7-eleven-4480923768", "rank": 2}}, {"type": "Feature", "geometry": {"type": "Point", "coordinates": [98.99004, 18.79379]}, "properties": {"id": "cm-osm-node-4484769089", "name": "7-Eleven", "nameTh": "7-Eleven", "nameEn": null, "cat": ["essentials"], "province": "cm", "slug": "7-eleven-4484769089", "rank": 2}}, {"type": "Feature", "geometry": {"type": "Point", "coordinates": [99.03756, 18.71226]}, "properties": {"id": "cm-osm-node-4509362290", "name": "7-Eleven", "nameTh": null, "nameEn": "7-Eleven", "cat": ["essentials"], "province": "cm", "slug": "7-eleven-4509362290", "rank": 2}}, {"type": "Feature", "geometry": {"type": "Point", "coordinates": [99.03407, 18.71521]}, "properties": {"id": "cm-osm-node-4509362291", "name": "7-Eleven", "nameTh": null, "nameEn": "7-Eleven", "cat": ["essentials"], "province": "cm", "slug": "7-eleven-4509362291", "rank": 2}}, {"type": "Feature", "geometry": {"type": "Point", "coordinates": [99.04167, 18.64976]}, "properties": {"id": "cm-osm-node-4509445499", "name": "7-Eleven", "nameTh": null, "nameEn": "7-Eleven", "cat": ["essentials"], "province": "cm", "slug": "7-eleven-4509445499", "rank": 2}}, {"type": "Feature", "geometry": {"type": "Point", "coordinates": [98.9357, 18.70757]}, "properties": {"id": "cm-osm-node-4532822024", "name": "7-Eleven", "nameTh": null, "nameEn": "7-Eleven", "cat": ["essentials"], "province": "cm", "slug": "7-eleven-4532822024", "rank": 2}}, {"type": "Feature", "geometry": {"type": "Point", "coordinates": [99.01086, 18.79904]}, "properties": {"id": "cm-osm-node-4557856200", "name": "7-Eleven", "nameTh": null, "nameEn": "7-Eleven", "cat": ["essentials"], "province": "cm", "slug": "7-eleven-4557856200", "rank": 1}}, {"type": "Feature", "geometry": {"type": "Point", "coordinates": [98.95929, 18.78624]}, "properties": {"id": "cm-osm-node-4559286249", "name": "7-Eleven", "nameTh": null, "nameEn": "7-Eleven", "cat": ["essentials"], "province": "cm", "slug": "7-eleven-4559286249", "rank": 2}}, {"type": "Feature", "geometry": {"type": "Point", "coordinates": [99.01274, 18.83681]}, "properties": {"id": "cm-osm-node-4587843668", "name": "7-Eleven", "nameTh": null, "nameEn": "7-Eleven", "cat": ["essentials"], "province": "cm", "slug": "7-eleven-4587843668", "rank": 2}}, {"type": "Feature", "geometry": {"type": "Point", "coordinates": [99.01692, 18.80014]}, "properties": {"id": "cm-osm-node-4686850689", "name": "7-Eleven", "nameTh": "7-Eleven", "nameEn": null, "cat": ["essentials"], "province": "cm", "slug": "7-eleven-4686850689", "rank": 1}}, {"type": "Feature", "geometry": {"type": "Point", "coordinates": [98.95214, 18.7935]}, "properties": {"id": "cm-osm-node-4739211070", "name": "7-Eleven", "nameTh": null, "nameEn": "7-Eleven", "cat": ["essentials"], "province": "cm", "slug": "7-eleven-4739211070", "rank": 1}}, {"type": "Feature", "geometry": {"type": "Point", "coordinates": [99.00224, 18.78141]}, "properties": {"id": "cm-osm-node-4876346924", "name": "7-Eleven", "nameTh": null, "nameEn": "7-Eleven", "cat": ["essentials"], "province": "cm", "slug": "7-eleven-4876346924", "rank": 1}}, {"type": "Feature", "geometry": {"type": "Point", "coordinates": [99.01185, 18.88572]}, "properties": {"id": "cm-osm-node-5107884122", "name": "7-Eleven", "nameTh": null, "nameEn": "7-11", "cat": ["essentials"], "province": "cm", "slug": "7-11-5107884122", "rank": 1}}, {"type": "Feature", "geometry": {"type": "Point", "coordinates": [98.94778, 18.72512]}, "properties": {"id": "cm-osm-node-5313772740", "name": "7-Eleven", "nameTh": null, "nameEn": "7-Eleven", "cat": ["essentials"], "province": "cm", "slug": "7-eleven-5313772740", "rank": 1}}, {"type": "Feature", "geometry": {"type": "Point", "coordinates": [99.03614, 18.79522]}, "properties": {"id": "cm-osm-node-5348338285", "name": "7-Eleven", "nameTh": null, "nameEn": "7-Eleven", "cat": ["essentials"], "province": "cm", "slug": "7-eleven-5348338285", "rank": 1}}, {"type": "Feature", "geometry": {"type": "Point", "coordinates": [98.98373, 18.768]}, "properties": {"id": "cm-osm-node-5455786828", "name": "7-Eleven", "nameTh": null, "nameEn": "7-Eleven", "cat": ["essentials"], "province": "cm", "slug": "7-eleven-5455786828", "rank": 1}}, {"type": "Feature", "geometry": {"type": "Point", "coordinates": [98.96848, 18.79812]}, "properties": {"id": "cm-osm-node-5466020683", "name": "7-Eleven", "nameTh": null, "nameEn": "7-Eleven", "cat": ["essentials"], "province": "cm", "slug": "7-eleven-5466020683", "rank": 1}}, {"type": "Feature", "geometry": {"type": "Point", "coordinates": [98.99579, 18.76163]}, "properties": {"id": "cm-osm-node-5482188468", "name": "7-Eleven", "nameTh": null, "nameEn": "7-Eleven", "cat": ["essentials"], "province": "cm", "slug": "7-eleven-5482188468", "rank": 1}}, {"type": "Feature", "geometry": {"type": "Point", "coordinates": [98.95469, 18.78331]}, "properties": {"id": "cm-osm-node-5989927476", "name": "7-Eleven", "nameTh": null, "nameEn": "7-Eleven", "cat": ["essentials"], "province": "cm", "slug": "7-eleven-5989927476", "rank": 2}}, {"type": "Feature", "geometry": {"type": "Point", "coordinates": [99.0473, 18.75896]}, "properties": {"id": "cm-osm-node-6004761433", "name": "7-Eleven", "nameTh": null, "nameEn": "7-Eleven", "cat": ["essentials"], "province": "cm", "slug": "7-eleven-6004761433", "rank": 2}}, {"type": "Feature", "geometry": {"type": "Point", "coordinates": [99.01989, 18.83107]}, "properties": {"id": "cm-osm-node-6108133285", "name": "7-Eleven", "nameTh": null, "nameEn": "7-Eleven", "cat": ["essentials"], "province": "cm", "slug": "7-eleven-6108133285", "rank": 1}}, {"type": "Feature", "geometry": {"type": "Point", "coordinates": [98.99036, 18.78433]}, "properties": {"id": "cm-osm-node-6117383885", "name": "7-Eleven", "nameTh": null, "nameEn": "7-Eleven", "cat": ["essentials"], "province": "cm", "slug": "7-eleven-6117383885", "rank": 1}}, {"type": "Feature", "geometry": {"type": "Point", "coordinates": [98.95485, 18.80851]}, "properties": {"id": "cm-osm-node-6255529250", "name": "7-Eleven", "nameTh": null, "nameEn": "7-Eleven", "cat": ["essentials"], "province": "cm", "slug": "7-eleven-6255529250", "rank": 1}}, {"type": "Feature", "geometry": {"type": "Point", "coordinates": [98.98962, 18.77559]}, "properties": {"id": "cm-osm-node-6261749447", "name": "7-Eleven", "nameTh": null, "nameEn": "7-Eleven", "cat": ["essentials"], "province": "cm", "slug": "7-eleven-6261749447", "rank": 2}}, {"type": "Feature", "geometry": {"type": "Point", "coordinates": [98.97675, 18.76784]}, "properties": {"id": "cm-osm-node-6352068902", "name": "7-Eleven", "nameTh": null, "nameEn": "7 eleven", "cat": ["essentials"], "province": "cm", "slug": "7-eleven-6352068902", "rank": 1}}, {"type": "Feature", "geometry": {"type": "Point", "coordinates": [98.98487, 18.77875]}, "properties": {"id": "cm-osm-node-6352076492", "name": "7-Eleven", "nameTh": null, "nameEn": "7 eleven", "cat": ["essentials"], "province": "cm", "slug": "7-eleven-6352076492", "rank": 2}}, {"type": "Feature", "geometry": {"type": "Point", "coordinates": [98.98165, 18.78374]}, "properties": {"id": "cm-osm-node-6352082587", "name": "7-Eleven", "nameTh": null, "nameEn": "7-Eleven", "cat": ["essentials"], "province": "cm", "slug": "7-eleven-6352082587", "rank": 2}}, {"type": "Feature", "geometry": {"type": "Point", "coordinates": [99.00002, 18.78322]}, "properties": {"id": "cm-osm-node-6545649502", "name": "7-Eleven", "nameTh": null, "nameEn": "7-Eleven", "cat": ["essentials"], "province": "cm", "slug": "7-eleven-6545649502", "rank": 3}}, {"type": "Feature", "geometry": {"type": "Point", "coordinates": [99.00119, 18.81373]}, "properties": {"id": "cm-osm-node-6561351164", "name": "7-Eleven", "nameTh": null, "nameEn": "7-Eleven", "cat": ["essentials"], "province": "cm", "slug": "7-eleven-6561351164", "rank": 2}}, {"type": "Feature", "geometry": {"type": "Point", "coordinates": [99.04902, 18.74451]}, "properties": {"id": "cm-osm-node-6587790785", "name": "7-Eleven", "nameTh": null, "nameEn": "7-Eleven", "cat": ["essentials"], "province": "cm", "slug": "7-eleven-6587790785", "rank": 1}}, {"type": "Feature", "geometry": {"type": "Point", "coordinates": [98.93752, 18.76427]}, "properties": {"id": "cm-osm-node-6868990378", "name": "7-Eleven", "nameTh": null, "nameEn": "7-Eleven", "cat": ["essentials"], "province": "cm", "slug": "7-eleven-6868990378", "rank": 1}}, {"type": "Feature", "geometry": {"type": "Point", "coordinates": [99.13549, 18.87293]}, "properties": {"id": "cm-osm-node-694942450", "name": "7-Eleven", "nameTh": null, "nameEn": "7-Eleven", "cat": ["essentials"], "province": "cm", "slug": "7-eleven-694942450", "rank": 3}}, {"type": "Feature", "geometry": {"type": "Point", "coordinates": [99.02228, 18.80693]}, "properties": {"id": "cm-osm-node-695008010", "name": "7-Eleven", "nameTh": null, "nameEn": "7-Eleven", "cat": ["essentials"], "province": "cm", "slug": "7-eleven-695008010", "rank": 3}}, {"type": "Feature", "geometry": {"type": "Point", "coordinates": [99.02735, 18.81051]}, "properties": {"id": "cm-osm-node-695008016", "name": "7-Eleven", "nameTh": null, "nameEn": "7-Eleven", "cat": ["essentials"], "province": "cm", "slug": "7-eleven-695008016", "rank": 3}}, {"type": "Feature", "geometry": {"type": "Point", "coordinates": [98.95478, 18.72154]}, "properties": {"id": "cm-osm-node-7041143254", "name": "7-Eleven", "nameTh": null, "nameEn": "7-Eleven", "cat": ["essentials"], "province": "cm", "slug": "7-eleven-7041143254", "rank": 1}}, {"type": "Feature", "geometry": {"type": "Point", "coordinates": [99.0075, 18.7217]}, "properties": {"id": "cm-osm-node-7153494725", "name": "7-Eleven", "nameTh": null, "nameEn": "7-Eleven", "cat": ["essentials"], "province": "cm", "slug": "7-eleven-7153494725", "rank": 1}}, {"type": "Feature", "geometry": {"type": "Point", "coordinates": [99.07434, 18.8442]}, "properties": {"id": "cm-osm-node-719463355", "name": "7-Eleven", "nameTh": null, "nameEn": "7-Eleven", "cat": ["essentials"], "province": "cm", "slug": "7-eleven-719463355", "rank": 3}}, {"type": "Feature", "geometry": {"type": "Point", "coordinates": [98.99609, 18.7883]}, "properties": {"id": "cm-osm-node-7196723887", "name": "7-Eleven", "nameTh": null, "nameEn": "7-Eleven", "cat": ["essentials"], "province": "cm", "slug": "7-eleven-7196723887", "rank": 1}}, {"type": "Feature", "geometry": {"type": "Point", "coordinates": [99.10528, 18.79441]}, "properties": {"id": "cm-osm-node-7205677286", "name": "7-Eleven", "nameTh": null, "nameEn": "7-Eleven", "cat": ["essentials"], "province": "cm", "slug": "7-eleven-7205677286", "rank": 1}}, {"type": "Feature", "geometry": {"type": "Point", "coordinates": [99.10439, 18.79381]}, "properties": {"id": "cm-osm-node-725620368", "name": "7-Eleven", "nameTh": null, "nameEn": "7-Eleven", "cat": ["essentials"], "province": "cm", "slug": "7-eleven-725620368", "rank": 3}}, {"type": "Feature", "geometry": {"type": "Point", "coordinates": [99.07425, 18.76807]}, "properties": {"id": "cm-osm-node-725620427", "name": "7-Eleven", "nameTh": null, "nameEn": "7-Eleven", "cat": ["essentials"], "province": "cm", "slug": "7-eleven-725620427", "rank": 2}}, {"type": "Feature", "geometry": {"type": "Point", "coordinates": [98.95954, 18.806]}, "properties": {"id": "cm-osm-node-725689632", "name": "7-Eleven", "nameTh": null, "nameEn": "7-Eleven", "cat": ["essentials"], "province": "cm", "slug": "7-eleven-725689632", "rank": 2}}, {"type": "Feature", "geometry": {"type": "Point", "coordinates": [98.94661, 18.80879]}, "properties": {"id": "cm-osm-node-725689676", "name": "7-Eleven", "nameTh": null, "nameEn": "7-Eleven", "cat": ["essentials"], "province": "cm", "slug": "7-eleven-725689676", "rank": 2}}, {"type": "Feature", "geometry": {"type": "Point", "coordinates": [98.96271, 18.79526]}, "properties": {"id": "cm-osm-node-725689741", "name": "7-Eleven", "nameTh": null, "nameEn": "7-Eleven", "cat": ["essentials"], "province": "cm", "slug": "7-eleven-725689741", "rank": 3}}, {"type": "Feature", "geometry": {"type": "Point", "coordinates": [98.99291, 18.78635]}, "properties": {"id": "cm-osm-node-7426419778", "name": "7-Eleven", "nameTh": null, "nameEn": "7-Eleven", "cat": ["essentials"], "province": "cm", "slug": "7-eleven-7426419778", "rank": 1}}, {"type": "Feature", "geometry": {"type": "Point", "coordinates": [99.01131, 18.81119]}, "properties": {"id": "cm-osm-node-772433650", "name": "7-Eleven", "nameTh": null, "nameEn": "7-Eleven", "cat": ["essentials"], "province": "cm", "slug": "7-eleven-772433650", "rank": 3}}, {"type": "Feature", "geometry": {"type": "Point", "coordinates": [99.04583, 18.72155]}, "properties": {"id": "cm-osm-node-7809156490", "name": "7-Eleven", "nameTh": null, "nameEn": "7-Eleven", "cat": ["essentials"], "province": "cm", "slug": "7-eleven-7809156490", "rank": 1}}, {"type": "Feature", "geometry": {"type": "Point", "coordinates": [99.07957, 18.76524]}, "properties": {"id": "cm-osm-node-838775340", "name": "7-Eleven", "nameTh": null, "nameEn": "7-Eleven", "cat": ["essentials"], "province": "cm", "slug": "7-eleven-838775340", "rank": 2}}, {"type": "Feature", "geometry": {"type": "Point", "coordinates": [99.08199, 18.76511]}, "properties": {"id": "cm-osm-node-838775359", "name": "7-Eleven", "nameTh": null, "nameEn": "7-Eleven", "cat": ["essentials"], "province": "cm", "slug": "7-eleven-838775359", "rank": 3}}, {"type": "Feature", "geometry": {"type": "Point", "coordinates": [99.00909, 18.89475]}, "properties": {"id": "cm-osm-node-840185285", "name": "7-Eleven", "nameTh": null, "nameEn": "7-Eleven", "cat": ["essentials"], "province": "cm", "slug": "7-eleven-840185285", "rank": 3}}, {"type": "Feature", "geometry": {"type": "Point", "coordinates": [98.98312, 18.68029]}, "properties": {"id": "cm-osm-node-856566123", "name": "7-Eleven", "nameTh": null, "nameEn": "7-Eleven", "cat": ["essentials"], "province": "cm", "slug": "7-eleven-856566123", "rank": 3}}, {"type": "Feature", "geometry": {"type": "Point", "coordinates": [99.07166, 18.76983]}, "properties": {"id": "cm-osm-node-863464773", "name": "7-Eleven", "nameTh": null, "nameEn": "7-Eleven", "cat": ["essentials"], "province": "cm", "slug": "7-eleven-863464773", "rank": 3}}, {"type": "Feature", "geometry": {"type": "Point", "coordinates": [99.07637, 18.74404]}, "properties": {"id": "cm-osm-node-8687339330", "name": "7-Eleven", "nameTh": null, "nameEn": "7-Eleven", "cat": ["essentials"], "province": "cm", "slug": "7-eleven-8687339330", "rank": 1}}, {"type": "Feature", "geometry": {"type": "Point", "coordinates": [99.04038, 18.76943]}, "properties": {"id": "cm-osm-node-8690800396", "name": "7-Eleven", "nameTh": null, "nameEn": "7-Eleven", "cat": ["essentials"], "province": "cm", "slug": "7-eleven-8690800396", "rank": 1}}, {"type": "Feature", "geometry": {"type": "Point", "coordinates": [99.0531, 18.83088]}, "properties": {"id": "cm-osm-node-8699173889", "name": "7-Eleven", "nameTh": null, "nameEn": "7-Eleven", "cat": ["essentials"], "province": "cm", "slug": "7-eleven-8699173889", "rank": 2}}, {"type": "Feature", "geometry": {"type": "Point", "coordinates": [99.00084, 18.79092]}, "properties": {"id": "cm-osm-node-915481295", "name": "7-Eleven", "nameTh": null, "nameEn": "7-Eleven", "cat": ["essentials"], "province": "cm", "slug": "7-eleven-915481295", "rank": 2}}, {"type": "Feature", "geometry": {"type": "Point", "coordinates": [98.93764, 18.74253]}, "properties": {"id": "cm-osm-node-9168934580", "name": "7-Eleven", "nameTh": null, "nameEn": "7-Eleven", "cat": ["essentials"], "province": "cm", "slug": "7-eleven-9168934580", "rank": 1}}, {"type": "Feature", "geometry": {"type": "Point", "coordinates": [98.96801, 18.85252]}, "properties": {"id": "cm-osm-node-9242248916", "name": "7-Eleven", "nameTh": null, "nameEn": "7-Eleven", "cat": ["essentials"], "province": "cm", "slug": "7-eleven-9242248916", "rank": 1}}, {"type": "Feature", "geometry": {"type": "Point", "coordinates": [99.03764, 18.72133]}, "properties": {"id": "cm-osm-node-9492146646", "name": "7-Eleven", "nameTh": null, "nameEn": "7-Eleven", "cat": ["essentials"], "province": "cm", "slug": "7-eleven-9492146646", "rank": 2}}, {"type": "Feature", "geometry": {"type": "Point", "coordinates": [98.98353, 18.95772]}, "properties": {"id": "cm-osm-way-1015401895", "name": "7-Eleven", "nameTh": null, "nameEn": "7-Eleven", "cat": ["essentials"], "province": "cm", "slug": "7-eleven-1015401895", "rank": 1}}, {"type": "Feature", "geometry": {"type": "Point", "coordinates": [98.99171, 18.92064]}, "properties": {"id": "cm-osm-way-1017064983", "name": "7-Eleven", "nameTh": null, "nameEn": "7-Eleven", "cat": ["essentials"], "province": "cm", "slug": "7-eleven-1017064983", "rank": 3}}, {"type": "Feature", "geometry": {"type": "Point", "coordinates": [99.0148, 18.86878]}, "properties": {"id": "cm-osm-way-1024260980", "name": "7-Eleven", "nameTh": null, "nameEn": "7-Eleven", "cat": ["essentials"], "province": "cm", "slug": "7-eleven-1024260980", "rank": 1}}, {"type": "Feature", "geometry": {"type": "Point", "coordinates": [98.82987, 18.60393]}, "properties": {"id": "cm-osm-way-1025984972", "name": "7-Eleven", "nameTh": null, "nameEn": "7-Eleven", "cat": ["essentials"], "province": "cm", "slug": "7-eleven-1025984972", "rank": 2}}, {"type": "Feature", "geometry": {"type": "Point", "coordinates": [99.05219, 18.8645]}, "properties": {"id": "cm-osm-way-1028247813", "name": "7-Eleven", "nameTh": null, "nameEn": "7-Eleven", "cat": ["essentials"], "province": "cm", "slug": "7-eleven-1028247813", "rank": 1}}, {"type": "Feature", "geometry": {"type": "Point", "coordinates": [99.0336, 18.88324]}, "properties": {"id": "cm-osm-way-1028248221", "name": "7-Eleven", "nameTh": null, "nameEn": "7-Eleven", "cat": ["essentials"], "province": "cm", "slug": "7-eleven-1028248221", "rank": 1}}, {"type": "Feature", "geometry": {"type": "Point", "coordinates": [98.99062, 18.92813]}, "properties": {"id": "cm-osm-way-1028264257", "name": "7-Eleven", "nameTh": null, "nameEn": "7-Eleven", "cat": ["essentials"], "province": "cm", "slug": "7-eleven-1028264257", "rank": 1}}, {"type": "Feature", "geometry": {"type": "Point", "coordinates": [99.01874, 18.74708]}, "properties": {"id": "cm-osm-way-1029578477", "name": "7-Eleven", "nameTh": null, "nameEn": "7-Eleven", "cat": ["essentials"], "province": "cm", "slug": "7-eleven-1029578477", "rank": 1}}, {"type": "Feature", "geometry": {"type": "Point", "coordinates": [99.08857, 18.7346]}, "properties": {"id": "cm-osm-way-1035238802", "name": "7-Eleven", "nameTh": null, "nameEn": "7-Eleven", "cat": ["essentials"], "province": "cm", "slug": "7-eleven-1035238802", "rank": 2}}, {"type": "Feature", "geometry": {"type": "Point", "coordinates": [99.01326, 18.74525]}, "properties": {"id": "cm-osm-way-1042232735", "name": "7-Eleven", "nameTh": null, "nameEn": "7-Eleven", "cat": ["essentials"], "province": "cm", "slug": "7-eleven-1042232735", "rank": 1}}, {"type": "Feature", "geometry": {"type": "Point", "coordinates": [99.02437, 18.72727]}, "properties": {"id": "cm-osm-way-1046827915", "name": "7-Eleven", "nameTh": null, "nameEn": "7-Eleven", "cat": ["essentials"], "province": "cm", "slug": "7-eleven-1046827915", "rank": 1}}, {"type": "Feature", "geometry": {"type": "Point", "coordinates": [98.98171, 18.67454]}, "properties": {"id": "cm-osm-way-1046827933", "name": "7-Eleven", "nameTh": null, "nameEn": "7-Eleven", "cat": ["essentials"], "province": "cm", "slug": "7-eleven-1046827933", "rank": 1}}, {"type": "Feature", "geometry": {"type": "Point", "coordinates": [99.05233, 18.74687]}, "properties": {"id": "cm-osm-way-1103149956", "name": "7-Eleven", "nameTh": null, "nameEn": "7-Eleven", "cat": ["essentials"], "province": "cm", "slug": "7-eleven-1103149956", "rank": 1}}, {"type": "Feature", "geometry": {"type": "Point", "coordinates": [99.01371, 18.85214]}, "properties": {"id": "cm-osm-way-1105456570", "name": "7-Eleven", "nameTh": null, "nameEn": "7-Eleven", "cat": ["essentials"], "province": "cm", "slug": "7-eleven-1105456570", "rank": 1}}, {"type": "Feature", "geometry": {"type": "Point", "coordinates": [98.97793, 18.79413]}, "properties": {"id": "cm-osm-way-1106554072", "name": "7-Eleven", "nameTh": null, "nameEn": "7-Eleven", "cat": ["essentials"], "province": "cm", "slug": "7-eleven-1106554072", "rank": 3}}, {"type": "Feature", "geometry": {"type": "Point", "coordinates": [99.02382, 18.84112]}, "properties": {"id": "cm-osm-way-1110949519", "name": "7-Eleven", "nameTh": null, "nameEn": "7-Eleven", "cat": ["essentials"], "province": "cm", "slug": "7-eleven-1110949519", "rank": 2}}, {"type": "Feature", "geometry": {"type": "Point", "coordinates": [98.94168, 18.74765]}, "properties": {"id": "cm-osm-way-1111262309", "name": "7-Eleven", "nameTh": null, "nameEn": "7-Eleven", "cat": ["essentials"], "province": "cm", "slug": "7-eleven-1111262309", "rank": 1}}, {"type": "Feature", "geometry": {"type": "Point", "coordinates": [98.95393, 18.74592]}, "properties": {"id": "cm-osm-way-1112902284", "name": "7-Eleven", "nameTh": null, "nameEn": "7-Eleven", "cat": ["essentials"], "province": "cm", "slug": "7-eleven-1112902284", "rank": 1}}, {"type": "Feature", "geometry": {"type": "Point", "coordinates": [99.03621, 18.83376]}, "properties": {"id": "cm-osm-way-1113305915", "name": "7-Eleven", "nameTh": null, "nameEn": "7-Eleven", "cat": ["essentials"], "province": "cm", "slug": "7-eleven-1113305915", "rank": 1}}, {"type": "Feature", "geometry": {"type": "Point", "coordinates": [98.92343, 18.72475]}, "properties": {"id": "cm-osm-way-1130565272", "name": "7-Eleven", "nameTh": null, "nameEn": "7-Eleven", "cat": ["essentials"], "province": "cm", "slug": "7-eleven-1130565272", "rank": 3}}, {"type": "Feature", "geometry": {"type": "Point", "coordinates": [98.93073, 18.72391]}, "properties": {"id": "cm-osm-way-1130565274", "name": "7-Eleven", "nameTh": null, "nameEn": "7-Eleven", "cat": ["essentials"], "province": "cm", "slug": "7-eleven-1130565274", "rank": 3}}, {"type": "Feature", "geometry": {"type": "Point", "coordinates": [98.85065, 18.64702]}, "properties": {"id": "cm-osm-way-1158419063", "name": "7-Eleven", "nameTh": null, "nameEn": "7-Eleven", "cat": ["essentials"], "province": "cm", "slug": "7-eleven-1158419063", "rank": 1}}, {"type": "Feature", "geometry": {"type": "Point", "coordinates": [98.93786, 18.74148]}, "properties": {"id": "cm-osm-way-1160860839", "name": "7-Eleven", "nameTh": null, "nameEn": "7-Eleven", "cat": ["essentials"], "province": "cm", "slug": "7-eleven-1160860839", "rank": 3}}, {"type": "Feature", "geometry": {"type": "Point", "coordinates": [98.98674, 18.80034]}, "properties": {"id": "cm-osm-way-1215513811", "name": "7-Eleven", "nameTh": null, "nameEn": "7-Eleven", "cat": ["essentials"], "province": "cm", "slug": "7-eleven-1215513811", "rank": 3}}, {"type": "Feature", "geometry": {"type": "Point", "coordinates": [99.01169, 18.75181]}, "properties": {"id": "cm-osm-way-1219765834", "name": "7-Eleven", "nameTh": null, "nameEn": "7-Eleven", "cat": ["essentials"], "province": "cm", "slug": "7-eleven-1219765834", "rank": 1}}, {"type": "Feature", "geometry": {"type": "Point", "coordinates": [98.98558, 18.86507]}, "properties": {"id": "cm-osm-way-1231350830", "name": "7-Eleven", "nameTh": null, "nameEn": "7-Eleven", "cat": ["essentials"], "province": "cm", "slug": "7-eleven-1231350830", "rank": 1}}, {"type": "Feature", "geometry": {"type": "Point", "coordinates": [98.9404, 18.93314]}, "properties": {"id": "cm-osm-way-1236268025", "name": "7-Eleven", "nameTh": null, "nameEn": "7-Eleven", "cat": ["essentials"], "province": "cm", "slug": "7-eleven-1236268025", "rank": 1}}, {"type": "Feature", "geometry": {"type": "Point", "coordinates": [99.12368, 18.65043]}, "properties": {"id": "cm-osm-way-1245755316", "name": "7-Eleven", "nameTh": null, "nameEn": "7-Eleven", "cat": ["essentials"], "province": "cm", "slug": "7-eleven-1245755316", "rank": 1}}, {"type": "Feature", "geometry": {"type": "Point", "coordinates": [98.99023, 18.77421]}, "properties": {"id": "cm-osm-way-1253163166", "name": "7-Eleven", "nameTh": null, "nameEn": "7-Eleven", "cat": ["essentials"], "province": "cm", "slug": "7-eleven-1253163166", "rank": 3}}, {"type": "Feature", "geometry": {"type": "Point", "coordinates": [98.99726, 18.68706]}, "properties": {"id": "cm-osm-way-1263467854", "name": "7-Eleven", "nameTh": null, "nameEn": "7-Eleven", "cat": ["essentials"], "province": "cm", "slug": "7-eleven-1263467854", "rank": 1}}, {"type": "Feature", "geometry": {"type": "Point", "coordinates": [98.96783, 18.87153]}, "properties": {"id": "cm-osm-way-1320710083", "name": "7-Eleven", "nameTh": null, "nameEn": "7-Eleven", "cat": ["essentials"], "province": "cm", "slug": "7-eleven-1320710083", "rank": 1}}, {"type": "Feature", "geometry": {"type": "Point", "coordinates": [98.95028, 18.61665]}, "properties": {"id": "cm-osm-way-1341573374", "name": "7-Eleven", "nameTh": null, "nameEn": "7-Eleven", "cat": ["essentials"], "province": "cm", "slug": "7-eleven-1341573374", "rank": 1}}, {"type": "Feature", "geometry": {"type": "Point", "coordinates": [99.02667, 18.74452]}, "properties": {"id": "cm-osm-way-1347043769", "name": "7-Eleven", "nameTh": null, "nameEn": "7-Eleven", "cat": ["essentials"], "province": "cm", "slug": "7-eleven-1347043769", "rank": 1}}, {"type": "Feature", "geometry": {"type": "Point", "coordinates": [98.93811, 18.62303]}, "properties": {"id": "cm-osm-way-1347997787", "name": "7-Eleven", "nameTh": null, "nameEn": "7-Eleven", "cat": ["essentials"], "province": "cm", "slug": "7-eleven-1347997787", "rank": 1}}, {"type": "Feature", "geometry": {"type": "Point", "coordinates": [99.04227, 18.83758]}, "properties": {"id": "cm-osm-way-1348153356", "name": "7-Eleven", "nameTh": null, "nameEn": "7-Eleven", "cat": ["essentials"], "province": "cm", "slug": "7-eleven-1348153356", "rank": 1}}, {"type": "Feature", "geometry": {"type": "Point", "coordinates": [99.03623, 18.81739]}, "properties": {"id": "cm-osm-way-1348863966", "name": "7-Eleven", "nameTh": null, "nameEn": "7-Eleven", "cat": ["essentials"], "province": "cm", "slug": "7-eleven-1348863966", "rank": 1}}, {"type": "Feature", "geometry": {"type": "Point", "coordinates": [98.84647, 18.64213]}, "properties": {"id": "cm-osm-way-1351978238", "name": "7-Eleven", "nameTh": null, "nameEn": "7-Eleven", "cat": ["essentials"], "province": "cm", "slug": "7-eleven-1351978238", "rank": 1}}, {"type": "Feature", "geometry": {"type": "Point", "coordinates": [99.08124, 18.84101]}, "properties": {"id": "cm-osm-way-1357701253", "name": "7-Eleven", "nameTh": null, "nameEn": "7-Eleven", "cat": ["essentials"], "province": "cm", "slug": "7-eleven-1357701253", "rank": 1}}, {"type": "Feature", "geometry": {"type": "Point", "coordinates": [98.97825, 18.75127]}, "properties": {"id": "cm-osm-way-1359725232", "name": "7-Eleven", "nameTh": null, "nameEn": "7-Eleven", "cat": ["essentials"], "province": "cm", "slug": "7-eleven-1359725232", "rank": 1}}, {"type": "Feature", "geometry": {"type": "Point", "coordinates": [99.04422, 18.64359]}, "properties": {"id": "cm-osm-way-1360315542", "name": "7-Eleven", "nameTh": null, "nameEn": "7-Eleven", "cat": ["essentials"], "province": "cm", "slug": "7-eleven-1360315542", "rank": 2}}, {"type": "Feature", "geometry": {"type": "Point", "coordinates": [98.98789, 18.71739]}, "properties": {"id": "cm-osm-way-1420369784", "name": "7-Eleven", "nameTh": null, "nameEn": "7-Eleven", "cat": ["essentials"], "province": "cm", "slug": "7-eleven-1420369784", "rank": 1}}, {"type": "Feature", "geometry": {"type": "Point", "coordinates": [98.98187, 18.97614]}, "properties": {"id": "cm-osm-way-1459501777", "name": "7-Eleven", "nameTh": null, "nameEn": "7-Eleven", "cat": ["essentials"], "province": "cm", "slug": "7-eleven-1459501777", "rank": 1}}, {"type": "Feature", "geometry": {"type": "Point", "coordinates": [98.95435, 18.89078]}, "properties": {"id": "cm-osm-way-1461423984", "name": "7-Eleven", "nameTh": null, "nameEn": "7-Eleven", "cat": ["essentials"], "province": "cm", "slug": "7-eleven-1461423984", "rank": 1}}, {"type": "Feature", "geometry": {"type": "Point", "coordinates": [98.82865, 18.6026]}, "properties": {"id": "cm-osm-way-1461676076", "name": "7-Eleven", "nameTh": null, "nameEn": "7-Eleven", "cat": ["essentials"], "province": "cm", "slug": "7-eleven-1461676076", "rank": 1}}, {"type": "Feature", "geometry": {"type": "Point", "coordinates": [99.11764, 18.86403]}, "properties": {"id": "cm-osm-way-1465028841", "name": "7-Eleven", "nameTh": null, "nameEn": "7-Eleven", "cat": ["essentials"], "province": "cm", "slug": "7-eleven-1465028841", "rank": 1}}, {"type": "Feature", "geometry": {"type": "Point", "coordinates": [99.06306, 18.83659]}, "properties": {"id": "cm-osm-way-1468154737", "name": "7-Eleven", "nameTh": null, "nameEn": "7-Eleven", "cat": ["essentials"], "province": "cm", "slug": "7-eleven-1468154737", "rank": 3}}, {"type": "Feature", "geometry": {"type": "Point", "coordinates": [98.9079, 18.70645]}, "properties": {"id": "cm-osm-way-1482523090", "name": "7-Eleven", "nameTh": null, "nameEn": "7-Eleven", "cat": ["essentials"], "province": "cm", "slug": "7-eleven-1482523090", "rank": 1}}, {"type": "Feature", "geometry": {"type": "Point", "coordinates": [98.9177, 18.67778]}, "properties": {"id": "cm-osm-way-1482535779", "name": "7-Eleven", "nameTh": null, "nameEn": "7-Eleven", "cat": ["essentials"], "province": "cm", "slug": "7-eleven-1482535779", "rank": 1}}, {"type": "Feature", "geometry": {"type": "Point", "coordinates": [98.99297, 18.7873]}, "properties": {"id": "cm-osm-way-238151855", "name": "7-Eleven", "nameTh": null, "nameEn": "7-Eleven", "cat": ["essentials"], "province": "cm", "slug": "7-eleven-238151855", "rank": 3}}, {"type": "Feature", "geometry": {"type": "Point", "coordinates": [99.01462, 18.73872]}, "properties": {"id": "cm-osm-way-241743665", "name": "7-Eleven", "nameTh": null, "nameEn": "7-Eleven", "cat": ["essentials"], "province": "cm", "slug": "7-eleven-241743665", "rank": 2}}, {"type": "Feature", "geometry": {"type": "Point", "coordinates": [98.83376, 18.89207]}, "properties": {"id": "cm-osm-way-272514190", "name": "7-Eleven", "nameTh": null, "nameEn": "7-Eleven", "cat": ["essentials"], "province": "cm", "slug": "7-eleven-272514190", "rank": 2}}, {"type": "Feature", "geometry": {"type": "Point", "coordinates": [99.052, 18.66924]}, "properties": {"id": "cm-osm-way-282467209", "name": "7-Eleven", "nameTh": null, "nameEn": "7-Eleven", "cat": ["essentials"], "province": "cm", "slug": "7-eleven-282467209", "rank": 3}}, {"type": "Feature", "geometry": {"type": "Point", "coordinates": [98.96266, 18.80993]}, "properties": {"id": "cm-osm-way-314669226", "name": "7-Eleven", "nameTh": null, "nameEn": "7-Eleven", "cat": ["essentials"], "province": "cm", "slug": "7-eleven-314669226", "rank": 3}}, {"type": "Feature", "geometry": {"type": "Point", "coordinates": [98.95832, 18.81073]}, "properties": {"id": "cm-osm-way-314669227", "name": "7-Eleven", "nameTh": null, "nameEn": "7-Eleven", "cat": ["essentials"], "province": "cm", "slug": "7-eleven-314669227", "rank": 2}}, {"type": "Feature", "geometry": {"type": "Point", "coordinates": [98.96394, 18.80809]}, "properties": {"id": "cm-osm-way-314669370", "name": "7-Eleven", "nameTh": null, "nameEn": "7-Eleven", "cat": ["essentials"], "province": "cm", "slug": "7-eleven-314669370", "rank": 3}}, {"type": "Feature", "geometry": {"type": "Point", "coordinates": [98.96773, 18.80721]}, "properties": {"id": "cm-osm-way-314669430", "name": "7-Eleven", "nameTh": null, "nameEn": "7-Eleven", "cat": ["essentials"], "province": "cm", "slug": "7-eleven-314669430", "rank": 2}}, {"type": "Feature", "geometry": {"type": "Point", "coordinates": [98.96486, 18.80273]}, "properties": {"id": "cm-osm-way-314670472", "name": "7-Eleven", "nameTh": null, "nameEn": "7-Eleven", "cat": ["essentials"], "province": "cm", "slug": "7-eleven-314670472", "rank": 3}}, {"type": "Feature", "geometry": {"type": "Point", "coordinates": [98.9171, 18.91976]}, "properties": {"id": "cm-osm-way-317471533", "name": "7-Eleven", "nameTh": null, "nameEn": "7-Eleven", "cat": ["essentials"], "province": "cm", "slug": "7-eleven-317471533", "rank": 3}}, {"type": "Feature", "geometry": {"type": "Point", "coordinates": [98.99871, 18.84099]}, "properties": {"id": "cm-osm-way-317522726", "name": "7-Eleven", "nameTh": null, "nameEn": "7-Eleven", "cat": ["essentials"], "province": "cm", "slug": "7-eleven-317522726", "rank": 2}}, {"type": "Feature", "geometry": {"type": "Point", "coordinates": [99.02442, 18.78423]}, "properties": {"id": "cm-osm-way-331484639", "name": "7-Eleven", "nameTh": null, "nameEn": "7-Eleven", "cat": ["essentials"], "province": "cm", "slug": "7-eleven-331484639", "rank": 1}}, {"type": "Feature", "geometry": {"type": "Point", "coordinates": [98.97314, 18.81931]}, "properties": {"id": "cm-osm-way-331504418", "name": "7-Eleven", "nameTh": null, "nameEn": "7-Eleven", "cat": ["essentials"], "province": "cm", "slug": "7-eleven-331504418", "rank": 2}}, {"type": "Feature", "geometry": {"type": "Point", "coordinates": [98.9589, 18.78462]}, "properties": {"id": "cm-osm-way-342887914", "name": "7-Eleven", "nameTh": null, "nameEn": "7-Eleven", "cat": ["essentials"], "province": "cm", "slug": "7-eleven-342887914", "rank": 3}}, {"type": "Feature", "geometry": {"type": "Point", "coordinates": [99.04999, 18.6791]}, "properties": {"id": "cm-osm-way-367603296", "name": "7-Eleven", "nameTh": null, "nameEn": "7-Eleven", "cat": ["essentials"], "province": "cm", "slug": "7-eleven-367603296", "rank": 3}}, {"type": "Feature", "geometry": {"type": "Point", "coordinates": [99.0619, 18.80389]}, "properties": {"id": "cm-osm-way-383966888", "name": "7-Eleven", "nameTh": null, "nameEn": "7-Eleven", "cat": ["essentials"], "province": "cm", "slug": "7-eleven-383966888", "rank": 2}}, {"type": "Feature", "geometry": {"type": "Point", "coordinates": [98.94149, 18.91422]}, "properties": {"id": "cm-osm-way-387748587", "name": "7-Eleven", "nameTh": null, "nameEn": "7-Eleven", "cat": ["essentials"], "province": "cm", "slug": "7-eleven-387748587", "rank": 1}}, {"type": "Feature", "geometry": {"type": "Point", "coordinates": [98.94106, 18.74671]}, "properties": {"id": "cm-osm-way-406380653", "name": "7-Eleven", "nameTh": null, "nameEn": "7-Eleven", "cat": ["essentials"], "province": "cm", "slug": "7-eleven-406380653", "rank": 1}}, {"type": "Feature", "geometry": {"type": "Point", "coordinates": [99.01535, 18.89221]}, "properties": {"id": "cm-osm-way-424983079", "name": "7-Eleven", "nameTh": null, "nameEn": "7-Eleven", "cat": ["essentials"], "province": "cm", "slug": "7-eleven-424983079", "rank": 1}}, {"type": "Feature", "geometry": {"type": "Point", "coordinates": [98.97338, 18.81432]}, "properties": {"id": "cm-osm-way-438485245", "name": "7-Eleven", "nameTh": null, "nameEn": "7-Eleven", "cat": ["essentials"], "province": "cm", "slug": "7-eleven-438485245", "rank": 1}}, {"type": "Feature", "geometry": {"type": "Point", "coordinates": [98.96346, 18.81118]}, "properties": {"id": "cm-osm-way-440798681", "name": "7-Eleven", "nameTh": null, "nameEn": "7-Eleven", "cat": ["essentials"], "province": "cm", "slug": "7-eleven-440798681", "rank": 1}}, {"type": "Feature", "geometry": {"type": "Point", "coordinates": [98.99159, 18.79033]}, "properties": {"id": "cm-osm-way-481723943", "name": "7-Eleven", "nameTh": null, "nameEn": "7-Eleven", "cat": ["essentials"], "province": "cm", "slug": "7-eleven-481723943", "rank": 3}}, {"type": "Feature", "geometry": {"type": "Point", "coordinates": [98.99499, 18.78788]}, "properties": {"id": "cm-osm-way-482773625", "name": "7-Eleven", "nameTh": null, "nameEn": "7-Eleven", "cat": ["essentials"], "province": "cm", "slug": "7-eleven-482773625", "rank": 3}}, {"type": "Feature", "geometry": {"type": "Point", "coordinates": [98.99014, 18.81236]}, "properties": {"id": "cm-osm-way-529099390", "name": "7-Eleven", "nameTh": null, "nameEn": "7-Eleven", "cat": ["essentials"], "province": "cm", "slug": "7-eleven-529099390", "rank": 3}}, {"type": "Feature", "geometry": {"type": "Point", "coordinates": [98.95767, 18.81285]}, "properties": {"id": "cm-osm-way-529106180", "name": "7-Eleven", "nameTh": null, "nameEn": "7-Eleven", "cat": ["essentials"], "province": "cm", "slug": "7-eleven-529106180", "rank": 2}}, {"type": "Feature", "geometry": {"type": "Point", "coordinates": [99.01202, 18.75919]}, "properties": {"id": "cm-osm-way-544114219", "name": "7-Eleven", "nameTh": null, "nameEn": "7-Eleven", "cat": ["essentials"], "province": "cm", "slug": "7-eleven-544114219", "rank": 1}}, {"type": "Feature", "geometry": {"type": "Point", "coordinates": [99.03451, 18.74753]}, "properties": {"id": "cm-osm-way-544243055", "name": "7-Eleven", "nameTh": null, "nameEn": "7-Eleven", "cat": ["essentials"], "province": "cm", "slug": "7-eleven-544243055", "rank": 1}}, {"type": "Feature", "geometry": {"type": "Point", "coordinates": [98.98525, 18.71471]}, "properties": {"id": "cm-osm-way-544559166", "name": "7-Eleven", "nameTh": null, "nameEn": "7-Eleven", "cat": ["essentials"], "province": "cm", "slug": "7-eleven-544559166", "rank": 2}}, {"type": "Feature", "geometry": {"type": "Point", "coordinates": [99.07906, 18.84631]}, "properties": {"id": "cm-osm-way-552940658", "name": "7-Eleven", "nameTh": null, "nameEn": "7/11", "cat": ["essentials"], "province": "cm", "slug": "7-11-552940658", "rank": 1}}, {"type": "Feature", "geometry": {"type": "Point", "coordinates": [99.02934, 18.76936]}, "properties": {"id": "cm-osm-way-560600829", "name": "7-Eleven", "nameTh": null, "nameEn": "7-Eleven", "cat": ["essentials"], "province": "cm", "slug": "7-eleven-560600829", "rank": 3}}, {"type": "Feature", "geometry": {"type": "Point", "coordinates": [98.95447, 18.7879]}, "properties": {"id": "cm-osm-way-575410489", "name": "7-Eleven", "nameTh": null, "nameEn": "7-Eleven", "cat": ["essentials"], "province": "cm", "slug": "7-eleven-575410489", "rank": 3}}, {"type": "Feature", "geometry": {"type": "Point", "coordinates": [99.00594, 18.82819]}, "properties": {"id": "cm-osm-way-650462849", "name": "7-Eleven", "nameTh": null, "nameEn": "7-Eleven", "cat": ["essentials"], "province": "cm", "slug": "7-eleven-650462849", "rank": 3}}, {"type": "Feature", "geometry": {"type": "Point", "coordinates": [98.94327, 18.91884]}, "properties": {"id": "cm-osm-way-657097388", "name": "7-Eleven", "nameTh": null, "nameEn": "7-Eleven", "cat": ["essentials"], "province": "cm", "slug": "7-eleven-657097388", "rank": 3}}, {"type": "Feature", "geometry": {"type": "Point", "coordinates": [98.99257, 18.76376]}, "properties": {"id": "cm-osm-way-668009032", "name": "7-Eleven", "nameTh": null, "nameEn": "7-Eleven", "cat": ["essentials"], "province": "cm", "slug": "7-eleven-668009032", "rank": 3}}, {"type": "Feature", "geometry": {"type": "Point", "coordinates": [98.98787, 18.80542]}, "properties": {"id": "cm-osm-way-668372095", "name": "7-Eleven", "nameTh": null, "nameEn": "7-Eleven", "cat": ["essentials"], "province": "cm", "slug": "7-eleven-668372095", "rank": 3}}, {"type": "Feature", "geometry": {"type": "Point", "coordinates": [98.88738, 18.67177]}, "properties": {"id": "cm-osm-way-675330119", "name": "7-Eleven", "nameTh": null, "nameEn": "7-Eleven", "cat": ["essentials"], "province": "cm", "slug": "7-eleven-675330119", "rank": 2}}, {"type": "Feature", "geometry": {"type": "Point", "coordinates": [98.97263, 18.77185]}, "properties": {"id": "cm-osm-way-676260810", "name": "7-Eleven", "nameTh": null, "nameEn": "7-Eleven", "cat": ["essentials"], "province": "cm", "slug": "7-eleven-676260810", "rank": 3}}, {"type": "Feature", "geometry": {"type": "Point", "coordinates": [98.97021, 18.78733]}, "properties": {"id": "cm-osm-way-688966852", "name": "7-Eleven", "nameTh": null, "nameEn": "7-Eleven", "cat": ["essentials"], "province": "cm", "slug": "7-eleven-688966852", "rank": 1}}, {"type": "Feature", "geometry": {"type": "Point", "coordinates": [98.9525, 18.74703]}, "properties": {"id": "cm-osm-way-690821542", "name": "7-Eleven", "nameTh": null, "nameEn": "7-Eleven", "cat": ["essentials"], "province": "cm", "slug": "7-eleven-690821542", "rank": 1}}, {"type": "Feature", "geometry": {"type": "Point", "coordinates": [99.01508, 18.87561]}, "properties": {"id": "cm-osm-way-739556148", "name": "7-Eleven", "nameTh": null, "nameEn": "7-Eleven", "cat": ["essentials"], "province": "cm", "slug": "7-eleven-739556148", "rank": 3}}, {"type": "Feature", "geometry": {"type": "Point", "coordinates": [98.94026, 18.92249]}, "properties": {"id": "cm-osm-way-741830437", "name": "7-Eleven", "nameTh": null, "nameEn": "7-Eleven", "cat": ["essentials"], "province": "cm", "slug": "7-eleven-741830437", "rank": 2}}, {"type": "Feature", "geometry": {"type": "Point", "coordinates": [99.0573, 18.83382]}, "properties": {"id": "cm-osm-way-746278574", "name": "7-Eleven", "nameTh": null, "nameEn": "7-Eleven", "cat": ["essentials"], "province": "cm", "slug": "7-eleven-746278574", "rank": 3}}, {"type": "Feature", "geometry": {"type": "Point", "coordinates": [98.96993, 18.81216]}, "properties": {"id": "cm-osm-way-747784895", "name": "7-Eleven", "nameTh": "7-Eleven", "nameEn": null, "cat": ["essentials"], "province": "cm", "slug": "7-eleven-747784895", "rank": 1}}, {"type": "Feature", "geometry": {"type": "Point", "coordinates": [98.99401, 18.68507]}, "properties": {"id": "cm-osm-way-748925661", "name": "7-Eleven", "nameTh": null, "nameEn": "7-Eleven", "cat": ["essentials"], "province": "cm", "slug": "7-eleven-748925661", "rank": 2}}, {"type": "Feature", "geometry": {"type": "Point", "coordinates": [98.99568, 18.83197]}, "properties": {"id": "cm-osm-way-750968453", "name": "7-Eleven", "nameTh": null, "nameEn": "7-Eleven", "cat": ["essentials"], "province": "cm", "slug": "7-eleven-750968453", "rank": 1}}, {"type": "Feature", "geometry": {"type": "Point", "coordinates": [98.94289, 18.94285]}, "properties": {"id": "cm-osm-way-758740272", "name": "7-Eleven", "nameTh": null, "nameEn": "7-Eleven", "cat": ["essentials"], "province": "cm", "slug": "7-eleven-758740272", "rank": 1}}, {"type": "Feature", "geometry": {"type": "Point", "coordinates": [98.96108, 18.79691]}, "properties": {"id": "cm-osm-way-776107614", "name": "7-Eleven", "nameTh": null, "nameEn": "7-Eleven", "cat": ["essentials"], "province": "cm", "slug": "7-eleven-776107614", "rank": 1}}, {"type": "Feature", "geometry": {"type": "Point", "coordinates": [99.10309, 18.75357]}, "properties": {"id": "cm-osm-way-777288653", "name": "7-Eleven", "nameTh": null, "nameEn": "7-Eleven", "cat": ["essentials"], "province": "cm", "slug": "7-eleven-777288653", "rank": 1}}, {"type": "Feature", "geometry": {"type": "Point", "coordinates": [98.93964, 18.73324]}, "properties": {"id": "cm-osm-way-956444482", "name": "7-Eleven", "nameTh": null, "nameEn": "7-Eleven", "cat": ["essentials"], "province": "cm", "slug": "7-eleven-956444482", "rank": 1}}, {"type": "Feature", "geometry": {"type": "Point", "coordinates": [99.03712, 18.75594]}, "properties": {"id": "cm-osm-node-3150609110", "name": "7-Eleven (เชียงขาง)", "nameTh": "7-11 เชียงขาง", "nameEn": "7-Eleven", "cat": ["essentials"], "province": "cm", "slug": "7-eleven-3150609110", "rank": 3}}, {"type": "Feature", "geometry": {"type": "Point", "coordinates": [98.98822, 18.78691]}, "properties": {"id": "cm-osm-node-12498251801", "name": "7-eleven", "nameTh": null, "nameEn": "7-eleven", "cat": ["essentials"], "province": "cm", "slug": "7-eleven-12498251801", "rank": 1}}, {"type": "Feature", "geometry": {"type": "Point", "coordinates": [98.94529, 18.98613]}, "properties": {"id": "cm-osm-way-1128461797", "name": "ร้านสะดวกซื้อ", "nameTh": "ร้านสะดวกซื้อ", "nameEn": "7-Eleven", "cat": ["essentials"], "province": "cm", "slug": "7-eleven-1128461797", "rank": 4}}]}