{"type": "FeatureCollection", "features": [{"type": "Feature", "geometry": {"type": "Point", "coordinates": [98.98229, 18.97711]}, "properties": {"id": "cm-osm-node-13385837099", "name": "Big C Mini", "nameTh": "มินิบิ๊กซี", "nameEn": "Big C Mini", "cat": ["essentials"], "province": "cm", "slug": "big-c-mini-13385837099", "rank": 2}}, {"type": "Feature", "geometry": {"type": "Point", "coordinates": [98.9978, 18.78105]}, "properties": {"id": "cm-osm-node-4867347423", "name": "Big C Mini", "nameTh": null, "nameEn": "Big C Mini", "cat": ["essentials"], "province": "cm", "slug": "big-c-mini-4867347423", "rank": 2}}, {"type": "Feature", "geometry": {"type": "Point", "coordinates": [98.94721, 18.9089]}, "properties": {"id": "cm-osm-way-1128461395", "name": "Big C Mini", "nameTh": "มินิบิ๊กซี", "nameEn": "Big C Mini", "cat": ["essentials"], "province": "cm", "slug": "big-c-mini-1128461395", "rank": 2}}, {"type": "Feature", "geometry": {"type": "Point", "coordinates": [98.97554, 18.80099]}, "properties": {"id": "cm-osm-way-1465099441", "name": "Big C Mini", "nameTh": "มินิบิ๊กซี", "nameEn": "Big C Mini", "cat": ["essentials"], "province": "cm", "slug": "big-c-mini-1465099441", "rank": 3}}, {"type": "Feature", "geometry": {"type": "Point", "coordinates": [98.97649, 18.77718]}, "properties": {"id": "cm-osm-way-384456229", "name": "Big C Mini", "nameTh": null, "nameEn": "Big C Mini", "cat": ["essentials"], "province": "cm", "slug": "big-c-mini-384456229", "rank": 2}}, {"type": "Feature", "geometry": {"type": "Point", "coordinates": [98.97849, 18.81154]}, "properties": {"id": "cm-osm-way-525727349", "name": "Big C Mini", "nameTh": "มินิบิ๊กซี", "nameEn": "Big C Mini", "cat": ["essentials"], "province": "cm", "slug": "big-c-mini-525727349", "rank": 3}}, {"type": "Feature", "geometry": {"type": "Point", "coordinates": [99.03557, 18.7646]}, "properties": {"id": "cm-osm-way-551839378", "name": "Big C Mini", "nameTh": null, "nameEn": "Big C Mini", "cat": ["essentials"], "province": "cm", "slug": "big-c-mini-551839378", "rank": 1}}, {"type": "Feature", "geometry": {"type": "Point", "coordinates": [98.99303, 18.77246]}, "properties": {"id": "cm-osm-way-653545572", "name": "Big C Mini", "nameTh": null, "nameEn": "Big C Mini", "cat": ["essentials"], "province": "cm", "slug": "big-c-mini-653545572", "rank": 1}}, {"type": "Feature", "geometry": {"type": "Point", "coordinates": [98.94441, 18.95288]}, "properties": {"id": "cm-osm-way-674030361", "name": "Big C Mini", "nameTh": null, "nameEn": "Big C Mini", "cat": ["essentials"], "province": "cm", "slug": "big-c-mini-674030361", "rank": 1}}, {"type": "Feature", "geometry": {"type": "Point", "coordinates": [98.98815, 18.80333]}, "properties": {"id": "cm-osm-node-12543092101", "name": "Big C mini", "nameTh": null, "nameEn": "Big C mini", "cat": ["essentials"], "province": "cm", "slug": "big-c-mini-12543092101", "rank": 2}}, {"type": "Feature", "geometry": {"type": "Point", "coordinates": [99.02071, 18.84762]}, "properties": {"id": "cm-osm-node-8420780818", "name": "Big C mini", "nameTh": null, "nameEn": "Big C mini", "cat": ["essentials"], "province": "cm", "slug": "big-c-mini-8420780818", "rank": 1}}, {"type": "Feature", "geometry": {"type": "Point", "coordinates": [98.98271, 18.76827]}, "properties": {"id": "cm-osm-node-4582158291", "name": "มินิบิ๊กซี", "nameTh": "มินิบิ๊กซี", "nameEn": "Mini BigC", "cat": ["essentials"], "province": "cm", "slug": "mini-bigc-4582158291", "rank": 3}}]}