{"type": "FeatureCollection", "features": [{"type": "Feature", "geometry": {"type": "Point", "coordinates": [98.96702, 18.80264]}, "properties": {"id": "cm-osm-node-3287356500", "name": "Watsons", "nameTh": null, "nameEn": "Watsons", "cat": ["essentials", "medical"], "province": "cm", "slug": "watsons-3287356500", "rank": 1}}, {"type": "Feature", "geometry": {"type": "Point", "coordinates": [98.97589, 18.76934]}, "properties": {"id": "cm-osm-node-3347633210", "name": "Watsons", "nameTh": null, "nameEn": "Watsons", "cat": ["essentials", "medical"], "province": "cm", "slug": "watsons-3347633210", "rank": 2}}, {"type": "Feature", "geometry": {"type": "Point", "coordinates": [98.97481, 18.76883]}, "properties": {"id": "cm-osm-node-3347677637", "name": "Watsons", "nameTh": null, "nameEn": "Watsons", "cat": ["essentials", "medical"], "province": "cm", "slug": "watsons-3347677637", "rank": 2}}, {"type": "Feature", "geometry": {"type": "Point", "coordinates": [99.01083, 18.82355]}, "properties": {"id": "cm-osm-node-3558878351", "name": "Watsons", "nameTh": null, "nameEn": "Watsons", "cat": ["essentials", "medical"], "province": "cm", "slug": "watsons-3558878351", "rank": 1}}, {"type": "Feature", "geometry": {"type": "Point", "coordinates": [98.96546, 18.78948]}, "properties": {"id": "cm-osm-node-4360076765", "name": "Watsons", "nameTh": null, "nameEn": "Watsons", "cat": ["essentials", "medical"], "province": "cm", "slug": "watsons-4360076765", "rank": 1}}, {"type": "Feature", "geometry": {"type": "Point", "coordinates": [98.99895, 18.77211]}, "properties": {"id": "cm-osm-node-4449570557", "name": "Watsons", "nameTh": null, "nameEn": "Watsons", "cat": ["essentials", "medical"], "province": "cm", "slug": "watsons-4449570557", "rank": 1}}, {"type": "Feature", "geometry": {"type": "Point", "coordinates": [99.00901, 18.7521]}, "properties": {"id": "cm-osm-node-9252808362", "name": "Watsons", "nameTh": null, "nameEn": "Watsons", "cat": ["essentials", "medical"], "province": "cm", "slug": "watsons-9252808362", "rank": 1}}]}