{"type": "FeatureCollection", "features": [{"type": "Feature", "geometry": {"type": "Point", "coordinates": [98.98849, 18.78327]}, "properties": {"id": "cm-osm-node-1029528119", "name": "Siam Commercial Bank", "nameTh": null, "nameEn": "Siam Commercial Bank", "cat": ["essentials"], "province": "cm", "slug": "siam-commercial-bank-1029528119", "rank": 2}}, {"type": "Feature", "geometry": {"type": "Point", "coordinates": [98.91359, 18.66779]}, "properties": {"id": "cm-osm-node-1058635947", "name": "Siam Commercial Bank", "nameTh": null, "nameEn": "Siam Commercial Bank", "cat": ["essentials"], "province": "cm", "slug": "siam-commercial-bank-1058635947", "rank": 1}}, {"type": "Feature", "geometry": {"type": "Point", "coordinates": [99.02714, 18.81034]}, "properties": {"id": "cm-osm-node-6592175284", "name": "Siam Commercial Bank", "nameTh": null, "nameEn": "Siam Commercial Bank", "cat": ["essentials"], "province": "cm", "slug": "siam-commercial-bank-6592175284", "rank": 1}}, {"type": "Feature", "geometry": {"type": "Point", "coordinates": [98.99919, 18.77791]}, "properties": {"id": "cm-osm-node-1030318036", "name": "ธนาคารไทยพาณิชย์", "nameTh": "ธนาคารไทยพาณิชย์", "nameEn": "Siam Commercial Bank", "cat": ["essentials"], "province": "cm", "slug": "siam-commercial-bank-1030318036", "rank": 2}}, {"type": "Feature", "geometry": {"type": "Point", "coordinates": [98.99704, 18.79762]}, "properties": {"id": "cm-osm-node-1365397658", "name": "ธนาคารไทยพาณิชย์", "nameTh": "ธนาคารไทยพาณิชย์", "nameEn": "Siam Commercial Bank", "cat": ["essentials"], "province": "cm", "slug": "siam-commercial-bank-1365397658", "rank": 2}}, {"type": "Feature", "geometry": {"type": "Point", "coordinates": [99.12182, 18.74339]}, "properties": {"id": "cm-osm-node-1508535748", "name": "ธนาคารไทยพาณิชย์", "nameTh": "ธนาคารไทยพาณิชย์", "nameEn": "Siam Commercial Bank", "cat": ["essentials"], "province": "cm", "slug": "siam-commercial-bank-1508535748", "rank": 2}}, {"type": "Feature", "geometry": {"type": "Point", "coordinates": [98.94606, 18.91288]}, "properties": {"id": "cm-osm-node-2556220775", "name": "ธนาคารไทยพาณิชย์", "nameTh": "ธนาคารไทยพาณิชย์", "nameEn": "Siam Commercial Bank", "cat": ["essentials"], "province": "cm", "slug": "siam-commercial-bank-2556220775", "rank": 2}}, {"type": "Feature", "geometry": {"type": "Point", "coordinates": [99.00931, 18.89415]}, "properties": {"id": "cm-osm-node-2601003845", "name": "ธนาคารไทยพาณิชย์", "nameTh": "ธนาคารไทยพาณิชย์", "nameEn": "Siam Commercial Bank", "cat": ["essentials"], "province": "cm", "slug": "siam-commercial-bank-2601003845", "rank": 2}}, {"type": "Feature", "geometry": {"type": "Point", "coordinates": [98.97928, 18.82706]}, "properties": {"id": "cm-osm-node-2799032401", "name": "ธนาคารไทยพาณิชย์", "nameTh": "ธนาคารไทยพาณิชย์", "nameEn": "Siam Commercial Bank", "cat": ["essentials"], "province": "cm", "slug": "siam-commercial-bank-2799032401", "rank": 2}}, {"type": "Feature", "geometry": {"type": "Point", "coordinates": [99.01796, 18.80624]}, "properties": {"id": "cm-osm-node-3249112263", "name": "ธนาคารไทยพาณิชย์", "nameTh": "ธนาคารไทยพาณิชย์", "nameEn": "Siam Commercial Bank", "cat": ["essentials"], "province": "cm", "slug": "siam-commercial-bank-3249112263", "rank": 2}}, {"type": "Feature", "geometry": {"type": "Point", "coordinates": [98.97298, 18.76196]}, "properties": {"id": "cm-osm-node-3329435793", "name": "ธนาคารไทยพาณิชย์", "nameTh": "ธนาคารไทยพาณิชย์", "nameEn": "Siam Commercial Bank", "cat": ["essentials"], "province": "cm", "slug": "siam-commercial-bank-3329435793", "rank": 2}}, {"type": "Feature", "geometry": {"type": "Point", "coordinates": [98.96176, 18.7431]}, "properties": {"id": "cm-osm-node-3342167095", "name": "ธนาคารไทยพาณิชย์", "nameTh": "ธนาคารไทยพาณิชย์", "nameEn": "Siam Commercial Bank", "cat": ["essentials"], "province": "cm", "slug": "siam-commercial-bank-3342167095", "rank": 2}}, {"type": "Feature", "geometry": {"type": "Point", "coordinates": [98.97501, 18.76983]}, "properties": {"id": "cm-osm-node-3347664218", "name": "ธนาคารไทยพาณิชย์", "nameTh": "ธนาคารไทยพาณิชย์", "nameEn": "Siam Commercial Bank", "cat": ["essentials"], "province": "cm", "slug": "siam-commercial-bank-3347664218", "rank": 3}}, {"type": "Feature", "geometry": {"type": "Point", "coordinates": [98.9932, 18.79052]}, "properties": {"id": "cm-osm-node-336239111", "name": "ธนาคารไทยพาณิชย์", "nameTh": "ธนาคารไทยพาณิชย์", "nameEn": "Siam Commercial Bank", "cat": ["essentials"], "province": "cm", "slug": "siam-commercial-bank-336239111", "rank": 2}}, {"type": "Feature", "geometry": {"type": "Point", "coordinates": [98.97082, 18.7893]}, "properties": {"id": "cm-osm-node-3369589475", "name": "ธนาคารไทยพาณิชย์", "nameTh": "ธนาคารไทยพาณิชย์", "nameEn": "Siam Commercial Bank", "cat": ["essentials"], "province": "cm", "slug": "siam-commercial-bank-3369589475", "rank": 3}}, {"type": "Feature", "geometry": {"type": "Point", "coordinates": [98.89529, 18.6252]}, "properties": {"id": "cm-osm-node-3379252967", "name": "ธนาคารไทยพาณิชย์", "nameTh": "ธนาคารไทยพาณิชย์", "nameEn": "Siam Commercial Bank", "cat": ["essentials"], "province": "cm", "slug": "siam-commercial-bank-3379252967", "rank": 2}}, {"type": "Feature", "geometry": {"type": "Point", "coordinates": [98.97235, 18.75846]}, "properties": {"id": "cm-osm-node-3419871308", "name": "ธนาคารไทยพาณิชย์", "nameTh": "ธนาคารไทยพาณิชย์", "nameEn": "Siam Commercial Bank", "cat": ["essentials"], "province": "cm", "slug": "siam-commercial-bank-3419871308", "rank": 2}}, {"type": "Feature", "geometry": {"type": "Point", "coordinates": [98.98589, 18.80556]}, "properties": {"id": "cm-osm-node-3862580752", "name": "ธนาคารไทยพาณิชย์", "nameTh": "ธนาคารไทยพาณิชย์", "nameEn": "Siam Commercial Bank", "cat": ["essentials"], "province": "cm", "slug": "siam-commercial-bank-3862580752", "rank": 2}}, {"type": "Feature", "geometry": {"type": "Point", "coordinates": [99.04302, 18.64526]}, "properties": {"id": "cm-osm-node-4509445496", "name": "ธนาคารไทยพาณิชย์", "nameTh": "ธนาคารไทยพาณิชย์", "nameEn": "Siam Commercial Bank", "cat": ["essentials"], "province": "cm", "slug": "siam-commercial-bank-4509445496", "rank": 2}}, {"type": "Feature", "geometry": {"type": "Point", "coordinates": [99.01353, 18.82385]}, "properties": {"id": "cm-osm-node-4593074893", "name": "ธนาคารไทยพาณิชย์", "nameTh": "ธนาคารไทยพาณิชย์", "nameEn": "Siam Commercial Bank", "cat": ["essentials"], "province": "cm", "slug": "siam-commercial-bank-4593074893", "rank": 2}}, {"type": "Feature", "geometry": {"type": "Point", "coordinates": [98.97496, 18.78957]}, "properties": {"id": "cm-osm-node-4679478892", "name": "ธนาคารไทยพาณิชย์", "nameTh": "ธนาคารไทยพาณิชย์", "nameEn": "Siam Commercial Bank", "cat": ["essentials"], "province": "cm", "slug": "siam-commercial-bank-4679478892", "rank": 2}}, {"type": "Feature", "geometry": {"type": "Point", "coordinates": [99.01109, 18.79885]}, "properties": {"id": "cm-osm-node-6587270774", "name": "ธนาคารไทยพาณิชย์", "nameTh": "ธนาคารไทยพาณิชย์", "nameEn": "Siam Commercial Bank", "cat": ["essentials"], "province": "cm", "slug": "siam-commercial-bank-6587270774", "rank": 2}}, {"type": "Feature", "geometry": {"type": "Point", "coordinates": [99.01169, 18.82422]}, "properties": {"id": "cm-osm-node-773476567", "name": "ธนาคารไทยพาณิชย์", "nameTh": "ธนาคารไทยพาณิชย์", "nameEn": "Siam Commercial Bank", "cat": ["essentials"], "province": "cm", "slug": "siam-commercial-bank-773476567", "rank": 2}}, {"type": "Feature", "geometry": {"type": "Point", "coordinates": [99.08224, 18.7649]}, "properties": {"id": "cm-osm-node-863449027", "name": "ธนาคารไทยพาณิชย์", "nameTh": "ธนาคารไทยพาณิชย์", "nameEn": "Siam Commercial Bank", "cat": ["essentials"], "province": "cm", "slug": "siam-commercial-bank-863449027", "rank": 2}}, {"type": "Feature", "geometry": {"type": "Point", "coordinates": [98.95418, 18.80388]}, "properties": {"id": "cm-osm-way-235413653", "name": "ธนาคารไทยพาณิชย์", "nameTh": "ธนาคารไทยพาณิชย์", "nameEn": "Siam Commercial Bank", "cat": ["essentials"], "province": "cm", "slug": "siam-commercial-bank-235413653", "rank": 3}}, {"type": "Feature", "geometry": {"type": "Point", "coordinates": [98.96719, 18.79885]}, "properties": {"id": "cm-osm-way-320911361", "name": "ธนาคารไทยพาณิชย์", "nameTh": "ธนาคารไทยพาณิชย์", "nameEn": "Siam Commercial Bank", "cat": ["essentials"], "province": "cm", "slug": "siam-commercial-bank-320911361", "rank": 2}}, {"type": "Feature", "geometry": {"type": "Point", "coordinates": [98.98568, 18.80141]}, "properties": {"id": "cm-osm-way-322216087", "name": "ธนาคารไทยพาณิชย์", "nameTh": "ธนาคารไทยพาณิชย์", "nameEn": "Siam Commercial Bank", "cat": ["essentials"], "province": "cm", "slug": "siam-commercial-bank-322216087", "rank": 2}}, {"type": "Feature", "geometry": {"type": "Point", "coordinates": [99.00052, 18.78734]}, "properties": {"id": "cm-osm-way-99685173", "name": "ธนาคารไทยพาณิชย์", "nameTh": "ธนาคารไทยพาณิชย์", "nameEn": "Siam Commercial Bank", "cat": ["essentials"], "province": "cm", "slug": "siam-commercial-bank-99685173", "rank": 2}}, {"type": "Feature", "geometry": {"type": "Point", "coordinates": [98.99797, 18.79203]}, "properties": {"id": "cm-osm-way-99685180", "name": "ธนาคารไทยพาณิชย์", "nameTh": "ธนาคารไทยพาณิชย์", "nameEn": "Siam Commercial Bank", "cat": ["essentials"], "province": "cm", "slug": "siam-commercial-bank-99685180", "rank": 2}}]}