{"type": "FeatureCollection", "features": [{"type": "Feature", "geometry": {"type": "Point", "coordinates": [98.93234, 18.7022]}, "properties": {"id": "cm-osm-node-11030137808", "name": "MR.DIY", "nameTh": null, "nameEn": "MR.DIY", "cat": ["shopping"], "province": "cm", "slug": "mr-diy-11030137808", "rank": 1}}, {"type": "Feature", "geometry": {"type": "Point", "coordinates": [98.99709, 18.8082]}, "properties": {"id": "cm-osm-node-11113078829", "name": "MR.DIY", "nameTh": null, "nameEn": "MR.DIY", "cat": ["shopping"], "province": "cm", "slug": "mr-diy-11113078829", "rank": 3}}, {"type": "Feature", "geometry": {"type": "Point", "coordinates": [99.02145, 18.80724]}, "properties": {"id": "cm-osm-node-12603110750", "name": "MR.DIY", "nameTh": null, "nameEn": "MR.DIY", "cat": ["shopping"], "province": "cm", "slug": "mr-diy-12603110750", "rank": 1}}, {"type": "Feature", "geometry": {"type": "Point", "coordinates": [98.97262, 18.75909]}, "properties": {"id": "cm-osm-node-7882686676", "name": "MR.DIY", "nameTh": null, "nameEn": "MR.DIY", "cat": ["shopping"], "province": "cm", "slug": "mr-diy-7882686676", "rank": 1}}, {"type": "Feature", "geometry": {"type": "Point", "coordinates": [99.02356, 18.84148]}, "properties": {"id": "cm-osm-way-1110949511", "name": "MR.DIY", "nameTh": null, "nameEn": "MR.DIY", "cat": ["shopping"], "province": "cm", "slug": "mr-diy-1110949511", "rank": 1}}, {"type": "Feature", "geometry": {"type": "Point", "coordinates": [98.82845, 18.60247]}, "properties": {"id": "cm-osm-way-1461676077", "name": "MR.DIY", "nameTh": null, "nameEn": "MR.DIY", "cat": ["shopping"], "province": "cm", "slug": "mr-diy-1461676077", "rank": 1}}]}