{"type": "FeatureCollection", "features": [{"type": "Feature", "geometry": {"type": "Point", "coordinates": [98.98363, 18.78098]}, "properties": {"id": "cm-osm-node-2607637705", "name": "AEON", "nameTh": null, "nameEn": "Aeon", "cat": ["essentials"], "province": "cm", "slug": "aeon-2607637705", "rank": 1}}, {"type": "Feature", "geometry": {"type": "Point", "coordinates": [98.97412, 18.7689]}, "properties": {"id": "cm-osm-node-3347631778", "name": "AEON", "nameTh": null, "nameEn": "AEON", "cat": ["essentials"], "province": "cm", "slug": "aeon-3347631778", "rank": 2}}, {"type": "Feature", "geometry": {"type": "Point", "coordinates": [99.01807, 18.8062]}, "properties": {"id": "cm-osm-node-3249111053", "name": "AEON Thana Sinsap", "nameTh": null, "nameEn": "AEON Thana Sinsap", "cat": ["essentials"], "province": "cm", "slug": "aeon-thana-sinsap-3249111053", "rank": 2}}, {"type": "Feature", "geometry": {"type": "Point", "coordinates": [98.99684, 18.80883]}, "properties": {"id": "cm-osm-node-2607655450", "name": "Aeon", "nameTh": null, "nameEn": "Aeon", "cat": ["essentials"], "province": "cm", "slug": "aeon-2607655450", "rank": 1}}, {"type": "Feature", "geometry": {"type": "Point", "coordinates": [99.02228, 18.79909]}, "properties": {"id": "cm-osm-node-2607657480", "name": "Aeon", "nameTh": null, "nameEn": "Aeon", "cat": ["essentials"], "province": "cm", "slug": "aeon-2607657480", "rank": 1}}, {"type": "Feature", "geometry": {"type": "Point", "coordinates": [98.97599, 18.78973]}, "properties": {"id": "cm-osm-node-2337768915", "name": "Bangkok Bank", "nameTh": null, "nameEn": "Bangkok Bank", "cat": ["essentials"], "province": "cm", "slug": "bangkok-bank-2337768915", "rank": 1}}, {"type": "Feature", "geometry": {"type": "Point", "coordinates": [98.94675, 18.68875]}, "properties": {"id": "cm-osm-node-3174284861", "name": "Bangkok Bank", "nameTh": null, "nameEn": "Bangkok Bank", "cat": ["essentials"], "province": "cm", "slug": "bangkok-bank-3174284861", "rank": 1}}, {"type": "Feature", "geometry": {"type": "Point", "coordinates": [98.97702, 18.79679]}, "properties": {"id": "cm-osm-way-246778881", "name": "Goverment Savings Bank", "nameTh": null, "nameEn": "Goverment Savings Bank", "cat": ["essentials"], "province": "cm", "slug": "goverment-savings-bank-246778881", "rank": 3}}, {"type": "Feature", "geometry": {"type": "Point", "coordinates": [99.02848, 18.78287]}, "properties": {"id": "cm-osm-node-1418916619", "name": "Government Savings Bank", "nameTh": null, "nameEn": "Government Savings Bank", "cat": ["essentials"], "province": "cm", "slug": "government-savings-bank-1418916619", "rank": 1}}, {"type": "Feature", "geometry": {"type": "Point", "coordinates": [99.00096, 18.78782]}, "properties": {"id": "cm-osm-node-915457024", "name": "ICBC", "nameTh": null, "nameEn": "ICBC", "cat": ["essentials"], "province": "cm", "slug": "icbc-915457024", "rank": 2}}, {"type": "Feature", "geometry": {"type": "Point", "coordinates": [99.01353, 18.82391]}, "properties": {"id": "cm-osm-node-4593074891", "name": "LH Bank", "nameTh": null, "nameEn": "LH Bank", "cat": ["essentials"], "province": "cm", "slug": "lh-bank-4593074891", "rank": 1}}, {"type": "Feature", "geometry": {"type": "Point", "coordinates": [98.98849, 18.78327]}, "properties": {"id": "cm-osm-node-1029528119", "name": "Siam Commercial Bank", "nameTh": null, "nameEn": "Siam Commercial Bank", "cat": ["essentials"], "province": "cm", "slug": "siam-commercial-bank-1029528119", "rank": 2}}, {"type": "Feature", "geometry": {"type": "Point", "coordinates": [98.98583, 18.80389]}, "properties": {"id": "cm-osm-way-345419260", "name": "Standard Chartered", "nameTh": null, "nameEn": "Standard Chartered", "cat": ["essentials"], "province": "cm", "slug": "standard-chartered-345419260", "rank": 1}}, {"type": "Feature", "geometry": {"type": "Point", "coordinates": [98.96613, 18.79715]}, "properties": {"id": "cm-osm-node-3417318993", "name": "Thanachart Bank", "nameTh": null, "nameEn": "Thanachart Bank", "cat": ["essentials"], "province": "cm", "slug": "thanachart-bank-3417318993", "rank": 1}}, {"type": "Feature", "geometry": {"type": "Point", "coordinates": [98.97531, 18.76963]}, "properties": {"id": "cm-osm-node-3347664221", "name": "UOB", "nameTh": null, "nameEn": "UOB", "cat": ["essentials"], "province": "cm", "slug": "uob-3347664221", "rank": 2}}, {"type": "Feature", "geometry": {"type": "Point", "coordinates": [98.97007, 18.79983]}, "properties": {"id": "cm-osm-way-323672783", "name": "UOB", "nameTh": null, "nameEn": "UOB", "cat": ["essentials"], "province": "cm", "slug": "uob-323672783", "rank": 1}}, {"type": "Feature", "geometry": {"type": "Point", "coordinates": [99.00128, 18.788]}, "properties": {"id": "cm-osm-way-495778858", "name": "UOB", "nameTh": null, "nameEn": "UOB", "cat": ["essentials"], "province": "cm", "slug": "uob-495778858", "rank": 1}}, {"type": "Feature", "geometry": {"type": "Point", "coordinates": [98.99917, 18.7778]}, "properties": {"id": "cm-osm-node-1030318048", "name": "กรุงศรี", "nameTh": "กรุงศรี", "nameEn": "Krungsri", "cat": ["essentials"], "province": "cm", "slug": "krungsri-1030318048", "rank": 2}}, {"type": "Feature", "geometry": {"type": "Point", "coordinates": [98.97497, 18.76981]}, "properties": {"id": "cm-osm-node-3347664215", "name": "กรุงศรี", "nameTh": "กรุงศรี", "nameEn": "Bank of Ayudhya", "cat": ["essentials"], "province": "cm", "slug": "bank-of-ayudhya-3347664215", "rank": 3}}, {"type": "Feature", "geometry": {"type": "Point", "coordinates": [98.99819, 18.78861]}, "properties": {"id": "cm-osm-way-334692201", "name": "กรุงศรี", "nameTh": "กรุงศรี", "nameEn": "Krungsri", "cat": ["essentials"], "province": "cm", "slug": "krungsri-334692201", "rank": 2}}, {"type": "Feature", "geometry": {"type": "Point", "coordinates": [98.94489, 18.91617]}, "properties": {"id": "cm-osm-way-387748593", "name": "กรุงศรี", "nameTh": "กรุงศรี", "nameEn": "Krungsri", "cat": ["essentials"], "province": "cm", "slug": "krungsri-387748593", "rank": 2}}, {"type": "Feature", "geometry": {"type": "Point", "coordinates": [99.12076, 18.7438]}, "properties": {"id": "cm-osm-way-473935808", "name": "กรุงศรี", "nameTh": "กรุงศรี", "nameEn": "Krungsri", "cat": ["essentials"], "province": "cm", "slug": "krungsri-473935808", "rank": 2}}, {"type": "Feature", "geometry": {"type": "Point", "coordinates": [98.98644, 18.7978]}, "properties": {"id": "cm-osm-node-2420202284", "name": "ซีไอเอ็มบี ไทย", "nameTh": "ซีไอเอ็มบี ไทย", "nameEn": "CIMB THAI", "cat": ["essentials"], "province": "cm", "slug": "cimb-thai-2420202284", "rank": 2}}, {"type": "Feature", "geometry": {"type": "Point", "coordinates": [98.99929, 18.77567]}, "properties": {"id": "cm-osm-node-2610123126", "name": "ซีไอเอ็มบี ไทย", "nameTh": "ซีไอเอ็มบี ไทย", "nameEn": "CIMB THAI", "cat": ["essentials"], "province": "cm", "slug": "cimb-thai-2610123126", "rank": 2}}, {"type": "Feature", "geometry": {"type": "Point", "coordinates": [98.96575, 18.78941]}, "properties": {"id": "cm-osm-node-2638649036", "name": "ซีไอเอ็มบี ไทย", "nameTh": "ซีไอเอ็มบี ไทย", "nameEn": "CIMB THAI", "cat": ["essentials"], "province": "cm", "slug": "cimb-thai-2638649036", "rank": 2}}, {"type": "Feature", "geometry": {"type": "Point", "coordinates": [98.97414, 18.76881]}, "properties": {"id": "cm-osm-node-3347631781", "name": "ซีไอเอ็มบี ไทย", "nameTh": "ซีไอเอ็มบี ไทย", "nameEn": "CIMB THAI", "cat": ["essentials"], "province": "cm", "slug": "cimb-thai-3347631781", "rank": 2}}, {"type": "Feature", "geometry": {"type": "Point", "coordinates": [99.07846, 18.76548]}, "properties": {"id": "cm-osm-node-3266711561", "name": "ธกส", "nameTh": "ธกส", "nameEn": "Baac", "cat": ["essentials"], "province": "cm", "slug": "baac-3266711561", "rank": 2}}, {"type": "Feature", "geometry": {"type": "Point", "coordinates": [99.01788, 18.80631]}, "properties": {"id": "cm-osm-node-3249111055", "name": "ธนาคารกรุงศรีอยุธยา", "nameTh": "ธนาคารกรุงศรีอยุธยา", "nameEn": "Bank of Ayudhya", "cat": ["essentials"], "province": "cm", "slug": "bank-of-ayudhya-3249111055", "rank": 2}}, {"type": "Feature", "geometry": {"type": "Point", "coordinates": [98.98644, 18.79886]}, "properties": {"id": "cm-osm-way-323015495", "name": "ธนาคารกรุงศรีอยุธยา", "nameTh": "ธนาคารกรุงศรีอยุธยา", "nameEn": "Bank of Ayudhya", "cat": ["essentials"], "province": "cm", "slug": "bank-of-ayudhya-323015495", "rank": 3}}, {"type": "Feature", "geometry": {"type": "Point", "coordinates": [98.98696, 18.78094]}, "properties": {"id": "cm-osm-node-1029522385", "name": "ธนาคารกรุงเทพ", "nameTh": "ธนาคารกรุงเทพ", "nameEn": "Bangkok Bank", "cat": ["essentials"], "province": "cm", "slug": "bangkok-bank-1029522385", "rank": 2}}, {"type": "Feature", "geometry": {"type": "Point", "coordinates": [99.00947, 18.75223]}, "properties": {"id": "cm-osm-node-1358873985", "name": "ธนาคารกรุงเทพ", "nameTh": "ธนาคารกรุงเทพ", "nameEn": "Bangkok Bank", "cat": ["essentials"], "province": "cm", "slug": "bangkok-bank-1358873985", "rank": 2}}, {"type": "Feature", "geometry": {"type": "Point", "coordinates": [98.95073, 18.80185]}, "properties": {"id": "cm-osm-node-2434757093", "name": "ธนาคารกรุงเทพ", "nameTh": "ธนาคารกรุงเทพ", "nameEn": "Bangkok Bank", "cat": ["essentials"], "province": "cm", "slug": "bangkok-bank-2434757093", "rank": 3}}, {"type": "Feature", "geometry": {"type": "Point", "coordinates": [98.94553, 18.91287]}, "properties": {"id": "cm-osm-node-2556220769", "name": "ธนาคารกรุงเทพ", "nameTh": "ธนาคารกรุงเทพ", "nameEn": "Bangkok Bank", "cat": ["essentials"], "province": "cm", "slug": "bangkok-bank-2556220769", "rank": 2}}, {"type": "Feature", "geometry": {"type": "Point", "coordinates": [99.02804, 18.81095]}, "properties": {"id": "cm-osm-node-2600091523", "name": "ธนาคารกรุงเทพ", "nameTh": "ธนาคารกรุงเทพ", "nameEn": "Bangkok Bank", "cat": ["essentials"], "province": "cm", "slug": "bangkok-bank-2600091523", "rank": 2}}, {"type": "Feature", "geometry": {"type": "Point", "coordinates": [99.00965, 18.89345]}, "properties": {"id": "cm-osm-node-2601003841", "name": "ธนาคารกรุงเทพ", "nameTh": "ธนาคารกรุงเทพ", "nameEn": "Bangkok Bank", "cat": ["essentials"], "province": "cm", "slug": "bangkok-bank-2601003841", "rank": 2}}, {"type": "Feature", "geometry": {"type": "Point", "coordinates": [98.99937, 18.77883]}, "properties": {"id": "cm-osm-node-2610123154", "name": "ธนาคารกรุงเทพ", "nameTh": "ธนาคารกรุงเทพ", "nameEn": "Bangkok Bank", "cat": ["essentials"], "province": "cm", "slug": "bangkok-bank-2610123154", "rank": 2}}, {"type": "Feature", "geometry": {"type": "Point", "coordinates": [98.9652, 18.78948]}, "properties": {"id": "cm-osm-node-2638649044", "name": "ธนาคารกรุงเทพ", "nameTh": "ธนาคารกรุงเทพ", "nameEn": "Bangkok Bank", "cat": ["essentials"], "province": "cm", "slug": "bangkok-bank-2638649044", "rank": 2}}, {"type": "Feature", "geometry": {"type": "Point", "coordinates": [98.89547, 18.62612]}, "properties": {"id": "cm-osm-node-2684213286", "name": "ธนาคารกรุงเทพ", "nameTh": "ธนาคารกรุงเทพ", "nameEn": "Bangkok Bank", "cat": ["essentials"], "province": "cm", "slug": "bangkok-bank-2684213286", "rank": 2}}, {"type": "Feature", "geometry": {"type": "Point", "coordinates": [99.01814, 18.80616]}, "properties": {"id": "cm-osm-node-3249111054", "name": "ธนาคารกรุงเทพ", "nameTh": "ธนาคารกรุงเทพ", "nameEn": "Bangkok Bank", "cat": ["essentials"], "province": "cm", "slug": "bangkok-bank-3249111054", "rank": 2}}, {"type": "Feature", "geometry": {"type": "Point", "coordinates": [98.97567, 18.76915]}, "properties": {"id": "cm-osm-node-3347664214", "name": "ธนาคารกรุงเทพ", "nameTh": "ธนาคารกรุงเทพ", "nameEn": "Bangkok Bank", "cat": ["essentials"], "province": "cm", "slug": "bangkok-bank-3347664214", "rank": 3}}, {"type": "Feature", "geometry": {"type": "Point", "coordinates": [99.00029, 18.78516]}, "properties": {"id": "cm-osm-node-3417307150", "name": "ธนาคารกรุงเทพ", "nameTh": "ธนาคารกรุงเทพ", "nameEn": "Bangkok Bank", "cat": ["essentials"], "province": "cm", "slug": "bangkok-bank-3417307150", "rank": 2}}, {"type": "Feature", "geometry": {"type": "Point", "coordinates": [98.98576, 18.80555]}, "properties": {"id": "cm-osm-node-3862580746", "name": "ธนาคารกรุงเทพ", "nameTh": "ธนาคารกรุงเทพ", "nameEn": "Bangkok Bank", "cat": ["essentials"], "province": "cm", "slug": "bangkok-bank-3862580746", "rank": 2}}, {"type": "Feature", "geometry": {"type": "Point", "coordinates": [98.98346, 18.78099]}, "properties": {"id": "cm-osm-node-3892932436", "name": "ธนาคารกรุงเทพ", "nameTh": "ธนาคารกรุงเทพ", "nameEn": "Bangkok Bank", "cat": ["essentials"], "province": "cm", "slug": "bangkok-bank-3892932436", "rank": 2}}, {"type": "Feature", "geometry": {"type": "Point", "coordinates": [99.00919, 18.78705]}, "properties": {"id": "cm-osm-node-4509283282", "name": "ธนาคารกรุงเทพ", "nameTh": "ธนาคารกรุงเทพ", "nameEn": "Bangkok Bank", "cat": ["essentials"], "province": "cm", "slug": "bangkok-bank-4509283282", "rank": 2}}, {"type": "Feature", "geometry": {"type": "Point", "coordinates": [99.03311, 18.71582]}, "properties": {"id": "cm-osm-node-4509361877", "name": "ธนาคารกรุงเทพ", "nameTh": "ธนาคารกรุงเทพ", "nameEn": "Bangkok Bank", "cat": ["essentials"], "province": "cm", "slug": "bangkok-bank-4509361877", "rank": 2}}, {"type": "Feature", "geometry": {"type": "Point", "coordinates": [99.04265, 18.64612]}, "properties": {"id": "cm-osm-node-4509445495", "name": "ธนาคารกรุงเทพ", "nameTh": "ธนาคารกรุงเทพ", "nameEn": "Bangkok Bank", "cat": ["essentials"], "province": "cm", "slug": "bangkok-bank-4509445495", "rank": 2}}, {"type": "Feature", "geometry": {"type": "Point", "coordinates": [98.9995, 18.78132]}, "properties": {"id": "cm-osm-node-4559245760", "name": "ธนาคารกรุงเทพ", "nameTh": "ธนาคารกรุงเทพ", "nameEn": "Bangkok Bank", "cat": ["essentials"], "province": "cm", "slug": "bangkok-bank-4559245760", "rank": 2}}, {"type": "Feature", "geometry": {"type": "Point", "coordinates": [99.01353, 18.82397]}, "properties": {"id": "cm-osm-node-4593074890", "name": "ธนาคารกรุงเทพ", "nameTh": "ธนาคารกรุงเทพ", "nameEn": "Bangkok Bank", "cat": ["essentials"], "province": "cm", "slug": "bangkok-bank-4593074890", "rank": 2}}, {"type": "Feature", "geometry": {"type": "Point", "coordinates": [99.13466, 18.87228]}, "properties": {"id": "cm-osm-node-688348668", "name": "ธนาคารกรุงเทพ", "nameTh": "ธนาคารกรุงเทพ", "nameEn": "Bangkok Bank", "cat": ["essentials"], "province": "cm", "slug": "bangkok-bank-688348668", "rank": 3}}, {"type": "Feature", "geometry": {"type": "Point", "coordinates": [98.96621, 18.7974]}, "properties": {"id": "cm-osm-node-7026349606", "name": "ธนาคารกรุงเทพ", "nameTh": "ธนาคารกรุงเทพ", "nameEn": "Bangkok Bank", "cat": ["essentials"], "province": "cm", "slug": "bangkok-bank-7026349606", "rank": 2}}, {"type": "Feature", "geometry": {"type": "Point", "coordinates": [98.9859, 18.7993]}, "properties": {"id": "cm-osm-way-103541464", "name": "ธนาคารกรุงเทพ", "nameTh": "ธนาคารกรุงเทพ", "nameEn": "Bangkok Bank", "cat": ["essentials"], "province": "cm", "slug": "bangkok-bank-103541464", "rank": 2}}, {"type": "Feature", "geometry": {"type": "Point", "coordinates": [98.9455, 18.91286]}, "properties": {"id": "cm-osm-way-1456802836", "name": "ธนาคารกรุงเทพ", "nameTh": "ธนาคารกรุงเทพ", "nameEn": "Bangkok Bank", "cat": ["essentials"], "province": "cm", "slug": "bangkok-bank-1456802836", "rank": 2}}, {"type": "Feature", "geometry": {"type": "Point", "coordinates": [98.99686, 18.79587]}, "properties": {"id": "cm-osm-way-291818793", "name": "ธนาคารกรุงเทพ", "nameTh": "ธนาคารกรุงเทพ", "nameEn": "Bangkok Bank", "cat": ["essentials"], "province": "cm", "slug": "bangkok-bank-291818793", "rank": 2}}, {"type": "Feature", "geometry": {"type": "Point", "coordinates": [98.91994, 18.68816]}, "properties": {"id": "cm-osm-way-390189269", "name": "ธนาคารกรุงเทพ", "nameTh": "ธนาคารกรุงเทพ", "nameEn": "Bangkok Bank", "cat": ["essentials"], "province": "cm", "slug": "bangkok-bank-390189269", "rank": 2}}, {"type": "Feature", "geometry": {"type": "Point", "coordinates": [98.96631, 18.79764]}, "properties": {"id": "cm-osm-way-481786758", "name": "ธนาคารกรุงเทพ", "nameTh": "ธนาคารกรุงเทพ", "nameEn": "Bangkok Bank", "cat": ["essentials"], "province": "cm", "slug": "bangkok-bank-481786758", "rank": 2}}, {"type": "Feature", "geometry": {"type": "Point", "coordinates": [98.99961, 18.79097]}, "properties": {"id": "cm-osm-way-672595995", "name": "ธนาคารกรุงเทพ", "nameTh": "ธนาคารกรุงเทพ", "nameEn": "Bangkok Bank", "cat": ["essentials"], "province": "cm", "slug": "bangkok-bank-672595995", "rank": 3}}, {"type": "Feature", "geometry": {"type": "Point", "coordinates": [99.08009, 18.76505]}, "properties": {"id": "cm-osm-way-83229290", "name": "ธนาคารกรุงเทพ", "nameTh": "ธนาคารกรุงเทพ", "nameEn": "Bangkok Bank", "cat": ["essentials"], "province": "cm", "slug": "bangkok-bank-83229290", "rank": 2}}, {"type": "Feature", "geometry": {"type": "Point", "coordinates": [98.96607, 18.78935]}, "properties": {"id": "cm-osm-node-1474256576", "name": "ธนาคารกรุงไทย", "nameTh": "ธนาคารกรุงไทย", "nameEn": "Krungthai Bank", "cat": ["essentials"], "province": "cm", "slug": "krungthai-bank-1474256576", "rank": 2}}, {"type": "Feature", "geometry": {"type": "Point", "coordinates": [99.12201, 18.74287]}, "properties": {"id": "cm-osm-node-1508539566", "name": "ธนาคารกรุงไทย", "nameTh": "ธนาคารกรุงไทย", "nameEn": "Krungthai Bank", "cat": ["essentials"], "province": "cm", "slug": "krungthai-bank-1508539566", "rank": 2}}, {"type": "Feature", "geometry": {"type": "Point", "coordinates": [98.98319, 18.78842]}, "properties": {"id": "cm-osm-node-1619445280", "name": "ธนาคารกรุงไทย", "nameTh": "ธนาคารกรุงไทย", "nameEn": "Krungthai Bank", "cat": ["essentials"], "province": "cm", "slug": "krungthai-bank-1619445280", "rank": 2}}, {"type": "Feature", "geometry": {"type": "Point", "coordinates": [98.95067, 18.80191]}, "properties": {"id": "cm-osm-node-2434758530", "name": "ธนาคารกรุงไทย", "nameTh": "ธนาคารกรุงไทย", "nameEn": "Krungthai Bank", "cat": ["essentials"], "province": "cm", "slug": "krungthai-bank-2434758530", "rank": 3}}, {"type": "Feature", "geometry": {"type": "Point", "coordinates": [98.99941, 18.77928]}, "properties": {"id": "cm-osm-node-2610123168", "name": "ธนาคารกรุงไทย", "nameTh": "ธนาคารกรุงไทย", "nameEn": "Krungthai Bank", "cat": ["essentials"], "province": "cm", "slug": "krungthai-bank-2610123168", "rank": 2}}, {"type": "Feature", "geometry": {"type": "Point", "coordinates": [99.08071, 18.76468]}, "properties": {"id": "cm-osm-node-2637312729", "name": "ธนาคารกรุงไทย", "nameTh": "ธนาคารกรุงไทย", "nameEn": "Krung Thai Bank", "cat": ["essentials"], "province": "cm", "slug": "krung-thai-bank-2637312729", "rank": 2}}, {"type": "Feature", "geometry": {"type": "Point", "coordinates": [99.018, 18.80622]}, "properties": {"id": "cm-osm-node-3249112261", "name": "ธนาคารกรุงไทย", "nameTh": "ธนาคารกรุงไทย", "nameEn": "Krungthai Bank", "cat": ["essentials"], "province": "cm", "slug": "krungthai-bank-3249112261", "rank": 2}}, {"type": "Feature", "geometry": {"type": "Point", "coordinates": [98.89645, 18.62055]}, "properties": {"id": "cm-osm-node-3322301002", "name": "ธนาคารกรุงไทย", "nameTh": "ธนาคารกรุงไทย", "nameEn": "Krungthai Bank", "cat": ["essentials"], "province": "cm", "slug": "krungthai-bank-3322301002", "rank": 2}}, {"type": "Feature", "geometry": {"type": "Point", "coordinates": [98.97561, 18.76921]}, "properties": {"id": "cm-osm-node-3347664217", "name": "ธนาคารกรุงไทย", "nameTh": "ธนาคารกรุงไทย", "nameEn": "Krung Thai Bank", "cat": ["essentials"], "province": "cm", "slug": "krung-thai-bank-3347664217", "rank": 3}}, {"type": "Feature", "geometry": {"type": "Point", "coordinates": [98.92217, 18.68993]}, "properties": {"id": "cm-osm-node-3379252965", "name": "ธนาคารกรุงไทย", "nameTh": "ธนาคารกรุงไทย", "nameEn": "Krungthai Bank", "cat": ["essentials"], "province": "cm", "slug": "krungthai-bank-3379252965", "rank": 2}}, {"type": "Feature", "geometry": {"type": "Point", "coordinates": [99.13415, 18.87198]}, "properties": {"id": "cm-osm-node-3409869443", "name": "ธนาคารกรุงไทย", "nameTh": "ธนาคารกรุงไทย", "nameEn": "Krungthai Bank", "cat": ["essentials"], "province": "cm", "slug": "krungthai-bank-3409869443", "rank": 2}}, {"type": "Feature", "geometry": {"type": "Point", "coordinates": [99.00074, 18.78546]}, "properties": {"id": "cm-osm-node-3417307154", "name": "ธนาคารกรุงไทย", "nameTh": "ธนาคารกรุงไทย", "nameEn": "Krung Thai Bank", "cat": ["essentials"], "province": "cm", "slug": "krung-thai-bank-3417307154", "rank": 3}}, {"type": "Feature", "geometry": {"type": "Point", "coordinates": [99.00025, 18.79098]}, "properties": {"id": "cm-osm-node-3419811897", "name": "ธนาคารกรุงไทย", "nameTh": "ธนาคารกรุงไทย", "nameEn": "Krungthai Bank", "cat": ["essentials"], "province": "cm", "slug": "krungthai-bank-3419811897", "rank": 2}}, {"type": "Feature", "geometry": {"type": "Point", "coordinates": [98.97243, 18.75844]}, "properties": {"id": "cm-osm-node-3419871306", "name": "ธนาคารกรุงไทย", "nameTh": "ธนาคารกรุงไทย", "nameEn": "Krung Thai Bank", "cat": ["essentials"], "province": "cm", "slug": "krung-thai-bank-3419871306", "rank": 2}}, {"type": "Feature", "geometry": {"type": "Point", "coordinates": [98.99637, 18.78844]}, "properties": {"id": "cm-osm-way-148630591", "name": "ธนาคารกรุงไทย", "nameTh": "ธนาคารกรุงไทย", "nameEn": "Krung Thai Bank", "cat": ["essentials"], "province": "cm", "slug": "krung-thai-bank-148630591", "rank": 2}}, {"type": "Feature", "geometry": {"type": "Point", "coordinates": [98.98286, 18.81615]}, "properties": {"id": "cm-osm-way-274986066", "name": "ธนาคารกรุงไทย", "nameTh": "ธนาคารกรุงไทย", "nameEn": "Krung Thai Bank", "cat": ["essentials"], "province": "cm", "slug": "krung-thai-bank-274986066", "rank": 2}}, {"type": "Feature", "geometry": {"type": "Point", "coordinates": [98.98564, 18.80184]}, "properties": {"id": "cm-osm-way-275284872", "name": "ธนาคารกรุงไทย", "nameTh": "ธนาคารกรุงไทย", "nameEn": "Krungthai Bank", "cat": ["essentials"], "province": "cm", "slug": "krungthai-bank-275284872", "rank": 2}}, {"type": "Feature", "geometry": {"type": "Point", "coordinates": [99.00759, 18.8972]}, "properties": {"id": "cm-osm-way-280173390", "name": "ธนาคารกรุงไทย", "nameTh": "ธนาคารกรุงไทย", "nameEn": "Krungthai Bank", "cat": ["essentials"], "province": "cm", "slug": "krungthai-bank-280173390", "rank": 2}}, {"type": "Feature", "geometry": {"type": "Point", "coordinates": [98.94608, 18.91145]}, "properties": {"id": "cm-osm-way-327272890", "name": "ธนาคารกรุงไทย", "nameTh": "ธนาคารกรุงไทย", "nameEn": "Krung Thai Bank", "cat": ["essentials"], "province": "cm", "slug": "krung-thai-bank-327272890", "rank": 2}}, {"type": "Feature", "geometry": {"type": "Point", "coordinates": [99.00814, 18.758]}, "properties": {"id": "cm-osm-way-397604435", "name": "ธนาคารกรุงไทย", "nameTh": "ธนาคารกรุงไทย", "nameEn": "Krungthai Bank", "cat": ["essentials"], "province": "cm", "slug": "krungthai-bank-397604435", "rank": 2}}, {"type": "Feature", "geometry": {"type": "Point", "coordinates": [99.00854, 18.78675]}, "properties": {"id": "cm-osm-way-521762463", "name": "ธนาคารกรุงไทย", "nameTh": "ธนาคารกรุงไทย", "nameEn": "Krungthai Bank", "cat": ["essentials"], "province": "cm", "slug": "krungthai-bank-521762463", "rank": 3}}, {"type": "Feature", "geometry": {"type": "Point", "coordinates": [98.95951, 18.80556]}, "properties": {"id": "cm-osm-way-554756555", "name": "ธนาคารกรุงไทย", "nameTh": "ธนาคารกรุงไทย", "nameEn": "Krungthai Bank", "cat": ["essentials"], "province": "cm", "slug": "krungthai-bank-554756555", "rank": 2}}, {"type": "Feature", "geometry": {"type": "Point", "coordinates": [98.94174, 18.74692]}, "properties": {"id": "cm-osm-node-10778022046", "name": "ธนาคารกสิกรไทย", "nameTh": "ธนาคารกสิกรไทย", "nameEn": "Kasikorn Bank", "cat": ["essentials"], "province": "cm", "slug": "kasikorn-bank-10778022046", "rank": 2}}, {"type": "Feature", "geometry": {"type": "Point", "coordinates": [98.99951, 18.77753]}, "properties": {"id": "cm-osm-node-11276486323", "name": "ธนาคารกสิกรไทย", "nameTh": "ธนาคารกสิกรไทย", "nameEn": "Kasikornbank", "cat": ["essentials"], "province": "cm", "slug": "kasikornbank-11276486323", "rank": 2}}, {"type": "Feature", "geometry": {"type": "Point", "coordinates": [98.98555, 18.80496]}, "properties": {"id": "cm-osm-node-2100755384", "name": "ธนาคารกสิกรไทย", "nameTh": "ธนาคารกสิกรไทย", "nameEn": "Kasikorn Bank", "cat": ["essentials"], "province": "cm", "slug": "kasikorn-bank-2100755384", "rank": 2}}, {"type": "Feature", "geometry": {"type": "Point", "coordinates": [98.9972, 18.80893]}, "properties": {"id": "cm-osm-node-2607655451", "name": "ธนาคารกสิกรไทย", "nameTh": "ธนาคารกสิกรไทย", "nameEn": "Kasikornbank", "cat": ["essentials"], "province": "cm", "slug": "kasikornbank-2607655451", "rank": 2}}, {"type": "Feature", "geometry": {"type": "Point", "coordinates": [98.94379, 18.91705]}, "properties": {"id": "cm-osm-node-2611030935", "name": "ธนาคารกสิกรไทย", "nameTh": "ธนาคารกสิกรไทย", "nameEn": "Kasikornbank", "cat": ["essentials"], "province": "cm", "slug": "kasikornbank-2611030935", "rank": 2}}, {"type": "Feature", "geometry": {"type": "Point", "coordinates": [99.01141, 18.82357]}, "properties": {"id": "cm-osm-node-2641511936", "name": "ธนาคารกสิกรไทย", "nameTh": "ธนาคารกสิกรไทย", "nameEn": "Kasikornbank", "cat": ["essentials"], "province": "cm", "slug": "kasikornbank-2641511936", "rank": 2}}, {"type": "Feature", "geometry": {"type": "Point", "coordinates": [98.89541, 18.62421]}, "properties": {"id": "cm-osm-node-2685466297", "name": "ธนาคารกสิกรไทย", "nameTh": "ธนาคารกสิกรไทย", "nameEn": "Kasikorn Bank", "cat": ["essentials"], "province": "cm", "slug": "kasikorn-bank-2685466297", "rank": 3}}, {"type": "Feature", "geometry": {"type": "Point", "coordinates": [99.01782, 18.80636]}, "properties": {"id": "cm-osm-node-3249111060", "name": "ธนาคารกสิกรไทย", "nameTh": "ธนาคารกสิกรไทย", "nameEn": "Kasikorn Bank", "cat": ["essentials"], "province": "cm", "slug": "kasikorn-bank-3249111060", "rank": 2}}, {"type": "Feature", "geometry": {"type": "Point", "coordinates": [98.96706, 18.80261]}, "properties": {"id": "cm-osm-node-3287356495", "name": "ธนาคารกสิกรไทย", "nameTh": "ธนาคารกสิกรไทย", "nameEn": "Kasikornbank", "cat": ["essentials"], "province": "cm", "slug": "kasikornbank-3287356495", "rank": 3}}, {"type": "Feature", "geometry": {"type": "Point", "coordinates": [99.00872, 18.8954]}, "properties": {"id": "cm-osm-node-3340987269", "name": "ธนาคารกสิกรไทย", "nameTh": "ธนาคารกสิกรไทย", "nameEn": "Kasikorn Bank", "cat": ["essentials"], "province": "cm", "slug": "kasikorn-bank-3340987269", "rank": 2}}, {"type": "Feature", "geometry": {"type": "Point", "coordinates": [98.97444, 18.76879]}, "properties": {"id": "cm-osm-node-3347633195", "name": "ธนาคารกสิกรไทย", "nameTh": "ธนาคารกสิกรไทย", "nameEn": "Kasikornbank", "cat": ["essentials"], "province": "cm", "slug": "kasikornbank-3347633195", "rank": 3}}, {"type": "Feature", "geometry": {"type": "Point", "coordinates": [98.97553, 18.76924]}, "properties": {"id": "cm-osm-node-3347664216", "name": "ธนาคารกสิกรไทย", "nameTh": "ธนาคารกสิกรไทย", "nameEn": "Kasikornbank", "cat": ["essentials"], "province": "cm", "slug": "kasikornbank-3347664216", "rank": 3}}, {"type": "Feature", "geometry": {"type": "Point", "coordinates": [99.00023, 18.78298]}, "properties": {"id": "cm-osm-node-3416997054", "name": "ธนาคารกสิกรไทย", "nameTh": "ธนาคารกสิกรไทย", "nameEn": "Kasikorn Bank", "cat": ["essentials"], "province": "cm", "slug": "kasikorn-bank-3416997054", "rank": 3}}, {"type": "Feature", "geometry": {"type": "Point", "coordinates": [99.0005, 18.79102]}, "properties": {"id": "cm-osm-node-3419811896", "name": "ธนาคารกสิกรไทย", "nameTh": "ธนาคารกสิกรไทย", "nameEn": "Kasikorn Bank", "cat": ["essentials"], "province": "cm", "slug": "kasikorn-bank-3419811896", "rank": 2}}, {"type": "Feature", "geometry": {"type": "Point", "coordinates": [98.97509, 18.76633]}, "properties": {"id": "cm-osm-node-3419871305", "name": "ธนาคารกสิกรไทย", "nameTh": "ธนาคารกสิกรไทย", "nameEn": "Kasikornbank", "cat": ["essentials"], "province": "cm", "slug": "kasikornbank-3419871305", "rank": 2}}, {"type": "Feature", "geometry": {"type": "Point", "coordinates": [99.11961, 18.74483]}, "properties": {"id": "cm-osm-node-3607175493", "name": "ธนาคารกสิกรไทย", "nameTh": "ธนาคารกสิกรไทย", "nameEn": "Kasikorn Bank", "cat": ["essentials"], "province": "cm", "slug": "kasikorn-bank-3607175493", "rank": 2}}, {"type": "Feature", "geometry": {"type": "Point", "coordinates": [99.00907, 18.7519]}, "properties": {"id": "cm-osm-node-3860662407", "name": "ธนาคารกสิกรไทย", "nameTh": "ธนาคารกสิกรไทย", "nameEn": "Kasikornbank", "cat": ["essentials"], "province": "cm", "slug": "kasikornbank-3860662407", "rank": 3}}, {"type": "Feature", "geometry": {"type": "Point", "coordinates": [98.99335, 18.79345]}, "properties": {"id": "cm-osm-node-4454180037", "name": "ธนาคารกสิกรไทย", "nameTh": "ธนาคารกสิกรไทย", "nameEn": "Kasikorn Bank", "cat": ["essentials"], "province": "cm", "slug": "kasikorn-bank-4454180037", "rank": 3}}, {"type": "Feature", "geometry": {"type": "Point", "coordinates": [99.02796, 18.81028]}, "properties": {"id": "cm-osm-node-6592339650", "name": "ธนาคารกสิกรไทย", "nameTh": "ธนาคารกสิกรไทย", "nameEn": "Kasikorn Bank", "cat": ["essentials"], "province": "cm", "slug": "kasikorn-bank-6592339650", "rank": 3}}, {"type": "Feature", "geometry": {"type": "Point", "coordinates": [99.0378, 18.71186]}, "properties": {"id": "cm-osm-way-101459737", "name": "ธนาคารกสิกรไทย", "nameTh": "ธนาคารกสิกรไทย", "nameEn": "Kasikorn Bank", "cat": ["essentials"], "province": "cm", "slug": "kasikorn-bank-101459737", "rank": 2}}, {"type": "Feature", "geometry": {"type": "Point", "coordinates": [98.99718, 18.78795]}, "properties": {"id": "cm-osm-way-102771767", "name": "ธนาคารกสิกรไทย", "nameTh": "ธนาคารกสิกรไทย", "nameEn": "Kasikorn Bank", "cat": ["essentials"], "province": "cm", "slug": "kasikorn-bank-102771767", "rank": 3}}, {"type": "Feature", "geometry": {"type": "Point", "coordinates": [98.95318, 18.80323]}, "properties": {"id": "cm-osm-way-235413760", "name": "ธนาคารกสิกรไทย", "nameTh": "ธนาคารกสิกรไทย", "nameEn": "Kasikorn Bank", "cat": ["essentials"], "province": "cm", "slug": "kasikorn-bank-235413760", "rank": 3}}, {"type": "Feature", "geometry": {"type": "Point", "coordinates": [99.00502, 18.75788]}, "properties": {"id": "cm-osm-way-287045361", "name": "ธนาคารกสิกรไทย", "nameTh": "ธนาคารกสิกรไทย", "nameEn": "Kasikorn Bank", "cat": ["essentials"], "province": "cm", "slug": "kasikorn-bank-287045361", "rank": 2}}, {"type": "Feature", "geometry": {"type": "Point", "coordinates": [98.96474, 18.78952]}, "properties": {"id": "cm-osm-way-437325041", "name": "ธนาคารกสิกรไทย", "nameTh": "ธนาคารกสิกรไทย", "nameEn": "Kasikornbank", "cat": ["essentials"], "province": "cm", "slug": "kasikornbank-437325041", "rank": 2}}, {"type": "Feature", "geometry": {"type": "Point", "coordinates": [98.96557, 18.79604]}, "properties": {"id": "cm-osm-way-451373767", "name": "ธนาคารกสิกรไทย", "nameTh": "ธนาคารกสิกรไทย", "nameEn": "Kasikornbank", "cat": ["essentials"], "province": "cm", "slug": "kasikornbank-451373767", "rank": 3}}, {"type": "Feature", "geometry": {"type": "Point", "coordinates": [99.02422, 18.78377]}, "properties": {"id": "cm-osm-way-582887583", "name": "ธนาคารกสิกรไทย", "nameTh": "ธนาคารกสิกรไทย", "nameEn": "Kasikorn Bank", "cat": ["essentials"], "province": "cm", "slug": "kasikorn-bank-582887583", "rank": 2}}, {"type": "Feature", "geometry": {"type": "Point", "coordinates": [99.08038, 18.76488]}, "properties": {"id": "cm-osm-way-83250063", "name": "ธนาคารกสิกรไทย", "nameTh": "ธนาคารกสิกรไทย", "nameEn": "Kasikornbank", "cat": ["essentials"], "province": "cm", "slug": "kasikornbank-83250063", "rank": 2}}, {"type": "Feature", "geometry": {"type": "Point", "coordinates": [98.95762, 18.79085]}, "properties": {"id": "cm-osm-node-1518736558", "name": "ธนาคารทหารไทย", "nameTh": "ธนาคารทหารไทย", "nameEn": "TMBThanachart Bank", "cat": ["essentials"], "province": "cm", "slug": "tmbthanachart-bank-1518736558", "rank": 2}}, {"type": "Feature", "geometry": {"type": "Point", "coordinates": [98.9994, 18.77918]}, "properties": {"id": "cm-osm-node-2610123159", "name": "ธนาคารทหารไทย", "nameTh": "ธนาคารทหารไทย", "nameEn": "TTB", "cat": ["essentials"], "province": "cm", "slug": "ttb-2610123159", "rank": 2}}, {"type": "Feature", "geometry": {"type": "Point", "coordinates": [98.98549, 18.80266]}, "properties": {"id": "cm-osm-node-2682524177", "name": "ธนาคารทหารไทย", "nameTh": "ธนาคารทหารไทย", "nameEn": "TMB", "cat": ["essentials"], "province": "cm", "slug": "tmb-2682524177", "rank": 2}}, {"type": "Feature", "geometry": {"type": "Point", "coordinates": [99.01792, 18.80628]}, "properties": {"id": "cm-osm-node-3249112265", "name": "ธนาคารทหารไทย", "nameTh": "ธนาคารทหารไทย", "nameEn": "TMB", "cat": ["essentials"], "province": "cm", "slug": "tmb-3249112265", "rank": 2}}, {"type": "Feature", "geometry": {"type": "Point", "coordinates": [98.96693, 18.80247]}, "properties": {"id": "cm-osm-node-3287356499", "name": "ธนาคารทหารไทย", "nameTh": "ธนาคารทหารไทย", "nameEn": "TMBThanachart Bank", "cat": ["essentials"], "province": "cm", "slug": "tmbthanachart-bank-3287356499", "rank": 3}}, {"type": "Feature", "geometry": {"type": "Point", "coordinates": [98.97519, 18.76961]}, "properties": {"id": "cm-osm-node-3347664220", "name": "ธนาคารทหารไทย", "nameTh": "ธนาคารทหารไทย", "nameEn": "TMBThanachart Bank", "cat": ["essentials"], "province": "cm", "slug": "tmbthanachart-bank-3347664220", "rank": 3}}, {"type": "Feature", "geometry": {"type": "Point", "coordinates": [98.97361, 18.78886]}, "properties": {"id": "cm-osm-node-4559256795", "name": "ธนาคารทหารไทย", "nameTh": "ธนาคารทหารไทย", "nameEn": "TMB", "cat": ["essentials"], "province": "cm", "slug": "tmb-4559256795", "rank": 2}}, {"type": "Feature", "geometry": {"type": "Point", "coordinates": [98.99593, 18.78958]}, "properties": {"id": "cm-osm-way-258866777", "name": "ธนาคารทหารไทย", "nameTh": "ธนาคารทหารไทย", "nameEn": "TMB", "cat": ["essentials"], "province": "cm", "slug": "tmb-258866777", "rank": 2}}, {"type": "Feature", "geometry": {"type": "Point", "coordinates": [99.00704, 18.78712]}, "properties": {"id": "cm-osm-way-528013069", "name": "ธนาคารทหารไทย", "nameTh": "ธนาคารทหารไทย", "nameEn": "TMB", "cat": ["essentials"], "province": "cm", "slug": "tmb-528013069", "rank": 2}}, {"type": "Feature", "geometry": {"type": "Point", "coordinates": [98.99933, 18.77831]}, "properties": {"id": "cm-osm-node-1030318052", "name": "ธนาคารธนชาต", "nameTh": "ธนาคารธนชาต", "nameEn": "Thanachart Bank", "cat": ["essentials"], "province": "cm", "slug": "thanachart-bank-1030318052", "rank": 2}}, {"type": "Feature", "geometry": {"type": "Point", "coordinates": [98.97521, 18.7697]}, "properties": {"id": "cm-osm-node-3347634197", "name": "ธนาคารธนชาต", "nameTh": "ธนาคารธนชาต", "nameEn": "Thanachart Bank", "cat": ["essentials"], "province": "cm", "slug": "thanachart-bank-3347634197", "rank": 3}}, {"type": "Feature", "geometry": {"type": "Point", "coordinates": [98.92258, 18.69048]}, "properties": {"id": "cm-osm-node-3379252968", "name": "ธนาคารธนชาต", "nameTh": "ธนาคารธนชาต", "nameEn": "Thanachart Bank", "cat": ["essentials"], "province": "cm", "slug": "thanachart-bank-3379252968", "rank": 2}}, {"type": "Feature", "geometry": {"type": "Point", "coordinates": [99.00121, 18.78976]}, "properties": {"id": "cm-osm-node-3420883894", "name": "ธนาคารธนชาต", "nameTh": "ธนาคารธนชาต", "nameEn": "Thanachart Bank", "cat": ["essentials"], "province": "cm", "slug": "thanachart-bank-3420883894", "rank": 3}}, {"type": "Feature", "geometry": {"type": "Point", "coordinates": [98.98468, 18.81089]}, "properties": {"id": "cm-osm-way-345419277", "name": "ธนาคารธนชาต", "nameTh": "ธนาคารธนชาต", "nameEn": "Thanachart Bank", "cat": ["essentials"], "province": "cm", "slug": "thanachart-bank-345419277", "rank": 2}}, {"type": "Feature", "geometry": {"type": "Point", "coordinates": [98.99676, 18.78833]}, "properties": {"id": "cm-osm-way-361095185", "name": "ธนาคารธนชาต", "nameTh": "ธนาคารธนชาต", "nameEn": "Thanachart Bank", "cat": ["essentials"], "province": "cm", "slug": "thanachart-bank-361095185", "rank": 3}}, {"type": "Feature", "geometry": {"type": "Point", "coordinates": [99.11854, 18.74556]}, "properties": {"id": "cm-osm-node-1154004037", "name": "ธนาคารออมสิน", "nameTh": "ธนาคารออมสิน", "nameEn": "Government Savings Bank", "cat": ["essentials"], "province": "cm", "slug": "government-savings-bank-1154004037", "rank": 3}}, {"type": "Feature", "geometry": {"type": "Point", "coordinates": [99.00871, 18.89523]}, "properties": {"id": "cm-osm-node-2601015221", "name": "ธนาคารออมสิน", "nameTh": "ธนาคารออมสิน", "nameEn": "Government Savings Bank", "cat": ["essentials"], "province": "cm", "slug": "government-savings-bank-2601015221", "rank": 2}}, {"type": "Feature", "geometry": {"type": "Point", "coordinates": [98.99907, 18.7767]}, "properties": {"id": "cm-osm-node-2610123144", "name": "ธนาคารออมสิน", "nameTh": "ธนาคารออมสิน", "nameEn": "Government Savings Bank", "cat": ["essentials"], "province": "cm", "slug": "government-savings-bank-2610123144", "rank": 2}}, {"type": "Feature", "geometry": {"type": "Point", "coordinates": [99.13398, 18.87187]}, "properties": {"id": "cm-osm-node-2615684342", "name": "ธนาคารออมสิน", "nameTh": "ธนาคารออมสิน", "nameEn": "Government Savings Bank", "cat": ["essentials"], "province": "cm", "slug": "government-savings-bank-2615684342", "rank": 2}}, {"type": "Feature", "geometry": {"type": "Point", "coordinates": [99.01154, 18.82374]}, "properties": {"id": "cm-osm-node-2641511938", "name": "ธนาคารออมสิน", "nameTh": "ธนาคารออมสิน", "nameEn": "Government Savings Bank", "cat": ["essentials"], "province": "cm", "slug": "government-savings-bank-2641511938", "rank": 2}}, {"type": "Feature", "geometry": {"type": "Point", "coordinates": [99.00549, 18.76446]}, "properties": {"id": "cm-osm-node-2661435857", "name": "ธนาคารออมสิน", "nameTh": "ธนาคารออมสิน", "nameEn": "Government Savings Bank", "cat": ["essentials"], "province": "cm", "slug": "government-savings-bank-2661435857", "rank": 2}}, {"type": "Feature", "geometry": {"type": "Point", "coordinates": [99.01786, 18.80634]}, "properties": {"id": "cm-osm-node-3249111058", "name": "ธนาคารออมสิน", "nameTh": "ธนาคารออมสิน", "nameEn": "Government Savings Bank", "cat": ["essentials"], "province": "cm", "slug": "government-savings-bank-3249111058", "rank": 2}}, {"type": "Feature", "geometry": {"type": "Point", "coordinates": [98.9672, 18.79903]}, "properties": {"id": "cm-osm-node-3276155578", "name": "ธนาคารออมสิน", "nameTh": "ธนาคารออมสิน", "nameEn": "Government Savings Bank", "cat": ["essentials"], "province": "cm", "slug": "government-savings-bank-3276155578", "rank": 2}}, {"type": "Feature", "geometry": {"type": "Point", "coordinates": [98.96699, 18.80257]}, "properties": {"id": "cm-osm-node-3287356492", "name": "ธนาคารออมสิน", "nameTh": "ธนาคารออมสิน", "nameEn": "Government Savings Bank", "cat": ["essentials"], "province": "cm", "slug": "government-savings-bank-3287356492", "rank": 3}}, {"type": "Feature", "geometry": {"type": "Point", "coordinates": [98.97427, 18.76883]}, "properties": {"id": "cm-osm-node-3347631787", "name": "ธนาคารออมสิน", "nameTh": "ธนาคารออมสิน", "nameEn": "Government Savings Bank", "cat": ["essentials"], "province": "cm", "slug": "government-savings-bank-3347631787", "rank": 3}}, {"type": "Feature", "geometry": {"type": "Point", "coordinates": [98.97523, 18.76975]}, "properties": {"id": "cm-osm-node-3347631788", "name": "ธนาคารออมสิน", "nameTh": "ธนาคารออมสิน", "nameEn": "Government Savings Bank", "cat": ["essentials"], "province": "cm", "slug": "government-savings-bank-3347631788", "rank": 3}}, {"type": "Feature", "geometry": {"type": "Point", "coordinates": [99.03182, 18.81318]}, "properties": {"id": "cm-osm-node-4586011901", "name": "ธนาคารออมสิน", "nameTh": "ธนาคารออมสิน", "nameEn": "Government Savings Bank", "cat": ["essentials"], "province": "cm", "slug": "government-savings-bank-4586011901", "rank": 2}}, {"type": "Feature", "geometry": {"type": "Point", "coordinates": [99.03804, 18.71173]}, "properties": {"id": "cm-osm-way-101459738", "name": "ธนาคารออมสิน", "nameTh": "ธนาคารออมสิน", "nameEn": "Government Savings Bank", "cat": ["essentials"], "province": "cm", "slug": "government-savings-bank-101459738", "rank": 2}}, {"type": "Feature", "geometry": {"type": "Point", "coordinates": [98.98601, 18.79761]}, "properties": {"id": "cm-osm-way-103541466", "name": "ธนาคารออมสิน", "nameTh": "ธนาคารออมสิน", "nameEn": "Government Savings Bank", "cat": ["essentials"], "province": "cm", "slug": "government-savings-bank-103541466", "rank": 2}}, {"type": "Feature", "geometry": {"type": "Point", "coordinates": [98.94547, 18.91301]}, "properties": {"id": "cm-osm-way-1456802835", "name": "ธนาคารออมสิน", "nameTh": "ธนาคารออมสิน", "nameEn": "Government Savings Bank", "cat": ["essentials"], "province": "cm", "slug": "government-savings-bank-1456802835", "rank": 2}}, {"type": "Feature", "geometry": {"type": "Point", "coordinates": [98.95445, 18.80443]}, "properties": {"id": "cm-osm-way-235413720", "name": "ธนาคารออมสิน", "nameTh": "ธนาคารออมสิน", "nameEn": "Government Savings Bank", "cat": ["essentials"], "province": "cm", "slug": "government-savings-bank-235413720", "rank": 3}}, {"type": "Feature", "geometry": {"type": "Point", "coordinates": [98.99591, 18.7882]}, "properties": {"id": "cm-osm-way-361095171", "name": "ธนาคารออมสิน", "nameTh": "ธนาคารออมสิน", "nameEn": "Government Savings Bank", "cat": ["essentials"], "province": "cm", "slug": "government-savings-bank-361095171", "rank": 3}}, {"type": "Feature", "geometry": {"type": "Point", "coordinates": [98.96731, 18.80021]}, "properties": {"id": "cm-osm-node-3276155577", "name": "ธนาคารอาคารสงเคราะห์", "nameTh": "ธนาคารอาคารสงเคราะห์", "nameEn": "Government Housing Bank", "cat": ["essentials"], "province": "cm", "slug": "government-housing-bank-3276155577", "rank": 2}}, {"type": "Feature", "geometry": {"type": "Point", "coordinates": [99.01124, 18.89204]}, "properties": {"id": "cm-osm-node-3339981119", "name": "ธนาคารอาคารสงเคราะห์", "nameTh": "ธนาคารอาคารสงเคราะห์", "nameEn": "Government Housing Bank", "cat": ["essentials"], "province": "cm", "slug": "government-housing-bank-3339981119", "rank": 2}}, {"type": "Feature", "geometry": {"type": "Point", "coordinates": [98.9752, 18.76973]}, "properties": {"id": "cm-osm-node-3347631786", "name": "ธนาคารอาคารสงเคราะห์", "nameTh": "ธนาคารอาคารสงเคราะห์", "nameEn": "Government Housing Bank", "cat": ["essentials"], "province": "cm", "slug": "government-housing-bank-3347631786", "rank": 3}}, {"type": "Feature", "geometry": {"type": "Point", "coordinates": [99.12188, 18.74307]}, "properties": {"id": "cm-osm-node-4679695827", "name": "ธนาคารอาคารสงเคราะห์", "nameTh": "ธนาคารอาคารสงเคราะห์", "nameEn": "Government Housing Bank", "cat": ["essentials"], "province": "cm", "slug": "government-housing-bank-4679695827", "rank": 2}}, {"type": "Feature", "geometry": {"type": "Point", "coordinates": [98.95931, 18.78615]}, "properties": {"id": "cm-osm-node-8892109841", "name": "ธนาคารอาคารสงเคราะห์", "nameTh": "ธนาคารอาคารสงเคราะห์", "nameEn": "Government Housing Bank", "cat": ["essentials"], "province": "cm", "slug": "government-housing-bank-8892109841", "rank": 2}}, {"type": "Feature", "geometry": {"type": "Point", "coordinates": [99.01882, 18.80094]}, "properties": {"id": "cm-osm-way-323078815", "name": "ธนาคารอาคารสงเคราะห์", "nameTh": "ธนาคารอาคารสงเคราะห์", "nameEn": "Government Housing Bank", "cat": ["essentials"], "province": "cm", "slug": "government-housing-bank-323078815", "rank": 2}}, {"type": "Feature", "geometry": {"type": "Point", "coordinates": [98.97442, 18.76885]}, "properties": {"id": "cm-osm-node-3347631791", "name": "ธนาคารอิสลามแห่งประเทศไทย", "nameTh": "ธนาคารอิสลามแห่งประเทศไทย", "nameEn": "Islamic Bank of Thailand", "cat": ["essentials"], "province": "cm", "slug": "islamic-bank-of-thailand-3347631791", "rank": 2}}, {"type": "Feature", "geometry": {"type": "Point", "coordinates": [99.00053, 18.78445]}, "properties": {"id": "cm-osm-node-3416994635", "name": "ธนาคารอิสลามแห่งประเทศไทย", "nameTh": "ธนาคารอิสลามแห่งประเทศไทย", "nameEn": "Islamic Bank of Thailand", "cat": ["essentials"], "province": "cm", "slug": "islamic-bank-of-thailand-3416994635", "rank": 3}}, {"type": "Feature", "geometry": {"type": "Point", "coordinates": [98.9859, 18.79961]}, "properties": {"id": "cm-osm-way-324506879", "name": "ธนาคารอิสลามแห่งประเทศไทย", "nameTh": "ธนาคารอิสลามแห่งประเทศไทย", "nameEn": "Islamic Bank of Thailand", "cat": ["essentials"], "province": "cm", "slug": "islamic-bank-of-thailand-324506879", "rank": 2}}, {"type": "Feature", "geometry": {"type": "Point", "coordinates": [99.00644, 18.89932]}, "properties": {"id": "cm-osm-node-2601028742", "name": "ธนาคารเพื่อการเกษตรและสหกรณ์การเกษตร ธ.ก.ส.", "nameTh": "ธนาคารเพื่อการเกษตรและสหกรณ์การเกษตร ธ.ก.ส.", "nameEn": "Bank for Agriculture and Agricultural Cooperatives (BAAC)", "cat": ["essentials"], "province": "cm", "slug": "bank-for-agriculture-and-agricultural-cooperatives-baac-2601028742", "rank": 2}}, {"type": "Feature", "geometry": {"type": "Point", "coordinates": [98.96147, 18.74315]}, "properties": {"id": "cm-osm-node-3406304425", "name": "ธนาคารเพื่อการเกษตรและสหกรณ์การเกษตร ธ.ก.ส.", "nameTh": "ธนาคารเพื่อการเกษตรและสหกรณ์การเกษตร ธ.ก.ส.", "nameEn": "Bank for Agriculture and Agricultural Cooperatives (BAAC)", "cat": ["essentials"], "province": "cm", "slug": "bank-for-agriculture-and-agricultural-cooperatives-baac-3406304425", "rank": 2}}, {"type": "Feature", "geometry": {"type": "Point", "coordinates": [98.9821, 18.68083]}, "properties": {"id": "cm-osm-node-7868520192", "name": "ธนาคารเพื่อการเกษตรและสหกรณ์การเกษตร ธ.ก.ส.", "nameTh": "ธนาคารเพื่อการเกษตรและสหกรณ์การเกษตร ธ.ก.ส.", "nameEn": "Bank for Agriculture and Agricultural Cooperatives (BAAC)", "cat": ["essentials"], "province": "cm", "slug": "bank-for-agriculture-and-agricultural-cooperatives-baac-7868520192", "rank": 2}}, {"type": "Feature", "geometry": {"type": "Point", "coordinates": [98.98719, 18.7936]}, "properties": {"id": "cm-osm-way-251437032", "name": "ธนาคารเพื่อการเกษตรและสหกรณ์การเกษตร ธ.ก.ส.", "nameTh": "ธนาคารเพื่อการเกษตรและสหกรณ์การเกษตร ธ.ก.ส.", "nameEn": "Bank for Agriculture and Agricultural Cooperatives (BAAC)", "cat": ["essentials"], "province": "cm", "slug": "bank-for-agriculture-and-agricultural-cooperatives-baac-251437032", "rank": 2}}, {"type": "Feature", "geometry": {"type": "Point", "coordinates": [99.03232, 18.82004]}, "properties": {"id": "cm-osm-way-701970726", "name": "ธนาคารเพื่อการเกษตรและสหกรณ์การเกษตร ธ.ก.ส.", "nameTh": "ธนาคารเพื่อการเกษตรและสหกรณ์การเกษตร ธ.ก.ส.", "nameEn": "Bank for Agriculture and Agricultural Cooperatives (BAAC)", "cat": ["essentials"], "province": "cm", "slug": "bank-for-agriculture-and-agricultural-cooperatives-baac-701970726", "rank": 2}}, {"type": "Feature", "geometry": {"type": "Point", "coordinates": [99.11578, 18.74684]}, "properties": {"id": "cm-osm-way-97838956", "name": "ธนาคารเพื่อการเกษตรและสหกรณ์การเกษตร ธ.ก.ส.", "nameTh": "ธนาคารเพื่อการเกษตรและสหกรณ์การเกษตร ธ.ก.ส.", "nameEn": "Bank for Agriculture and Agricultural Cooperatives (BAAC)", "cat": ["essentials"], "province": "cm", "slug": "bank-for-agriculture-and-agricultural-cooperatives-baac-97838956", "rank": 2}}, {"type": "Feature", "geometry": {"type": "Point", "coordinates": [98.99919, 18.77791]}, "properties": {"id": "cm-osm-node-1030318036", "name": "ธนาคารไทยพาณิชย์", "nameTh": "ธนาคารไทยพาณิชย์", "nameEn": "Siam Commercial Bank", "cat": ["essentials"], "province": "cm", "slug": "siam-commercial-bank-1030318036", "rank": 2}}, {"type": "Feature", "geometry": {"type": "Point", "coordinates": [98.99704, 18.79762]}, "properties": {"id": "cm-osm-node-1365397658", "name": "ธนาคารไทยพาณิชย์", "nameTh": "ธนาคารไทยพาณิชย์", "nameEn": "Siam Commercial Bank", "cat": ["essentials"], "province": "cm", "slug": "siam-commercial-bank-1365397658", "rank": 2}}, {"type": "Feature", "geometry": {"type": "Point", "coordinates": [99.12182, 18.74339]}, "properties": {"id": "cm-osm-node-1508535748", "name": "ธนาคารไทยพาณิชย์", "nameTh": "ธนาคารไทยพาณิชย์", "nameEn": "Siam Commercial Bank", "cat": ["essentials"], "province": "cm", "slug": "siam-commercial-bank-1508535748", "rank": 2}}, {"type": "Feature", "geometry": {"type": "Point", "coordinates": [98.94606, 18.91288]}, "properties": {"id": "cm-osm-node-2556220775", "name": "ธนาคารไทยพาณิชย์", "nameTh": "ธนาคารไทยพาณิชย์", "nameEn": "Siam Commercial Bank", "cat": ["essentials"], "province": "cm", "slug": "siam-commercial-bank-2556220775", "rank": 2}}, {"type": "Feature", "geometry": {"type": "Point", "coordinates": [99.00931, 18.89415]}, "properties": {"id": "cm-osm-node-2601003845", "name": "ธนาคารไทยพาณิชย์", "nameTh": "ธนาคารไทยพาณิชย์", "nameEn": "Siam Commercial Bank", "cat": ["essentials"], "province": "cm", "slug": "siam-commercial-bank-2601003845", "rank": 2}}, {"type": "Feature", "geometry": {"type": "Point", "coordinates": [98.97928, 18.82706]}, "properties": {"id": "cm-osm-node-2799032401", "name": "ธนาคารไทยพาณิชย์", "nameTh": "ธนาคารไทยพาณิชย์", "nameEn": "Siam Commercial Bank", "cat": ["essentials"], "province": "cm", "slug": "siam-commercial-bank-2799032401", "rank": 2}}, {"type": "Feature", "geometry": {"type": "Point", "coordinates": [99.01796, 18.80624]}, "properties": {"id": "cm-osm-node-3249112263", "name": "ธนาคารไทยพาณิชย์", "nameTh": "ธนาคารไทยพาณิชย์", "nameEn": "Siam Commercial Bank", "cat": ["essentials"], "province": "cm", "slug": "siam-commercial-bank-3249112263", "rank": 2}}, {"type": "Feature", "geometry": {"type": "Point", "coordinates": [98.97298, 18.76196]}, "properties": {"id": "cm-osm-node-3329435793", "name": "ธนาคารไทยพาณิชย์", "nameTh": "ธนาคารไทยพาณิชย์", "nameEn": "Siam Commercial Bank", "cat": ["essentials"], "province": "cm", "slug": "siam-commercial-bank-3329435793", "rank": 2}}, {"type": "Feature", "geometry": {"type": "Point", "coordinates": [98.96176, 18.7431]}, "properties": {"id": "cm-osm-node-3342167095", "name": "ธนาคารไทยพาณิชย์", "nameTh": "ธนาคารไทยพาณิชย์", "nameEn": "Siam Commercial Bank", "cat": ["essentials"], "province": "cm", "slug": "siam-commercial-bank-3342167095", "rank": 2}}, {"type": "Feature", "geometry": {"type": "Point", "coordinates": [98.97501, 18.76983]}, "properties": {"id": "cm-osm-node-3347664218", "name": "ธนาคารไทยพาณิชย์", "nameTh": "ธนาคารไทยพาณิชย์", "nameEn": "Siam Commercial Bank", "cat": ["essentials"], "province": "cm", "slug": "siam-commercial-bank-3347664218", "rank": 3}}, {"type": "Feature", "geometry": {"type": "Point", "coordinates": [98.9932, 18.79052]}, "properties": {"id": "cm-osm-node-336239111", "name": "ธนาคารไทยพาณิชย์", "nameTh": "ธนาคารไทยพาณิชย์", "nameEn": "Siam Commercial Bank", "cat": ["essentials"], "province": "cm", "slug": "siam-commercial-bank-336239111", "rank": 2}}, {"type": "Feature", "geometry": {"type": "Point", "coordinates": [98.97082, 18.7893]}, "properties": {"id": "cm-osm-node-3369589475", "name": "ธนาคารไทยพาณิชย์", "nameTh": "ธนาคารไทยพาณิชย์", "nameEn": "Siam Commercial Bank", "cat": ["essentials"], "province": "cm", "slug": "siam-commercial-bank-3369589475", "rank": 3}}, {"type": "Feature", "geometry": {"type": "Point", "coordinates": [98.89529, 18.6252]}, "properties": {"id": "cm-osm-node-3379252967", "name": "ธนาคารไทยพาณิชย์", "nameTh": "ธนาคารไทยพาณิชย์", "nameEn": "Siam Commercial Bank", "cat": ["essentials"], "province": "cm", "slug": "siam-commercial-bank-3379252967", "rank": 2}}, {"type": "Feature", "geometry": {"type": "Point", "coordinates": [98.97235, 18.75846]}, "properties": {"id": "cm-osm-node-3419871308", "name": "ธนาคารไทยพาณิชย์", "nameTh": "ธนาคารไทยพาณิชย์", "nameEn": "Siam Commercial Bank", "cat": ["essentials"], "province": "cm", "slug": "siam-commercial-bank-3419871308", "rank": 2}}, {"type": "Feature", "geometry": {"type": "Point", "coordinates": [98.98589, 18.80556]}, "properties": {"id": "cm-osm-node-3862580752", "name": "ธนาคารไทยพาณิชย์", "nameTh": "ธนาคารไทยพาณิชย์", "nameEn": "Siam Commercial Bank", "cat": ["essentials"], "province": "cm", "slug": "siam-commercial-bank-3862580752", "rank": 2}}, {"type": "Feature", "geometry": {"type": "Point", "coordinates": [99.04302, 18.64526]}, "properties": {"id": "cm-osm-node-4509445496", "name": "ธนาคารไทยพาณิชย์", "nameTh": "ธนาคารไทยพาณิชย์", "nameEn": "Siam Commercial Bank", "cat": ["essentials"], "province": "cm", "slug": "siam-commercial-bank-4509445496", "rank": 2}}, {"type": "Feature", "geometry": {"type": "Point", "coordinates": [99.01353, 18.82385]}, "properties": {"id": "cm-osm-node-4593074893", "name": "ธนาคารไทยพาณิชย์", "nameTh": "ธนาคารไทยพาณิชย์", "nameEn": "Siam Commercial Bank", "cat": ["essentials"], "province": "cm", "slug": "siam-commercial-bank-4593074893", "rank": 2}}, {"type": "Feature", "geometry": {"type": "Point", "coordinates": [98.97496, 18.78957]}, "properties": {"id": "cm-osm-node-4679478892", "name": "ธนาคารไทยพาณิชย์", "nameTh": "ธนาคารไทยพาณิชย์", "nameEn": "Siam Commercial Bank", "cat": ["essentials"], "province": "cm", "slug": "siam-commercial-bank-4679478892", "rank": 2}}, {"type": "Feature", "geometry": {"type": "Point", "coordinates": [99.01109, 18.79885]}, "properties": {"id": "cm-osm-node-6587270774", "name": "ธนาคารไทยพาณิชย์", "nameTh": "ธนาคารไทยพาณิชย์", "nameEn": "Siam Commercial Bank", "cat": ["essentials"], "province": "cm", "slug": "siam-commercial-bank-6587270774", "rank": 2}}, {"type": "Feature", "geometry": {"type": "Point", "coordinates": [99.01169, 18.82422]}, "properties": {"id": "cm-osm-node-773476567", "name": "ธนาคารไทยพาณิชย์", "nameTh": "ธนาคารไทยพาณิชย์", "nameEn": "Siam Commercial Bank", "cat": ["essentials"], "province": "cm", "slug": "siam-commercial-bank-773476567", "rank": 2}}, {"type": "Feature", "geometry": {"type": "Point", "coordinates": [99.08224, 18.7649]}, "properties": {"id": "cm-osm-node-863449027", "name": "ธนาคารไทยพาณิชย์", "nameTh": "ธนาคารไทยพาณิชย์", "nameEn": "Siam Commercial Bank", "cat": ["essentials"], "province": "cm", "slug": "siam-commercial-bank-863449027", "rank": 2}}, {"type": "Feature", "geometry": {"type": "Point", "coordinates": [98.95418, 18.80388]}, "properties": {"id": "cm-osm-way-235413653", "name": "ธนาคารไทยพาณิชย์", "nameTh": "ธนาคารไทยพาณิชย์", "nameEn": "Siam Commercial Bank", "cat": ["essentials"], "province": "cm", "slug": "siam-commercial-bank-235413653", "rank": 3}}, {"type": "Feature", "geometry": {"type": "Point", "coordinates": [98.96719, 18.79885]}, "properties": {"id": "cm-osm-way-320911361", "name": "ธนาคารไทยพาณิชย์", "nameTh": "ธนาคารไทยพาณิชย์", "nameEn": "Siam Commercial Bank", "cat": ["essentials"], "province": "cm", "slug": "siam-commercial-bank-320911361", "rank": 2}}, {"type": "Feature", "geometry": {"type": "Point", "coordinates": [98.98568, 18.80141]}, "properties": {"id": "cm-osm-way-322216087", "name": "ธนาคารไทยพาณิชย์", "nameTh": "ธนาคารไทยพาณิชย์", "nameEn": "Siam Commercial Bank", "cat": ["essentials"], "province": "cm", "slug": "siam-commercial-bank-322216087", "rank": 2}}, {"type": "Feature", "geometry": {"type": "Point", "coordinates": [99.00052, 18.78734]}, "properties": {"id": "cm-osm-way-99685173", "name": "ธนาคารไทยพาณิชย์", "nameTh": "ธนาคารไทยพาณิชย์", "nameEn": "Siam Commercial Bank", "cat": ["essentials"], "province": "cm", "slug": "siam-commercial-bank-99685173", "rank": 2}}, {"type": "Feature", "geometry": {"type": "Point", "coordinates": [98.99797, 18.79203]}, "properties": {"id": "cm-osm-way-99685180", "name": "ธนาคารไทยพาณิชย์", "nameTh": "ธนาคารไทยพาณิชย์", "nameEn": "Siam Commercial Bank", "cat": ["essentials"], "province": "cm", "slug": "siam-commercial-bank-99685180", "rank": 2}}]}