{"type": "FeatureCollection", "features": [{"type": "Feature", "geometry": {"type": "Point", "coordinates": [98.99135, 18.79048]}, "properties": {"id": "cm-osm-node-13088539301", "name": "Aunty's Corner", "nameTh": null, "nameEn": "Aunty's Corner", "cat": ["food"], "province": "cm", "slug": "aunty-s-corner-13088539301", "rank": 3}}, {"type": "Feature", "geometry": {"type": "Point", "coordinates": [98.94834, 18.79415]}, "properties": {"id": "cm-osm-node-10855533287", "name": "Basecamp trail cafe", "nameTh": null, "nameEn": "Basecamp trail cafe", "cat": ["food"], "province": "cm", "slug": "basecamp-trail-cafe-10855533287", "rank": 2}}, {"type": "Feature", "geometry": {"type": "Point", "coordinates": [98.95791, 18.80635]}, "properties": {"id": "cm-osm-node-3819711686", "name": "Catmosphere Cat Café", "nameTh": "แคทโมสเฟียร์ แคท คาเฟ่", "nameEn": "Catmosphere Cat Café", "cat": ["food"], "province": "cm", "slug": "catmosphere-cat-caf-3819711686", "rank": 3}}, {"type": "Feature", "geometry": {"type": "Point", "coordinates": [98.9942, 18.75189]}, "properties": {"id": "cm-osm-node-13088914801", "name": "Chada Steak House", "nameTh": null, "nameEn": "Chada Steak House", "cat": ["food"], "province": "cm", "slug": "chada-steak-house-13088914801", "rank": 3}}, {"type": "Feature", "geometry": {"type": "Point", "coordinates": [98.9967, 18.79337]}, "properties": {"id": "cm-osm-node-13911344401", "name": "Good day Farm to Table", "nameTh": null, "nameEn": "Good day Farm to Table", "cat": ["food"], "province": "cm", "slug": "good-day-farm-to-table-13911344401", "rank": 1}}, {"type": "Feature", "geometry": {"type": "Point", "coordinates": [98.97884, 18.8006]}, "properties": {"id": "cm-osm-node-4519103091", "name": "Imm Aim vegetarian restaurant", "nameTh": null, "nameEn": "Imm Aim vegetarian restaurant", "cat": ["food"], "province": "cm", "slug": "imm-aim-vegetarian-restaurant-4519103091", "rank": 1}}, {"type": "Feature", "geometry": {"type": "Point", "coordinates": [98.92853, 18.69381]}, "properties": {"id": "cm-osm-node-12149897104", "name": "Indy's", "nameTh": null, "nameEn": "Indy's", "cat": ["food"], "province": "cm", "slug": "indy-s-12149897104", "rank": 3}}, {"type": "Feature", "geometry": {"type": "Point", "coordinates": [98.91217, 18.9668]}, "properties": {"id": "cm-osm-node-13394591201", "name": "La Factoria", "nameTh": null, "nameEn": "La Factoria", "cat": ["food"], "province": "cm", "slug": "la-factoria-13394591201", "rank": 2}}, {"type": "Feature", "geometry": {"type": "Point", "coordinates": [98.99192, 18.79277]}, "properties": {"id": "cm-osm-node-5271447023", "name": "LadyBake", "nameTh": null, "nameEn": "LadyBake", "cat": ["food"], "province": "cm", "slug": "ladybake-5271447023", "rank": 1}}, {"type": "Feature", "geometry": {"type": "Point", "coordinates": [98.97938, 18.79841]}, "properties": {"id": "cm-osm-node-6865465685", "name": "Light Up Cafe", "nameTh": "Great and Cheap coffee!", "nameEn": "Light Up Cafe x Rabbit Hole", "cat": ["food"], "province": "cm", "slug": "light-up-cafe-x-rabbit-hole-6865465685", "rank": 3}}, {"type": "Feature", "geometry": {"type": "Point", "coordinates": [98.98376, 18.79678]}, "properties": {"id": "cm-osm-node-3317919569", "name": "Little Cook Cafe", "nameTh": "ลิตเติ้ลคุ๊กคาเฟ่", "nameEn": "Little Cook Cafe", "cat": ["food"], "province": "cm", "slug": "little-cook-cafe-3317919569", "rank": 3}}, {"type": "Feature", "geometry": {"type": "Point", "coordinates": [99.00522, 18.83505]}, "properties": {"id": "cm-osm-node-13266867245", "name": "PLUTO", "nameTh": null, "nameEn": "PLUTO", "cat": ["food"], "province": "cm", "slug": "pluto-13266867245", "rank": 3}}, {"type": "Feature", "geometry": {"type": "Point", "coordinates": [99.00168, 18.79325]}, "properties": {"id": "cm-osm-node-13138044415", "name": "Patus Pasta", "nameTh": null, "nameEn": "Patus Pasta", "cat": ["food"], "province": "cm", "slug": "patus-pasta-13138044415", "rank": 3}}, {"type": "Feature", "geometry": {"type": "Point", "coordinates": [98.9673, 18.78757]}, "properties": {"id": "cm-osm-node-5992439094", "name": "Pun Pun", "nameTh": null, "nameEn": "Pun Pun", "cat": ["food"], "province": "cm", "slug": "pun-pun-5992439094", "rank": 3}}, {"type": "Feature", "geometry": {"type": "Point", "coordinates": [98.95427, 18.74553]}, "properties": {"id": "cm-osm-node-1433472018", "name": "Rose's Roadhouse", "nameTh": null, "nameEn": "Rose's Roadhouse", "cat": ["food"], "province": "cm", "slug": "rose-s-roadhouse-1433472018", "rank": 3}}, {"type": "Feature", "geometry": {"type": "Point", "coordinates": [98.99217, 18.78527]}, "properties": {"id": "cm-osm-way-623162100", "name": "Taste From Heaven", "nameTh": "เทสฟรอมเฮเว่น", "nameEn": "Taste From Heaven", "cat": ["food"], "province": "cm", "slug": "taste-from-heaven-623162100", "rank": 4}}, {"type": "Feature", "geometry": {"type": "Point", "coordinates": [98.97405, 18.79818]}, "properties": {"id": "cm-osm-node-13307552701", "name": "Tawansy Restaurant & Cafe", "nameTh": null, "nameEn": "Tawansy Restaurant & Cafe", "cat": ["food"], "province": "cm", "slug": "tawansy-restaurant-cafe-13307552701", "rank": 4}}, {"type": "Feature", "geometry": {"type": "Point", "coordinates": [98.96681, 18.80228]}, "properties": {"id": "cm-osm-node-3673955770", "name": "The Duke's Maya", "nameTh": null, "nameEn": "The Duke's Maya", "cat": ["food"], "province": "cm", "slug": "the-duke-s-maya-3673955770", "rank": 3}}, {"type": "Feature", "geometry": {"type": "Point", "coordinates": [99.0051, 18.78509]}, "properties": {"id": "cm-osm-node-2021464366", "name": "The Duke's Ping River", "nameTh": null, "nameEn": "The Duke's Ping River", "cat": ["food"], "province": "cm", "slug": "the-duke-s-ping-river-2021464366", "rank": 3}}, {"type": "Feature", "geometry": {"type": "Point", "coordinates": [99.0274, 18.78349]}, "properties": {"id": "cm-osm-node-1418968709", "name": "The Pizza Company", "nameTh": "เดอะ พิซซ่า คอมปะนี", "nameEn": "The Pizza Company", "cat": ["food"], "province": "cm", "slug": "the-pizza-company-1418968709", "rank": 4}}, {"type": "Feature", "geometry": {"type": "Point", "coordinates": [99.00988, 18.89333]}, "properties": {"id": "cm-osm-node-2601003840", "name": "The Pizza Company", "nameTh": "เดอะ พิซซ่า คอมปะนี", "nameEn": "The Pizza Company", "cat": ["food"], "province": "cm", "slug": "the-pizza-company-2601003840", "rank": 4}}, {"type": "Feature", "geometry": {"type": "Point", "coordinates": [99.01787, 18.80608]}, "properties": {"id": "cm-osm-node-3249112266", "name": "The Pizza Company", "nameTh": "เดอะ พิซซ่า คอมปะนี", "nameEn": "The Pizza Company", "cat": ["food"], "province": "cm", "slug": "the-pizza-company-3249112266", "rank": 4}}, {"type": "Feature", "geometry": {"type": "Point", "coordinates": [98.98215, 18.81608]}, "properties": {"id": "cm-osm-node-3385661335", "name": "The Pizza Company", "nameTh": "เดอะ พิซซ่า คอมปะนี", "nameEn": "The Pizza Company", "cat": ["food"], "province": "cm", "slug": "the-pizza-company-3385661335", "rank": 4}}, {"type": "Feature", "geometry": {"type": "Point", "coordinates": [99.07794, 18.76606]}, "properties": {"id": "cm-osm-node-3602308247", "name": "The Pizza Company", "nameTh": "เดอะ พิซซ่า คอมปะนี", "nameEn": "The Pizza Company", "cat": ["food"], "province": "cm", "slug": "the-pizza-company-3602308247", "rank": 4}}, {"type": "Feature", "geometry": {"type": "Point", "coordinates": [98.99225, 18.79055]}, "properties": {"id": "cm-osm-node-6083211685", "name": "pickles restaurant", "nameTh": null, "nameEn": "pickles restaurant", "cat": ["food"], "province": "cm", "slug": "pickles-restaurant-6083211685", "rank": 2}}, {"type": "Feature", "geometry": {"type": "Point", "coordinates": [98.99417, 18.79554]}, "properties": {"id": "cm-osm-way-658996891", "name": "ธัญญวินตรา บูติค แอนด์ สปา", "nameTh": "ธัญญวินตรา บูติค แอนด์ สปา", "nameEn": "Thanyawintra Boutique & Spa", "cat": ["beauty", "food"], "province": "cm", "slug": "thanyawintra-boutique-spa-658996891", "rank": 4}}, {"type": "Feature", "geometry": {"type": "Point", "coordinates": [98.92448, 18.74273]}, "properties": {"id": "cm-osm-node-5276808922", "name": "สหภาพกระต่าย", "nameTh": "สหภาพกระต่าย", "nameEn": "The Rabbit Union", "cat": ["food"], "province": "cm", "slug": "the-rabbit-union-5276808922", "rank": 3}}]}