{"type": "FeatureCollection", "features": [{"type": "Feature", "geometry": {"type": "Point", "coordinates": [99.51856, 20.04883]}, "properties": {"id": "cm-obec-1050130474", "name": "โรงเรียนกมล -เรียม สุโกศล (บ้านผาใต้)", "nameTh": "โรงเรียนกมล -เรียม สุโกศล (บ้านผาใต้)", "nameEn": null, "cat": ["school"], "province": "cm", "slug": "1050130474", "rank": 2}}, {"type": "Feature", "geometry": {"type": "Point", "coordinates": [98.37908, 18.48554]}, "properties": {"id": "cm-obec-1050130285", "name": "โรงเรียนชุมชนตำบลท่าผา", "nameTh": "โรงเรียนชุมชนตำบลท่าผา", "nameEn": null, "cat": ["school"], "province": "cm", "slug": "1050130285", "rank": 3}}, {"type": "Feature", "geometry": {"type": "Point", "coordinates": [98.3618, 18.50087]}, "properties": {"id": "cm-obec-1050130335", "name": "โรงเรียนชุมชนบ้านช่างเคิ่ง", "nameTh": "โรงเรียนชุมชนบ้านช่างเคิ่ง", "nameEn": null, "cat": ["school"], "province": "cm", "slug": "1050130335", "rank": 3}}, {"type": "Feature", "geometry": {"type": "Point", "coordinates": [98.35831, 18.50187]}, "properties": {"id": "cm-obec-1050130323", "name": "โรงเรียนชุมชนบ้านพร้าวหนุ่ม", "nameTh": "โรงเรียนชุมชนบ้านพร้าวหนุ่ม", "nameEn": null, "cat": ["school"], "province": "cm", "slug": "1050130323", "rank": 3}}, {"type": "Feature", "geometry": {"type": "Point", "coordinates": [98.3565, 17.7981]}, "properties": {"id": "cm-obec-1050130772", "name": "โรงเรียนชุมชนบ้านอมก๋อย", "nameTh": "โรงเรียนชุมชนบ้านอมก๋อย", "nameEn": null, "cat": ["school"], "province": "cm", "slug": "1050130772", "rank": 3}}, {"type": "Feature", "geometry": {"type": "Point", "coordinates": [98.3348, 17.8027]}, "properties": {"id": "cm-obec-1050130778", "name": "โรงเรียนชุมชนบ้านอมก๋อย สาขาบ้านสบอมแฮด", "nameTh": "โรงเรียนชุมชนบ้านอมก๋อย สาขาบ้านสบอมแฮด", "nameEn": null, "cat": ["school"], "province": "cm", "slug": "1050130778", "rank": 3}}, {"type": "Feature", "geometry": {"type": "Point", "coordinates": [98.69892, 18.85268]}, "properties": {"id": "cm-obec-1050130517", "name": "โรงเรียนชุมชนบ้านแม่สาบ", "nameTh": "โรงเรียนชุมชนบ้านแม่สาบ", "nameEn": null, "cat": ["school"], "province": "cm", "slug": "1050130517", "rank": 3}}, {"type": "Feature", "geometry": {"type": "Point", "coordinates": [99.16861, 19.82993]}, "properties": {"id": "cm-obec-1050130183", "name": "โรงเรียนชุมชนบ้านแม่สูนหลวง", "nameTh": "โรงเรียนชุมชนบ้านแม่สูนหลวง", "nameEn": null, "cat": ["school"], "province": "cm", "slug": "1050130183", "rank": 3}}, {"type": "Feature", "geometry": {"type": "Point", "coordinates": [98.4563, 17.4021]}, "properties": {"id": "cm-obec-1050130767", "name": "โรงเรียนชุมชนบ้านใหม่", "nameTh": "โรงเรียนชุมชนบ้านใหม่", "nameEn": null, "cat": ["school"], "province": "cm", "slug": "1050130767", "rank": 3}}, {"type": "Feature", "geometry": {"type": "Point", "coordinates": [98.96732, 19.4505]}, "properties": {"id": "cm-obec-1050130126", "name": "โรงเรียนดอยสามหมื่น", "nameTh": "โรงเรียนดอยสามหมื่น", "nameEn": null, "cat": ["school"], "province": "cm", "slug": "1050130126", "rank": 3}}, {"type": "Feature", "geometry": {"type": "Point", "coordinates": [99.36398, 20.06503]}, "properties": {"id": "cm-obec-1050130509", "name": "โรงเรียนต.ช.ด. ไลออนส์มหาจักร 8", "nameTh": "โรงเรียนต.ช.ด. ไลออนส์มหาจักร 8", "nameEn": null, "cat": ["school"], "province": "cm", "slug": "8-1050130509", "rank": 3}}, {"type": "Feature", "geometry": {"type": "Point", "coordinates": [99.48012, 20.08928]}, "properties": {"id": "cm-obec-1050130476", "name": "โรงเรียนต.ช.ด.ศึกษานารีอนุสรณ์ 3", "nameTh": "โรงเรียนต.ช.ด.ศึกษานารีอนุสรณ์ 3", "nameEn": null, "cat": ["school"], "province": "cm", "slug": "3-1050130476", "rank": 2}}, {"type": "Feature", "geometry": {"type": "Point", "coordinates": [98.4651, 17.3922]}, "properties": {"id": "cm-obec-1050130762", "name": "โรงเรียนตรีมิตรวิทยา", "nameTh": "โรงเรียนตรีมิตรวิทยา", "nameEn": null, "cat": ["school"], "province": "cm", "slug": "1050130762", "rank": 2}}, {"type": "Feature", "geometry": {"type": "Point", "coordinates": [98.7324, 18.83726]}, "properties": {"id": "cm-obec-1050130520", "name": "โรงเรียนทรายทองราษฎร์อุทิศ", "nameTh": "โรงเรียนทรายทองราษฎร์อุทิศ", "nameEn": null, "cat": ["school"], "province": "cm", "slug": "1050130520", "rank": 3}}, {"type": "Feature", "geometry": {"type": "Point", "coordinates": [99.29452, 18.67417]}, "properties": {"id": "cm-obec-1050130955", "name": "โรงเรียนทาเหนือวิทยา", "nameTh": "โรงเรียนทาเหนือวิทยา", "nameEn": null, "cat": ["school"], "province": "cm", "slug": "1050130955", "rank": 3}}, {"type": "Feature", "geometry": {"type": "Point", "coordinates": [98.4066, 17.2588]}, "properties": {"id": "cm-obec-1050130771", "name": "โรงเรียนทุ่งต้นงิ้ว", "nameTh": "โรงเรียนทุ่งต้นงิ้ว", "nameEn": null, "cat": ["school"], "province": "cm", "slug": "1050130771", "rank": 3}}, {"type": "Feature", "geometry": {"type": "Point", "coordinates": [98.52833, 18.53991]}, "properties": {"id": "cm-obec-1050130036", "name": "โรงเรียนนิยมไพรผาหมอนอินทนนท์", "nameTh": "โรงเรียนนิยมไพรผาหมอนอินทนนท์", "nameEn": null, "cat": ["school"], "province": "cm", "slug": "1050130036", "rank": 2}}, {"type": "Feature", "geometry": {"type": "Point", "coordinates": [98.6206, 19.58075]}, "properties": {"id": "cm-obec-1050130869", "name": "โรงเรียนบ้านกองลม", "nameTh": "โรงเรียนบ้านกองลม", "nameEn": null, "cat": ["school"], "province": "cm", "slug": "1050130869", "rank": 3}}, {"type": "Feature", "geometry": {"type": "Point", "coordinates": [98.2442, 18.1506]}, "properties": {"id": "cm-obec-1050130800", "name": "โรงเรียนบ้านกองลอย", "nameTh": "โรงเรียนบ้านกองลอย", "nameEn": null, "cat": ["school"], "province": "cm", "slug": "1050130800", "rank": 3}}, {"type": "Feature", "geometry": {"type": "Point", "coordinates": [98.39016, 18.43938]}, "properties": {"id": "cm-obec-1050130287", "name": "โรงเรียนบ้านกองแขก", "nameTh": "โรงเรียนบ้านกองแขก", "nameEn": null, "cat": ["school"], "province": "cm", "slug": "1050130287", "rank": 3}}, {"type": "Feature", "geometry": {"type": "Point", "coordinates": [98.44715, 18.44728]}, "properties": {"id": "cm-obec-1050130292", "name": "โรงเรียนบ้านกองแขก สาขาบ้านแม่หลุ", "nameTh": "โรงเรียนบ้านกองแขก สาขาบ้านแม่หลุ", "nameEn": null, "cat": ["school"], "province": "cm", "slug": "1050130292", "rank": 3}}, {"type": "Feature", "geometry": {"type": "Point", "coordinates": [98.81086, 18.85985]}, "properties": {"id": "cm-obec-1050130423", "name": "โรงเรียนบ้านกองแหะ", "nameTh": "โรงเรียนบ้านกองแหะ", "nameEn": null, "cat": ["school"], "province": "cm", "slug": "1050130423", "rank": 3}}, {"type": "Feature", "geometry": {"type": "Point", "coordinates": [98.3693, 18.1401]}, "properties": {"id": "cm-obec-1050130811", "name": "โรงเรียนบ้านกิ่วลม", "nameTh": "โรงเรียนบ้านกิ่วลม", "nameEn": null, "cat": ["school"], "province": "cm", "slug": "1050130811", "rank": 3}}, {"type": "Feature", "geometry": {"type": "Point", "coordinates": [98.60825, 18.99738]}, "properties": {"id": "cm-obec-1050130547", "name": "โรงเรียนบ้านกิ่วเสือ", "nameTh": "โรงเรียนบ้านกิ่วเสือ", "nameEn": null, "cat": ["school"], "province": "cm", "slug": "1050130547", "rank": 3}}, {"type": "Feature", "geometry": {"type": "Point", "coordinates": [98.77284, 19.2203]}, "properties": {"id": "cm-obec-1050130389", "name": "โรงเรียนบ้านก๋ายน้อย", "nameTh": "โรงเรียนบ้านก๋ายน้อย", "nameEn": null, "cat": ["school"], "province": "cm", "slug": "1050130389", "rank": 2}}, {"type": "Feature", "geometry": {"type": "Point", "coordinates": [99.05169, 19.92585]}, "properties": {"id": "cm-obec-1050130199", "name": "โรงเรียนบ้านขอบด้ง", "nameTh": "โรงเรียนบ้านขอบด้ง", "nameEn": null, "cat": ["school"], "province": "cm", "slug": "1050130199", "rank": 3}}, {"type": "Feature", "geometry": {"type": "Point", "coordinates": [98.3736, 18.1045]}, "properties": {"id": "cm-obec-1050130808", "name": "โรงเรียนบ้านขุน", "nameTh": "โรงเรียนบ้านขุน", "nameEn": null, "cat": ["school"], "province": "cm", "slug": "1050130808", "rank": 3}}, {"type": "Feature", "geometry": {"type": "Point", "coordinates": [98.52358, 18.54053]}, "properties": {"id": "cm-obec-1050130035", "name": "โรงเรียนบ้านขุนกลาง", "nameTh": "โรงเรียนบ้านขุนกลาง", "nameEn": null, "cat": ["school"], "province": "cm", "slug": "1050130035", "rank": 3}}, {"type": "Feature", "geometry": {"type": "Point", "coordinates": [98.53313, 18.46521]}, "properties": {"id": "cm-obec-1050130045", "name": "โรงเรียนบ้านขุนกลางสาขาแม่ยะน้อย", "nameTh": "โรงเรียนบ้านขุนกลางสาขาแม่ยะน้อย", "nameEn": null, "cat": ["school"], "province": "cm", "slug": "1050130045", "rank": 3}}, {"type": "Feature", "geometry": {"type": "Point", "coordinates": [98.61173, 18.18483]}, "properties": {"id": "cm-obec-1050130794", "name": "โรงเรียนบ้านขุนตื่น", "nameTh": "โรงเรียนบ้านขุนตื่น", "nameEn": null, "cat": ["school"], "province": "cm", "slug": "1050130794", "rank": 3}}, {"type": "Feature", "geometry": {"type": "Point", "coordinates": [98.50362, 18.42916]}, "properties": {"id": "cm-obec-1050130034", "name": "โรงเรียนบ้านขุนยะ", "nameTh": "โรงเรียนบ้านขุนยะ", "nameEn": null, "cat": ["school"], "province": "cm", "slug": "1050130034", "rank": 3}}, {"type": "Feature", "geometry": {"type": "Point", "coordinates": [99.31851, 19.33245]}, "properties": {"id": "cm-obec-1050130279", "name": "โรงเรียนบ้านขุนแจ๋", "nameTh": "โรงเรียนบ้านขุนแจ๋", "nameEn": null, "cat": ["school"], "province": "cm", "slug": "1050130279", "rank": 3}}, {"type": "Feature", "geometry": {"type": "Point", "coordinates": [98.50347, 18.39436]}, "properties": {"id": "cm-obec-1050130058", "name": "โรงเรียนบ้านขุนแตะ", "nameTh": "โรงเรียนบ้านขุนแตะ", "nameEn": null, "cat": ["school"], "province": "cm", "slug": "1050130058", "rank": 2}}, {"type": "Feature", "geometry": {"type": "Point", "coordinates": [98.47757, 18.32245]}, "properties": {"id": "cm-obec-1050130065", "name": "โรงเรียนบ้านขุนแปะ", "nameTh": "โรงเรียนบ้านขุนแปะ", "nameEn": null, "cat": ["school"], "province": "cm", "slug": "1050130065", "rank": 3}}, {"type": "Feature", "geometry": {"type": "Point", "coordinates": [98.48086, 18.26509]}, "properties": {"id": "cm-obec-1050130069", "name": "โรงเรียนบ้านขุนแปะ สาขาแม่จร", "nameTh": "โรงเรียนบ้านขุนแปะ สาขาแม่จร", "nameEn": null, "cat": ["school"], "province": "cm", "slug": "1050130069", "rank": 3}}, {"type": "Feature", "geometry": {"type": "Point", "coordinates": [98.37323, 17.322]}, "properties": {"id": "cm-obec-1050130764", "name": "โรงเรียนบ้านขุนแม่ตื่นน้อย", "nameTh": "โรงเรียนบ้านขุนแม่ตื่นน้อย", "nameEn": null, "cat": ["school"], "province": "cm", "slug": "1050130764", "rank": 3}}, {"type": "Feature", "geometry": {"type": "Point", "coordinates": [98.15774, 18.63812]}, "properties": {"id": "cm-obec-1050130315", "name": "โรงเรียนบ้านขุนแม่นาย", "nameTh": "โรงเรียนบ้านขุนแม่นาย", "nameEn": null, "cat": ["school"], "province": "cm", "slug": "1050130315", "rank": 3}}, {"type": "Feature", "geometry": {"type": "Point", "coordinates": [98.1981, 18.91709]}, "properties": {"id": "cm-obec-1050130327", "name": "โรงเรียนบ้านขุนแม่รวม", "nameTh": "โรงเรียนบ้านขุนแม่รวม", "nameEn": null, "cat": ["school"], "province": "cm", "slug": "1050130327", "rank": 3}}, {"type": "Feature", "geometry": {"type": "Point", "coordinates": [98.15581, 18.84371]}, "properties": {"id": "cm-obec-1050130326", "name": "โรงเรียนบ้านขุนแม่หยอด", "nameTh": "โรงเรียนบ้านขุนแม่หยอด", "nameEn": null, "cat": ["school"], "province": "cm", "slug": "1050130326", "rank": 3}}, {"type": "Feature", "geometry": {"type": "Point", "coordinates": [98.63927, 19.6439]}, "properties": {"id": "cm-obec-1050130875", "name": "โรงเรียนบ้านจอง", "nameTh": "โรงเรียนบ้านจอง", "nameEn": null, "cat": ["school"], "province": "cm", "slug": "1050130875", "rank": 2}}, {"type": "Feature", "geometry": {"type": "Point", "coordinates": [98.30962, 19.07608]}, "properties": {"id": "cm-obec-1050130341", "name": "โรงเรียนบ้านจันทร์", "nameTh": "โรงเรียนบ้านจันทร์", "nameEn": null, "cat": ["school"], "province": "cm", "slug": "1050130341", "rank": 2}}, {"type": "Feature", "geometry": {"type": "Point", "coordinates": [98.30379, 19.07595]}, "properties": {"id": "cm-obec-1050130350", "name": "โรงเรียนบ้านจันทร์ สาขาแจ่มน้อย", "nameTh": "โรงเรียนบ้านจันทร์ สาขาแจ่มน้อย", "nameEn": null, "cat": ["school"], "province": "cm", "slug": "1050130350", "rank": 3}}, {"type": "Feature", "geometry": {"type": "Point", "coordinates": [98.3594, 17.4452]}, "properties": {"id": "cm-obec-1050130770", "name": "โรงเรียนบ้านซิแบร", "nameTh": "โรงเรียนบ้านซิแบร", "nameEn": null, "cat": ["school"], "province": "cm", "slug": "1050130770", "rank": 3}}, {"type": "Feature", "geometry": {"type": "Point", "coordinates": [99.24808, 19.99114]}, "properties": {"id": "cm-obec-1050130514", "name": "โรงเรียนบ้านดง", "nameTh": "โรงเรียนบ้านดง", "nameEn": null, "cat": ["school"], "province": "cm", "slug": "1050130514", "rank": 3}}, {"type": "Feature", "geometry": {"type": "Point", "coordinates": [99.13973, 19.83139]}, "properties": {"id": "cm-obec-1050130221", "name": "โรงเรียนบ้านดงป่าลัน", "nameTh": "โรงเรียนบ้านดงป่าลัน", "nameEn": null, "cat": ["school"], "province": "cm", "slug": "1050130221", "rank": 3}}, {"type": "Feature", "geometry": {"type": "Point", "coordinates": [98.2062, 18.1972]}, "properties": {"id": "cm-obec-1050130799", "name": "โรงเรียนบ้านดอกแดง", "nameTh": "โรงเรียนบ้านดอกแดง", "nameEn": null, "cat": ["school"], "province": "cm", "slug": "1050130799", "rank": 3}}, {"type": "Feature", "geometry": {"type": "Point", "coordinates": [98.5008, 18.171]}, "properties": {"id": "cm-obec-1050130824", "name": "โรงเรียนบ้านดอยคำ", "nameTh": "โรงเรียนบ้านดอยคำ", "nameEn": null, "cat": ["school"], "province": "cm", "slug": "1050130824", "rank": 2}}, {"type": "Feature", "geometry": {"type": "Point", "coordinates": [98.3101, 17.9226]}, "properties": {"id": "cm-obec-1050130783", "name": "โรงเรียนบ้านตุงติง", "nameTh": "โรงเรียนบ้านตุงติง", "nameEn": null, "cat": ["school"], "province": "cm", "slug": "1050130783", "rank": 3}}, {"type": "Feature", "geometry": {"type": "Point", "coordinates": [98.3567, 17.9601]}, "properties": {"id": "cm-obec-1050130782", "name": "โรงเรียนบ้านตุงลอย", "nameTh": "โรงเรียนบ้านตุงลอย", "nameEn": null, "cat": ["school"], "province": "cm", "slug": "1050130782", "rank": 3}}, {"type": "Feature", "geometry": {"type": "Point", "coordinates": [98.35483, 18.51202]}, "properties": {"id": "cm-obec-1050130334", "name": "โรงเรียนบ้านต่อเรือ", "nameTh": "โรงเรียนบ้านต่อเรือ", "nameEn": null, "cat": ["school"], "province": "cm", "slug": "1050130334", "rank": 2}}, {"type": "Feature", "geometry": {"type": "Point", "coordinates": [99.11314, 19.71754]}, "properties": {"id": "cm-obec-1050130897", "name": "โรงเรียนบ้านต้นโชค", "nameTh": "โรงเรียนบ้านต้นโชค", "nameEn": null, "cat": ["school"], "province": "cm", "slug": "1050130897", "rank": 3}}, {"type": "Feature", "geometry": {"type": "Point", "coordinates": [99.11873, 19.6635]}, "properties": {"id": "cm-obec-1050130884", "name": "โรงเรียนบ้านถ้ำตับเตา", "nameTh": "โรงเรียนบ้านถ้ำตับเตา", "nameEn": null, "cat": ["school"], "province": "cm", "slug": "1050130884", "rank": 3}}, {"type": "Feature", "geometry": {"type": "Point", "coordinates": [98.36735, 18.48539]}, "properties": {"id": "cm-obec-1050130322", "name": "โรงเรียนบ้านทัพ", "nameTh": "โรงเรียนบ้านทัพ", "nameEn": null, "cat": ["school"], "province": "cm", "slug": "1050130322", "rank": 3}}, {"type": "Feature", "geometry": {"type": "Point", "coordinates": [98.2066, 18.0976]}, "properties": {"id": "cm-obec-1050130801", "name": "โรงเรียนบ้านทุ่ง", "nameTh": "โรงเรียนบ้านทุ่ง", "nameEn": null, "cat": ["school"], "province": "cm", "slug": "1050130801", "rank": 3}}, {"type": "Feature", "geometry": {"type": "Point", "coordinates": [98.95848, 19.55496]}, "properties": {"id": "cm-obec-1050130110", "name": "โรงเรียนบ้านทุ่งข้าวพวง", "nameTh": "โรงเรียนบ้านทุ่งข้าวพวง", "nameEn": null, "cat": ["school"], "province": "cm", "slug": "1050130110", "rank": 3}}, {"type": "Feature", "geometry": {"type": "Point", "coordinates": [98.402, 17.9065]}, "properties": {"id": "cm-obec-1050130780", "name": "โรงเรียนบ้านทุ่งจำเริง", "nameTh": "โรงเรียนบ้านทุ่งจำเริง", "nameEn": null, "cat": ["school"], "province": "cm", "slug": "1050130780", "rank": 3}}, {"type": "Feature", "geometry": {"type": "Point", "coordinates": [98.39836, 18.55458]}, "properties": {"id": "cm-obec-1050130333", "name": "โรงเรียนบ้านทุ่งยาว", "nameTh": "โรงเรียนบ้านทุ่งยาว", "nameEn": null, "cat": ["school"], "province": "cm", "slug": "1050130333", "rank": 3}}, {"type": "Feature", "geometry": {"type": "Point", "coordinates": [98.56911, 18.71802]}, "properties": {"id": "cm-obec-1050130923", "name": "โรงเรียนบ้านทุ่งหลวง", "nameTh": "โรงเรียนบ้านทุ่งหลวง", "nameEn": null, "cat": ["school"], "province": "cm", "slug": "1050130923", "rank": 3}}, {"type": "Feature", "geometry": {"type": "Point", "coordinates": [99.12069, 19.80763]}, "properties": {"id": "cm-obec-1050130192", "name": "โรงเรียนบ้านทุ่งหลุก", "nameTh": "โรงเรียนบ้านทุ่งหลุก", "nameEn": null, "cat": ["school"], "province": "cm", "slug": "1050130192", "rank": 2}}, {"type": "Feature", "geometry": {"type": "Point", "coordinates": [98.24454, 18.40762]}, "properties": {"id": "cm-obec-1050130313", "name": "โรงเรียนบ้านทุ่งแก", "nameTh": "โรงเรียนบ้านทุ่งแก", "nameEn": null, "cat": ["school"], "province": "cm", "slug": "1050130313", "rank": 3}}, {"type": "Feature", "geometry": {"type": "Point", "coordinates": [98.16817, 18.26258]}, "properties": {"id": "cm-obec-1050131062", "name": "โรงเรียนบ้านทุ่งแก สาขาบ้านแม่แอบ", "nameTh": "โรงเรียนบ้านทุ่งแก สาขาบ้านแม่แอบ", "nameEn": null, "cat": ["school"], "province": "cm", "slug": "1050131062", "rank": 3}}, {"type": "Feature", "geometry": {"type": "Point", "coordinates": [98.26231, 18.75455]}, "properties": {"id": "cm-obec-1050130302", "name": "โรงเรียนบ้านนากลาง", "nameTh": "โรงเรียนบ้านนากลาง", "nameEn": null, "cat": ["school"], "province": "cm", "slug": "1050130302", "rank": 3}}, {"type": "Feature", "geometry": {"type": "Point", "coordinates": [98.21497, 18.74864]}, "properties": {"id": "cm-obec-1050130305", "name": "โรงเรียนบ้านนากลาง สาขาห้วยผักกูด", "nameTh": "โรงเรียนบ้านนากลาง สาขาห้วยผักกูด", "nameEn": null, "cat": ["school"], "province": "cm", "slug": "1050130305", "rank": 3}}, {"type": "Feature", "geometry": {"type": "Point", "coordinates": [98.6471, 19.00787]}, "properties": {"id": "cm-obec-1050130542", "name": "โรงเรียนบ้านนากู่", "nameTh": "โรงเรียนบ้านนากู่", "nameEn": null, "cat": ["school"], "province": "cm", "slug": "1050130542", "rank": 3}}, {"type": "Feature", "geometry": {"type": "Point", "coordinates": [98.3606, 18.0885]}, "properties": {"id": "cm-obec-1050130809", "name": "โรงเรียนบ้านนาฟ่อน", "nameTh": "โรงเรียนบ้านนาฟ่อน", "nameEn": null, "cat": ["school"], "province": "cm", "slug": "1050130809", "rank": 3}}, {"type": "Feature", "geometry": {"type": "Point", "coordinates": [98.59316, 19.60622]}, "properties": {"id": "cm-obec-1050130871", "name": "โรงเรียนบ้านนามน", "nameTh": "โรงเรียนบ้านนามน", "nameEn": null, "cat": ["school"], "province": "cm", "slug": "1050130871", "rank": 3}}, {"type": "Feature", "geometry": {"type": "Point", "coordinates": [98.96053, 19.62899]}, "properties": {"id": "cm-obec-1050130104", "name": "โรงเรียนบ้านนาหวาย", "nameTh": "โรงเรียนบ้านนาหวาย", "nameEn": null, "cat": ["school"], "province": "cm", "slug": "1050130104", "rank": 3}}, {"type": "Feature", "geometry": {"type": "Point", "coordinates": [98.33883, 18.68151]}, "properties": {"id": "cm-obec-1050130303", "name": "โรงเรียนบ้านนาฮ่อง", "nameTh": "โรงเรียนบ้านนาฮ่อง", "nameEn": null, "cat": ["school"], "province": "cm", "slug": "1050130303", "rank": 3}}, {"type": "Feature", "geometry": {"type": "Point", "coordinates": [98.1535, 17.8058]}, "properties": {"id": "cm-obec-1050130791", "name": "โรงเรียนบ้านนาเกียน", "nameTh": "โรงเรียนบ้านนาเกียน", "nameEn": null, "cat": ["school"], "province": "cm", "slug": "1050130791", "rank": 3}}, {"type": "Feature", "geometry": {"type": "Point", "coordinates": [98.4816, 17.6086]}, "properties": {"id": "cm-obec-1050130789", "name": "โรงเรียนบ้านนาไคร้", "nameTh": "โรงเรียนบ้านนาไคร้", "nameEn": null, "cat": ["school"], "province": "cm", "slug": "1050130789", "rank": 2}}, {"type": "Feature", "geometry": {"type": "Point", "coordinates": [98.49624, 18.30556]}, "properties": {"id": "cm-obec-1050130064", "name": "โรงเรียนบ้านบนนา", "nameTh": "โรงเรียนบ้านบนนา", "nameEn": null, "cat": ["school"], "province": "cm", "slug": "1050130064", "rank": 3}}, {"type": "Feature", "geometry": {"type": "Point", "coordinates": [98.79309, 18.8538]}, "properties": {"id": "cm-obec-1050130424", "name": "โรงเรียนบ้านบวกจั่น", "nameTh": "โรงเรียนบ้านบวกจั่น", "nameEn": null, "cat": ["school"], "province": "cm", "slug": "1050130424", "rank": 3}}, {"type": "Feature", "geometry": {"type": "Point", "coordinates": [98.225, 18.1018]}, "properties": {"id": "cm-obec-1050130802", "name": "โรงเรียนบ้านบ่อสลี", "nameTh": "โรงเรียนบ้านบ่อสลี", "nameEn": null, "cat": ["school"], "province": "cm", "slug": "1050130802", "rank": 3}}, {"type": "Feature", "geometry": {"type": "Point", "coordinates": [98.3544, 18.1525]}, "properties": {"id": "cm-obec-1050130806", "name": "โรงเรียนบ้านบ่อหลวง", "nameTh": "โรงเรียนบ้านบ่อหลวง", "nameEn": null, "cat": ["school"], "province": "cm", "slug": "1050130806", "rank": 3}}, {"type": "Feature", "geometry": {"type": "Point", "coordinates": [98.5713, 18.82826]}, "properties": {"id": "cm-obec-1050130531", "name": "โรงเรียนบ้านบ่อแก้ว", "nameTh": "โรงเรียนบ้านบ่อแก้ว", "nameEn": null, "cat": ["school"], "province": "cm", "slug": "1050130531", "rank": 2}}, {"type": "Feature", "geometry": {"type": "Point", "coordinates": [99.14661, 19.74872]}, "properties": {"id": "cm-obec-1050130889", "name": "โรงเรียนบ้านปงตำ", "nameTh": "โรงเรียนบ้านปงตำ", "nameEn": null, "cat": ["school"], "province": "cm", "slug": "1050130889", "rank": 3}}, {"type": "Feature", "geometry": {"type": "Point", "coordinates": [99.1218, 19.73507]}, "properties": {"id": "cm-obec-1050130898", "name": "โรงเรียนบ้านปงวิทยาสรรค์", "nameTh": "โรงเรียนบ้านปงวิทยาสรรค์", "nameEn": null, "cat": ["school"], "province": "cm", "slug": "1050130898", "rank": 3}}, {"type": "Feature", "geometry": {"type": "Point", "coordinates": [98.65315, 19.04177]}, "properties": {"id": "cm-obec-1050130543", "name": "โรงเรียนบ้านปางขุม", "nameTh": "โรงเรียนบ้านปางขุม", "nameEn": null, "cat": ["school"], "province": "cm", "slug": "1050130543", "rank": 3}}, {"type": "Feature", "geometry": {"type": "Point", "coordinates": [99.28636, 20.08788]}, "properties": {"id": "cm-obec-1050130503", "name": "โรงเรียนบ้านปางต้นเดื่อ", "nameTh": "โรงเรียนบ้านปางต้นเดื่อ", "nameEn": null, "cat": ["school"], "province": "cm", "slug": "1050130503", "rank": 3}}, {"type": "Feature", "geometry": {"type": "Point", "coordinates": [99.30125, 19.80177]}, "properties": {"id": "cm-obec-1050130228", "name": "โรงเรียนบ้านปางปอย", "nameTh": "โรงเรียนบ้านปางปอย", "nameEn": null, "cat": ["school"], "province": "cm", "slug": "1050130228", "rank": 3}}, {"type": "Feature", "geometry": {"type": "Point", "coordinates": [98.62436, 19.60759]}, "properties": {"id": "cm-obec-1050130878", "name": "โรงเรียนบ้านปางป๋อ", "nameTh": "โรงเรียนบ้านปางป๋อ", "nameEn": null, "cat": ["school"], "province": "cm", "slug": "1050130878", "rank": 3}}, {"type": "Feature", "geometry": {"type": "Point", "coordinates": [98.22352, 18.48644]}, "properties": {"id": "cm-obec-1050130307", "name": "โรงเรียนบ้านปางหินฝน", "nameTh": "โรงเรียนบ้านปางหินฝน", "nameEn": null, "cat": ["school"], "province": "cm", "slug": "1050130307", "rank": 3}}, {"type": "Feature", "geometry": {"type": "Point", "coordinates": [98.92022, 19.26038]}, "properties": {"id": "cm-obec-1050130359", "name": "โรงเรียนบ้านปางห้วยตาด", "nameTh": "โรงเรียนบ้านปางห้วยตาด", "nameEn": null, "cat": ["school"], "province": "cm", "slug": "1050130359", "rank": 3}}, {"type": "Feature", "geometry": {"type": "Point", "coordinates": [98.11209, 18.79831]}, "properties": {"id": "cm-obec-1050130325", "name": "โรงเรียนบ้านปางอุ๋ง", "nameTh": "โรงเรียนบ้านปางอุ๋ง", "nameEn": null, "cat": ["school"], "province": "cm", "slug": "1050130325", "rank": 3}}, {"type": "Feature", "geometry": {"type": "Point", "coordinates": [98.12359, 18.7267]}, "properties": {"id": "cm-obec-1050130331", "name": "โรงเรียนบ้านปางอุ๋ง สาขาแม่สะต๊อบ", "nameTh": "โรงเรียนบ้านปางอุ๋ง สาขาแม่สะต๊อบ", "nameEn": null, "cat": ["school"], "province": "cm", "slug": "1050130331", "rank": 2}}, {"type": "Feature", "geometry": {"type": "Point", "coordinates": [98.15159, 18.79118]}, "properties": {"id": "cm-obec-1050130332", "name": "โรงเรียนบ้านปางเกี๊ยะ", "nameTh": "โรงเรียนบ้านปางเกี๊ยะ", "nameEn": null, "cat": ["school"], "province": "cm", "slug": "1050130332", "rank": 3}}, {"type": "Feature", "geometry": {"type": "Point", "coordinates": [99.0179, 19.48246]}, "properties": {"id": "cm-obec-1050130118", "name": "โรงเรียนบ้านปางเฟือง", "nameTh": "โรงเรียนบ้านปางเฟือง", "nameEn": null, "cat": ["school"], "province": "cm", "slug": "1050130118", "rank": 3}}, {"type": "Feature", "geometry": {"type": "Point", "coordinates": [99.02531, 19.34759]}, "properties": {"id": "cm-obec-1050130103", "name": "โรงเรียนบ้านปางแดง", "nameTh": "โรงเรียนบ้านปางแดง", "nameEn": null, "cat": ["school"], "province": "cm", "slug": "1050130103", "rank": 3}}, {"type": "Feature", "geometry": {"type": "Point", "coordinates": [98.86687, 19.14275]}, "properties": {"id": "cm-obec-1050130408", "name": "โรงเรียนบ้านปางไม้แดง", "nameTh": "โรงเรียนบ้านปางไม้แดง", "nameEn": null, "cat": ["school"], "province": "cm", "slug": "1050130408", "rank": 3}}, {"type": "Feature", "geometry": {"type": "Point", "coordinates": [98.82289, 18.95783]}, "properties": {"id": "cm-obec-1050130431", "name": "โรงเรียนบ้านปางไฮ", "nameTh": "โรงเรียนบ้านปางไฮ", "nameEn": null, "cat": ["school"], "province": "cm", "slug": "1050130431", "rank": 2}}, {"type": "Feature", "geometry": {"type": "Point", "coordinates": [99.3067, 19.91557]}, "properties": {"id": "cm-obec-1050130495", "name": "โรงเรียนบ้านป่าก๊อ", "nameTh": "โรงเรียนบ้านป่าก๊อ", "nameEn": null, "cat": ["school"], "province": "cm", "slug": "1050130495", "rank": 3}}, {"type": "Feature", "geometry": {"type": "Point", "coordinates": [99.17053, 19.73432]}, "properties": {"id": "cm-obec-1050130906", "name": "โรงเรียนบ้านป่างิ้ว", "nameTh": "โรงเรียนบ้านป่างิ้ว", "nameEn": null, "cat": ["school"], "province": "cm", "slug": "1050130906", "rank": 2}}, {"type": "Feature", "geometry": {"type": "Point", "coordinates": [98.75599, 18.93035]}, "properties": {"id": "cm-obec-1050130527", "name": "โรงเรียนบ้านป่าลาน", "nameTh": "โรงเรียนบ้านป่าลาน", "nameEn": null, "cat": ["school"], "province": "cm", "slug": "1050130527", "rank": 3}}, {"type": "Feature", "geometry": {"type": "Point", "coordinates": [99.2903, 19.905]}, "properties": {"id": "cm-obec-1050130496", "name": "โรงเรียนบ้านป่าแดง", "nameTh": "โรงเรียนบ้านป่าแดง", "nameEn": null, "cat": ["school"], "province": "cm", "slug": "1050130496", "rank": 3}}, {"type": "Feature", "geometry": {"type": "Point", "coordinates": [98.40962, 18.49995]}, "properties": {"id": "cm-obec-1050130283", "name": "โรงเรียนบ้านผานัง", "nameTh": "โรงเรียนบ้านผานัง", "nameEn": null, "cat": ["school"], "province": "cm", "slug": "1050130283", "rank": 2}}, {"type": "Feature", "geometry": {"type": "Point", "coordinates": [98.2894, 17.8761]}, "properties": {"id": "cm-obec-1050130774", "name": "โรงเรียนบ้านผาปูน", "nameTh": "โรงเรียนบ้านผาปูน", "nameEn": null, "cat": ["school"], "province": "cm", "slug": "1050130774", "rank": 3}}, {"type": "Feature", "geometry": {"type": "Point", "coordinates": [98.23033, 18.80277]}, "properties": {"id": "cm-obec-1050130324", "name": "โรงเรียนบ้านผาละปิ", "nameTh": "โรงเรียนบ้านผาละปิ", "nameEn": null, "cat": ["school"], "province": "cm", "slug": "1050130324", "rank": 3}}, {"type": "Feature", "geometry": {"type": "Point", "coordinates": [98.81019, 19.14583]}, "properties": {"id": "cm-obec-1050130388", "name": "โรงเรียนบ้านผาหมอน", "nameTh": "โรงเรียนบ้านผาหมอน", "nameEn": null, "cat": ["school"], "province": "cm", "slug": "1050130388", "rank": 2}}, {"type": "Feature", "geometry": {"type": "Point", "coordinates": [99.01316, 19.76211]}, "properties": {"id": "cm-obec-1050130901", "name": "โรงเรียนบ้านผาแดง", "nameTh": "โรงเรียนบ้านผาแดง", "nameEn": null, "cat": ["school"], "province": "cm", "slug": "1050130901", "rank": 3}}, {"type": "Feature", "geometry": {"type": "Point", "coordinates": [98.1415, 17.9097]}, "properties": {"id": "cm-obec-1050130982", "name": "โรงเรียนบ้านผีปานเหนือ", "nameTh": "โรงเรียนบ้านผีปานเหนือ", "nameEn": null, "cat": ["school"], "province": "cm", "slug": "1050130982", "rank": 3}}, {"type": "Feature", "geometry": {"type": "Point", "coordinates": [98.30008, 18.03906]}, "properties": {"id": "cm-obec-1050130814", "name": "โรงเรียนบ้านพุย", "nameTh": "โรงเรียนบ้านพุย", "nameEn": null, "cat": ["school"], "province": "cm", "slug": "1050130814", "rank": 3}}, {"type": "Feature", "geometry": {"type": "Point", "coordinates": [98.24523, 18.52773]}, "properties": {"id": "cm-obec-1050130316", "name": "โรงเรียนบ้านพุย สาขาพุยใต้", "nameTh": "โรงเรียนบ้านพุย สาขาพุยใต้", "nameEn": null, "cat": ["school"], "province": "cm", "slug": "1050130316", "rank": 3}}, {"type": "Feature", "geometry": {"type": "Point", "coordinates": [98.5234, 17.5714]}, "properties": {"id": "cm-obec-1050130788", "name": "โรงเรียนบ้านมูเซอ", "nameTh": "โรงเรียนบ้านมูเซอ", "nameEn": null, "cat": ["school"], "province": "cm", "slug": "1050130788", "rank": 2}}, {"type": "Feature", "geometry": {"type": "Point", "coordinates": [99.11011, 19.94016]}, "properties": {"id": "cm-obec-1050130208", "name": "โรงเรียนบ้านม่วงชุม", "nameTh": "โรงเรียนบ้านม่วงชุม", "nameEn": null, "cat": ["school"], "province": "cm", "slug": "1050130208", "rank": 3}}, {"type": "Feature", "geometry": {"type": "Point", "coordinates": [98.6291, 19.62883]}, "properties": {"id": "cm-obec-1050130877", "name": "โรงเรียนบ้านม่วงป็อก", "nameTh": "โรงเรียนบ้านม่วงป็อก", "nameEn": null, "cat": ["school"], "province": "cm", "slug": "1050130877", "rank": 3}}, {"type": "Feature", "geometry": {"type": "Point", "coordinates": [99.16804, 19.91313]}, "properties": {"id": "cm-obec-1050130200", "name": "โรงเรียนบ้านม่อนปิ่น", "nameTh": "โรงเรียนบ้านม่อนปิ่น", "nameEn": null, "cat": ["school"], "province": "cm", "slug": "1050130200", "rank": 3}}, {"type": "Feature", "geometry": {"type": "Point", "coordinates": [99.10026, 19.79625]}, "properties": {"id": "cm-obec-1050130193", "name": "โรงเรียนบ้านยาง", "nameTh": "โรงเรียนบ้านยาง", "nameEn": null, "cat": ["school"], "province": "cm", "slug": "1050130193", "rank": 3}}, {"type": "Feature", "geometry": {"type": "Point", "coordinates": [98.4643, 17.7943]}, "properties": {"id": "cm-obec-1050130787", "name": "โรงเรียนบ้านยางครก", "nameTh": "โรงเรียนบ้านยางครก", "nameEn": null, "cat": ["school"], "province": "cm", "slug": "1050130787", "rank": 3}}, {"type": "Feature", "geometry": {"type": "Point", "coordinates": [98.32, 17.824]}, "properties": {"id": "cm-obec-1050130773", "name": "โรงเรียนบ้านยางเปา", "nameTh": "โรงเรียนบ้านยางเปา", "nameEn": null, "cat": ["school"], "province": "cm", "slug": "1050130773", "rank": 2}}, {"type": "Feature", "geometry": {"type": "Point", "coordinates": [98.4909, 17.7772]}, "properties": {"id": "cm-obec-1050130786", "name": "โรงเรียนบ้านยางเปียง", "nameTh": "โรงเรียนบ้านยางเปียง", "nameEn": null, "cat": ["school"], "province": "cm", "slug": "1050130786", "rank": 3}}, {"type": "Feature", "geometry": {"type": "Point", "coordinates": [98.4137, 17.8584]}, "properties": {"id": "cm-obec-1050130781", "name": "โรงเรียนบ้านยางแก้ว", "nameTh": "โรงเรียนบ้านยางแก้ว", "nameEn": null, "cat": ["school"], "province": "cm", "slug": "1050130781", "rank": 3}}, {"type": "Feature", "geometry": {"type": "Point", "coordinates": [98.95929, 19.68188]}, "properties": {"id": "cm-obec-1050130132", "name": "โรงเรียนบ้านรินหลวง", "nameTh": "โรงเรียนบ้านรินหลวง", "nameEn": null, "cat": ["school"], "province": "cm", "slug": "1050130132", "rank": 3}}, {"type": "Feature", "geometry": {"type": "Point", "coordinates": [99.10183, 19.96721]}, "properties": {"id": "cm-obec-1050130209", "name": "โรงเรียนบ้านลาน", "nameTh": "โรงเรียนบ้านลาน", "nameEn": null, "cat": ["school"], "province": "cm", "slug": "1050130209", "rank": 3}}, {"type": "Feature", "geometry": {"type": "Point", "coordinates": [98.61173, 18.18483]}, "properties": {"id": "cm-obec-1050130807", "name": "โรงเรียนบ้านวังกอง", "nameTh": "โรงเรียนบ้านวังกอง", "nameEn": null, "cat": ["school"], "province": "cm", "slug": "1050130807", "rank": 3}}, {"type": "Feature", "geometry": {"type": "Point", "coordinates": [98.72833, 19.37764]}, "properties": {"id": "cm-obec-1050130124", "name": "โรงเรียนบ้านวังมะริว", "nameTh": "โรงเรียนบ้านวังมะริว", "nameEn": null, "cat": ["school"], "province": "cm", "slug": "1050130124", "rank": 3}}, {"type": "Feature", "geometry": {"type": "Point", "coordinates": [98.4071, 17.6054]}, "properties": {"id": "cm-obec-1050130775", "name": "โรงเรียนบ้านสบลาน", "nameTh": "โรงเรียนบ้านสบลาน", "nameEn": null, "cat": ["school"], "province": "cm", "slug": "1050130775", "rank": 3}}, {"type": "Feature", "geometry": {"type": "Point", "coordinates": [98.38433, 18.62477]}, "properties": {"id": "cm-obec-1050130301", "name": "โรงเรียนบ้านสบวาก", "nameTh": "โรงเรียนบ้านสบวาก", "nameEn": null, "cat": ["school"], "province": "cm", "slug": "1050130301", "rank": 3}}, {"type": "Feature", "geometry": {"type": "Point", "coordinates": [98.32277, 18.8964]}, "properties": {"id": "cm-obec-1050130328", "name": "โรงเรียนบ้านสบแม่รวม", "nameTh": "โรงเรียนบ้านสบแม่รวม", "nameEn": null, "cat": ["school"], "province": "cm", "slug": "1050130328", "rank": 2}}, {"type": "Feature", "geometry": {"type": "Point", "coordinates": [98.29885, 18.46658]}, "properties": {"id": "cm-obec-1050130306", "name": "โรงเรียนบ้านสองธาร", "nameTh": "โรงเรียนบ้านสองธาร", "nameEn": null, "cat": ["school"], "province": "cm", "slug": "1050130306", "rank": 3}}, {"type": "Feature", "geometry": {"type": "Point", "coordinates": [99.21276, 19.87698]}, "properties": {"id": "cm-obec-1050130215", "name": "โรงเรียนบ้านสันต้นดู่", "nameTh": "โรงเรียนบ้านสันต้นดู่", "nameEn": null, "cat": ["school"], "province": "cm", "slug": "1050130215", "rank": 3}}, {"type": "Feature", "geometry": {"type": "Point", "coordinates": [99.23011, 19.89773]}, "properties": {"id": "cm-obec-1050130179", "name": "โรงเรียนบ้านสันทรายคองน้อย", "nameTh": "โรงเรียนบ้านสันทรายคองน้อย", "nameEn": null, "cat": ["school"], "province": "cm", "slug": "1050130179", "rank": 3}}, {"type": "Feature", "geometry": {"type": "Point", "coordinates": [98.81881, 19.3307]}, "properties": {"id": "cm-obec-1050130092", "name": "โรงเรียนบ้านสันป่าเกี๊ยะ", "nameTh": "โรงเรียนบ้านสันป่าเกี๊ยะ", "nameEn": null, "cat": ["school"], "province": "cm", "slug": "1050130092", "rank": 2}}, {"type": "Feature", "geometry": {"type": "Point", "coordinates": [99.31855, 20.03803]}, "properties": {"id": "cm-obec-1050130504", "name": "โรงเรียนบ้านสันป่าเหียว", "nameTh": "โรงเรียนบ้านสันป่าเหียว", "nameEn": null, "cat": ["school"], "province": "cm", "slug": "1050130504", "rank": 3}}, {"type": "Feature", "geometry": {"type": "Point", "coordinates": [99.14098, 19.84478]}, "properties": {"id": "cm-obec-1050130189", "name": "โรงเรียนบ้านสันป่าแดง", "nameTh": "โรงเรียนบ้านสันป่าแดง", "nameEn": null, "cat": ["school"], "province": "cm", "slug": "1050130189", "rank": 3}}, {"type": "Feature", "geometry": {"type": "Point", "coordinates": [98.41414, 18.5086]}, "properties": {"id": "cm-obec-1050130282", "name": "โรงเรียนบ้านสามสบ", "nameTh": "โรงเรียนบ้านสามสบ", "nameEn": null, "cat": ["school"], "province": "cm", "slug": "1050130282", "rank": 3}}, {"type": "Feature", "geometry": {"type": "Point", "coordinates": [99.03829, 19.72286]}, "properties": {"id": "cm-obec-1050130900", "name": "โรงเรียนบ้านสินชัย", "nameTh": "โรงเรียนบ้านสินชัย", "nameEn": null, "cat": ["school"], "province": "cm", "slug": "1050130900", "rank": 3}}, {"type": "Feature", "geometry": {"type": "Point", "coordinates": [99.53132, 20.09586]}, "properties": {"id": "cm-obec-1050130475", "name": "โรงเรียนบ้านสุขฤทัย", "nameTh": "โรงเรียนบ้านสุขฤทัย", "nameEn": null, "cat": ["school"], "province": "cm", "slug": "1050130475", "rank": 2}}, {"type": "Feature", "geometry": {"type": "Point", "coordinates": [98.71044, 19.37445]}, "properties": {"id": "cm-obec-1050130125", "name": "โรงเรียนบ้านหนองบัว", "nameTh": "โรงเรียนบ้านหนองบัว", "nameEn": null, "cat": ["school"], "province": "cm", "slug": "1050130125", "rank": 2}}, {"type": "Feature", "geometry": {"type": "Point", "coordinates": [98.95339, 19.715]}, "properties": {"id": "cm-obec-1050130130", "name": "โรงเรียนบ้านหนองเขียว", "nameTh": "โรงเรียนบ้านหนองเขียว", "nameEn": null, "cat": ["school"], "province": "cm", "slug": "1050130130", "rank": 2}}, {"type": "Feature", "geometry": {"type": "Point", "coordinates": [98.55097, 18.68109]}, "properties": {"id": "cm-obec-1050130924", "name": "โรงเรียนบ้านหนองเต่า", "nameTh": "โรงเรียนบ้านหนองเต่า", "nameEn": null, "cat": ["school"], "province": "cm", "slug": "1050130924", "rank": 2}}, {"type": "Feature", "geometry": {"type": "Point", "coordinates": [98.3619, 17.7889]}, "properties": {"id": "cm-obec-1050130776", "name": "โรงเรียนบ้านหลวง", "nameTh": "โรงเรียนบ้านหลวง", "nameEn": null, "cat": ["school"], "province": "cm", "slug": "1050130776", "rank": 3}}, {"type": "Feature", "geometry": {"type": "Point", "coordinates": [99.04234, 19.86983]}, "properties": {"id": "cm-obec-1050130197", "name": "โรงเรียนบ้านหลวง (อ.ฝาง)", "nameTh": "โรงเรียนบ้านหลวง (อ.ฝาง)", "nameEn": null, "cat": ["school"], "province": "cm", "slug": "1050130197", "rank": 3}}, {"type": "Feature", "geometry": {"type": "Point", "coordinates": [99.13641, 19.92359]}, "properties": {"id": "cm-obec-1050130207", "name": "โรงเรียนบ้านหัวนา", "nameTh": "โรงเรียนบ้านหัวนา", "nameEn": null, "cat": ["school"], "province": "cm", "slug": "1050130207", "rank": 3}}, {"type": "Feature", "geometry": {"type": "Point", "coordinates": [99.15379, 19.92094]}, "properties": {"id": "cm-obec-1050130202", "name": "โรงเรียนบ้านหัวฝาย", "nameTh": "โรงเรียนบ้านหัวฝาย", "nameEn": null, "cat": ["school"], "province": "cm", "slug": "1050130202", "rank": 3}}, {"type": "Feature", "geometry": {"type": "Point", "coordinates": [99.16789, 19.60799]}, "properties": {"id": "cm-obec-1050130886", "name": "โรงเรียนบ้านหัวฝาย", "nameTh": "โรงเรียนบ้านหัวฝาย", "nameEn": null, "cat": ["school"], "province": "cm", "slug": "1050130886", "rank": 3}}, {"type": "Feature", "geometry": {"type": "Point", "coordinates": [98.16293, 17.85055]}, "properties": {"id": "cm-obec-1050130793", "name": "โรงเรียนบ้านห่างหลวง", "nameTh": "โรงเรียนบ้านห่างหลวง", "nameEn": null, "cat": ["school"], "province": "cm", "slug": "1050130793", "rank": 3}}, {"type": "Feature", "geometry": {"type": "Point", "coordinates": [98.53974, 18.74117]}, "properties": {"id": "cm-obec-1050130931", "name": "โรงเรียนบ้านห้วยข้าวลีบ", "nameTh": "โรงเรียนบ้านห้วยข้าวลีบ", "nameEn": null, "cat": ["school"], "province": "cm", "slug": "1050130931", "rank": 3}}, {"type": "Feature", "geometry": {"type": "Point", "coordinates": [99.41243, 20.03184]}, "properties": {"id": "cm-obec-1050130488", "name": "โรงเรียนบ้านห้วยคอกหมู", "nameTh": "โรงเรียนบ้านห้วยคอกหมู", "nameEn": null, "cat": ["school"], "province": "cm", "slug": "1050130488", "rank": 3}}, {"type": "Feature", "geometry": {"type": "Point", "coordinates": [99.07058, 19.60308]}, "properties": {"id": "cm-obec-1050130122", "name": "โรงเรียนบ้านห้วยจะค่าน ตชด.อนุสรณ์", "nameTh": "โรงเรียนบ้านห้วยจะค่าน ตชด.อนุสรณ์", "nameEn": null, "cat": ["school"], "province": "cm", "slug": "1050130122", "rank": 3}}, {"type": "Feature", "geometry": {"type": "Point", "coordinates": [98.55258, 18.70857]}, "properties": {"id": "cm-obec-1050130927", "name": "โรงเรียนบ้านห้วยตอง", "nameTh": "โรงเรียนบ้านห้วยตอง", "nameEn": null, "cat": ["school"], "province": "cm", "slug": "1050130927", "rank": 3}}, {"type": "Feature", "geometry": {"type": "Point", "coordinates": [99.25736, 19.69788]}, "properties": {"id": "cm-obec-1050130907", "name": "โรงเรียนบ้านห้วยต้นตอง", "nameTh": "โรงเรียนบ้านห้วยต้นตอง", "nameEn": null, "cat": ["school"], "province": "cm", "slug": "1050130907", "rank": 3}}, {"type": "Feature", "geometry": {"type": "Point", "coordinates": [98.4839, 17.3773]}, "properties": {"id": "cm-obec-1050130763", "name": "โรงเรียนบ้านห้วยน้ำขาว", "nameTh": "โรงเรียนบ้านห้วยน้ำขาว", "nameEn": null, "cat": ["school"], "province": "cm", "slug": "1050130763", "rank": 3}}, {"type": "Feature", "geometry": {"type": "Point", "coordinates": [98.56747, 18.83001]}, "properties": {"id": "cm-obec-1050130537", "name": "โรงเรียนบ้านห้วยน้ำจาง", "nameTh": "โรงเรียนบ้านห้วยน้ำจาง", "nameEn": null, "cat": ["school"], "province": "cm", "slug": "1050130537", "rank": 3}}, {"type": "Feature", "geometry": {"type": "Point", "coordinates": [99.11952, 19.75778]}, "properties": {"id": "cm-obec-1050130890", "name": "โรงเรียนบ้านห้วยบง", "nameTh": "โรงเรียนบ้านห้วยบง", "nameEn": null, "cat": ["school"], "province": "cm", "slug": "1050130890", "rank": 2}}, {"type": "Feature", "geometry": {"type": "Point", "coordinates": [99.19933, 19.95312]}, "properties": {"id": "cm-obec-1050130234", "name": "โรงเรียนบ้านห้วยบอน", "nameTh": "โรงเรียนบ้านห้วยบอน", "nameEn": null, "cat": ["school"], "province": "cm", "slug": "1050130234", "rank": 2}}, {"type": "Feature", "geometry": {"type": "Point", "coordinates": [98.37018, 18.93997]}, "properties": {"id": "cm-obec-1050130343", "name": "โรงเรียนบ้านห้วยปู", "nameTh": "โรงเรียนบ้านห้วยปู", "nameEn": null, "cat": ["school"], "province": "cm", "slug": "1050130343", "rank": 3}}, {"type": "Feature", "geometry": {"type": "Point", "coordinates": [98.36691, 18.89061]}, "properties": {"id": "cm-obec-1050130329", "name": "โรงเรียนบ้านห้วยปู สาขาแม่ตะละใต้", "nameTh": "โรงเรียนบ้านห้วยปู สาขาแม่ตะละใต้", "nameEn": null, "cat": ["school"], "province": "cm", "slug": "1050130329", "rank": 2}}, {"type": "Feature", "geometry": {"type": "Point", "coordinates": [98.4921, 17.5085]}, "properties": {"id": "cm-obec-1050130766", "name": "โรงเรียนบ้านห้วยปูลิง", "nameTh": "โรงเรียนบ้านห้วยปูลิง", "nameEn": null, "cat": ["school"], "province": "cm", "slug": "1050130766", "rank": 3}}, {"type": "Feature", "geometry": {"type": "Point", "coordinates": [98.22093, 18.86434]}, "properties": {"id": "cm-obec-1050130330", "name": "โรงเรียนบ้านห้วยผา", "nameTh": "โรงเรียนบ้านห้วยผา", "nameEn": null, "cat": ["school"], "province": "cm", "slug": "1050130330", "rank": 3}}, {"type": "Feature", "geometry": {"type": "Point", "coordinates": [99.31557, 19.97351]}, "properties": {"id": "cm-obec-1050130480", "name": "โรงเรียนบ้านห้วยม่วง", "nameTh": "โรงเรียนบ้านห้วยม่วง", "nameEn": null, "cat": ["school"], "province": "cm", "slug": "1050130480", "rank": 3}}, {"type": "Feature", "geometry": {"type": "Point", "coordinates": [98.27002, 18.99825]}, "properties": {"id": "cm-obec-1050130347", "name": "โรงเรียนบ้านห้วยยา", "nameTh": "โรงเรียนบ้านห้วยยา", "nameEn": null, "cat": ["school"], "province": "cm", "slug": "1050130347", "rank": 3}}, {"type": "Feature", "geometry": {"type": "Point", "coordinates": [99.46605, 20.07241]}, "properties": {"id": "cm-obec-1050130472", "name": "โรงเรียนบ้านห้วยศาลา", "nameTh": "โรงเรียนบ้านห้วยศาลา", "nameEn": null, "cat": ["school"], "province": "cm", "slug": "1050130472", "rank": 3}}, {"type": "Feature", "geometry": {"type": "Point", "coordinates": [98.53588, 18.36704]}, "properties": {"id": "cm-obec-1050130049", "name": "โรงเรียนบ้านห้วยส้มป่อย", "nameTh": "โรงเรียนบ้านห้วยส้มป่อย", "nameEn": null, "cat": ["school"], "province": "cm", "slug": "1050130049", "rank": 2}}, {"type": "Feature", "geometry": {"type": "Point", "coordinates": [99.1267, 19.90733]}, "properties": {"id": "cm-obec-1050130211", "name": "โรงเรียนบ้านห้วยหมากเลี่ยม", "nameTh": "โรงเรียนบ้านห้วยหมากเลี่ยม", "nameEn": null, "cat": ["school"], "province": "cm", "slug": "1050130211", "rank": 3}}, {"type": "Feature", "geometry": {"type": "Point", "coordinates": [98.4575, 17.4185]}, "properties": {"id": "cm-obec-1050130765", "name": "โรงเรียนบ้านห้วยหล่อดูก", "nameTh": "โรงเรียนบ้านห้วยหล่อดูก", "nameEn": null, "cat": ["school"], "province": "cm", "slug": "1050130765", "rank": 3}}, {"type": "Feature", "geometry": {"type": "Point", "coordinates": [99.1295, 19.81183]}, "properties": {"id": "cm-obec-1050130195", "name": "โรงเรียนบ้านห้วยห้อม", "nameTh": "โรงเรียนบ้านห้วยห้อม", "nameEn": null, "cat": ["school"], "province": "cm", "slug": "1050130195", "rank": 3}}, {"type": "Feature", "geometry": {"type": "Point", "coordinates": [99.18891, 19.95313]}, "properties": {"id": "cm-obec-1050130235", "name": "โรงเรียนบ้านห้วยเฮี่ยน", "nameTh": "โรงเรียนบ้านห้วยเฮี่ยน", "nameEn": null, "cat": ["school"], "province": "cm", "slug": "1050130235", "rank": 2}}, {"type": "Feature", "geometry": {"type": "Point", "coordinates": [98.3129, 17.6242]}, "properties": {"id": "cm-obec-1050130981", "name": "โรงเรียนบ้านห้วยโค้ง", "nameTh": "โรงเรียนบ้านห้วยโค้ง", "nameEn": null, "cat": ["school"], "province": "cm", "slug": "1050130981", "rank": 3}}, {"type": "Feature", "geometry": {"type": "Point", "coordinates": [98.64653, 19.64747]}, "properties": {"id": "cm-obec-1050130876", "name": "โรงเรียนบ้านห้วยไคร้", "nameTh": "โรงเรียนบ้านห้วยไคร้", "nameEn": null, "cat": ["school"], "province": "cm", "slug": "1050130876", "rank": 2}}, {"type": "Feature", "geometry": {"type": "Point", "coordinates": [99.21604, 19.81302]}, "properties": {"id": "cm-obec-1050130225", "name": "โรงเรียนบ้านห้วยไคร้ (ฝาง)", "nameTh": "โรงเรียนบ้านห้วยไคร้ (ฝาง)", "nameEn": null, "cat": ["school"], "province": "cm", "slug": "1050130225", "rank": 3}}, {"type": "Feature", "geometry": {"type": "Point", "coordinates": [99.14053, 19.72928]}, "properties": {"id": "cm-obec-1050130894", "name": "โรงเรียนบ้านห้วยไผ่", "nameTh": "โรงเรียนบ้านห้วยไผ่", "nameEn": null, "cat": ["school"], "province": "cm", "slug": "1050130894", "rank": 3}}, {"type": "Feature", "geometry": {"type": "Point", "coordinates": [98.4627, 17.4268]}, "properties": {"id": "cm-obec-1050130768", "name": "โรงเรียนบ้านห้วยไม้หก", "nameTh": "โรงเรียนบ้านห้วยไม้หก", "nameEn": null, "cat": ["school"], "province": "cm", "slug": "1050130768", "rank": 3}}, {"type": "Feature", "geometry": {"type": "Point", "coordinates": [98.38751, 18.27436]}, "properties": {"id": "cm-obec-1050130291", "name": "โรงเรียนบ้านอมขูด", "nameTh": "โรงเรียนบ้านอมขูด", "nameEn": null, "cat": ["school"], "province": "cm", "slug": "1050130291", "rank": 3}}, {"type": "Feature", "geometry": {"type": "Point", "coordinates": [98.39205, 18.41449]}, "properties": {"id": "cm-obec-1050130288", "name": "โรงเรียนบ้านอมเม็ง", "nameTh": "โรงเรียนบ้านอมเม็ง", "nameEn": null, "cat": ["school"], "province": "cm", "slug": "1050130288", "rank": 3}}, {"type": "Feature", "geometry": {"type": "Point", "coordinates": [98.9657, 19.73747]}, "properties": {"id": "cm-obec-1050130128", "name": "โรงเรียนบ้านอรุโณทัย", "nameTh": "โรงเรียนบ้านอรุโณทัย", "nameEn": null, "cat": ["school"], "province": "cm", "slug": "1050130128", "rank": 3}}, {"type": "Feature", "geometry": {"type": "Point", "coordinates": [99.09049, 19.5118]}, "properties": {"id": "cm-obec-1050130117", "name": "โรงเรียนบ้านออน", "nameTh": "โรงเรียนบ้านออน", "nameEn": null, "cat": ["school"], "province": "cm", "slug": "1050130117", "rank": 3}}, {"type": "Feature", "geometry": {"type": "Point", "coordinates": [98.2106, 17.8631]}, "properties": {"id": "cm-obec-1050130796", "name": "โรงเรียนบ้านอูตูม", "nameTh": "โรงเรียนบ้านอูตูม", "nameEn": null, "cat": ["school"], "province": "cm", "slug": "1050130796", "rank": 3}}, {"type": "Feature", "geometry": {"type": "Point", "coordinates": [99.1491, 19.68125]}, "properties": {"id": "cm-obec-1050130882", "name": "โรงเรียนบ้านอ่าย", "nameTh": "โรงเรียนบ้านอ่าย", "nameEn": null, "cat": ["school"], "province": "cm", "slug": "1050130882", "rank": 3}}, {"type": "Feature", "geometry": {"type": "Point", "coordinates": [98.4038, 18.0307]}, "properties": {"id": "cm-obec-1050130815", "name": "โรงเรียนบ้านเตียนอาง", "nameTh": "โรงเรียนบ้านเตียนอาง", "nameEn": null, "cat": ["school"], "province": "cm", "slug": "1050130815", "rank": 3}}, {"type": "Feature", "geometry": {"type": "Point", "coordinates": [98.36758, 18.50267]}, "properties": {"id": "cm-obec-1050130339", "name": "โรงเรียนบ้านเนินวิทยา", "nameTh": "โรงเรียนบ้านเนินวิทยา", "nameEn": null, "cat": ["school"], "province": "cm", "slug": "1050130339", "rank": 3}}, {"type": "Feature", "geometry": {"type": "Point", "coordinates": [98.62718, 19.68325]}, "properties": {"id": "cm-obec-1050130874", "name": "โรงเรียนบ้านเปียงหลวง", "nameTh": "โรงเรียนบ้านเปียงหลวง", "nameEn": null, "cat": ["school"], "province": "cm", "slug": "1050130874", "rank": 3}}, {"type": "Feature", "geometry": {"type": "Point", "coordinates": [98.85449, 19.21555]}, "properties": {"id": "cm-obec-1050130404", "name": "โรงเรียนบ้านเมืองกื้ด", "nameTh": "โรงเรียนบ้านเมืองกื้ด", "nameEn": null, "cat": ["school"], "province": "cm", "slug": "1050130404", "rank": 3}}, {"type": "Feature", "geometry": {"type": "Point", "coordinates": [98.81167, 19.00785]}, "properties": {"id": "cm-obec-1050130461", "name": "โรงเรียนบ้านเมืองก๊ะ", "nameTh": "โรงเรียนบ้านเมืองก๊ะ", "nameEn": null, "cat": ["school"], "province": "cm", "slug": "1050130461", "rank": 3}}, {"type": "Feature", "geometry": {"type": "Point", "coordinates": [98.71353, 19.38388]}, "properties": {"id": "cm-obec-1050130123", "name": "โรงเรียนบ้านเมืองคอง", "nameTh": "โรงเรียนบ้านเมืองคอง", "nameEn": null, "cat": ["school"], "province": "cm", "slug": "1050130123", "rank": 3}}, {"type": "Feature", "geometry": {"type": "Point", "coordinates": [98.89461, 19.73125]}, "properties": {"id": "cm-obec-1050130127", "name": "โรงเรียนบ้านเมืองนะ", "nameTh": "โรงเรียนบ้านเมืองนะ", "nameEn": null, "cat": ["school"], "province": "cm", "slug": "1050130127", "rank": 3}}, {"type": "Feature", "geometry": {"type": "Point", "coordinates": [98.62388, 18.58499]}, "properties": {"id": "cm-obec-1050130037", "name": "โรงเรียนบ้านเมืองอาง", "nameTh": "โรงเรียนบ้านเมืองอาง", "nameEn": null, "cat": ["school"], "province": "cm", "slug": "1050130037", "rank": 2}}, {"type": "Feature", "geometry": {"type": "Point", "coordinates": [99.1863, 19.5678]}, "properties": {"id": "cm-obec-1050130888", "name": "โรงเรียนบ้านเวียงผาพัฒนา", "nameTh": "โรงเรียนบ้านเวียงผาพัฒนา", "nameEn": null, "cat": ["school"], "province": "cm", "slug": "1050130888", "rank": 2}}, {"type": "Feature", "geometry": {"type": "Point", "coordinates": [99.15068, 19.91437]}, "properties": {"id": "cm-obec-1050130203", "name": "โรงเรียนบ้านเวียงหวาย", "nameTh": "โรงเรียนบ้านเวียงหวาย", "nameEn": null, "cat": ["school"], "province": "cm", "slug": "1050130203", "rank": 3}}, {"type": "Feature", "geometry": {"type": "Point", "coordinates": [98.64128, 19.55579]}, "properties": {"id": "cm-obec-1050130870", "name": "โรงเรียนบ้านเวียงแหง", "nameTh": "โรงเรียนบ้านเวียงแหง", "nameEn": null, "cat": ["school"], "province": "cm", "slug": "1050130870", "rank": 3}}, {"type": "Feature", "geometry": {"type": "Point", "coordinates": [99.25098, 19.80543]}, "properties": {"id": "cm-obec-1050130227", "name": "โรงเรียนบ้านเหมืองแร่", "nameTh": "โรงเรียนบ้านเหมืองแร่", "nameEn": null, "cat": ["school"], "province": "cm", "slug": "1050130227", "rank": 3}}, {"type": "Feature", "geometry": {"type": "Point", "coordinates": [98.18117, 18.45496]}, "properties": {"id": "cm-obec-1050130310", "name": "โรงเรียนบ้านเฮาะวิทยา", "nameTh": "โรงเรียนบ้านเฮาะวิทยา", "nameEn": null, "cat": ["school"], "province": "cm", "slug": "1050130310", "rank": 3}}, {"type": "Feature", "geometry": {"type": "Point", "coordinates": [98.28783, 19.02821]}, "properties": {"id": "cm-obec-1050130344", "name": "โรงเรียนบ้านแจ่มหลวง", "nameTh": "โรงเรียนบ้านแจ่มหลวง", "nameEn": null, "cat": ["school"], "province": "cm", "slug": "1050130344", "rank": 3}}, {"type": "Feature", "geometry": {"type": "Point", "coordinates": [98.12552, 18.47993]}, "properties": {"id": "cm-obec-1050130311", "name": "โรงเรียนบ้านแปะสามัคคี", "nameTh": "โรงเรียนบ้านแปะสามัคคี", "nameEn": null, "cat": ["school"], "province": "cm", "slug": "1050130311", "rank": 3}}, {"type": "Feature", "geometry": {"type": "Point", "coordinates": [98.56264, 18.86176]}, "properties": {"id": "cm-obec-1050130536", "name": "โรงเรียนบ้านแมโต๋ สาขาบ้านห้วยเต่า", "nameTh": "โรงเรียนบ้านแมโต๋ สาขาบ้านห้วยเต่า", "nameEn": null, "cat": ["school"], "province": "cm", "slug": "1050130536", "rank": 3}}, {"type": "Feature", "geometry": {"type": "Point", "coordinates": [98.92459, 19.569]}, "properties": {"id": "cm-obec-1050130109", "name": "โรงเรียนบ้านแม่กอนใน", "nameTh": "โรงเรียนบ้านแม่กอนใน", "nameEn": null, "cat": ["school"], "province": "cm", "slug": "1050130109", "rank": 3}}, {"type": "Feature", "geometry": {"type": "Point", "coordinates": [98.58722, 18.79349]}, "properties": {"id": "cm-obec-1050130529", "name": "โรงเรียนบ้านแม่ขะปู", "nameTh": "โรงเรียนบ้านแม่ขะปู", "nameEn": null, "cat": ["school"], "province": "cm", "slug": "1050130529", "rank": 3}}, {"type": "Feature", "geometry": {"type": "Point", "coordinates": [99.14495, 19.71826]}, "properties": {"id": "cm-obec-1050130880", "name": "โรงเรียนบ้านแม่ขิ", "nameTh": "โรงเรียนบ้านแม่ขิ", "nameEn": null, "cat": ["school"], "province": "cm", "slug": "1050130880", "rank": 3}}, {"type": "Feature", "geometry": {"type": "Point", "coordinates": [99.20387, 19.84977]}, "properties": {"id": "cm-obec-1050130226", "name": "โรงเรียนบ้านแม่คะ", "nameTh": "โรงเรียนบ้านแม่คะ", "nameEn": null, "cat": ["school"], "province": "cm", "slug": "1050130226", "rank": 3}}, {"type": "Feature", "geometry": {"type": "Point", "coordinates": [98.33462, 18.81543]}, "properties": {"id": "cm-obec-1050130294", "name": "โรงเรียนบ้านแม่ซา", "nameTh": "โรงเรียนบ้านแม่ซา", "nameEn": null, "cat": ["school"], "province": "cm", "slug": "1050130294", "rank": 3}}, {"type": "Feature", "geometry": {"type": "Point", "coordinates": [98.88733, 19.20365]}, "properties": {"id": "cm-obec-1050130405", "name": "โรงเรียนบ้านแม่ตะมาน", "nameTh": "โรงเรียนบ้านแม่ตะมาน", "nameEn": null, "cat": ["school"], "province": "cm", "slug": "1050130405", "rank": 3}}, {"type": "Feature", "geometry": {"type": "Point", "coordinates": [98.45773, 18.93497]}, "properties": {"id": "cm-obec-1050130534", "name": "โรงเรียนบ้านแม่ตะละ", "nameTh": "โรงเรียนบ้านแม่ตะละ", "nameEn": null, "cat": ["school"], "province": "cm", "slug": "1050130534", "rank": 2}}, {"type": "Feature", "geometry": {"type": "Point", "coordinates": [98.42695, 18.90951]}, "properties": {"id": "cm-obec-1050130346", "name": "โรงเรียนบ้านแม่ตะละเหนือ", "nameTh": "โรงเรียนบ้านแม่ตะละเหนือ", "nameEn": null, "cat": ["school"], "province": "cm", "slug": "1050130346", "rank": 3}}, {"type": "Feature", "geometry": {"type": "Point", "coordinates": [98.61173, 18.18483]}, "properties": {"id": "cm-obec-1050130761", "name": "โรงเรียนบ้านแม่ตื่น", "nameTh": "โรงเรียนบ้านแม่ตื่น", "nameEn": null, "cat": ["school"], "province": "cm", "slug": "1050130761", "rank": 3}}, {"type": "Feature", "geometry": {"type": "Point", "coordinates": [98.19157, 18.5019]}, "properties": {"id": "cm-obec-1050130309", "name": "โรงเรียนบ้านแม่ตูม", "nameTh": "โรงเรียนบ้านแม่ตูม", "nameEn": null, "cat": ["school"], "province": "cm", "slug": "1050130309", "rank": 3}}, {"type": "Feature", "geometry": {"type": "Point", "coordinates": [98.3481, 17.9949]}, "properties": {"id": "cm-obec-1050130784", "name": "โรงเรียนบ้านแม่ต๋อม", "nameTh": "โรงเรียนบ้านแม่ต๋อม", "nameEn": null, "cat": ["school"], "province": "cm", "slug": "1050130784", "rank": 3}}, {"type": "Feature", "geometry": {"type": "Point", "coordinates": [99.17845, 19.72405]}, "properties": {"id": "cm-obec-1050130904", "name": "โรงเรียนบ้านแม่ทะลบ", "nameTh": "โรงเรียนบ้านแม่ทะลบ", "nameEn": null, "cat": ["school"], "province": "cm", "slug": "1050130904", "rank": 3}}, {"type": "Feature", "geometry": {"type": "Point", "coordinates": [98.37743, 18.68903]}, "properties": {"id": "cm-obec-1050130298", "name": "โรงเรียนบ้านแม่นาจร", "nameTh": "โรงเรียนบ้านแม่นาจร", "nameEn": null, "cat": ["school"], "province": "cm", "slug": "1050130298", "rank": 3}}, {"type": "Feature", "geometry": {"type": "Point", "coordinates": [99.18642, 19.22002]}, "properties": {"id": "cm-obec-1050130267", "name": "โรงเรียนบ้านแม่ปั๋ง สาขาบ้านขุนปั๋ง", "nameTh": "โรงเรียนบ้านแม่ปั๋ง สาขาบ้านขุนปั๋ง", "nameEn": null, "cat": ["school"], "province": "cm", "slug": "1050130267", "rank": 2}}, {"type": "Feature", "geometry": {"type": "Point", "coordinates": [99.16862, 19.51395]}, "properties": {"id": "cm-obec-1050130261", "name": "โรงเรียนบ้านแม่ปาคี", "nameTh": "โรงเรียนบ้านแม่ปาคี", "nameEn": null, "cat": ["school"], "province": "cm", "slug": "1050130261", "rank": 3}}, {"type": "Feature", "geometry": {"type": "Point", "coordinates": [98.39732, 18.51887]}, "properties": {"id": "cm-obec-1050130337", "name": "โรงเรียนบ้านแม่ปาน", "nameTh": "โรงเรียนบ้านแม่ปาน", "nameEn": null, "cat": ["school"], "province": "cm", "slug": "1050130337", "rank": 3}}, {"type": "Feature", "geometry": {"type": "Point", "coordinates": [98.43625, 18.61746]}, "properties": {"id": "cm-obec-1050130299", "name": "โรงเรียนบ้านแม่มะลอ", "nameTh": "โรงเรียนบ้านแม่มะลอ", "nameEn": null, "cat": ["school"], "province": "cm", "slug": "1050130299", "rank": 2}}, {"type": "Feature", "geometry": {"type": "Point", "coordinates": [98.39793, 18.72574]}, "properties": {"id": "cm-obec-1050130296", "name": "โรงเรียนบ้านแม่มุ", "nameTh": "โรงเรียนบ้านแม่มุ", "nameEn": null, "cat": ["school"], "province": "cm", "slug": "1050130296", "rank": 3}}, {"type": "Feature", "geometry": {"type": "Point", "coordinates": [98.56747, 18.84843]}, "properties": {"id": "cm-obec-1050130530", "name": "โรงเรียนบ้านแม่ยางห้า", "nameTh": "โรงเรียนบ้านแม่ยางห้า", "nameEn": null, "cat": ["school"], "province": "cm", "slug": "1050130530", "rank": 3}}, {"type": "Feature", "geometry": {"type": "Point", "coordinates": [98.55254, 18.8837]}, "properties": {"id": "cm-obec-1050130535", "name": "โรงเรียนบ้านแม่ยางห้า สาขาบ้านเด่นฮ่อม", "nameTh": "โรงเรียนบ้านแม่ยางห้า สาขาบ้านเด่นฮ่อม", "nameEn": null, "cat": ["school"], "province": "cm", "slug": "1050130535", "rank": 3}}, {"type": "Feature", "geometry": {"type": "Point", "coordinates": [98.69827, 18.77923]}, "properties": {"id": "cm-obec-1050130521", "name": "โรงเรียนบ้านแม่ลานคำ", "nameTh": "โรงเรียนบ้านแม่ลานคำ", "nameEn": null, "cat": ["school"], "province": "cm", "slug": "1050130521", "rank": 2}}, {"type": "Feature", "geometry": {"type": "Point", "coordinates": [98.77514, 18.85568]}, "properties": {"id": "cm-obec-1050130522", "name": "โรงเรียนบ้านแม่ลานคำ สาขาบ้านป่าคานอก", "nameTh": "โรงเรียนบ้านแม่ลานคำ สาขาบ้านป่าคานอก", "nameEn": null, "cat": ["school"], "province": "cm", "slug": "1050130522", "rank": 2}}, {"type": "Feature", "geometry": {"type": "Point", "coordinates": [98.3522, 17.685]}, "properties": {"id": "cm-obec-1050130777", "name": "โรงเรียนบ้านแม่ลานหลวง", "nameTh": "โรงเรียนบ้านแม่ลานหลวง", "nameEn": null, "cat": ["school"], "province": "cm", "slug": "1050130777", "rank": 3}}, {"type": "Feature", "geometry": {"type": "Point", "coordinates": [98.3568, 17.7356]}, "properties": {"id": "cm-obec-1050130779", "name": "โรงเรียนบ้านแม่ลานหลวง สาขาบ้านดอยซาง", "nameTh": "โรงเรียนบ้านแม่ลานหลวง สาขาบ้านดอยซาง", "nameEn": null, "cat": ["school"], "province": "cm", "slug": "1050130779", "rank": 2}}, {"type": "Feature", "geometry": {"type": "Point", "coordinates": [98.363, 18.0476]}, "properties": {"id": "cm-obec-1050130810", "name": "โรงเรียนบ้านแม่ลาย", "nameTh": "โรงเรียนบ้านแม่ลาย", "nameEn": null, "cat": ["school"], "province": "cm", "slug": "1050130810", "rank": 2}}, {"type": "Feature", "geometry": {"type": "Point", "coordinates": [98.338, 18.0652]}, "properties": {"id": "cm-obec-1050130813", "name": "โรงเรียนบ้านแม่ลายเหนือ", "nameTh": "โรงเรียนบ้านแม่ลายเหนือ", "nameEn": null, "cat": ["school"], "province": "cm", "slug": "1050130813", "rank": 2}}, {"type": "Feature", "geometry": {"type": "Point", "coordinates": [98.39482, 18.63777]}, "properties": {"id": "cm-obec-1050130300", "name": "โรงเรียนบ้านแม่วาก", "nameTh": "โรงเรียนบ้านแม่วาก", "nameEn": null, "cat": ["school"], "province": "cm", "slug": "1050130300", "rank": 3}}, {"type": "Feature", "geometry": {"type": "Point", "coordinates": [98.33982, 18.55275]}, "properties": {"id": "cm-obec-1050130318", "name": "โรงเรียนบ้านแม่ศึก", "nameTh": "โรงเรียนบ้านแม่ศึก", "nameEn": null, "cat": ["school"], "province": "cm", "slug": "1050130318", "rank": 3}}, {"type": "Feature", "geometry": {"type": "Point", "coordinates": [98.3173, 18.1446]}, "properties": {"id": "cm-obec-1050130812", "name": "โรงเรียนบ้านแม่สะนาม", "nameTh": "โรงเรียนบ้านแม่สะนาม", "nameEn": null, "cat": ["school"], "province": "cm", "slug": "1050130812", "rank": 3}}, {"type": "Feature", "geometry": {"type": "Point", "coordinates": [98.15653, 17.71854]}, "properties": {"id": "cm-obec-1050130983", "name": "โรงเรียนบ้านแม่สะเต", "nameTh": "โรงเรียนบ้านแม่สะเต", "nameEn": null, "cat": ["school"], "province": "cm", "slug": "1050130983", "rank": 3}}, {"type": "Feature", "geometry": {"type": "Point", "coordinates": [99.13718, 19.85739]}, "properties": {"id": "cm-obec-1050130185", "name": "โรงเรียนบ้านแม่สูนน้อย", "nameTh": "โรงเรียนบ้านแม่สูนน้อย", "nameEn": null, "cat": ["school"], "province": "cm", "slug": "1050130185", "rank": 3}}, {"type": "Feature", "geometry": {"type": "Point", "coordinates": [98.23856, 18.53806]}, "properties": {"id": "cm-obec-1050130314", "name": "โรงเรียนบ้านแม่หงานหลวง", "nameTh": "โรงเรียนบ้านแม่หงานหลวง", "nameEn": null, "cat": ["school"], "province": "cm", "slug": "1050130314", "rank": 3}}, {"type": "Feature", "geometry": {"type": "Point", "coordinates": [98.2425, 17.6969]}, "properties": {"id": "cm-obec-1050130792", "name": "โรงเรียนบ้านแม่หลองน้อย", "nameTh": "โรงเรียนบ้านแม่หลองน้อย", "nameEn": null, "cat": ["school"], "province": "cm", "slug": "1050130792", "rank": 3}}, {"type": "Feature", "geometry": {"type": "Point", "coordinates": [98.32824, 18.76801]}, "properties": {"id": "cm-obec-1050130295", "name": "โรงเรียนบ้านแม่หอย", "nameTh": "โรงเรียนบ้านแม่หอย", "nameEn": null, "cat": ["school"], "province": "cm", "slug": "1050130295", "rank": 3}}, {"type": "Feature", "geometry": {"type": "Point", "coordinates": [98.1905, 18.2019]}, "properties": {"id": "cm-obec-1050130798", "name": "โรงเรียนบ้านแม่อมลอง", "nameTh": "โรงเรียนบ้านแม่อมลอง", "nameEn": null, "cat": ["school"], "province": "cm", "slug": "1050130798", "rank": 3}}, {"type": "Feature", "geometry": {"type": "Point", "coordinates": [98.2911, 17.9743]}, "properties": {"id": "cm-obec-1050130785", "name": "โรงเรียนบ้านแม่อ่างขาง", "nameTh": "โรงเรียนบ้านแม่อ่างขาง", "nameEn": null, "cat": ["school"], "province": "cm", "slug": "1050130785", "rank": 3}}, {"type": "Feature", "geometry": {"type": "Point", "coordinates": [98.67243, 19.20441]}, "properties": {"id": "cm-obec-1050130365", "name": "โรงเรียนบ้านแม่เลา", "nameTh": "โรงเรียนบ้านแม่เลา", "nameEn": null, "cat": ["school"], "province": "cm", "slug": "1050130365", "rank": 2}}, {"type": "Feature", "geometry": {"type": "Point", "coordinates": [98.40429, 18.82348]}, "properties": {"id": "cm-obec-1050130297", "name": "โรงเรียนบ้านแม่เอาะ", "nameTh": "โรงเรียนบ้านแม่เอาะ", "nameEn": null, "cat": ["school"], "province": "cm", "slug": "1050130297", "rank": 3}}, {"type": "Feature", "geometry": {"type": "Point", "coordinates": [98.41346, 18.96085]}, "properties": {"id": "cm-obec-1050130342", "name": "โรงเรียนบ้านแม่แดดน้อย", "nameTh": "โรงเรียนบ้านแม่แดดน้อย", "nameEn": null, "cat": ["school"], "province": "cm", "slug": "1050130342", "rank": 3}}, {"type": "Feature", "geometry": {"type": "Point", "coordinates": [98.41366, 19.02856]}, "properties": {"id": "cm-obec-1050130348", "name": "โรงเรียนบ้านแม่แดดน้อย สาขาดงสามหมื่น", "nameTh": "โรงเรียนบ้านแม่แดดน้อย สาขาดงสามหมื่น", "nameEn": null, "cat": ["school"], "province": "cm", "slug": "1050130348", "rank": 3}}, {"type": "Feature", "geometry": {"type": "Point", "coordinates": [98.73457, 19.18729]}, "properties": {"id": "cm-obec-1050130369", "name": "โรงเรียนบ้านแม่แมม", "nameTh": "โรงเรียนบ้านแม่แมม", "nameEn": null, "cat": ["school"], "province": "cm", "slug": "1050130369", "rank": 3}}, {"type": "Feature", "geometry": {"type": "Point", "coordinates": [98.88706, 19.31988]}, "properties": {"id": "cm-obec-1050130091", "name": "โรงเรียนบ้านแม่แมะ", "nameTh": "โรงเรียนบ้านแม่แมะ", "nameEn": null, "cat": ["school"], "province": "cm", "slug": "1050130091", "rank": 3}}, {"type": "Feature", "geometry": {"type": "Point", "coordinates": [98.58052, 18.98778]}, "properties": {"id": "cm-obec-1050130544", "name": "โรงเรียนบ้านแม่แว", "nameTh": "โรงเรียนบ้านแม่แว", "nameEn": null, "cat": ["school"], "province": "cm", "slug": "1050130544", "rank": 3}}, {"type": "Feature", "geometry": {"type": "Point", "coordinates": [98.67243, 19.20441]}, "properties": {"id": "cm-obec-1050130368", "name": "โรงเรียนบ้านแม่แสะ", "nameTh": "โรงเรียนบ้านแม่แสะ", "nameEn": null, "cat": ["school"], "province": "cm", "slug": "1050130368", "rank": 3}}, {"type": "Feature", "geometry": {"type": "Point", "coordinates": [98.53108, 18.79118]}, "properties": {"id": "cm-obec-1050130345", "name": "โรงเรียนบ้านแม่แฮเหนือ", "nameTh": "โรงเรียนบ้านแม่แฮเหนือ", "nameEn": null, "cat": ["school"], "province": "cm", "slug": "1050130345", "rank": 3}}, {"type": "Feature", "geometry": {"type": "Point", "coordinates": [98.51229, 18.88145]}, "properties": {"id": "cm-obec-1050130349", "name": "โรงเรียนบ้านแม่แฮเหนือ สาขาแม่แจ๊ะ", "nameTh": "โรงเรียนบ้านแม่แฮเหนือ สาขาแม่แจ๊ะ", "nameEn": null, "cat": ["school"], "province": "cm", "slug": "1050130349", "rank": 3}}, {"type": "Feature", "geometry": {"type": "Point", "coordinates": [98.13868, 18.42883]}, "properties": {"id": "cm-obec-1050130312", "name": "โรงเรียนบ้านแม่แฮใต้", "nameTh": "โรงเรียนบ้านแม่แฮใต้", "nameEn": null, "cat": ["school"], "province": "cm", "slug": "1050130312", "rank": 3}}, {"type": "Feature", "geometry": {"type": "Point", "coordinates": [98.1802, 17.7603]}, "properties": {"id": "cm-obec-1050130790", "name": "โรงเรียนบ้านแม่โขง", "nameTh": "โรงเรียนบ้านแม่โขง", "nameEn": null, "cat": ["school"], "province": "cm", "slug": "1050130790", "rank": 2}}, {"type": "Feature", "geometry": {"type": "Point", "coordinates": [98.62126, 18.82691]}, "properties": {"id": "cm-obec-1050130533", "name": "โรงเรียนบ้านแม่โต๋", "nameTh": "โรงเรียนบ้านแม่โต๋", "nameEn": null, "cat": ["school"], "province": "cm", "slug": "1050130533", "rank": 2}}, {"type": "Feature", "geometry": {"type": "Point", "coordinates": [98.68379, 19.08061]}, "properties": {"id": "cm-obec-1050130367", "name": "โรงเรียนบ้านแม่ไคร้", "nameTh": "โรงเรียนบ้านแม่ไคร้", "nameEn": null, "cat": ["school"], "province": "cm", "slug": "1050130367", "rank": 3}}, {"type": "Feature", "geometry": {"type": "Point", "coordinates": [99.28648, 19.83592]}, "properties": {"id": "cm-obec-1050130181", "name": "โรงเรียนบ้านโป่งถืบ", "nameTh": "โรงเรียนบ้านโป่งถืบ", "nameEn": null, "cat": ["school"], "province": "cm", "slug": "1050130181", "rank": 3}}, {"type": "Feature", "geometry": {"type": "Point", "coordinates": [99.18029, 19.81676]}, "properties": {"id": "cm-obec-1050130224", "name": "โรงเรียนบ้านโป่งนก", "nameTh": "โรงเรียนบ้านโป่งนก", "nameEn": null, "cat": ["school"], "province": "cm", "slug": "1050130224", "rank": 3}}, {"type": "Feature", "geometry": {"type": "Point", "coordinates": [98.82028, 18.88453]}, "properties": {"id": "cm-obec-1050130421", "name": "โรงเรียนบ้านโป่งแยงใน", "nameTh": "โรงเรียนบ้านโป่งแยงใน", "nameEn": null, "cat": ["school"], "province": "cm", "slug": "1050130421", "rank": 3}}, {"type": "Feature", "geometry": {"type": "Point", "coordinates": [99.23141, 20.02454]}, "properties": {"id": "cm-obec-1050130512", "name": "โรงเรียนบ้านโป่งไฮ", "nameTh": "โรงเรียนบ้านโป่งไฮ", "nameEn": null, "cat": ["school"], "province": "cm", "slug": "1050130512", "rank": 3}}, {"type": "Feature", "geometry": {"type": "Point", "coordinates": [98.43092, 18.36287]}, "properties": {"id": "cm-obec-1050130290", "name": "โรงเรียนบ้านโม่งหลวง", "nameTh": "โรงเรียนบ้านโม่งหลวง", "nameEn": null, "cat": ["school"], "province": "cm", "slug": "1050130290", "rank": 3}}, {"type": "Feature", "geometry": {"type": "Point", "coordinates": [98.45551, 18.37946]}, "properties": {"id": "cm-obec-1050130293", "name": "โรงเรียนบ้านโม่งหลวง สาขาบ้านแม่อมลานใน", "nameTh": "โรงเรียนบ้านโม่งหลวง สาขาบ้านแม่อมลานใน", "nameEn": null, "cat": ["school"], "province": "cm", "slug": "1050130293", "rank": 2}}, {"type": "Feature", "geometry": {"type": "Point", "coordinates": [98.1383, 17.8623]}, "properties": {"id": "cm-obec-1050130795", "name": "โรงเรียนบ้านใบหนา", "nameTh": "โรงเรียนบ้านใบหนา", "nameEn": null, "cat": ["school"], "province": "cm", "slug": "1050130795", "rank": 3}}, {"type": "Feature", "geometry": {"type": "Point", "coordinates": [99.09793, 19.72019]}, "properties": {"id": "cm-obec-1050130895", "name": "โรงเรียนบ้านใหม่หนองบัว", "nameTh": "โรงเรียนบ้านใหม่หนองบัว", "nameEn": null, "cat": ["school"], "province": "cm", "slug": "1050130895", "rank": 3}}, {"type": "Feature", "geometry": {"type": "Point", "coordinates": [99.38294, 19.98992]}, "properties": {"id": "cm-obec-1050130478", "name": "โรงเรียนประพันธ์ - อารีย์ หงษ์สกุล(บ้านห้วยหลวง)", "nameTh": "โรงเรียนประพันธ์ - อารีย์ หงษ์สกุล(บ้านห้วยหลวง)", "nameEn": null, "cat": ["school"], "province": "cm", "slug": "1050130478", "rank": 3}}, {"type": "Feature", "geometry": {"type": "Point", "coordinates": [98.65735, 18.2811]}, "properties": {"id": "cm-obec-1050130083", "name": "โรงเรียนป่ากล้วยพัฒนา", "nameTh": "โรงเรียนป่ากล้วยพัฒนา", "nameEn": null, "cat": ["school"], "province": "cm", "slug": "1050130083", "rank": 3}}, {"type": "Feature", "geometry": {"type": "Point", "coordinates": [98.67243, 19.20441]}, "properties": {"id": "cm-obec-1050130364", "name": "โรงเรียนป่าแป๋วิทยา", "nameTh": "โรงเรียนป่าแป๋วิทยา", "nameEn": null, "cat": ["school"], "province": "cm", "slug": "1050130364", "rank": 2}}, {"type": "Feature", "geometry": {"type": "Point", "coordinates": [99.20639, 19.91038]}, "properties": {"id": "cm-obec-1050131005", "name": "โรงเรียนฝางชนูปถัมภ์", "nameTh": "โรงเรียนฝางชนูปถัมภ์", "nameEn": null, "cat": ["school"], "province": "cm", "slug": "1050131005", "rank": 3}}, {"type": "Feature", "geometry": {"type": "Point", "coordinates": [98.80301, 19.51594]}, "properties": {"id": "cm-obec-1050130116", "name": "โรงเรียนพัฒนาต้นน้ำขุนคอง", "nameTh": "โรงเรียนพัฒนาต้นน้ำขุนคอง", "nameEn": null, "cat": ["school"], "province": "cm", "slug": "1050130116", "rank": 3}}, {"type": "Feature", "geometry": {"type": "Point", "coordinates": [98.53897, 18.65939]}, "properties": {"id": "cm-obec-1050130929", "name": "โรงเรียนพัฒนาต้นน้ำที่ 5 ขุนวาง", "nameTh": "โรงเรียนพัฒนาต้นน้ำที่ 5 ขุนวาง", "nameEn": null, "cat": ["school"], "province": "cm", "slug": "5-1050130929", "rank": 2}}, {"type": "Feature", "geometry": {"type": "Point", "coordinates": [98.26457, 19.06063]}, "properties": {"id": "cm-obec-1050131065", "name": "โรงเรียนมัธยมกัลยาณิวัฒนาเฉลิมพระเกียรติ", "nameTh": "โรงเรียนมัธยมกัลยาณิวัฒนาเฉลิมพระเกียรติ", "nameEn": null, "cat": ["school"], "province": "cm", "slug": "1050131065", "rank": 3}}, {"type": "Feature", "geometry": {"type": "Point", "coordinates": [99.05765, 19.53065]}, "properties": {"id": "cm-obec-1050130121", "name": "โรงเรียนมิตรมวลชนเชียงใหม่", "nameTh": "โรงเรียนมิตรมวลชนเชียงใหม่", "nameEn": null, "cat": ["school"], "province": "cm", "slug": "1050130121", "rank": 3}}, {"type": "Feature", "geometry": {"type": "Point", "coordinates": [98.62407, 19.68908]}, "properties": {"id": "cm-obec-1050130879", "name": "โรงเรียนรัฐราษฎร์อุปถัมภ์", "nameTh": "โรงเรียนรัฐราษฎร์อุปถัมภ์", "nameEn": null, "cat": ["school"], "province": "cm", "slug": "1050130879", "rank": 3}}, {"type": "Feature", "geometry": {"type": "Point", "coordinates": [98.55025, 18.85446]}, "properties": {"id": "cm-obec-1050131064", "name": "โรงเรียนรัปปาปอร์ต (ตชด. บำรุงที่ ๙๒)", "nameTh": "โรงเรียนรัปปาปอร์ต (ตชด. บำรุงที่ ๙๒)", "nameEn": null, "cat": ["school"], "province": "cm", "slug": "1050131064", "rank": 3}}, {"type": "Feature", "geometry": {"type": "Point", "coordinates": [98.66466, 18.94429]}, "properties": {"id": "cm-obec-1050130538", "name": "โรงเรียนวัดงิ้วเฒ่า", "nameTh": "โรงเรียนวัดงิ้วเฒ่า", "nameEn": null, "cat": ["school"], "province": "cm", "slug": "1050130538", "rank": 2}}, {"type": "Feature", "geometry": {"type": "Point", "coordinates": [99.26125, 18.58679]}, "properties": {"id": "cm-obec-1050130953", "name": "โรงเรียนวัดดอนชัย", "nameTh": "โรงเรียนวัดดอนชัย", "nameEn": null, "cat": ["school"], "province": "cm", "slug": "1050130953", "rank": 2}}, {"type": "Feature", "geometry": {"type": "Point", "coordinates": [98.80141, 19.17938]}, "properties": {"id": "cm-obec-1050130392", "name": "โรงเรียนวัดบ้านเหล่า", "nameTh": "โรงเรียนวัดบ้านเหล่า", "nameEn": null, "cat": ["school"], "province": "cm", "slug": "1050130392", "rank": 3}}, {"type": "Feature", "geometry": {"type": "Point", "coordinates": [98.83645, 18.79499]}, "properties": {"id": "cm-obec-1050130748", "name": "โรงเรียนวัดประชาเกษม", "nameTh": "โรงเรียนวัดประชาเกษม", "nameEn": null, "cat": ["school"], "province": "cm", "slug": "1050130748", "rank": 2}}, {"type": "Feature", "geometry": {"type": "Point", "coordinates": [98.70899, 19.12231]}, "properties": {"id": "cm-obec-1050130362", "name": "โรงเรียนวัดปางมะกล้วย", "nameTh": "โรงเรียนวัดปางมะกล้วย", "nameEn": null, "cat": ["school"], "province": "cm", "slug": "1050130362", "rank": 3}}, {"type": "Feature", "geometry": {"type": "Point", "coordinates": [98.90358, 19.27542]}, "properties": {"id": "cm-obec-1050130090", "name": "โรงเรียนวัดปางมะโอ", "nameTh": "โรงเรียนวัดปางมะโอ", "nameEn": null, "cat": ["school"], "province": "cm", "slug": "1050130090", "rank": 3}}, {"type": "Feature", "geometry": {"type": "Point", "coordinates": [98.68202, 18.95281]}, "properties": {"id": "cm-obec-1050130539", "name": "โรงเรียนวัดปางเติม", "nameTh": "โรงเรียนวัดปางเติม", "nameEn": null, "cat": ["school"], "province": "cm", "slug": "1050130539", "rank": 3}}, {"type": "Feature", "geometry": {"type": "Point", "coordinates": [98.67358, 19.01358]}, "properties": {"id": "cm-obec-1050130541", "name": "โรงเรียนวัดปางเติมสาขาบ้านขุนสาบ", "nameTh": "โรงเรียนวัดปางเติมสาขาบ้านขุนสาบ", "nameEn": null, "cat": ["school"], "province": "cm", "slug": "1050130541", "rank": 2}}, {"type": "Feature", "geometry": {"type": "Point", "coordinates": [99.18107, 19.73394]}, "properties": {"id": "cm-obec-1050130905", "name": "โรงเรียนวัดป่าแดง", "nameTh": "โรงเรียนวัดป่าแดง", "nameEn": null, "cat": ["school"], "province": "cm", "slug": "1050130905", "rank": 3}}, {"type": "Feature", "geometry": {"type": "Point", "coordinates": [98.57499, 18.98659]}, "properties": {"id": "cm-obec-1050130545", "name": "โรงเรียนวัดยั้งเมิน", "nameTh": "โรงเรียนวัดยั้งเมิน", "nameEn": null, "cat": ["school"], "province": "cm", "slug": "1050130545", "rank": 3}}, {"type": "Feature", "geometry": {"type": "Point", "coordinates": [99.27046, 18.60176]}, "properties": {"id": "cm-obec-1050130952", "name": "โรงเรียนวัดห้วยทราย", "nameTh": "โรงเรียนวัดห้วยทราย", "nameEn": null, "cat": ["school"], "province": "cm", "slug": "1050130952", "rank": 3}}, {"type": "Feature", "geometry": {"type": "Point", "coordinates": [98.75593, 18.92986]}, "properties": {"id": "cm-obec-1050130524", "name": "โรงเรียนวัดแม่เลย", "nameTh": "โรงเรียนวัดแม่เลย", "nameEn": null, "cat": ["school"], "province": "cm", "slug": "1050130524", "rank": 3}}, {"type": "Feature", "geometry": {"type": "Point", "coordinates": [98.83208, 18.89111]}, "properties": {"id": "cm-obec-1050130422", "name": "โรงเรียนวัดโป่งแยงเฉลิมพระเกียรติ", "nameTh": "โรงเรียนวัดโป่งแยงเฉลิมพระเกียรติ", "nameEn": null, "cat": ["school"], "province": "cm", "slug": "1050130422", "rank": 3}}, {"type": "Feature", "geometry": {"type": "Point", "coordinates": [99.09937, 19.775]}, "properties": {"id": "cm-obec-1050130223", "name": "โรงเรียนวิรุณเทพ", "nameTh": "โรงเรียนวิรุณเทพ", "nameEn": null, "cat": ["school"], "province": "cm", "slug": "1050130223", "rank": 3}}, {"type": "Feature", "geometry": {"type": "Point", "coordinates": [98.90552, 18.841]}, "properties": {"id": "cm-obec-1050130016", "name": "โรงเรียนศรีเนห์รู", "nameTh": "โรงเรียนศรีเนห์รู", "nameEn": null, "cat": ["school"], "province": "cm", "slug": "1050130016", "rank": 3}}, {"type": "Feature", "geometry": {"type": "Point", "coordinates": [99.42791, 20.04805]}, "properties": {"id": "cm-obec-1050130484", "name": "โรงเรียนศึกษานารีอนุสรณ์ 1 บ้านแม่เมืองน้อย", "nameTh": "โรงเรียนศึกษานารีอนุสรณ์ 1 บ้านแม่เมืองน้อย", "nameEn": null, "cat": ["school"], "province": "cm", "slug": "1-1050130484", "rank": 3}}, {"type": "Feature", "geometry": {"type": "Point", "coordinates": [99.47092, 20.04254]}, "properties": {"id": "cm-obec-1050130485", "name": "โรงเรียนศึกษานารีอนุสรณ์ 2", "nameTh": "โรงเรียนศึกษานารีอนุสรณ์ 2", "nameEn": null, "cat": ["school"], "province": "cm", "slug": "2-1050130485", "rank": 3}}, {"type": "Feature", "geometry": {"type": "Point", "coordinates": [98.73583, 18.84521]}, "properties": {"id": "cm-obec-1050131004", "name": "โรงเรียนสะเมิงพิทยาคม", "nameTh": "โรงเรียนสะเมิงพิทยาคม", "nameEn": null, "cat": ["school"], "province": "cm", "slug": "1050131004", "rank": 3}}, {"type": "Feature", "geometry": {"type": "Point", "coordinates": [98.9135, 18.80861]}, "properties": {"id": "cm-obec-1050130015", "name": "โรงเรียนสังวาลย์วิทยา", "nameTh": "โรงเรียนสังวาลย์วิทยา", "nameEn": null, "cat": ["school"], "province": "cm", "slug": "1050130015", "rank": 3}}, {"type": "Feature", "geometry": {"type": "Point", "coordinates": [99.03621, 19.73022]}, "properties": {"id": "cm-obec-1050130899", "name": "โรงเรียนสันติวนา", "nameTh": "โรงเรียนสันติวนา", "nameEn": null, "cat": ["school"], "province": "cm", "slug": "1050130899", "rank": 3}}, {"type": "Feature", "geometry": {"type": "Point", "coordinates": [98.79932, 18.5406]}, "properties": {"id": "cm-obec-1050131024", "name": "โรงเรียนสันติสุข", "nameTh": "โรงเรียนสันติสุข", "nameEn": null, "cat": ["school"], "province": "cm", "slug": "1050131024", "rank": 3}}, {"type": "Feature", "geometry": {"type": "Point", "coordinates": [98.30311, 19.10993]}, "properties": {"id": "cm-obec-1050130340", "name": "โรงเรียนสามัคคีสันม่วง", "nameTh": "โรงเรียนสามัคคีสันม่วง", "nameEn": null, "cat": ["school"], "province": "cm", "slug": "1050130340", "rank": 2}}, {"type": "Feature", "geometry": {"type": "Point", "coordinates": [98.65329, 18.62457]}, "properties": {"id": "cm-obec-1050131060", "name": "โรงเรียนสโมสรไลออนส์รัตนโกสินทร์", "nameTh": "โรงเรียนสโมสรไลออนส์รัตนโกสินทร์", "nameEn": null, "cat": ["school"], "province": "cm", "slug": "1050131060", "rank": 3}}, {"type": "Feature", "geometry": {"type": "Point", "coordinates": [98.52053, 18.62149]}, "properties": {"id": "cm-obec-1050130928", "name": "โรงเรียนหลวงพัฒนาบ้านขุนวาง", "nameTh": "โรงเรียนหลวงพัฒนาบ้านขุนวาง", "nameEn": null, "cat": ["school"], "province": "cm", "slug": "1050130928", "rank": 2}}, {"type": "Feature", "geometry": {"type": "Point", "coordinates": [98.23814, 18.5412]}, "properties": {"id": "cm-obec-1050130308", "name": "โรงเรียนหลวงพัฒนาบ้านพุย", "nameTh": "โรงเรียนหลวงพัฒนาบ้านพุย", "nameEn": null, "cat": ["school"], "province": "cm", "slug": "1050130308", "rank": 3}}, {"type": "Feature", "geometry": {"type": "Point", "coordinates": [98.3567, 17.80074]}, "properties": {"id": "cm-obec-1050131016", "name": "โรงเรียนอมก๋อยวิทยาคม", "nameTh": "โรงเรียนอมก๋อยวิทยาคม", "nameEn": null, "cat": ["school"], "province": "cm", "slug": "1050131016", "rank": 3}}, {"type": "Feature", "geometry": {"type": "Point", "coordinates": [98.96445, 19.74493]}, "properties": {"id": "cm-obec-1050130995", "name": "โรงเรียนอรุโณทัยวิทยาคม", "nameTh": "โรงเรียนอรุโณทัยวิทยาคม", "nameEn": null, "cat": ["school"], "province": "cm", "slug": "1050130995", "rank": 3}}, {"type": "Feature", "geometry": {"type": "Point", "coordinates": [98.36427, 18.30903]}, "properties": {"id": "cm-obec-1050130289", "name": "โรงเรียนออป.13", "nameTh": "โรงเรียนออป.13", "nameEn": null, "cat": ["school"], "province": "cm", "slug": "13-1050130289", "rank": 3}}, {"type": "Feature", "geometry": {"type": "Point", "coordinates": [98.41722, 18.5459]}, "properties": {"id": "cm-obec-1050130338", "name": "โรงเรียนอินทนนท์วิทยา", "nameTh": "โรงเรียนอินทนนท์วิทยา", "nameEn": null, "cat": ["school"], "province": "cm", "slug": "1050130338", "rank": 2}}, {"type": "Feature", "geometry": {"type": "Point", "coordinates": [98.60577, 18.17388]}, "properties": {"id": "cm-obec-1050131014", "name": "โรงเรียนฮอดพิทยาคม", "nameTh": "โรงเรียนฮอดพิทยาคม", "nameEn": null, "cat": ["school"], "province": "cm", "slug": "1050131014", "rank": 3}}, {"type": "Feature", "geometry": {"type": "Point", "coordinates": [98.88304, 18.81641]}, "properties": {"id": "cm-obec-1050130014", "name": "โรงเรียนเจ้าพ่อหลวงอุปถัมภ์ 1", "nameTh": "โรงเรียนเจ้าพ่อหลวงอุปถัมภ์ 1", "nameEn": null, "cat": ["school"], "province": "cm", "slug": "1-1050130014", "rank": 3}}, {"type": "Feature", "geometry": {"type": "Point", "coordinates": [98.85507, 18.868]}, "properties": {"id": "cm-obec-1050130426", "name": "โรงเรียนเจ้าพ่อหลวงอุปถัมภ์ 7", "nameTh": "โรงเรียนเจ้าพ่อหลวงอุปถัมภ์ 7", "nameEn": null, "cat": ["school"], "province": "cm", "slug": "7-1050130426", "rank": 3}}, {"type": "Feature", "geometry": {"type": "Point", "coordinates": [99.46119, 20.05331]}, "properties": {"id": "cm-obec-1050130471", "name": "โรงเรียนเจ้าพ่อหลวงอุปถัมภ์ ๙", "nameTh": "โรงเรียนเจ้าพ่อหลวงอุปถัมภ์ ๙", "nameEn": null, "cat": ["school"], "province": "cm", "slug": "1050130471", "rank": 3}}, {"type": "Feature", "geometry": {"type": "Point", "coordinates": [99.10512, 19.81474]}, "properties": {"id": "cm-obec-1050130194", "name": "โรงเรียนเจ้าแม่หลวงอุปถัมภ์ 1", "nameTh": "โรงเรียนเจ้าแม่หลวงอุปถัมภ์ 1", "nameEn": null, "cat": ["school"], "province": "cm", "slug": "1-1050130194", "rank": 3}}, {"type": "Feature", "geometry": {"type": "Point", "coordinates": [98.82352, 18.93217]}, "properties": {"id": "cm-obec-1050130427", "name": "โรงเรียนเจ้าแม่หลวงอุปถัมภ์ 2", "nameTh": "โรงเรียนเจ้าแม่หลวงอุปถัมภ์ 2", "nameEn": null, "cat": ["school"], "province": "cm", "slug": "2-1050130427", "rank": 3}}, {"type": "Feature", "geometry": {"type": "Point", "coordinates": [99.04034, 19.89932]}, "properties": {"id": "cm-obec-1050130198", "name": "โรงเรียนเทพศิรินทร์ ๙ โครงการหลวงในพระบรมราชูปถัมภ์", "nameTh": "โรงเรียนเทพศิรินทร์ ๙ โครงการหลวงในพระบรมราชูปถัมภ์", "nameEn": null, "cat": ["school"], "province": "cm", "slug": "1050130198", "rank": 3}}, {"type": "Feature", "geometry": {"type": "Point", "coordinates": [99.35596, 18.9475]}, "properties": {"id": "cm-obec-1050130145", "name": "โรงเรียนเทพเสด็จวิทยา", "nameTh": "โรงเรียนเทพเสด็จวิทยา", "nameEn": null, "cat": ["school"], "province": "cm", "slug": "1050130145", "rank": 3}}, {"type": "Feature", "geometry": {"type": "Point", "coordinates": [98.96063, 19.62888]}, "properties": {"id": "cm-obec-1050130107", "name": "โรงเรียนเบญจม 2 บ้านน้ำรู", "nameTh": "โรงเรียนเบญจม 2 บ้านน้ำรู", "nameEn": null, "cat": ["school"], "province": "cm", "slug": "2-1050130107", "rank": 3}}, {"type": "Feature", "geometry": {"type": "Point", "coordinates": [98.62509, 19.57625]}, "properties": {"id": "cm-obec-1050131019", "name": "โรงเรียนเวียงแหงวิทยาคม", "nameTh": "โรงเรียนเวียงแหงวิทยาคม", "nameEn": null, "cat": ["school"], "province": "cm", "slug": "1050131019", "rank": 3}}, {"type": "Feature", "geometry": {"type": "Point", "coordinates": [98.78621, 19.67706]}, "properties": {"id": "cm-obec-1050130129", "name": "โรงเรียนแกน้อยศึกษา", "nameTh": "โรงเรียนแกน้อยศึกษา", "nameEn": null, "cat": ["school"], "province": "cm", "slug": "1050130129", "rank": 3}}, {"type": "Feature", "geometry": {"type": "Point", "coordinates": [99.30319, 18.72841]}, "properties": {"id": "cm-obec-1050130954", "name": "โรงเรียนแม่ตะไคร้", "nameTh": "โรงเรียนแม่ตะไคร้", "nameEn": null, "cat": ["school"], "province": "cm", "slug": "1050130954", "rank": 2}}, {"type": "Feature", "geometry": {"type": "Point", "coordinates": [98.45521, 17.40463]}, "properties": {"id": "cm-obec-1050131017", "name": "โรงเรียนแม่ตื่นวิทยาคม", "nameTh": "โรงเรียนแม่ตื่นวิทยาคม", "nameEn": null, "cat": ["school"], "province": "cm", "slug": "1050131017", "rank": 3}}, {"type": "Feature", "geometry": {"type": "Point", "coordinates": [98.67326, 18.65746]}, "properties": {"id": "cm-obec-1050130925", "name": "โรงเรียนแม่วินสามัคคี", "nameTh": "โรงเรียนแม่วินสามัคคี", "nameEn": null, "cat": ["school"], "province": "cm", "slug": "1050130925", "rank": 3}}, {"type": "Feature", "geometry": {"type": "Point", "coordinates": [98.56596, 18.67512]}, "properties": {"id": "cm-obec-1050130930", "name": "โรงเรียนแม่วินสามัคคี สาขาขุนป๋วย", "nameTh": "โรงเรียนแม่วินสามัคคี สาขาขุนป๋วย", "nameEn": null, "cat": ["school"], "province": "cm", "slug": "1050130930", "rank": 2}}, {"type": "Feature", "geometry": {"type": "Point", "coordinates": [98.36902, 18.50412]}, "properties": {"id": "cm-obec-1050130992", "name": "โรงเรียนแม่แจ่ม", "nameTh": "โรงเรียนแม่แจ่ม", "nameEn": null, "cat": ["school"], "province": "cm", "slug": "1050130992", "rank": 3}}, {"type": "Feature", "geometry": {"type": "Point", "coordinates": [98.1955, 18.25]}, "properties": {"id": "cm-obec-1050130797", "name": "โรงเรียนแม่โถวิทยาคม", "nameTh": "โรงเรียนแม่โถวิทยาคม", "nameEn": null, "cat": ["school"], "province": "cm", "slug": "1050130797", "rank": 3}}, {"type": "Feature", "geometry": {"type": "Point", "coordinates": [98.78838, 19.6761]}, "properties": {"id": "cm-obec-1050130131", "name": "โรงเรียนโครงการหลวงแกน้อย", "nameTh": "โรงเรียนโครงการหลวงแกน้อย", "nameEn": null, "cat": ["school"], "province": "cm", "slug": "1050130131", "rank": 3}}, {"type": "Feature", "geometry": {"type": "Point", "coordinates": [99.35705, 20.05079]}, "properties": {"id": "cm-obec-1050130473", "name": "โรงเรียนโชติคุณะเกษมบ้านเมืองงาม", "nameTh": "โรงเรียนโชติคุณะเกษมบ้านเมืองงาม", "nameEn": null, "cat": ["school"], "province": "cm", "slug": "1050130473", "rank": 3}}, {"type": "Feature", "geometry": {"type": "Point", "coordinates": [99.13864, 19.72485]}, "properties": {"id": "cm-obec-1050131020", "name": "โรงเรียนไชยปราการ", "nameTh": "โรงเรียนไชยปราการ", "nameEn": null, "cat": ["school"], "province": "cm", "slug": "1050131020", "rank": 3}}]}