{"type": "FeatureCollection", "features": [{"type": "Feature", "geometry": {"type": "Point", "coordinates": [98.97938, 18.79841]}, "properties": {"id": "cm-osm-node-6865465685", "name": "Light Up Cafe", "nameTh": "Great and Cheap coffee!", "nameEn": "Light Up Cafe x Rabbit Hole", "cat": ["food"], "province": "cm", "slug": "light-up-cafe-x-rabbit-hole-6865465685", "rank": 3}}, {"type": "Feature", "geometry": {"type": "Point", "coordinates": [98.96721, 18.79921]}, "properties": {"id": "cm-osm-node-4564569789", "name": "Rogu Roti", "nameTh": null, "nameEn": "Rogu Roti", "cat": ["food"], "province": "cm", "slug": "rogu-roti-4564569789", "rank": 2}}, {"type": "Feature", "geometry": {"type": "Point", "coordinates": [98.99133, 18.79016]}, "properties": {"id": "cm-osm-node-13347185301", "name": "The Little Sunday", "nameTh": null, "nameEn": "The Little Sunday", "cat": ["food"], "province": "cm", "slug": "the-little-sunday-13347185301", "rank": 2}}, {"type": "Feature", "geometry": {"type": "Point", "coordinates": [98.9528, 18.71701]}, "properties": {"id": "cm-osm-node-5260174926", "name": "jasmine restaurant", "nameTh": null, "nameEn": "jasmine restaurant", "cat": ["food"], "province": "cm", "slug": "jasmine-restaurant-5260174926", "rank": 2}}, {"type": "Feature", "geometry": {"type": "Point", "coordinates": [98.99935, 18.76831]}, "properties": {"id": "cm-osm-node-4879591522", "name": "สภากาแฟ(เจ้าเก่า)", "nameTh": "สภากาแฟ(เจ้าเก่า)", "nameEn": null, "cat": ["food"], "province": "cm", "slug": "4879591522", "rank": 3}}]}