{"type": "FeatureCollection", "features": [{"type": "Feature", "geometry": {"type": "Point", "coordinates": [98.96032, 18.79134]}, "properties": {"id": "cm-osm-way-812718131", "name": "Agri Chapter : Art Farmer", "nameTh": null, "nameEn": "Agri Chapter : Art Farmer", "cat": ["food"], "province": "cm", "slug": "agri-chapter-art-farmer-812718131", "rank": 2}}, {"type": "Feature", "geometry": {"type": "Point", "coordinates": [99.11996, 18.86508]}, "properties": {"id": "cm-osm-node-3084821279", "name": "Chill House", "nameTh": null, "nameEn": "Chill House", "cat": ["food"], "province": "cm", "slug": "chill-house-3084821279", "rank": 2}}, {"type": "Feature", "geometry": {"type": "Point", "coordinates": [98.99117, 18.79065]}, "properties": {"id": "cm-osm-node-1455736004", "name": "Euro Diner", "nameTh": null, "nameEn": "Euro Diner", "cat": ["food"], "province": "cm", "slug": "euro-diner-1455736004", "rank": 2}}, {"type": "Feature", "geometry": {"type": "Point", "coordinates": [98.99024, 18.78681]}, "properties": {"id": "cm-osm-node-4066800751", "name": "Loft Restaurant", "nameTh": null, "nameEn": "Loft Restaurant", "cat": ["food"], "province": "cm", "slug": "loft-restaurant-4066800751", "rank": 1}}, {"type": "Feature", "geometry": {"type": "Point", "coordinates": [98.97906, 18.78452]}, "properties": {"id": "cm-osm-node-11282616512", "name": "Owl brasserie", "nameTh": null, "nameEn": "Owl brasserie", "cat": ["food"], "province": "cm", "slug": "owl-brasserie-11282616512", "rank": 2}}, {"type": "Feature", "geometry": {"type": "Point", "coordinates": [98.99161, 18.78404]}, "properties": {"id": "cm-osm-node-3385473032", "name": "Paris", "nameTh": null, "nameEn": "Paris", "cat": ["food"], "province": "cm", "slug": "paris-3385473032", "rank": 3}}, {"type": "Feature", "geometry": {"type": "Point", "coordinates": [98.99445, 18.79249]}, "properties": {"id": "cm-osm-node-12801929802", "name": "Restaurant", "nameTh": null, "nameEn": "Nomads Restopub", "cat": ["food"], "province": "cm", "slug": "nomads-restopub-12801929802", "rank": 4}}, {"type": "Feature", "geometry": {"type": "Point", "coordinates": [98.97543, 18.79882]}, "properties": {"id": "cm-osm-way-381032215", "name": "Take a Sip", "nameTh": null, "nameEn": "Take a Sip", "cat": ["food"], "province": "cm", "slug": "take-a-sip-381032215", "rank": 1}}]}