{"type": "FeatureCollection", "features": [{"type": "Feature", "geometry": {"type": "Point", "coordinates": [98.94568, 18.77046]}, "properties": {"id": "cm-osm-way-1177625630", "name": "Biscotti House", "nameTh": null, "nameEn": "Biscotti House", "cat": ["food"], "province": "cm", "slug": "biscotti-house-1177625630", "rank": 3}}, {"type": "Feature", "geometry": {"type": "Point", "coordinates": [98.98533, 18.78359]}, "properties": {"id": "cm-osm-way-1300133894", "name": "Gord Chiangmai Kitchen", "nameTh": null, "nameEn": "Gord Chiangmai Kitchen", "cat": ["food"], "province": "cm", "slug": "gord-chiangmai-kitchen-1300133894", "rank": 3}}, {"type": "Feature", "geometry": {"type": "Point", "coordinates": [99.00522, 18.83505]}, "properties": {"id": "cm-osm-node-13266867245", "name": "PLUTO", "nameTh": null, "nameEn": "PLUTO", "cat": ["food"], "province": "cm", "slug": "pluto-13266867245", "rank": 3}}, {"type": "Feature", "geometry": {"type": "Point", "coordinates": [98.98213, 18.78295]}, "properties": {"id": "cm-osm-node-10301591909", "name": "Sweet Home Coffee", "nameTh": null, "nameEn": "Sweet Home Coffee", "cat": ["food"], "province": "cm", "slug": "sweet-home-coffee-10301591909", "rank": 2}}, {"type": "Feature", "geometry": {"type": "Point", "coordinates": [99.01786, 18.80839]}, "properties": {"id": "cm-osm-node-12864717489", "name": "Yuzu House Central Chiangmai", "nameTh": null, "nameEn": "Yuzu House Central Chiangmai", "cat": ["food"], "province": "cm", "slug": "yuzu-house-central-chiangmai-12864717489", "rank": 4}}, {"type": "Feature", "geometry": {"type": "Point", "coordinates": [98.97719, 18.78131]}, "properties": {"id": "cm-osm-node-13870668983", "name": "ถิงถิง Ting Ting บิงซูน้ำขิง เชียงใหม่", "nameTh": "ถิงถิง Ting Ting บิงซูน้ำขิง เชียงใหม่", "nameEn": null, "cat": ["food"], "province": "cm", "slug": "ting-ting-13870668983", "rank": 3}}, {"type": "Feature", "geometry": {"type": "Point", "coordinates": [98.87037, 18.89987]}, "properties": {"id": "cm-osm-node-11502670881", "name": "ริเวอร์ร็อคคาเฟ่ฮิลล์", "nameTh": "ริเวอร์ร็อคคาเฟ่ฮิลล์", "nameEn": "River Rock Cafe Hill", "cat": ["food"], "province": "cm", "slug": "river-rock-cafe-hill-11502670881", "rank": 3}}]}