{"type": "FeatureCollection", "features": [{"type": "Feature", "geometry": {"type": "Point", "coordinates": [98.99759, 18.77599]}, "properties": {"id": "cm-dgth-lpg-2604529041", "name": "บริษัท ดำรงอ้อมเมืองแก๊ส จำกัด", "nameTh": "บริษัท ดำรงอ้อมเมืองแก๊ส จำกัด", "nameEn": null, "cat": ["essentials"], "province": "cm", "slug": "2604529041", "rank": 2}}, {"type": "Feature", "geometry": {"type": "Point", "coordinates": [99.01023, 18.75675]}, "properties": {"id": "cm-dgth-lpg-1187569611", "name": "บริษัท เชียงใหม่แก๊สดี จำกัด", "nameTh": "บริษัท เชียงใหม่แก๊สดี จำกัด", "nameEn": null, "cat": ["essentials"], "province": "cm", "slug": "1187569611", "rank": 2}}, {"type": "Feature", "geometry": {"type": "Point", "coordinates": [98.94379, 18.77571]}, "properties": {"id": "cm-dgth-lpg-3938691623", "name": "บริษัท แก๊ส 41 (2009) จำกัด", "nameTh": "บริษัท แก๊ส 41 (2009) จำกัด", "nameEn": null, "cat": ["essentials"], "province": "cm", "slug": "41-2009-3938691623", "rank": 2}}, {"type": "Feature", "geometry": {"type": "Point", "coordinates": [99.03565, 18.71088]}, "properties": {"id": "cm-dgth-lpg-2299143850", "name": "บริษัท แอลพีจี ไชยปราการ(ลำพูน) จำกัด", "nameTh": "บริษัท แอลพีจี ไชยปราการ(ลำพูน) จำกัด", "nameEn": null, "cat": ["essentials"], "province": "cm", "slug": "2299143850", "rank": 2}}, {"type": "Feature", "geometry": {"type": "Point", "coordinates": [98.99057, 18.79616]}, "properties": {"id": "cm-dgth-lpg-2119732519", "name": "บริษัท โอลิมปัส ออยล์ จำกัด (สาขาเชียงใหม่ 7)", "nameTh": "บริษัท โอลิมปัส ออยล์ จำกัด (สาขาเชียงใหม่ 7)", "nameEn": null, "cat": ["essentials"], "province": "cm", "slug": "7-2119732519", "rank": 2}}, {"type": "Feature", "geometry": {"type": "Point", "coordinates": [99.06551, 18.84217]}, "properties": {"id": "cm-dgth-lpg-1208224649", "name": "หจก.ปั๊มแก๊สชูกาก้า (สนญ)", "nameTh": "หจก.ปั๊มแก๊สชูกาก้า (สนญ)", "nameEn": null, "cat": ["essentials"], "province": "cm", "slug": "1208224649", "rank": 2}}, {"type": "Feature", "geometry": {"type": "Point", "coordinates": [99.02989, 18.78754]}, "properties": {"id": "cm-dgth-lpg-3275821876", "name": "หจก.สามปอยหลวงเชียงใหม่", "nameTh": "หจก.สามปอยหลวงเชียงใหม่", "nameEn": null, "cat": ["essentials"], "province": "cm", "slug": "3275821876", "rank": 2}}, {"type": "Feature", "geometry": {"type": "Point", "coordinates": [99.03122, 18.7575]}, "properties": {"id": "cm-osm-way-341957656", "name": "LPG Station", "nameTh": null, "nameEn": "LPG Station", "cat": ["transport"], "province": "cm", "slug": "lpg-station-341957656", "rank": 1}}, {"type": "Feature", "geometry": {"type": "Point", "coordinates": [99.01885, 18.8038]}, "properties": {"id": "cm-osm-way-560600832", "name": "LPG Station", "nameTh": null, "nameEn": "LPG Station", "cat": ["transport"], "province": "cm", "slug": "lpg-station-560600832", "rank": 1}}, {"type": "Feature", "geometry": {"type": "Point", "coordinates": [98.99401, 18.7999]}, "properties": {"id": "cm-osm-way-390744785", "name": "LPG shop", "nameTh": null, "nameEn": "LPG shop", "cat": ["transport"], "province": "cm", "slug": "lpg-shop-390744785", "rank": 2}}, {"type": "Feature", "geometry": {"type": "Point", "coordinates": [98.97166, 18.77211]}, "properties": {"id": "cm-osm-way-676260808", "name": "LPG station", "nameTh": null, "nameEn": "LPG station", "cat": ["transport"], "province": "cm", "slug": "lpg-station-676260808", "rank": 1}}, {"type": "Feature", "geometry": {"type": "Point", "coordinates": [99.03837, 18.72745]}, "properties": {"id": "cm-osm-way-318787777", "name": "PTT LPG Station", "nameTh": null, "nameEn": "PTT LPG Station", "cat": ["transport"], "province": "cm", "slug": "ptt-lpg-station-318787777", "rank": 1}}, {"type": "Feature", "geometry": {"type": "Point", "coordinates": [98.93302, 18.73854]}, "properties": {"id": "cm-osm-way-331608121", "name": "PTT LPG Station", "nameTh": null, "nameEn": "PTT LPG Station", "cat": ["transport"], "province": "cm", "slug": "ptt-lpg-station-331608121", "rank": 1}}, {"type": "Feature", "geometry": {"type": "Point", "coordinates": [99.04315, 18.71509]}, "properties": {"id": "cm-osm-way-829706354", "name": "Petrol & LPG Station", "nameTh": null, "nameEn": "Petrol & LPG Station", "cat": ["transport"], "province": "cm", "slug": "petrol-lpg-station-829706354", "rank": 1}}, {"type": "Feature", "geometry": {"type": "Point", "coordinates": [99.01334, 18.83684]}, "properties": {"id": "cm-osm-way-317524261", "name": "World Gas", "nameTh": null, "nameEn": "World Gas", "cat": ["transport"], "province": "cm", "slug": "world-gas-317524261", "rank": 1}}, {"type": "Feature", "geometry": {"type": "Point", "coordinates": [98.99998, 18.81083]}, "properties": {"id": "cm-osm-way-525728475", "name": "บริษัท ต. แก๊ซ จำกัด", "nameTh": "บริษัท ต. แก๊ซ จำกัด", "nameEn": "T Gas", "cat": ["transport"], "province": "cm", "slug": "t-gas-525728475", "rank": 2}}, {"type": "Feature", "geometry": {"type": "Point", "coordinates": [99.06922, 18.77095]}, "properties": {"id": "cm-osm-node-2591296838", "name": "วึ แก๊ส", "nameTh": "วึ แก๊ส", "nameEn": "V Gas", "cat": ["transport"], "province": "cm", "slug": "v-gas-2591296838", "rank": 2}}, {"type": "Feature", "geometry": {"type": "Point", "coordinates": [98.96839, 18.71943]}, "properties": {"id": "cm-osm-node-3669514851", "name": "สยามแก๊ส", "nameTh": "สยามแก๊ส", "nameEn": "Siam Gas", "cat": ["transport"], "province": "cm", "slug": "siam-gas-3669514851", "rank": 2}}, {"type": "Feature", "geometry": {"type": "Point", "coordinates": [99.03995, 18.78842]}, "properties": {"id": "cm-osm-node-3745352266", "name": "สยามแก๊ส", "nameTh": "สยามแก๊ส", "nameEn": "Siam Gas", "cat": ["transport"], "province": "cm", "slug": "siam-gas-3745352266", "rank": 2}}, {"type": "Feature", "geometry": {"type": "Point", "coordinates": [98.94204, 18.71657]}, "properties": {"id": "cm-osm-node-11896264076", "name": "เวิลด์แก๊ส", "nameTh": "เวิลด์แก๊ส", "nameEn": "World Gas", "cat": ["transport"], "province": "cm", "slug": "world-gas-11896264076", "rank": 2}}, {"type": "Feature", "geometry": {"type": "Point", "coordinates": [98.86672, 18.61746]}, "properties": {"id": "cm-osm-node-3382898054", "name": "เวิลด์แก๊ส", "nameTh": "เวิลด์แก๊ส", "nameEn": "World Gas", "cat": ["transport"], "province": "cm", "slug": "world-gas-3382898054", "rank": 2}}, {"type": "Feature", "geometry": {"type": "Point", "coordinates": [99.01684, 18.73524]}, "properties": {"id": "cm-osm-way-282191454", "name": "เวิลด์แก๊ส", "nameTh": "เวิลด์แก๊ส", "nameEn": "World Gas", "cat": ["transport"], "province": "cm", "slug": "world-gas-282191454", "rank": 2}}, {"type": "Feature", "geometry": {"type": "Point", "coordinates": [98.94793, 18.90672]}, "properties": {"id": "cm-osm-way-315330202", "name": "เวิลด์แก๊ส", "nameTh": "เวิลด์แก๊ส", "nameEn": "World Gas", "cat": ["transport"], "province": "cm", "slug": "world-gas-315330202", "rank": 2}}, {"type": "Feature", "geometry": {"type": "Point", "coordinates": [99.01408, 18.85679]}, "properties": {"id": "cm-osm-way-317526397", "name": "เวิลด์แก๊ส", "nameTh": "เวิลด์แก๊ส", "nameEn": "World Gas", "cat": ["transport"], "province": "cm", "slug": "world-gas-317526397", "rank": 2}}, {"type": "Feature", "geometry": {"type": "Point", "coordinates": [98.96352, 18.87203]}, "properties": {"id": "cm-osm-way-525731410", "name": "เวิลด์แก๊ส", "nameTh": "เวิลด์แก๊ส", "nameEn": "World Gas", "cat": ["transport"], "province": "cm", "slug": "world-gas-525731410", "rank": 3}}, {"type": "Feature", "geometry": {"type": "Point", "coordinates": [98.94461, 18.95938]}, "properties": {"id": "cm-osm-way-657814195", "name": "เวิลด์แก๊ส", "nameTh": "เวิลด์แก๊ส", "nameEn": "World Gas", "cat": ["transport"], "province": "cm", "slug": "world-gas-657814195", "rank": 2}}, {"type": "Feature", "geometry": {"type": "Point", "coordinates": [99.01597, 18.8711]}, "properties": {"id": "cm-osm-way-702913875", "name": "เวิลด์แก๊ส", "nameTh": "เวิลด์แก๊ส", "nameEn": "World Gas", "cat": ["transport"], "province": "cm", "slug": "world-gas-702913875", "rank": 2}}, {"type": "Feature", "geometry": {"type": "Point", "coordinates": [98.96882, 18.75716]}, "properties": {"id": "cm-osm-way-714693121", "name": "เวิลด์แก๊ส", "nameTh": "เวิลด์แก๊ส", "nameEn": "World Gas", "cat": ["transport"], "province": "cm", "slug": "world-gas-714693121", "rank": 2}}, {"type": "Feature", "geometry": {"type": "Point", "coordinates": [98.99937, 18.75881]}, "properties": {"id": "cm-osm-way-585950762", "name": "แก๊สรถยนต์", "nameTh": "แก๊สรถยนต์", "nameEn": "Kaet Rotyon", "cat": ["transport"], "province": "cm", "slug": "kaet-rotyon-585950762", "rank": 2}}, {"type": "Feature", "geometry": {"type": "Point", "coordinates": [99.0621, 18.83591]}, "properties": {"id": "cm-osm-way-382365425", "name": "แก๊สรถยนต์ รักชูก้า", "nameTh": "แก๊สรถยนต์ รักชูก้า", "nameEn": "Ratsugar LPG Station", "cat": ["transport"], "province": "cm", "slug": "ratsugar-lpg-station-382365425", "rank": 3}}, {"type": "Feature", "geometry": {"type": "Point", "coordinates": [99.04096, 18.72544]}, "properties": {"id": "cm-osm-node-6356351799", "name": "แก๊สราคากูก", "nameTh": "แก๊สราคากูก", "nameEn": "Kaet Rakha Kuk (LPG)", "cat": ["transport"], "province": "cm", "slug": "kaet-rakha-kuk-lpg-6356351799", "rank": 2}}]}