{"type": "FeatureCollection", "features": [{"type": "Feature", "geometry": {"type": "Point", "coordinates": [98.99462, 18.79247]}, "properties": {"id": "cm-osm-node-4430796190", "name": "Cat House", "nameTh": null, "nameEn": "Cat house", "cat": ["food"], "province": "cm", "slug": "cat-house-4430796190", "rank": 1}}, {"type": "Feature", "geometry": {"type": "Point", "coordinates": [98.99093, 18.78868]}, "properties": {"id": "cm-osm-node-4352166790", "name": "Farm Story House Room & Restaurant", "nameTh": null, "nameEn": "Farm Story House Room & Restaurant", "cat": ["food"], "province": "cm", "slug": "farm-story-house-room-restaurant-4352166790", "rank": 1}}, {"type": "Feature", "geometry": {"type": "Point", "coordinates": [98.97884, 18.8006]}, "properties": {"id": "cm-osm-node-4519103091", "name": "Imm Aim vegetarian restaurant", "nameTh": null, "nameEn": "Imm Aim vegetarian restaurant", "cat": ["food"], "province": "cm", "slug": "imm-aim-vegetarian-restaurant-4519103091", "rank": 1}}, {"type": "Feature", "geometry": {"type": "Point", "coordinates": [98.9863, 18.79509]}, "properties": {"id": "cm-osm-node-4333699923", "name": "Mountain view garden restaurant", "nameTh": null, "nameEn": "Mountain view garden restaurant", "cat": ["food"], "province": "cm", "slug": "mountain-view-garden-restaurant-4333699923", "rank": 4}}, {"type": "Feature", "geometry": {"type": "Point", "coordinates": [98.9674, 18.80251]}, "properties": {"id": "cm-osm-node-6052593885", "name": "Shan Tou Hao Chi - Vegetarian & Vegan", "nameTh": null, "nameEn": "Shan Tou Hao Chi - Vegetarian & Vegan", "cat": ["food"], "province": "cm", "slug": "shan-tou-hao-chi-vegetarian-vegan-6052593885", "rank": 3}}, {"type": "Feature", "geometry": {"type": "Point", "coordinates": [98.99094, 18.78541]}, "properties": {"id": "cm-osm-node-3385473042", "name": "The Curry Pot", "nameTh": null, "nameEn": "The Curry Pot", "cat": ["food"], "province": "cm", "slug": "the-curry-pot-3385473042", "rank": 1}}, {"type": "Feature", "geometry": {"type": "Point", "coordinates": [98.98875, 18.78306]}, "properties": {"id": "cm-osm-node-5195493721", "name": "always Caf", "nameTh": null, "nameEn": "always Caf", "cat": ["food"], "province": "cm", "slug": "always-caf-5195493721", "rank": 1}}, {"type": "Feature", "geometry": {"type": "Point", "coordinates": [98.9528, 18.71701]}, "properties": {"id": "cm-osm-node-5260174926", "name": "jasmine restaurant", "nameTh": null, "nameEn": "jasmine restaurant", "cat": ["food"], "province": "cm", "slug": "jasmine-restaurant-5260174926", "rank": 2}}, {"type": "Feature", "geometry": {"type": "Point", "coordinates": [98.99355, 18.78625]}, "properties": {"id": "cm-osm-node-1041280756", "name": "ร้านอาหาร อรุณไร", "nameTh": "ร้านอาหาร อรุณไร", "nameEn": "Aroon Rai", "cat": ["food"], "province": "cm", "slug": "aroon-rai-1041280756", "rank": 2}}]}