{"type": "FeatureCollection", "features": [{"type": "Feature", "geometry": {"type": "Point", "coordinates": [98.97523, 18.80541]}, "properties": {"id": "cm-osm-node-8891760799", "name": "29 Coffties", "nameTh": null, "nameEn": "29 Coffties", "cat": ["food"], "province": "cm", "slug": "29-coffties-8891760799", "rank": 3}}, {"type": "Feature", "geometry": {"type": "Point", "coordinates": [98.93811, 18.76761]}, "properties": {"id": "cm-osm-node-13531478362", "name": "99 Villa & Cafe", "nameTh": null, "nameEn": "99 Villa & Cafe", "cat": ["food"], "province": "cm", "slug": "99-villa-cafe-13531478362", "rank": 1}}, {"type": "Feature", "geometry": {"type": "Point", "coordinates": [98.96829, 18.77037]}, "properties": {"id": "cm-osm-node-1474872898", "name": "Black Canyon Coffee", "nameTh": null, "nameEn": "Black Canyon Coffee", "cat": ["food"], "province": "cm", "slug": "black-canyon-coffee-1474872898", "rank": 2}}, {"type": "Feature", "geometry": {"type": "Point", "coordinates": [98.98163, 18.78297]}, "properties": {"id": "cm-osm-node-12306896388", "name": "Bloomin' Moon", "nameTh": null, "nameEn": "Bloomin' Moon", "cat": ["food"], "province": "cm", "slug": "bloomin-moon-12306896388", "rank": 2}}, {"type": "Feature", "geometry": {"type": "Point", "coordinates": [98.98312, 18.78843]}, "properties": {"id": "cm-osm-node-4295719291", "name": "It's Good Kitchen", "nameTh": null, "nameEn": "Its Good Kitchen", "cat": ["food"], "province": "cm", "slug": "its-good-kitchen-4295719291", "rank": 2}}, {"type": "Feature", "geometry": {"type": "Point", "coordinates": [98.96898, 18.80006]}, "properties": {"id": "cm-osm-node-11699384629", "name": "Jack Coconut", "nameTh": null, "nameEn": "Jack Coconut", "cat": ["food"], "province": "cm", "slug": "jack-coconut-11699384629", "rank": 1}}, {"type": "Feature", "geometry": {"type": "Point", "coordinates": [98.96864, 18.79878]}, "properties": {"id": "cm-osm-node-3426415665", "name": "Manifreshto", "nameTh": null, "nameEn": "Manifreshto", "cat": ["food"], "province": "cm", "slug": "manifreshto-3426415665", "rank": 1}}, {"type": "Feature", "geometry": {"type": "Point", "coordinates": [98.96774, 18.79691]}, "properties": {"id": "cm-osm-node-1797043368", "name": "Middle 11", "nameTh": null, "nameEn": "Middle 11", "cat": ["food"], "province": "cm", "slug": "middle-11-1797043368", "rank": 2}}, {"type": "Feature", "geometry": {"type": "Point", "coordinates": [98.98498, 18.78957]}, "properties": {"id": "cm-osm-node-2466401386", "name": "NAP'S Coffee Roaster", "nameTh": null, "nameEn": "NAP'S Coffee Roaster", "cat": ["food"], "province": "cm", "slug": "nap-s-coffee-roaster-2466401386", "rank": 2}}, {"type": "Feature", "geometry": {"type": "Point", "coordinates": [98.97164, 18.79606]}, "properties": {"id": "cm-osm-node-12401425802", "name": "On the Bread", "nameTh": null, "nameEn": "On the Bread", "cat": ["food"], "province": "cm", "slug": "on-the-bread-12401425802", "rank": 2}}, {"type": "Feature", "geometry": {"type": "Point", "coordinates": [98.96863, 18.79883]}, "properties": {"id": "cm-osm-node-4438545289", "name": "Roast8ry Lab", "nameTh": "Roast8ry Lab", "nameEn": null, "cat": ["food"], "province": "cm", "slug": "roast8ry-lab-4438545289", "rank": 3}}, {"type": "Feature", "geometry": {"type": "Point", "coordinates": [98.97413, 18.79814]}, "properties": {"id": "cm-osm-node-3134796412", "name": "Salsa Kitchen", "nameTh": null, "nameEn": "Salsa Kitchen", "cat": ["food"], "province": "cm", "slug": "salsa-kitchen-3134796412", "rank": 2}}, {"type": "Feature", "geometry": {"type": "Point", "coordinates": [98.98228, 18.79047]}, "properties": {"id": "cm-osm-node-12301174700", "name": "Seven Slash Two", "nameTh": null, "nameEn": "Seven Slash Two", "cat": ["food"], "province": "cm", "slug": "seven-slash-two-12301174700", "rank": 2}}, {"type": "Feature", "geometry": {"type": "Point", "coordinates": [98.99181, 18.78586]}, "properties": {"id": "cm-osm-node-2055855111", "name": "Zalux Coffee", "nameTh": null, "nameEn": "Zalux Coffee", "cat": ["food"], "province": "cm", "slug": "zalux-coffee-2055855111", "rank": 1}}, {"type": "Feature", "geometry": {"type": "Point", "coordinates": [98.97075, 18.79675]}, "properties": {"id": "cm-osm-node-7158628085", "name": "ข้าวต้ม บาทเดียว", "nameTh": "ข้าวต้ม บาทเดียว", "nameEn": "Khao Tom Baht Diao", "cat": ["food"], "province": "cm", "slug": "khao-tom-baht-diao-7158628085", "rank": 2}}, {"type": "Feature", "geometry": {"type": "Point", "coordinates": [98.95483, 18.78903]}, "properties": {"id": "cm-osm-node-4430887900", "name": "ฮ้านถึงเจียงใหม่ อาหารเหนือ อาหารพื้นเมือง", "nameTh": "ฮ้านถึงเจียงใหม่ อาหารเหนือ อาหารพื้นเมือง", "nameEn": "Han Teung Chiangmai", "cat": ["food"], "province": "cm", "slug": "han-teung-chiangmai-4430887900", "rank": 4}}, {"type": "Feature", "geometry": {"type": "Point", "coordinates": [98.96565, 18.7999]}, "properties": {"id": "cm-osm-node-12588829769", "name": "Weed Area 420 nimman", "nameTh": null, "nameEn": "Weed Area 420 nimman", "cat": ["cannabis"], "province": "cm", "slug": "weed-area-420-nimman-12588829769", "rank": 1}}, {"type": "Feature", "geometry": {"type": "Point", "coordinates": [99.02857, 18.70269]}, "properties": {"id": "cm-osm-node-11427762965", "name": "Red Oil", "nameTh": null, "nameEn": "Red Oil", "cat": ["transport"], "province": "cm", "slug": "red-oil-11427762965", "rank": 2}}, {"type": "Feature", "geometry": {"type": "Point", "coordinates": [99.10273, 18.6302]}, "properties": {"id": "cm-osm-node-11581270498", "name": "Solar Pump", "nameTh": null, "nameEn": "Solar Pump", "cat": ["transport"], "province": "cm", "slug": "solar-pump-11581270498", "rank": 2}}, {"type": "Feature", "geometry": {"type": "Point", "coordinates": [99.1007, 18.6256]}, "properties": {"id": "cm-osm-node-11581270501", "name": "Solar Pump", "nameTh": null, "nameEn": "Solar Pump", "cat": ["transport"], "province": "cm", "slug": "solar-pump-11581270501", "rank": 2}}, {"type": "Feature", "geometry": {"type": "Point", "coordinates": [98.97124, 18.79875]}, "properties": {"id": "cm-osm-node-11612597268", "name": "Nine Kim", "nameTh": null, "nameEn": "Nine Kim", "cat": ["beauty"], "province": "cm", "slug": "nine-kim-11612597268", "rank": 2}}, {"type": "Feature", "geometry": {"type": "Point", "coordinates": [98.97064, 18.79613]}, "properties": {"id": "cm-osm-way-481787812", "name": "พิพิธภัณฑ์แมลงโลกและสิ่งมหัศจรรย์ธรรมชาติ", "nameTh": "พิพิธภัณฑ์แมลงโลกและสิ่งมหัศจรรย์ธรรมชาติ", "nameEn": "Museum of World Insects and Natural Wonders", "cat": ["museums-galleries"], "province": "cm", "slug": "museum-of-world-insects-and-natural-wonders-481787812", "rank": 5}}]}