{"type": "FeatureCollection", "features": [{"type": "Feature", "geometry": {"type": "Point", "coordinates": [98.99053, 18.78485]}, "properties": {"id": "cm-osm-node-5493659827", "name": "Arno's", "nameTh": null, "nameEn": "Arno's", "cat": ["food"], "province": "cm", "slug": "arno-s-5493659827", "rank": 1}}, {"type": "Feature", "geometry": {"type": "Point", "coordinates": [98.97247, 18.80536]}, "properties": {"id": "cm-osm-node-3311562693", "name": "Assara Cafe & Restaurant", "nameTh": null, "nameEn": "Assara Cafe & Restaurant", "cat": ["food"], "province": "cm", "slug": "assara-cafe-restaurant-3311562693", "rank": 2}}, {"type": "Feature", "geometry": {"type": "Point", "coordinates": [98.9771, 18.77483]}, "properties": {"id": "cm-osm-node-6992284788", "name": "Beef Land Steakhouse", "nameTh": null, "nameEn": "Beef Land Steakhouse", "cat": ["food"], "province": "cm", "slug": "beef-land-steakhouse-6992284788", "rank": 3}}, {"type": "Feature", "geometry": {"type": "Point", "coordinates": [98.9942, 18.75189]}, "properties": {"id": "cm-osm-node-13088914801", "name": "Chada Steak House", "nameTh": null, "nameEn": "Chada Steak House", "cat": ["food"], "province": "cm", "slug": "chada-steak-house-13088914801", "rank": 3}}, {"type": "Feature", "geometry": {"type": "Point", "coordinates": [99.02779, 18.80695]}, "properties": {"id": "cm-osm-node-1400604006", "name": "Chef Steak", "nameTh": null, "nameEn": "Chef Steak", "cat": ["food"], "province": "cm", "slug": "chef-steak-1400604006", "rank": 2}}, {"type": "Feature", "geometry": {"type": "Point", "coordinates": [98.95617, 18.74491]}, "properties": {"id": "cm-osm-node-6333007968", "name": "Cowboy Corner", "nameTh": null, "nameEn": "Cowboy Corner", "cat": ["food"], "province": "cm", "slug": "cowboy-corner-6333007968", "rank": 1}}, {"type": "Feature", "geometry": {"type": "Point", "coordinates": [99.00031, 18.78337]}, "properties": {"id": "cm-osm-node-3416994633", "name": "Daddy's", "nameTh": null, "nameEn": "Daddy's", "cat": ["food"], "province": "cm", "slug": "daddy-s-3416994633", "rank": 2}}, {"type": "Feature", "geometry": {"type": "Point", "coordinates": [98.99294, 18.78584]}, "properties": {"id": "cm-osm-node-9840424590", "name": "De Ngua by All About Beef", "nameTh": null, "nameEn": "De Ngua by All About Beef", "cat": ["food"], "province": "cm", "slug": "de-ngua-by-all-about-beef-9840424590", "rank": 2}}, {"type": "Feature", "geometry": {"type": "Point", "coordinates": [99.06029, 18.75495]}, "properties": {"id": "cm-osm-node-12703983750", "name": "Finland Deer", "nameTh": null, "nameEn": "Finland Deer", "cat": ["food"], "province": "cm", "slug": "finland-deer-12703983750", "rank": 1}}, {"type": "Feature", "geometry": {"type": "Point", "coordinates": [99.0184, 18.80641]}, "properties": {"id": "cm-osm-node-2865838804", "name": "Jeffer Steak", "nameTh": null, "nameEn": "Jeffer Steak", "cat": ["food"], "province": "cm", "slug": "jeffer-steak-2865838804", "rank": 1}}, {"type": "Feature", "geometry": {"type": "Point", "coordinates": [98.96707, 18.80253]}, "properties": {"id": "cm-osm-node-3287356493", "name": "Jeffer Steak", "nameTh": null, "nameEn": "Jeffer Steak", "cat": ["food"], "province": "cm", "slug": "jeffer-steak-3287356493", "rank": 1}}, {"type": "Feature", "geometry": {"type": "Point", "coordinates": [98.97876, 18.80252]}, "properties": {"id": "cm-osm-node-2783266341", "name": "Let It Be", "nameTh": null, "nameEn": "Let It Be", "cat": ["food"], "province": "cm", "slug": "let-it-be-2783266341", "rank": 1}}, {"type": "Feature", "geometry": {"type": "Point", "coordinates": [98.98376, 18.79678]}, "properties": {"id": "cm-osm-node-3317919569", "name": "Little Cook Cafe", "nameTh": "ลิตเติ้ลคุ๊กคาเฟ่", "nameEn": "Little Cook Cafe", "cat": ["food"], "province": "cm", "slug": "little-cook-cafe-3317919569", "rank": 3}}, {"type": "Feature", "geometry": {"type": "Point", "coordinates": [99.06993, 18.7724]}, "properties": {"id": "cm-osm-node-5511718324", "name": "Nut Steak House", "nameTh": null, "nameEn": "Nut Steak House", "cat": ["food"], "province": "cm", "slug": "nut-steak-house-5511718324", "rank": 2}}, {"type": "Feature", "geometry": {"type": "Point", "coordinates": [99.1308, 18.84087]}, "properties": {"id": "cm-osm-node-3320142129", "name": "Racha", "nameTh": null, "nameEn": "Racha", "cat": ["food"], "province": "cm", "slug": "racha-3320142129", "rank": 3}}, {"type": "Feature", "geometry": {"type": "Point", "coordinates": [98.99336, 18.79491]}, "properties": {"id": "cm-osm-way-578863886", "name": "Riders Corner Bar & Restaurant", "nameTh": null, "nameEn": "Riders Corner Bar & Restaurant", "cat": ["food"], "province": "cm", "slug": "riders-corner-bar-restaurant-578863886", "rank": 4}}, {"type": "Feature", "geometry": {"type": "Point", "coordinates": [99.01768, 18.80733]}, "properties": {"id": "cm-osm-node-2865868401", "name": "Santa Fe", "nameTh": null, "nameEn": "Santa Fe", "cat": ["food"], "province": "cm", "slug": "santa-fe-2865868401", "rank": 1}}, {"type": "Feature", "geometry": {"type": "Point", "coordinates": [98.97522, 18.7695]}, "properties": {"id": "cm-osm-node-3347633203", "name": "Santa Fé", "nameTh": null, "nameEn": "Santa Fé", "cat": ["food"], "province": "cm", "slug": "santa-f-3347633203", "rank": 2}}, {"type": "Feature", "geometry": {"type": "Point", "coordinates": [98.99499, 18.84436]}, "properties": {"id": "cm-osm-way-317522728", "name": "Silver Wolf Shrimp Catch & Eat", "nameTh": null, "nameEn": "Silver Wolf Shrimp Catch & Eat", "cat": ["food"], "province": "cm", "slug": "silver-wolf-shrimp-catch-eat-317522728", "rank": 3}}, {"type": "Feature", "geometry": {"type": "Point", "coordinates": [99.01762, 18.80686]}, "properties": {"id": "cm-osm-node-2865865704", "name": "Sizzler", "nameTh": null, "nameEn": "Sizzler", "cat": ["food"], "province": "cm", "slug": "sizzler-2865865704", "rank": 1}}, {"type": "Feature", "geometry": {"type": "Point", "coordinates": [98.97536, 18.76965]}, "properties": {"id": "cm-osm-node-3347633204", "name": "Sizzler", "nameTh": null, "nameEn": "Sizzler", "cat": ["food"], "province": "cm", "slug": "sizzler-3347633204", "rank": 2}}, {"type": "Feature", "geometry": {"type": "Point", "coordinates": [98.95493, 18.80896]}, "properties": {"id": "cm-osm-node-12397994601", "name": "Steak Bar", "nameTh": null, "nameEn": "Steak Bar", "cat": ["food"], "province": "cm", "slug": "steak-bar-12397994601", "rank": 2}}, {"type": "Feature", "geometry": {"type": "Point", "coordinates": [98.98619, 18.78106]}, "properties": {"id": "cm-osm-node-4558018790", "name": "Steak Mr. Nu", "nameTh": null, "nameEn": "Steak Mr. Nu", "cat": ["food"], "province": "cm", "slug": "steak-mr-nu-4558018790", "rank": 2}}, {"type": "Feature", "geometry": {"type": "Point", "coordinates": [98.97544, 18.80538]}, "properties": {"id": "cm-osm-node-3311586650", "name": "Steak Somjai", "nameTh": null, "nameEn": "Steak Somjai", "cat": ["food"], "province": "cm", "slug": "steak-somjai-3311586650", "rank": 1}}, {"type": "Feature", "geometry": {"type": "Point", "coordinates": [98.99685, 18.7906]}, "properties": {"id": "cm-osm-node-4704832790", "name": "Steak Woei Hoei", "nameTh": null, "nameEn": "Steak Woei Hoei", "cat": ["food"], "province": "cm", "slug": "steak-woei-hoei-4704832790", "rank": 3}}, {"type": "Feature", "geometry": {"type": "Point", "coordinates": [99.01152, 18.8255]}, "properties": {"id": "cm-osm-node-4460058467", "name": "Taiwan Steakhouse", "nameTh": null, "nameEn": "Taiwan Steakhouse", "cat": ["food"], "province": "cm", "slug": "taiwan-steakhouse-4460058467", "rank": 1}}, {"type": "Feature", "geometry": {"type": "Point", "coordinates": [98.96681, 18.80228]}, "properties": {"id": "cm-osm-node-3673955770", "name": "The Duke's Maya", "nameTh": null, "nameEn": "The Duke's Maya", "cat": ["food"], "province": "cm", "slug": "the-duke-s-maya-3673955770", "rank": 3}}, {"type": "Feature", "geometry": {"type": "Point", "coordinates": [99.0051, 18.78509]}, "properties": {"id": "cm-osm-node-2021464366", "name": "The Duke's Ping River", "nameTh": null, "nameEn": "The Duke's Ping River", "cat": ["food"], "province": "cm", "slug": "the-duke-s-ping-river-2021464366", "rank": 3}}, {"type": "Feature", "geometry": {"type": "Point", "coordinates": [98.97947, 18.80016]}, "properties": {"id": "cm-osm-node-3284019788", "name": "Thyme", "nameTh": null, "nameEn": "Thyme", "cat": ["food"], "province": "cm", "slug": "thyme-3284019788", "rank": 2}}, {"type": "Feature", "geometry": {"type": "Point", "coordinates": [99.14167, 18.85707]}, "properties": {"id": "cm-osm-node-2148113199", "name": "Uncle Steak House", "nameTh": null, "nameEn": "Uncle Steak House", "cat": ["food"], "province": "cm", "slug": "uncle-steak-house-2148113199", "rank": 1}}, {"type": "Feature", "geometry": {"type": "Point", "coordinates": [98.81984, 18.92043]}, "properties": {"id": "cm-osm-node-3912487223", "name": "di Bosco Coffee Home", "nameTh": null, "nameEn": "di Bosco Coffee Home", "cat": ["food"], "province": "cm", "slug": "di-bosco-coffee-home-3912487223", "rank": 1}}, {"type": "Feature", "geometry": {"type": "Point", "coordinates": [99.02706, 18.7913]}, "properties": {"id": "cm-osm-node-1305575183", "name": "บี่เฮียงโภชนา", "nameTh": "บี่เฮียงโภชนา", "nameEn": "Bi-Hieng", "cat": ["food"], "province": "cm", "slug": "bi-hieng-1305575183", "rank": 3}}, {"type": "Feature", "geometry": {"type": "Point", "coordinates": [98.9782, 18.77244]}, "properties": {"id": "cm-osm-node-3207247635", "name": "สวนผัก โอ้กะจู๋", "nameTh": "สวนผัก โอ้กะจู๋", "nameEn": "Ohkajhu", "cat": ["food"], "province": "cm", "slug": "ohkajhu-3207247635", "rank": 5}}, {"type": "Feature", "geometry": {"type": "Point", "coordinates": [98.94147, 18.74849]}, "properties": {"id": "cm-osm-node-2569501895", "name": "สเต็ก", "nameTh": "สเต็ก", "nameEn": "Texas BBQ", "cat": ["food"], "province": "cm", "slug": "texas-bbq-2569501895", "rank": 3}}, {"type": "Feature", "geometry": {"type": "Point", "coordinates": [98.97684, 18.8054]}, "properties": {"id": "cm-osm-way-1168325537", "name": "สเต๊กบุฟเฟต์ป้าเหมย Steak Buffet Pa Mei", "nameTh": "สเต๊กบุฟเฟต์ป้าเหมย Steak Buffet Pa Mei", "nameEn": null, "cat": ["food"], "province": "cm", "slug": "steak-buffet-pa-mei-1168325537", "rank": 3}}, {"type": "Feature", "geometry": {"type": "Point", "coordinates": [99.038, 18.61283]}, "properties": {"id": "cm-osm-node-7085519908", "name": "โตวันไฮโดรฟาร์ม", "nameTh": "โตวันไฮโดรฟาร์ม", "nameEn": null, "cat": ["food"], "province": "cm", "slug": "7085519908", "rank": 1}}, {"type": "Feature", "geometry": {"type": "Point", "coordinates": [99.02455, 18.8407]}, "properties": {"id": "cm-osm-way-322391432", "name": "ใหญ่ไซส์บิ๊ก โอ้กะจุ๋", "nameTh": "ใหญ่ไซส์บิ๊ก โอ้กะจุ๋", "nameEn": "Ohkajhu Organic Farm Restaurant", "cat": ["food"], "province": "cm", "slug": "ohkajhu-organic-farm-restaurant-322391432", "rank": 5}}]}