{"type": "FeatureCollection", "features": [{"type": "Feature", "geometry": {"type": "Point", "coordinates": [98.99205, 18.76598]}, "properties": {"id": "cm-osm-node-3702216414", "name": "Art Cafe", "nameTh": null, "nameEn": "Art Cafe", "cat": ["food"], "province": "cm", "slug": "art-cafe-3702216414", "rank": 2}}, {"type": "Feature", "geometry": {"type": "Point", "coordinates": [98.99395, 18.78786]}, "properties": {"id": "cm-osm-node-5258746823", "name": "Art Cafe", "nameTh": null, "nameEn": "Art Cafe", "cat": ["food"], "province": "cm", "slug": "art-cafe-5258746823", "rank": 2}}, {"type": "Feature", "geometry": {"type": "Point", "coordinates": [98.99462, 18.79247]}, "properties": {"id": "cm-osm-node-4430796190", "name": "Cat House", "nameTh": null, "nameEn": "Cat house", "cat": ["food"], "province": "cm", "slug": "cat-house-4430796190", "rank": 1}}, {"type": "Feature", "geometry": {"type": "Point", "coordinates": [98.99423, 18.79028]}, "properties": {"id": "cm-osm-node-4563204089", "name": "El Diablo's Cafe", "nameTh": null, "nameEn": "El Diablo's Burrito", "cat": ["food"], "province": "cm", "slug": "el-diablo-s-burrito-4563204089", "rank": 1}}, {"type": "Feature", "geometry": {"type": "Point", "coordinates": [98.91023, 18.7273]}, "properties": {"id": "cm-osm-way-764322511", "name": "Fajitas Family Tex Mex", "nameTh": null, "nameEn": "Fajitas Family Tex Mex", "cat": ["food"], "province": "cm", "slug": "fajitas-family-tex-mex-764322511", "rank": 3}}, {"type": "Feature", "geometry": {"type": "Point", "coordinates": [98.99229, 18.79056]}, "properties": {"id": "cm-osm-node-12581980207", "name": "La Casita", "nameTh": null, "nameEn": "La Casita", "cat": ["food"], "province": "cm", "slug": "la-casita-12581980207", "rank": 1}}, {"type": "Feature", "geometry": {"type": "Point", "coordinates": [98.99318, 18.79028]}, "properties": {"id": "cm-osm-way-481723939", "name": "Loco Elvis", "nameTh": null, "nameEn": "Loco Elvis", "cat": ["food"], "province": "cm", "slug": "loco-elvis-481723939", "rank": 1}}, {"type": "Feature", "geometry": {"type": "Point", "coordinates": [98.99398, 18.7934]}, "properties": {"id": "cm-osm-node-1617076520", "name": "Miguel's", "nameTh": null, "nameEn": "Miguel's", "cat": ["food"], "province": "cm", "slug": "miguel-s-1617076520", "rank": 2}}, {"type": "Feature", "geometry": {"type": "Point", "coordinates": [99.00093, 18.7881]}, "properties": {"id": "cm-osm-way-299398541", "name": "Olé Gourmet Mexican", "nameTh": null, "nameEn": "Olé Gourmet Mexican", "cat": ["food"], "province": "cm", "slug": "ol-gourmet-mexican-299398541", "rank": 2}}, {"type": "Feature", "geometry": {"type": "Point", "coordinates": [98.97413, 18.79814]}, "properties": {"id": "cm-osm-node-3134796412", "name": "Salsa Kitchen", "nameTh": null, "nameEn": "Salsa Kitchen", "cat": ["food"], "province": "cm", "slug": "salsa-kitchen-3134796412", "rank": 2}}, {"type": "Feature", "geometry": {"type": "Point", "coordinates": [99.00714, 18.82664]}, "properties": {"id": "cm-osm-way-389339931", "name": "Salsa Kitchen", "nameTh": null, "nameEn": "Salsa Kitchen", "cat": ["food"], "province": "cm", "slug": "salsa-kitchen-389339931", "rank": 2}}, {"type": "Feature", "geometry": {"type": "Point", "coordinates": [99.01859, 18.80022]}, "properties": {"id": "cm-osm-node-3702532374", "name": "Sunshine Tacos", "nameTh": null, "nameEn": "Sunshine Tacos", "cat": ["food"], "province": "cm", "slug": "sunshine-tacos-3702532374", "rank": 1}}, {"type": "Feature", "geometry": {"type": "Point", "coordinates": [98.92448, 18.74273]}, "properties": {"id": "cm-osm-node-5276808922", "name": "สหภาพกระต่าย", "nameTh": "สหภาพกระต่าย", "nameEn": "The Rabbit Union", "cat": ["food"], "province": "cm", "slug": "the-rabbit-union-5276808922", "rank": 3}}]}