{"type": "FeatureCollection", "features": [{"type": "Feature", "geometry": {"type": "Point", "coordinates": [98.97523, 18.80541]}, "properties": {"id": "cm-osm-node-8891760799", "name": "29 Coffties", "nameTh": null, "nameEn": "29 Coffties", "cat": ["food"], "province": "cm", "slug": "29-coffties-8891760799", "rank": 3}}, {"type": "Feature", "geometry": {"type": "Point", "coordinates": [98.98365, 18.79531]}, "properties": {"id": "cm-osm-node-12513656179", "name": "ASMR Cafe & Wellness", "nameTh": null, "nameEn": "ASMR Cafe & Wellness", "cat": ["food"], "province": "cm", "slug": "asmr-cafe-wellness-12513656179", "rank": 2}}, {"type": "Feature", "geometry": {"type": "Point", "coordinates": [98.98322, 18.78843]}, "properties": {"id": "cm-osm-node-2404044286", "name": "Akha Ama Phrasingh", "nameTh": "กาแฟอาข่าอามา (สาขา 2)", "nameEn": "Akha Ama Phrasingh", "cat": ["food"], "province": "cm", "slug": "akha-ama-phrasingh-2404044286", "rank": 4}}, {"type": "Feature", "geometry": {"type": "Point", "coordinates": [98.98075, 18.77692]}, "properties": {"id": "cm-osm-node-8808240817", "name": "Alchemy Vegan", "nameTh": null, "nameEn": "Alchemy Vegan", "cat": ["food"], "province": "cm", "slug": "alchemy-vegan-8808240817", "rank": 3}}, {"type": "Feature", "geometry": {"type": "Point", "coordinates": [99.0048, 18.8253]}, "properties": {"id": "cm-osm-node-11228388952", "name": "Ann&Mom", "nameTh": null, "nameEn": "Ann&Mom", "cat": ["food"], "province": "cm", "slug": "ann-mom-11228388952", "rank": 2}}, {"type": "Feature", "geometry": {"type": "Point", "coordinates": [98.97593, 18.80218]}, "properties": {"id": "cm-osm-node-11915089170", "name": "Bannom", "nameTh": null, "nameEn": "Bannom", "cat": ["food"], "province": "cm", "slug": "bannom-11915089170", "rank": 2}}, {"type": "Feature", "geometry": {"type": "Point", "coordinates": [98.96793, 18.76744]}, "properties": {"id": "cm-osm-node-12609032485", "name": "Black Canyon", "nameTh": null, "nameEn": "Black Canyon", "cat": ["food"], "province": "cm", "slug": "black-canyon-12609032485", "rank": 2}}, {"type": "Feature", "geometry": {"type": "Point", "coordinates": [98.96829, 18.77037]}, "properties": {"id": "cm-osm-node-1474872898", "name": "Black Canyon Coffee", "nameTh": null, "nameEn": "Black Canyon Coffee", "cat": ["food"], "province": "cm", "slug": "black-canyon-coffee-1474872898", "rank": 2}}, {"type": "Feature", "geometry": {"type": "Point", "coordinates": [98.98163, 18.78297]}, "properties": {"id": "cm-osm-node-12306896388", "name": "Bloomin' Moon", "nameTh": null, "nameEn": "Bloomin' Moon", "cat": ["food"], "province": "cm", "slug": "bloomin-moon-12306896388", "rank": 2}}, {"type": "Feature", "geometry": {"type": "Point", "coordinates": [98.98072, 18.78176]}, "properties": {"id": "cm-osm-node-11386909636", "name": "Bowls & Breads", "nameTh": null, "nameEn": "Bowls & Breads", "cat": ["food"], "province": "cm", "slug": "bowls-breads-11386909636", "rank": 2}}, {"type": "Feature", "geometry": {"type": "Point", "coordinates": [98.96827, 18.76877]}, "properties": {"id": "cm-osm-node-1474876241", "name": "Burger King", "nameTh": null, "nameEn": "Burger King", "cat": ["food"], "province": "cm", "slug": "burger-king-1474876241", "rank": 2}}, {"type": "Feature", "geometry": {"type": "Point", "coordinates": [98.99976, 18.78039]}, "properties": {"id": "cm-osm-node-2641740599", "name": "Butter is Better", "nameTh": null, "nameEn": "Butter is Better", "cat": ["food"], "province": "cm", "slug": "butter-is-better-2641740599", "rank": 2}}, {"type": "Feature", "geometry": {"type": "Point", "coordinates": [98.97333, 18.75119]}, "properties": {"id": "cm-osm-node-7438381469", "name": "Butter is Better Too", "nameTh": "เนยสด อาหารอร่อย", "nameEn": "Butter is Better Too", "cat": ["food"], "province": "cm", "slug": "butter-is-better-too-7438381469", "rank": 3}}, {"type": "Feature", "geometry": {"type": "Point", "coordinates": [99.00068, 18.78105]}, "properties": {"id": "cm-osm-node-1101287698", "name": "Cafe de L'Amour", "nameTh": null, "nameEn": "Cafe de L'Amour", "cat": ["food"], "province": "cm", "slug": "cafe-de-l-amour-1101287698", "rank": 2}}, {"type": "Feature", "geometry": {"type": "Point", "coordinates": [98.98848, 18.78547]}, "properties": {"id": "cm-osm-node-1006843145", "name": "Cafe de Thaan Aoan", "nameTh": null, "nameEn": "Cafe de Thaan Aoan", "cat": ["food"], "province": "cm", "slug": "cafe-de-thaan-aoan-1006843145", "rank": 2}}, {"type": "Feature", "geometry": {"type": "Point", "coordinates": [98.99043, 18.78637]}, "properties": {"id": "cm-osm-node-9872196618", "name": "Chada Vegetarian", "nameTh": null, "nameEn": "Chada Vegetarian", "cat": ["food"], "province": "cm", "slug": "chada-vegetarian-9872196618", "rank": 2}}, {"type": "Feature", "geometry": {"type": "Point", "coordinates": [98.97454, 18.79739]}, "properties": {"id": "cm-osm-node-10677606512", "name": "Chapter One", "nameTh": null, "nameEn": "Chapter One", "cat": ["food"], "province": "cm", "slug": "chapter-one-10677606512", "rank": 3}}, {"type": "Feature", "geometry": {"type": "Point", "coordinates": [98.94543, 18.74826]}, "properties": {"id": "cm-osm-node-5608450921", "name": "Chom Cafe and Restaurant", "nameTh": null, "nameEn": "Chom Cafe and Restaurant", "cat": ["food"], "province": "cm", "slug": "chom-cafe-and-restaurant-5608450921", "rank": 2}}, {"type": "Feature", "geometry": {"type": "Point", "coordinates": [98.97034, 18.79833]}, "properties": {"id": "cm-osm-node-11425558688", "name": "Coffee INC. Nicohub", "nameTh": null, "nameEn": "Coffee INC. Nicohub", "cat": ["food"], "province": "cm", "slug": "coffee-inc-nicohub-11425558688", "rank": 3}}, {"type": "Feature", "geometry": {"type": "Point", "coordinates": [98.99312, 18.78845]}, "properties": {"id": "cm-osm-node-5758046621", "name": "CoolMuang", "nameTh": null, "nameEn": "CoolMuang", "cat": ["food"], "province": "cm", "slug": "coolmuang-5758046621", "rank": 2}}, {"type": "Feature", "geometry": {"type": "Point", "coordinates": [98.97359, 18.79525]}, "properties": {"id": "cm-osm-node-12620112808", "name": "Creativitea", "nameTh": null, "nameEn": "Creativitea", "cat": ["food"], "province": "cm", "slug": "creativitea-12620112808", "rank": 3}}, {"type": "Feature", "geometry": {"type": "Point", "coordinates": [98.97241, 18.75883]}, "properties": {"id": "cm-osm-node-7882686661", "name": "Dairy Queen", "nameTh": null, "nameEn": "Dairy Queen", "cat": ["food"], "province": "cm", "slug": "dairy-queen-7882686661", "rank": 1}}, {"type": "Feature", "geometry": {"type": "Point", "coordinates": [98.96262, 18.82386]}, "properties": {"id": "cm-osm-way-1459203388", "name": "Dorle Bakery", "nameTh": null, "nameEn": "Dorle Bakery", "cat": ["food"], "province": "cm", "slug": "dorle-bakery-1459203388", "rank": 2}}, {"type": "Feature", "geometry": {"type": "Point", "coordinates": [98.97253, 18.75875]}, "properties": {"id": "cm-osm-node-7882686659", "name": "Dunkin'", "nameTh": null, "nameEn": "Dunkin'", "cat": ["food"], "province": "cm", "slug": "dunkin-7882686659", "rank": 1}}, {"type": "Feature", "geometry": {"type": "Point", "coordinates": [98.96928, 18.78869]}, "properties": {"id": "cm-osm-node-4539213082", "name": "Everest 8848", "nameTh": null, "nameEn": "Everest 8848", "cat": ["food"], "province": "cm", "slug": "everest-8848-4539213082", "rank": 1}}, {"type": "Feature", "geometry": {"type": "Point", "coordinates": [98.98209, 18.79326]}, "properties": {"id": "cm-osm-way-623140246", "name": "Goodsouls Kitchen", "nameTh": null, "nameEn": "Goodsouls Kitchen", "cat": ["food"], "province": "cm", "slug": "goodsouls-kitchen-623140246", "rank": 3}}, {"type": "Feature", "geometry": {"type": "Point", "coordinates": [98.98193, 18.78584]}, "properties": {"id": "cm-osm-way-623156415", "name": "Gravity Cafe & Bistro", "nameTh": null, "nameEn": "Gravity Cafe & Bistro", "cat": ["food"], "province": "cm", "slug": "gravity-cafe-bistro-623156415", "rank": 2}}, {"type": "Feature", "geometry": {"type": "Point", "coordinates": [98.89576, 18.68227]}, "properties": {"id": "cm-osm-node-13533499755", "name": "Hangdong Family Minigolf  + German Rrestaurant", "nameTh": null, "nameEn": "Hangdong Family Minigolf  + German Rrestaurant", "cat": ["food"], "province": "cm", "slug": "hangdong-family-minigolf-german-rrestaurant-13533499755", "rank": 4}}, {"type": "Feature", "geometry": {"type": "Point", "coordinates": [98.96754, 18.80193]}, "properties": {"id": "cm-osm-node-13392865738", "name": "Imjai Vegan", "nameTh": null, "nameEn": "Imjai Vegan", "cat": ["food"], "province": "cm", "slug": "imjai-vegan-13392865738", "rank": 1}}, {"type": "Feature", "geometry": {"type": "Point", "coordinates": [98.98626, 18.78367]}, "properties": {"id": "cm-osm-node-13545071979", "name": "Kalm Coffee", "nameTh": null, "nameEn": "Kalm Coffee", "cat": ["food"], "province": "cm", "slug": "kalm-coffee-13545071979", "rank": 1}}, {"type": "Feature", "geometry": {"type": "Point", "coordinates": [98.97923, 18.81156]}, "properties": {"id": "cm-osm-node-13616287147", "name": "Lapin Cafe", "nameTh": "ลาแปง คาเฟ่", "nameEn": "Lapin Cafe", "cat": ["food"], "province": "cm", "slug": "lapin-cafe-13616287147", "rank": 4}}, {"type": "Feature", "geometry": {"type": "Point", "coordinates": [98.98409, 18.83666]}, "properties": {"id": "cm-osm-node-9317017217", "name": "Lee Cafe", "nameTh": null, "nameEn": "Lee Cafe", "cat": ["food"], "province": "cm", "slug": "lee-cafe-9317017217", "rank": 3}}, {"type": "Feature", "geometry": {"type": "Point", "coordinates": [99.00831, 18.75556]}, "properties": {"id": "cm-osm-way-314677553", "name": "Mad? Cafe", "nameTh": null, "nameEn": "Mad? Cafe", "cat": ["food"], "province": "cm", "slug": "mad-cafe-314677553", "rank": 1}}, {"type": "Feature", "geometry": {"type": "Point", "coordinates": [98.97809, 18.78272]}, "properties": {"id": "cm-osm-node-11364009412", "name": "Madam Koh", "nameTh": null, "nameEn": "Madam Koh", "cat": ["food"], "province": "cm", "slug": "madam-koh-11364009412", "rank": 3}}, {"type": "Feature", "geometry": {"type": "Point", "coordinates": [98.99923, 18.80732]}, "properties": {"id": "cm-osm-node-13403843262", "name": "Margaret", "nameTh": null, "nameEn": "Margaret", "cat": ["food"], "province": "cm", "slug": "margaret-13403843262", "rank": 2}}, {"type": "Feature", "geometry": {"type": "Point", "coordinates": [98.99487, 18.7879]}, "properties": {"id": "cm-osm-node-13518858073", "name": "Mo Restaurant & Bar", "nameTh": null, "nameEn": "Mo Restaurant & Bar", "cat": ["food"], "province": "cm", "slug": "mo-restaurant-bar-13518858073", "rank": 1}}, {"type": "Feature", "geometry": {"type": "Point", "coordinates": [98.9863, 18.79509]}, "properties": {"id": "cm-osm-node-4333699923", "name": "Mountain view garden restaurant", "nameTh": null, "nameEn": "Mountain view garden restaurant", "cat": ["food"], "province": "cm", "slug": "mountain-view-garden-restaurant-4333699923", "rank": 4}}, {"type": "Feature", "geometry": {"type": "Point", "coordinates": [98.98323, 18.7881]}, "properties": {"id": "cm-osm-node-3907871477", "name": "My Secret Cafe", "nameTh": null, "nameEn": "My Secret Cafe", "cat": ["food"], "province": "cm", "slug": "my-secret-cafe-3907871477", "rank": 1}}, {"type": "Feature", "geometry": {"type": "Point", "coordinates": [98.94593, 18.68986]}, "properties": {"id": "cm-osm-node-11032795792", "name": "NK Cafe", "nameTh": "เอ็น เค คาเฟ่", "nameEn": "NK Cafe", "cat": ["food"], "province": "cm", "slug": "nk-cafe-11032795792", "rank": 4}}, {"type": "Feature", "geometry": {"type": "Point", "coordinates": [98.9784, 18.78912]}, "properties": {"id": "cm-osm-node-11420299600", "name": "Primary", "nameTh": null, "nameEn": "Primary", "cat": ["food"], "province": "cm", "slug": "primary-11420299600", "rank": 3}}, {"type": "Feature", "geometry": {"type": "Point", "coordinates": [99.1342, 18.87232]}, "properties": {"id": "cm-osm-node-13604911531", "name": "Punthai", "nameTh": null, "nameEn": "Punthai", "cat": ["food"], "province": "cm", "slug": "punthai-13604911531", "rank": 2}}, {"type": "Feature", "geometry": {"type": "Point", "coordinates": [98.97206, 18.79596]}, "properties": {"id": "cm-osm-node-11471926667", "name": "Rosemary", "nameTh": null, "nameEn": "Rosemary", "cat": ["food"], "province": "cm", "slug": "rosemary-11471926667", "rank": 3}}, {"type": "Feature", "geometry": {"type": "Point", "coordinates": [98.97238, 18.75872]}, "properties": {"id": "cm-osm-node-7882686658", "name": "S&P", "nameTh": null, "nameEn": "S&P", "cat": ["food"], "province": "cm", "slug": "s-p-7882686658", "rank": 1}}, {"type": "Feature", "geometry": {"type": "Point", "coordinates": [98.97413, 18.79814]}, "properties": {"id": "cm-osm-node-3134796412", "name": "Salsa Kitchen", "nameTh": null, "nameEn": "Salsa Kitchen", "cat": ["food"], "province": "cm", "slug": "salsa-kitchen-3134796412", "rank": 2}}, {"type": "Feature", "geometry": {"type": "Point", "coordinates": [98.9971, 18.7898]}, "properties": {"id": "cm-osm-way-668376838", "name": "Samurai Kitchen", "nameTh": null, "nameEn": "Samurai Kitchen", "cat": ["food"], "province": "cm", "slug": "samurai-kitchen-668376838", "rank": 1}}, {"type": "Feature", "geometry": {"type": "Point", "coordinates": [98.98228, 18.79047]}, "properties": {"id": "cm-osm-node-12301174700", "name": "Seven Slash Two", "nameTh": null, "nameEn": "Seven Slash Two", "cat": ["food"], "province": "cm", "slug": "seven-slash-two-12301174700", "rank": 2}}, {"type": "Feature", "geometry": {"type": "Point", "coordinates": [99.04754, 18.74208]}, "properties": {"id": "cm-osm-node-11886014037", "name": "Sukhum Caffe' Saraphi", "nameTh": "สุขุม คาฟเฟ่ สารภี", "nameEn": "Sukhum Caffe' Saraphi", "cat": ["food"], "province": "cm", "slug": "sukhum-caffe-saraphi-11886014037", "rank": 4}}, {"type": "Feature", "geometry": {"type": "Point", "coordinates": [99.01615, 18.7821]}, "properties": {"id": "cm-osm-node-12031579804", "name": "The Baristro At Train Station", "nameTh": null, "nameEn": "The Baristro At Train Station", "cat": ["food"], "province": "cm", "slug": "the-baristro-at-train-station-12031579804", "rank": 2}}, {"type": "Feature", "geometry": {"type": "Point", "coordinates": [98.9992, 18.81712]}, "properties": {"id": "cm-osm-node-11786207667", "name": "The Baristro Coffee Roaster", "nameTh": null, "nameEn": "The Baristro Coffee Roaster", "cat": ["food"], "province": "cm", "slug": "the-baristro-coffee-roaster-11786207667", "rank": 3}}, {"type": "Feature", "geometry": {"type": "Point", "coordinates": [98.954, 18.79269]}, "properties": {"id": "cm-osm-node-10310248477", "name": "Trial Not Error", "nameTh": null, "nameEn": "Trial Not Error", "cat": ["food"], "province": "cm", "slug": "trial-not-error-10310248477", "rank": 4}}, {"type": "Feature", "geometry": {"type": "Point", "coordinates": [98.9842, 18.79922]}, "properties": {"id": "cm-osm-node-11726497304", "name": "Uncle Home", "nameTh": null, "nameEn": "Uncle Home", "cat": ["food"], "province": "cm", "slug": "uncle-home-11726497304", "rank": 3}}, {"type": "Feature", "geometry": {"type": "Point", "coordinates": [99.01178, 18.82423]}, "properties": {"id": "cm-osm-way-1099750976", "name": "คาเฟ่ อเมซอน", "nameTh": "คาเฟ่ อเมซอน", "nameEn": "Café Amazon", "cat": ["food"], "province": "cm", "slug": "caf-amazon-1099750976", "rank": 2}}, {"type": "Feature", "geometry": {"type": "Point", "coordinates": [98.95533, 18.79175]}, "properties": {"id": "cm-osm-node-7735597043", "name": "คุโมะ ชาบู", "nameTh": "คุโมะ ชาบู", "nameEn": "Kumo Shbu", "cat": ["food"], "province": "cm", "slug": "kumo-shbu-7735597043", "rank": 4}}, {"type": "Feature", "geometry": {"type": "Point", "coordinates": [99.04601, 18.90487]}, "properties": {"id": "cm-osm-node-4573410090", "name": "สยามการ์เด้นคุ้กกิ้งสคูล", "nameTh": "สยามการ์เด้นคุ้กกิ้งสคูล", "nameEn": "Siam Garden Cooking School", "cat": ["cooking", "food"], "province": "cm", "slug": "siam-garden-cooking-school-4573410090", "rank": 6}}, {"type": "Feature", "geometry": {"type": "Point", "coordinates": [98.93438, 18.73815]}, "properties": {"id": "cm-osm-way-1098454510", "name": "High Speed 420 Weed Shop & Medical Cannabis Dispensary", "nameTh": null, "nameEn": "High Speed 420 Weed Shop & Medical Cannabis Dispensary", "cat": ["cannabis"], "province": "cm", "slug": "high-speed-420-weed-shop-medical-cannabis-dispensary-1098454510", "rank": 3}}, {"type": "Feature", "geometry": {"type": "Point", "coordinates": [98.99036, 18.78433]}, "properties": {"id": "cm-osm-node-6117383885", "name": "7-Eleven", "nameTh": null, "nameEn": "7-Eleven", "cat": ["essentials"], "province": "cm", "slug": "7-eleven-6117383885", "rank": 1}}, {"type": "Feature", "geometry": {"type": "Point", "coordinates": [98.98312, 18.68029]}, "properties": {"id": "cm-osm-node-856566123", "name": "7-Eleven", "nameTh": null, "nameEn": "7-Eleven", "cat": ["essentials"], "province": "cm", "slug": "7-eleven-856566123", "rank": 3}}, {"type": "Feature", "geometry": {"type": "Point", "coordinates": [98.98525, 18.71471]}, "properties": {"id": "cm-osm-way-544559166", "name": "7-Eleven", "nameTh": null, "nameEn": "7-Eleven", "cat": ["essentials"], "province": "cm", "slug": "7-eleven-544559166", "rank": 2}}, {"type": "Feature", "geometry": {"type": "Point", "coordinates": [99.00603, 18.76683]}, "properties": {"id": "cm-osm-way-193293190", "name": "สำนักงานขนส่งจังหวัดเชียงใหม่แห่งที่ 1", "nameTh": "สำนักงานขนส่งจังหวัดเชียงใหม่แห่งที่ 1", "nameEn": "Chiangmai Provincial Land Transport Office 1", "cat": ["essentials"], "province": "cm", "slug": "chiangmai-provincial-land-transport-office-1-193293190", "rank": 4}}, {"type": "Feature", "geometry": {"type": "Point", "coordinates": [98.96206, 18.74498]}, "properties": {"id": "cm-osm-way-87918186", "name": "สำนักงานขนส่งจังหวัดเชียงใหม่แห่งที่ 2", "nameTh": "สำนักงานขนส่งจังหวัดเชียงใหม่แห่งที่ 2", "nameEn": "Chiang Mai Provincial Land Transport Office 2", "cat": ["essentials"], "province": "cm", "slug": "chiang-mai-provincial-land-transport-office-2-87918186", "rank": 4}}, {"type": "Feature", "geometry": {"type": "Point", "coordinates": [98.98304, 18.78943]}, "properties": {"id": "cm-osm-node-3804433413", "name": "99 Gallery Hotel", "nameTh": null, "nameEn": "99 Gallery Hotel", "cat": ["hotel"], "province": "cm", "slug": "99-gallery-hotel-3804433413", "rank": 2}}, {"type": "Feature", "geometry": {"type": "Point", "coordinates": [98.99489, 18.78643]}, "properties": {"id": "cm-osm-node-12642191034", "name": "Away Chiang Mai Thapae Resort", "nameTh": null, "nameEn": "Away Chiang Mai Thapae Resort", "cat": ["hotel"], "province": "cm", "slug": "away-chiang-mai-thapae-resort-12642191034", "rank": 3}}, {"type": "Feature", "geometry": {"type": "Point", "coordinates": [98.95096, 18.77327]}, "properties": {"id": "cm-osm-way-334869221", "name": "B2 Premier", "nameTh": null, "nameEn": "B2 Premier", "cat": ["hotel"], "province": "cm", "slug": "b2-premier-334869221", "rank": 3}}, {"type": "Feature", "geometry": {"type": "Point", "coordinates": [98.99457, 18.77851]}, "properties": {"id": "cm-osm-node-12330971701", "name": "BB House Chiang Mai", "nameTh": null, "nameEn": "BB House Chiang Mai", "cat": ["hotel"], "province": "cm", "slug": "bb-house-chiang-mai-12330971701", "rank": 5}}, {"type": "Feature", "geometry": {"type": "Point", "coordinates": [98.99233, 18.79258]}, "properties": {"id": "cm-osm-way-578853339", "name": "BB Mantra Hotel", "nameTh": null, "nameEn": "BB Mantra Hotel", "cat": ["hotel"], "province": "cm", "slug": "bb-mantra-hotel-578853339", "rank": 1}}, {"type": "Feature", "geometry": {"type": "Point", "coordinates": [99.00423, 18.78633]}, "properties": {"id": "cm-osm-way-1346303185", "name": "Ban Narai River Guesthouse", "nameTh": null, "nameEn": "Ban Narai River Guesthouse", "cat": ["hotel"], "province": "cm", "slug": "ban-narai-river-guesthouse-1346303185", "rank": 1}}, {"type": "Feature", "geometry": {"type": "Point", "coordinates": [98.99057, 18.78452]}, "properties": {"id": "cm-osm-node-12327786309", "name": "Bodhi Serene", "nameTh": null, "nameEn": "Bodhi Serene", "cat": ["hotel"], "province": "cm", "slug": "bodhi-serene-12327786309", "rank": 1}}, {"type": "Feature", "geometry": {"type": "Point", "coordinates": [98.99114, 18.7848]}, "properties": {"id": "cm-osm-node-1618793887", "name": "Chada House", "nameTh": null, "nameEn": "Chada House", "cat": ["hotel"], "province": "cm", "slug": "chada-house-1618793887", "rank": 1}}, {"type": "Feature", "geometry": {"type": "Point", "coordinates": [98.97729, 18.80128]}, "properties": {"id": "cm-osm-way-1147523717", "name": "Chor Chang House", "nameTh": null, "nameEn": "Chor Chang House", "cat": ["hotel"], "province": "cm", "slug": "chor-chang-house-1147523717", "rank": 2}}, {"type": "Feature", "geometry": {"type": "Point", "coordinates": [98.98953, 18.78715]}, "properties": {"id": "cm-osm-node-9281344619", "name": "Cozy by Funwahn", "nameTh": null, "nameEn": "Cozy by Funwahn", "cat": ["hotel"], "province": "cm", "slug": "cozy-by-funwahn-9281344619", "rank": 1}}, {"type": "Feature", "geometry": {"type": "Point", "coordinates": [98.9831, 18.7898]}, "properties": {"id": "cm-osm-way-408595881", "name": "De Lanna Hotel", "nameTh": null, "nameEn": "De Lanna Hotel", "cat": ["hotel"], "province": "cm", "slug": "de-lanna-hotel-408595881", "rank": 3}}, {"type": "Feature", "geometry": {"type": "Point", "coordinates": [98.99422, 18.76298]}, "properties": {"id": "cm-osm-node-9353067138", "name": "Full Stop Hostel Chiang Mai", "nameTh": null, "nameEn": "Full Stop Hostel Chiang Mai", "cat": ["hotel"], "province": "cm", "slug": "full-stop-hostel-chiang-mai-9353067138", "rank": 2}}, {"type": "Feature", "geometry": {"type": "Point", "coordinates": [98.98429, 18.79952]}, "properties": {"id": "cm-osm-node-9401545617", "name": "Glory Boutique Suites", "nameTh": null, "nameEn": "Glory Boutique Suites", "cat": ["hotel"], "province": "cm", "slug": "glory-boutique-suites-9401545617", "rank": 3}}, {"type": "Feature", "geometry": {"type": "Point", "coordinates": [99.03017, 18.75678]}, "properties": {"id": "cm-osm-way-438326680", "name": "Harmonize Hotel", "nameTh": null, "nameEn": "Harmonize Hotel", "cat": ["hotel"], "province": "cm", "slug": "harmonize-hotel-438326680", "rank": 1}}, {"type": "Feature", "geometry": {"type": "Point", "coordinates": [98.98485, 18.71706]}, "properties": {"id": "cm-osm-way-1159991754", "name": "Heyuan", "nameTh": null, "nameEn": "Heyuan", "cat": ["hotel"], "province": "cm", "slug": "heyuan-1159991754", "rank": 2}}, {"type": "Feature", "geometry": {"type": "Point", "coordinates": [98.97717, 18.80558]}, "properties": {"id": "cm-osm-way-1159993756", "name": "Hokka-An", "nameTh": null, "nameEn": "Hokka-An", "cat": ["hotel"], "province": "cm", "slug": "hokka-an-1159993756", "rank": 2}}, {"type": "Feature", "geometry": {"type": "Point", "coordinates": [98.99691, 18.78977]}, "properties": {"id": "cm-osm-node-5566673219", "name": "Hugnur Hostel & Coffee", "nameTh": null, "nameEn": "Hugnur Hostel & Coffee", "cat": ["hotel"], "province": "cm", "slug": "hugnur-hostel-coffee-5566673219", "rank": 1}}, {"type": "Feature", "geometry": {"type": "Point", "coordinates": [99.01695, 18.79804]}, "properties": {"id": "cm-osm-node-3152483861", "name": "Inn Kham", "nameTh": null, "nameEn": "Inn Kham", "cat": ["hotel"], "province": "cm", "slug": "inn-kham-3152483861", "rank": 2}}, {"type": "Feature", "geometry": {"type": "Point", "coordinates": [98.99093, 18.77876]}, "properties": {"id": "cm-osm-node-11699781425", "name": "Le Ville Lanna Boutique Hotel", "nameTh": null, "nameEn": "Le Ville Lanna Boutique Hotel", "cat": ["hotel"], "province": "cm", "slug": "le-ville-lanna-boutique-hotel-11699781425", "rank": 2}}, {"type": "Feature", "geometry": {"type": "Point", "coordinates": [98.98219, 18.78264]}, "properties": {"id": "cm-osm-way-406994637", "name": "Pastel", "nameTh": null, "nameEn": "Pastel", "cat": ["hotel"], "province": "cm", "slug": "pastel-406994637", "rank": 1}}, {"type": "Feature", "geometry": {"type": "Point", "coordinates": [98.96016, 18.78797]}, "properties": {"id": "cm-osm-way-359696339", "name": "R2 Hotel Chiang Mai", "nameTh": null, "nameEn": "R2 Hotel Chiang Mai", "cat": ["hotel"], "province": "cm", "slug": "r2-hotel-chiang-mai-359696339", "rank": 3}}, {"type": "Feature", "geometry": {"type": "Point", "coordinates": [98.95745, 18.77802]}, "properties": {"id": "cm-osm-way-961374341", "name": "Sleep CNX", "nameTh": null, "nameEn": "Sleep CNX", "cat": ["hotel"], "province": "cm", "slug": "sleep-cnx-961374341", "rank": 2}}, {"type": "Feature", "geometry": {"type": "Point", "coordinates": [98.99381, 18.78551]}, "properties": {"id": "cm-osm-way-1484018624", "name": "Sleep Mai?", "nameTh": null, "nameEn": "Sleep Mai?", "cat": ["hotel"], "province": "cm", "slug": "sleep-mai-1484018624", "rank": 4}}, {"type": "Feature", "geometry": {"type": "Point", "coordinates": [98.98259, 18.78401]}, "properties": {"id": "cm-osm-way-406416408", "name": "Stay Here Hostel", "nameTh": null, "nameEn": "Stay Here Hostel", "cat": ["hotel"], "province": "cm", "slug": "stay-here-hostel-406416408", "rank": 2}}, {"type": "Feature", "geometry": {"type": "Point", "coordinates": [98.99332, 18.7959]}, "properties": {"id": "cm-osm-node-4535975018", "name": "The Nook Hotel", "nameTh": null, "nameEn": "The Nook Hotel", "cat": ["hotel"], "province": "cm", "slug": "the-nook-hotel-4535975018", "rank": 2}}, {"type": "Feature", "geometry": {"type": "Point", "coordinates": [98.99211, 18.83261]}, "properties": {"id": "cm-osm-node-13076053766", "name": "Tonnam Homestay", "nameTh": "ต้นน้ำโฮมสเตย์", "nameEn": "Tonnam Homestay", "cat": ["hotel"], "province": "cm", "slug": "tonnam-homestay-13076053766", "rank": 4}}, {"type": "Feature", "geometry": {"type": "Point", "coordinates": [98.97316, 18.8156]}, "properties": {"id": "cm-osm-way-443317404", "name": "Unique hotel", "nameTh": null, "nameEn": "Unique hotel", "cat": ["hotel"], "province": "cm", "slug": "unique-hotel-443317404", "rank": 2}}, {"type": "Feature", "geometry": {"type": "Point", "coordinates": [98.99052, 18.78334]}, "properties": {"id": "cm-osm-node-11809149230", "name": "Wealth Boutique Hotel", "nameTh": null, "nameEn": "Wealth Boutique Hotel", "cat": ["hotel"], "province": "cm", "slug": "wealth-boutique-hotel-11809149230", "rank": 3}}, {"type": "Feature", "geometry": {"type": "Point", "coordinates": [98.99976, 18.78045]}, "properties": {"id": "cm-osm-node-4870810723", "name": "Dreadlock Chiangmai", "nameTh": null, "nameEn": "Dreadlock Chiangmai", "cat": ["beauty"], "province": "cm", "slug": "dreadlock-chiangmai-4870810723", "rank": 1}}, {"type": "Feature", "geometry": {"type": "Point", "coordinates": [98.99059, 18.78549]}, "properties": {"id": "cm-osm-way-243115815", "name": "MayjicNails", "nameTh": null, "nameEn": "MayjicNails", "cat": ["beauty"], "province": "cm", "slug": "mayjicnails-243115815", "rank": 2}}, {"type": "Feature", "geometry": {"type": "Point", "coordinates": [99.0288, 18.79122]}, "properties": {"id": "cm-osm-way-756152050", "name": "St. Andrew's Community Learning Centre", "nameTh": null, "nameEn": "St. Andrew's Community Learning Centre", "cat": ["community"], "province": "cm", "slug": "st-andrew-s-community-learning-centre-756152050", "rank": 1}}]}