{"type": "FeatureCollection", "features": [{"type": "Feature", "geometry": {"type": "Point", "coordinates": [99.01181, 18.82524]}, "properties": {"id": "cm-osm-node-10067723211", "name": "The Pizza Company", "nameTh": null, "nameEn": "The Pizza Company", "cat": ["food"], "province": "cm", "slug": "the-pizza-company-10067723211", "rank": 1}}, {"type": "Feature", "geometry": {"type": "Point", "coordinates": [99.0274, 18.78349]}, "properties": {"id": "cm-osm-node-1418968709", "name": "The Pizza Company", "nameTh": "เดอะ พิซซ่า คอมปะนี", "nameEn": "The Pizza Company", "cat": ["food"], "province": "cm", "slug": "the-pizza-company-1418968709", "rank": 4}}, {"type": "Feature", "geometry": {"type": "Point", "coordinates": [99.00988, 18.89333]}, "properties": {"id": "cm-osm-node-2601003840", "name": "The Pizza Company", "nameTh": "เดอะ พิซซ่า คอมปะนี", "nameEn": "The Pizza Company", "cat": ["food"], "province": "cm", "slug": "the-pizza-company-2601003840", "rank": 4}}, {"type": "Feature", "geometry": {"type": "Point", "coordinates": [99.01787, 18.80608]}, "properties": {"id": "cm-osm-node-3249112266", "name": "The Pizza Company", "nameTh": "เดอะ พิซซ่า คอมปะนี", "nameEn": "The Pizza Company", "cat": ["food"], "province": "cm", "slug": "the-pizza-company-3249112266", "rank": 4}}, {"type": "Feature", "geometry": {"type": "Point", "coordinates": [98.97455, 18.76903]}, "properties": {"id": "cm-osm-node-3347633209", "name": "The Pizza Company", "nameTh": "เดอะ พิซซ่า คอมปะนี", "nameEn": "The Pizza Company", "cat": ["food"], "province": "cm", "slug": "the-pizza-company-3347633209", "rank": 5}}, {"type": "Feature", "geometry": {"type": "Point", "coordinates": [98.98215, 18.81608]}, "properties": {"id": "cm-osm-node-3385661335", "name": "The Pizza Company", "nameTh": "เดอะ พิซซ่า คอมปะนี", "nameEn": "The Pizza Company", "cat": ["food"], "province": "cm", "slug": "the-pizza-company-3385661335", "rank": 4}}, {"type": "Feature", "geometry": {"type": "Point", "coordinates": [99.07794, 18.76606]}, "properties": {"id": "cm-osm-node-3602308247", "name": "The Pizza Company", "nameTh": "เดอะ พิซซ่า คอมปะนี", "nameEn": "The Pizza Company", "cat": ["food"], "province": "cm", "slug": "the-pizza-company-3602308247", "rank": 4}}, {"type": "Feature", "geometry": {"type": "Point", "coordinates": [98.9972, 18.80865]}, "properties": {"id": "cm-osm-node-4359152131", "name": "The Pizza Company", "nameTh": null, "nameEn": "The Pizza Company", "cat": ["food"], "province": "cm", "slug": "the-pizza-company-4359152131", "rank": 1}}, {"type": "Feature", "geometry": {"type": "Point", "coordinates": [98.9745, 18.76319]}, "properties": {"id": "cm-osm-node-9328874217", "name": "The Pizza Company", "nameTh": null, "nameEn": "The Pizza Company", "cat": ["food"], "province": "cm", "slug": "the-pizza-company-9328874217", "rank": 2}}, {"type": "Feature", "geometry": {"type": "Point", "coordinates": [98.93992, 18.92213]}, "properties": {"id": "cm-osm-way-741830428", "name": "The Pizza Company", "nameTh": null, "nameEn": "The Pizza Company", "cat": ["food"], "province": "cm", "slug": "the-pizza-company-741830428", "rank": 1}}]}