{"type": "FeatureCollection", "features": [{"type": "Feature", "geometry": {"type": "Point", "coordinates": [98.96604, 18.74154]}, "properties": {"id": "cm-osm-node-10777958198", "name": "5 Star Chicken", "nameTh": "ไก่ย่างห้าดาว", "nameEn": "5 Star Chicken", "cat": ["food"], "province": "cm", "slug": "5-star-chicken-10777958198", "rank": 2}}, {"type": "Feature", "geometry": {"type": "Point", "coordinates": [99.04965, 18.67903]}, "properties": {"id": "cm-osm-node-9387328533", "name": "5 Star Chicken", "nameTh": null, "nameEn": "5 Star Chicken", "cat": ["food"], "province": "cm", "slug": "5-star-chicken-9387328533", "rank": 1}}, {"type": "Feature", "geometry": {"type": "Point", "coordinates": [98.99462, 18.79247]}, "properties": {"id": "cm-osm-node-4430796190", "name": "Cat House", "nameTh": null, "nameEn": "Cat house", "cat": ["food"], "province": "cm", "slug": "cat-house-4430796190", "rank": 1}}, {"type": "Feature", "geometry": {"type": "Point", "coordinates": [98.95791, 18.80635]}, "properties": {"id": "cm-osm-node-3819711686", "name": "Catmosphere Cat Café", "nameTh": "แคทโมสเฟียร์ แคท คาเฟ่", "nameEn": "Catmosphere Cat Café", "cat": ["food"], "province": "cm", "slug": "catmosphere-cat-caf-3819711686", "rank": 3}}, {"type": "Feature", "geometry": {"type": "Point", "coordinates": [98.9672, 18.80253]}, "properties": {"id": "cm-osm-node-3287356490", "name": "Chester's", "nameTh": null, "nameEn": "Chester's", "cat": ["food"], "province": "cm", "slug": "chester-s-3287356490", "rank": 1}}, {"type": "Feature", "geometry": {"type": "Point", "coordinates": [98.9921, 18.78423]}, "properties": {"id": "cm-osm-node-10195996812", "name": "Chicken Embassy", "nameTh": null, "nameEn": "Chicken Embassy", "cat": ["food"], "province": "cm", "slug": "chicken-embassy-10195996812", "rank": 2}}, {"type": "Feature", "geometry": {"type": "Point", "coordinates": [98.97241, 18.75883]}, "properties": {"id": "cm-osm-node-7882686661", "name": "Dairy Queen", "nameTh": null, "nameEn": "Dairy Queen", "cat": ["food"], "province": "cm", "slug": "dairy-queen-7882686661", "rank": 1}}, {"type": "Feature", "geometry": {"type": "Point", "coordinates": [98.99794, 18.78103]}, "properties": {"id": "cm-osm-node-1101287088", "name": "Five Star", "nameTh": null, "nameEn": "Five Star", "cat": ["food"], "province": "cm", "slug": "five-star-1101287088", "rank": 1}}, {"type": "Feature", "geometry": {"type": "Point", "coordinates": [98.94577, 18.9128]}, "properties": {"id": "cm-osm-node-13360650862", "name": "Five Star Chicken", "nameTh": null, "nameEn": "Five Star Chicken", "cat": ["food"], "province": "cm", "slug": "five-star-chicken-13360650862", "rank": 1}}, {"type": "Feature", "geometry": {"type": "Point", "coordinates": [99.06724, 18.79541]}, "properties": {"id": "cm-osm-node-10182430165", "name": "KFC", "nameTh": null, "nameEn": "KFC", "cat": ["food"], "province": "cm", "slug": "kfc-10182430165", "rank": 1}}, {"type": "Feature", "geometry": {"type": "Point", "coordinates": [98.91447, 18.66728]}, "properties": {"id": "cm-osm-node-1058624594", "name": "KFC", "nameTh": "เค เอฟ ซี", "nameEn": "KFC", "cat": ["food"], "province": "cm", "slug": "kfc-1058624594", "rank": 3}}, {"type": "Feature", "geometry": {"type": "Point", "coordinates": [98.99721, 18.80869]}, "properties": {"id": "cm-osm-node-1616141787", "name": "KFC", "nameTh": "เค เอฟ ซี", "nameEn": "KFC", "cat": ["food"], "province": "cm", "slug": "kfc-1616141787", "rank": 3}}, {"type": "Feature", "geometry": {"type": "Point", "coordinates": [99.03291, 18.7691]}, "properties": {"id": "cm-osm-node-2117270440", "name": "KFC", "nameTh": "เค เอฟ ซี", "nameEn": "KFC", "cat": ["food"], "province": "cm", "slug": "kfc-2117270440", "rank": 3}}, {"type": "Feature", "geometry": {"type": "Point", "coordinates": [99.01416, 18.82441]}, "properties": {"id": "cm-osm-node-2517081501", "name": "KFC", "nameTh": "เค เอฟ ซี", "nameEn": "KFC", "cat": ["food"], "province": "cm", "slug": "kfc-2517081501", "rank": 3}}, {"type": "Feature", "geometry": {"type": "Point", "coordinates": [99.0228, 18.79884]}, "properties": {"id": "cm-osm-node-2610782958", "name": "KFC", "nameTh": "เค เอฟ ซี", "nameEn": "KFC", "cat": ["food"], "province": "cm", "slug": "kfc-2610782958", "rank": 3}}, {"type": "Feature", "geometry": {"type": "Point", "coordinates": [98.99898, 18.77229]}, "properties": {"id": "cm-osm-node-2822158501", "name": "KFC", "nameTh": null, "nameEn": "KFC", "cat": ["food"], "province": "cm", "slug": "kfc-2822158501", "rank": 1}}, {"type": "Feature", "geometry": {"type": "Point", "coordinates": [99.0184, 18.80588]}, "properties": {"id": "cm-osm-node-3249111059", "name": "KFC", "nameTh": "เค เอฟ ซี", "nameEn": "KFC", "cat": ["food"], "province": "cm", "slug": "kfc-3249111059", "rank": 3}}, {"type": "Feature", "geometry": {"type": "Point", "coordinates": [98.96701, 18.80251]}, "properties": {"id": "cm-osm-node-3287356494", "name": "KFC", "nameTh": "เค เอฟ ซี", "nameEn": "KFC", "cat": ["food"], "province": "cm", "slug": "kfc-3287356494", "rank": 3}}, {"type": "Feature", "geometry": {"type": "Point", "coordinates": [99.00056, 18.75684]}, "properties": {"id": "cm-osm-node-3331582463", "name": "KFC", "nameTh": "เค เอฟ ซี", "nameEn": "KFC", "cat": ["food"], "province": "cm", "slug": "kfc-3331582463", "rank": 2}}, {"type": "Feature", "geometry": {"type": "Point", "coordinates": [98.97494, 18.76879]}, "properties": {"id": "cm-osm-node-3347633193", "name": "KFC", "nameTh": "เค เอฟ ซี", "nameEn": "KFC", "cat": ["food"], "province": "cm", "slug": "kfc-3347633193", "rank": 4}}, {"type": "Feature", "geometry": {"type": "Point", "coordinates": [98.96201, 18.74351]}, "properties": {"id": "cm-osm-node-3404774971", "name": "KFC", "nameTh": "เค เอฟ ซี", "nameEn": "KFC", "cat": ["food"], "province": "cm", "slug": "kfc-3404774971", "rank": 3}}, {"type": "Feature", "geometry": {"type": "Point", "coordinates": [98.97218, 18.75849]}, "properties": {"id": "cm-osm-node-3419871304", "name": "KFC", "nameTh": "เค เอฟ ซี", "nameEn": "KFC", "cat": ["food"], "province": "cm", "slug": "kfc-3419871304", "rank": 3}}, {"type": "Feature", "geometry": {"type": "Point", "coordinates": [99.01173, 18.82472]}, "properties": {"id": "cm-osm-node-4213690015", "name": "KFC", "nameTh": "เค เอฟ ซี", "nameEn": "KFC", "cat": ["food"], "province": "cm", "slug": "kfc-4213690015", "rank": 3}}, {"type": "Feature", "geometry": {"type": "Point", "coordinates": [98.97284, 18.76349]}, "properties": {"id": "cm-osm-node-9288145417", "name": "KFC", "nameTh": null, "nameEn": "KFC", "cat": ["food"], "province": "cm", "slug": "kfc-9288145417", "rank": 2}}, {"type": "Feature", "geometry": {"type": "Point", "coordinates": [98.93531, 18.73997]}, "properties": {"id": "cm-osm-way-1160626861", "name": "KFC", "nameTh": null, "nameEn": "KFC", "cat": ["food"], "province": "cm", "slug": "kfc-1160626861", "rank": 1}}, {"type": "Feature", "geometry": {"type": "Point", "coordinates": [99.02141, 18.80657]}, "properties": {"id": "cm-osm-way-1361355842", "name": "KFC", "nameTh": null, "nameEn": "KFC", "cat": ["food"], "province": "cm", "slug": "kfc-1361355842", "rank": 1}}, {"type": "Feature", "geometry": {"type": "Point", "coordinates": [98.93198, 18.70216]}, "properties": {"id": "cm-osm-way-340390113", "name": "KFC", "nameTh": null, "nameEn": "KFC", "cat": ["food"], "province": "cm", "slug": "kfc-340390113", "rank": 1}}, {"type": "Feature", "geometry": {"type": "Point", "coordinates": [98.94008, 18.92233]}, "properties": {"id": "cm-osm-way-741830424", "name": "KFC", "nameTh": null, "nameEn": "KFC", "cat": ["food"], "province": "cm", "slug": "kfc-741830424", "rank": 1}}, {"type": "Feature", "geometry": {"type": "Point", "coordinates": [98.95829, 18.7917]}, "properties": {"id": "cm-osm-node-4360571950", "name": "RAWtruckr", "nameTh": null, "nameEn": "RAWtruckr", "cat": ["food"], "province": "cm", "slug": "rawtruckr-4360571950", "rank": 1}}, {"type": "Feature", "geometry": {"type": "Point", "coordinates": [99.0274, 18.78349]}, "properties": {"id": "cm-osm-node-1418968709", "name": "The Pizza Company", "nameTh": "เดอะ พิซซ่า คอมปะนี", "nameEn": "The Pizza Company", "cat": ["food"], "province": "cm", "slug": "the-pizza-company-1418968709", "rank": 4}}, {"type": "Feature", "geometry": {"type": "Point", "coordinates": [99.00988, 18.89333]}, "properties": {"id": "cm-osm-node-2601003840", "name": "The Pizza Company", "nameTh": "เดอะ พิซซ่า คอมปะนี", "nameEn": "The Pizza Company", "cat": ["food"], "province": "cm", "slug": "the-pizza-company-2601003840", "rank": 4}}, {"type": "Feature", "geometry": {"type": "Point", "coordinates": [99.01787, 18.80608]}, "properties": {"id": "cm-osm-node-3249112266", "name": "The Pizza Company", "nameTh": "เดอะ พิซซ่า คอมปะนี", "nameEn": "The Pizza Company", "cat": ["food"], "province": "cm", "slug": "the-pizza-company-3249112266", "rank": 4}}, {"type": "Feature", "geometry": {"type": "Point", "coordinates": [98.98215, 18.81608]}, "properties": {"id": "cm-osm-node-3385661335", "name": "The Pizza Company", "nameTh": "เดอะ พิซซ่า คอมปะนี", "nameEn": "The Pizza Company", "cat": ["food"], "province": "cm", "slug": "the-pizza-company-3385661335", "rank": 4}}, {"type": "Feature", "geometry": {"type": "Point", "coordinates": [99.07794, 18.76606]}, "properties": {"id": "cm-osm-node-3602308247", "name": "The Pizza Company", "nameTh": "เดอะ พิซซ่า คอมปะนี", "nameEn": "The Pizza Company", "cat": ["food"], "province": "cm", "slug": "the-pizza-company-3602308247", "rank": 4}}, {"type": "Feature", "geometry": {"type": "Point", "coordinates": [98.9528, 18.71701]}, "properties": {"id": "cm-osm-node-5260174926", "name": "jasmine restaurant", "nameTh": null, "nameEn": "jasmine restaurant", "cat": ["food"], "province": "cm", "slug": "jasmine-restaurant-5260174926", "rank": 2}}, {"type": "Feature", "geometry": {"type": "Point", "coordinates": [99.00355, 18.75921]}, "properties": {"id": "cm-osm-node-6546875672", "name": "ร้านไก่ปิ้งตามใจแม่ค้า", "nameTh": "ร้านไก่ปิ้งตามใจแม่ค้า", "nameEn": null, "cat": ["food"], "province": "cm", "slug": "6546875672", "rank": 1}}, {"type": "Feature", "geometry": {"type": "Point", "coordinates": [98.92448, 18.74273]}, "properties": {"id": "cm-osm-node-5276808922", "name": "สหภาพกระต่าย", "nameTh": "สหภาพกระต่าย", "nameEn": "The Rabbit Union", "cat": ["food"], "province": "cm", "slug": "the-rabbit-union-5276808922", "rank": 3}}, {"type": "Feature", "geometry": {"type": "Point", "coordinates": [98.97932, 18.80381]}, "properties": {"id": "cm-osm-node-2783248619", "name": "เบียร์เป็นเหตุก่อมะเร็งได้", "nameTh": "เบียร์เป็นเหตุก่อมะเร็งได้", "nameEn": null, "cat": ["food"], "province": "cm", "slug": "2783248619", "rank": 1}}, {"type": "Feature", "geometry": {"type": "Point", "coordinates": [98.93315, 18.72367]}, "properties": {"id": "cm-osm-node-5447299922", "name": "เมล ซาเ้ลง ฮอทดอก", "nameTh": "เมล ซาเ้ลง ฮอทดอก", "nameEn": "Mel's Saleng Hotdogs", "cat": ["food"], "province": "cm", "slug": "mel-s-saleng-hotdogs-5447299922", "rank": 4}}, {"type": "Feature", "geometry": {"type": "Point", "coordinates": [99.01351, 18.74386]}, "properties": {"id": "cm-osm-node-13051829605", "name": "ไก่ย่างวิเชียรบุรี", "nameTh": "ไก่ย่างวิเชียรบุรี", "nameEn": "Wichianburi Grilled Chicken", "cat": ["food"], "province": "cm", "slug": "wichianburi-grilled-chicken-13051829605", "rank": 2}}]}