{"type": "FeatureCollection", "features": [{"type": "Feature", "geometry": {"type": "Point", "coordinates": [99.00007, 18.78363]}, "properties": {"id": "cm-osm-node-3416994634", "name": "AIKU bar & restaurant", "nameTh": null, "nameEn": "AIKU bar & restaurant", "cat": ["food"], "province": "cm", "slug": "aiku-bar-restaurant-3416994634", "rank": 1}}, {"type": "Feature", "geometry": {"type": "Point", "coordinates": [98.96847, 18.79895]}, "properties": {"id": "cm-osm-node-3426415660", "name": "Aji Yakiniku", "nameTh": null, "nameEn": "Aji Yakiniku", "cat": ["food"], "province": "cm", "slug": "aji-yakiniku-3426415660", "rank": 1}}, {"type": "Feature", "geometry": {"type": "Point", "coordinates": [98.98453, 18.80216]}, "properties": {"id": "cm-osm-node-3862580751", "name": "Ajiyoshi Yatai Ramen", "nameTh": null, "nameEn": "Papa's Cup", "cat": ["food"], "province": "cm", "slug": "papa-s-cup-3862580751", "rank": 2}}, {"type": "Feature", "geometry": {"type": "Point", "coordinates": [98.99726, 18.78412]}, "properties": {"id": "cm-osm-node-3416948044", "name": "Alice's Restaurant", "nameTh": null, "nameEn": "Alice's Restaurant", "cat": ["food"], "province": "cm", "slug": "alice-s-restaurant-3416948044", "rank": 2}}, {"type": "Feature", "geometry": {"type": "Point", "coordinates": [98.96735, 18.79513]}, "properties": {"id": "cm-osm-node-2523233803", "name": "Beppu", "nameTh": null, "nameEn": "Beppu", "cat": ["food"], "province": "cm", "slug": "beppu-2523233803", "rank": 2}}, {"type": "Feature", "geometry": {"type": "Point", "coordinates": [98.96436, 18.80201]}, "properties": {"id": "cm-osm-way-312176753", "name": "Botan", "nameTh": null, "nameEn": "Botan", "cat": ["food"], "province": "cm", "slug": "botan-312176753", "rank": 2}}, {"type": "Feature", "geometry": {"type": "Point", "coordinates": [98.93074, 18.73616]}, "properties": {"id": "cm-osm-node-5992335680", "name": "Carp Cafe", "nameTh": "คาร์พ คาเฟ่", "nameEn": "Carp Cafe", "cat": ["food"], "province": "cm", "slug": "carp-cafe-5992335680", "rank": 4}}, {"type": "Feature", "geometry": {"type": "Point", "coordinates": [98.97323, 18.79592]}, "properties": {"id": "cm-osm-node-9950606518", "name": "Crazy Curry", "nameTh": null, "nameEn": "Crazy Curry", "cat": ["food"], "province": "cm", "slug": "crazy-curry-9950606518", "rank": 1}}, {"type": "Feature", "geometry": {"type": "Point", "coordinates": [98.96856, 18.79715]}, "properties": {"id": "cm-osm-node-10110549005", "name": "Eighty-six Ramen", "nameTh": null, "nameEn": "Eighty-six Ramen", "cat": ["food"], "province": "cm", "slug": "eighty-six-ramen-10110549005", "rank": 1}}, {"type": "Feature", "geometry": {"type": "Point", "coordinates": [98.96496, 18.74074]}, "properties": {"id": "cm-osm-node-10777553749", "name": "Ewa Sushi", "nameTh": null, "nameEn": "Ewa Sushi", "cat": ["food"], "province": "cm", "slug": "ewa-sushi-10777553749", "rank": 1}}, {"type": "Feature", "geometry": {"type": "Point", "coordinates": [98.96689, 18.80243]}, "properties": {"id": "cm-osm-node-3287356491", "name": "Fuji", "nameTh": null, "nameEn": "Fuji", "cat": ["food"], "province": "cm", "slug": "fuji-3287356491", "rank": 1}}, {"type": "Feature", "geometry": {"type": "Point", "coordinates": [98.9751, 18.7695]}, "properties": {"id": "cm-osm-node-3347631785", "name": "Fuji", "nameTh": null, "nameEn": "Fuji", "cat": ["food"], "province": "cm", "slug": "fuji-3347631785", "rank": 2}}, {"type": "Feature", "geometry": {"type": "Point", "coordinates": [98.94223, 18.91549]}, "properties": {"id": "cm-osm-node-3274160915", "name": "Fukuro", "nameTh": null, "nameEn": "Fukuro", "cat": ["food"], "province": "cm", "slug": "fukuro-3274160915", "rank": 3}}, {"type": "Feature", "geometry": {"type": "Point", "coordinates": [99.01766, 18.8071]}, "properties": {"id": "cm-osm-node-2865868301", "name": "Fumi", "nameTh": null, "nameEn": "Fumi", "cat": ["food"], "province": "cm", "slug": "fumi-2865868301", "rank": 1}}, {"type": "Feature", "geometry": {"type": "Point", "coordinates": [98.98126, 18.80213]}, "properties": {"id": "cm-osm-node-12393024401", "name": "Gagaga Sakaba", "nameTh": null, "nameEn": "Gagaga Sakaba", "cat": ["food"], "province": "cm", "slug": "gagaga-sakaba-12393024401", "rank": 2}}, {"type": "Feature", "geometry": {"type": "Point", "coordinates": [99.0112, 18.82551]}, "properties": {"id": "cm-osm-node-4460058466", "name": "Gohan", "nameTh": null, "nameEn": "Gohan", "cat": ["food"], "province": "cm", "slug": "gohan-4460058466", "rank": 2}}, {"type": "Feature", "geometry": {"type": "Point", "coordinates": [98.99278, 18.79263]}, "properties": {"id": "cm-osm-way-361018102", "name": "Gohanya", "nameTh": null, "nameEn": "Gohanya", "cat": ["food"], "province": "cm", "slug": "gohanya-361018102", "rank": 2}}, {"type": "Feature", "geometry": {"type": "Point", "coordinates": [98.99439, 18.79798]}, "properties": {"id": "cm-osm-node-5304629024", "name": "Goro", "nameTh": null, "nameEn": "Goro", "cat": ["food"], "province": "cm", "slug": "goro-5304629024", "rank": 1}}, {"type": "Feature", "geometry": {"type": "Point", "coordinates": [98.99356, 18.78413]}, "properties": {"id": "cm-osm-node-4011207694", "name": "Grill Jung", "nameTh": null, "nameEn": "Grill Jung", "cat": ["food"], "province": "cm", "slug": "grill-jung-4011207694", "rank": 1}}, {"type": "Feature", "geometry": {"type": "Point", "coordinates": [99.0176, 18.80635]}, "properties": {"id": "cm-osm-node-2865865703", "name": "Hachiban Ramen 8", "nameTh": null, "nameEn": "Hachiban Ramen 8", "cat": ["food"], "province": "cm", "slug": "hachiban-ramen-8-2865865703", "rank": 1}}, {"type": "Feature", "geometry": {"type": "Point", "coordinates": [98.99672, 18.78387]}, "properties": {"id": "cm-osm-node-2597939035", "name": "Ittetsu Ya", "nameTh": null, "nameEn": "Ittetsu Ya", "cat": ["food"], "province": "cm", "slug": "ittetsu-ya-2597939035", "rank": 1}}, {"type": "Feature", "geometry": {"type": "Point", "coordinates": [98.99554, 18.78102]}, "properties": {"id": "cm-osm-node-10281777734", "name": "Jyubey Japanese Restaurant", "nameTh": null, "nameEn": "Jyubey Japanese Restaurant", "cat": ["food"], "province": "cm", "slug": "jyubey-japanese-restaurant-10281777734", "rank": 1}}, {"type": "Feature", "geometry": {"type": "Point", "coordinates": [98.99904, 18.7805]}, "properties": {"id": "cm-osm-node-8478911508", "name": "Kazokutei Japanese Restaurant", "nameTh": null, "nameEn": "Kazokutei Japanese Restaurant", "cat": ["food"], "province": "cm", "slug": "kazokutei-japanese-restaurant-8478911508", "rank": 1}}, {"type": "Feature", "geometry": {"type": "Point", "coordinates": [99.00469, 18.79289]}, "properties": {"id": "cm-osm-node-3328333693", "name": "Kitchen Hush", "nameTh": null, "nameEn": "Kitchen Hush", "cat": ["food"], "province": "cm", "slug": "kitchen-hush-3328333693", "rank": 1}}, {"type": "Feature", "geometry": {"type": "Point", "coordinates": [98.96173, 18.78855]}, "properties": {"id": "cm-osm-node-7060531485", "name": "Kyo", "nameTh": null, "nameEn": "Kyo", "cat": ["food"], "province": "cm", "slug": "kyo-7060531485", "rank": 1}}, {"type": "Feature", "geometry": {"type": "Point", "coordinates": [98.97573, 18.89346]}, "properties": {"id": "cm-osm-node-7159708085", "name": "Love Sushi", "nameTh": null, "nameEn": "Love Sushi", "cat": ["food"], "province": "cm", "slug": "love-sushi-7159708085", "rank": 3}}, {"type": "Feature", "geometry": {"type": "Point", "coordinates": [98.98189, 18.79497]}, "properties": {"id": "cm-osm-node-3339394165", "name": "Matsu", "nameTh": "มัทสึ", "nameEn": "Matsu", "cat": ["food"], "province": "cm", "slug": "matsu-3339394165", "rank": 3}}, {"type": "Feature", "geometry": {"type": "Point", "coordinates": [99.01768, 18.80656]}, "properties": {"id": "cm-osm-node-2865805401", "name": "Miyabi", "nameTh": null, "nameEn": "Miyabi", "cat": ["food"], "province": "cm", "slug": "miyabi-2865805401", "rank": 1}}, {"type": "Feature", "geometry": {"type": "Point", "coordinates": [98.96565, 18.79666]}, "properties": {"id": "cm-osm-node-4477015474", "name": "Mu's Katsu", "nameTh": null, "nameEn": "Mu's Katsu", "cat": ["food"], "province": "cm", "slug": "mu-s-katsu-4477015474", "rank": 2}}, {"type": "Feature", "geometry": {"type": "Point", "coordinates": [99.01149, 18.82371]}, "properties": {"id": "cm-osm-node-1948786379", "name": "Naruto", "nameTh": null, "nameEn": "Naruto", "cat": ["food"], "province": "cm", "slug": "naruto-1948786379", "rank": 1}}, {"type": "Feature", "geometry": {"type": "Point", "coordinates": [99.05954, 18.71401]}, "properties": {"id": "cm-osm-node-5824910727", "name": "Nekoemon Cafe", "nameTh": null, "nameEn": "Nekoemon Cafe", "cat": ["food"], "province": "cm", "slug": "nekoemon-cafe-5824910727", "rank": 1}}, {"type": "Feature", "geometry": {"type": "Point", "coordinates": [98.94804, 18.77064]}, "properties": {"id": "cm-osm-node-13444747901", "name": "Neo Shokudou Aeeen Japanese Vegan", "nameTh": null, "nameEn": "Neo Shokudou Aeeen Japanese Vegan", "cat": ["food"], "province": "cm", "slug": "neo-shokudou-aeeen-japanese-vegan-13444747901", "rank": 3}}, {"type": "Feature", "geometry": {"type": "Point", "coordinates": [98.97707, 18.77489]}, "properties": {"id": "cm-osm-node-6992303887", "name": "New Hamaru Shabu", "nameTh": null, "nameEn": "New Hamaru Shabu", "cat": ["food"], "province": "cm", "slug": "new-hamaru-shabu-6992303887", "rank": 3}}, {"type": "Feature", "geometry": {"type": "Point", "coordinates": [98.96863, 18.79872]}, "properties": {"id": "cm-osm-node-3426415667", "name": "Nori", "nameTh": null, "nameEn": "Nori", "cat": ["food"], "province": "cm", "slug": "nori-3426415667", "rank": 2}}, {"type": "Feature", "geometry": {"type": "Point", "coordinates": [98.97477, 18.76893]}, "properties": {"id": "cm-osm-node-3347633199", "name": "Oishi", "nameTh": null, "nameEn": "Oishi", "cat": ["food"], "province": "cm", "slug": "oishi-3347633199", "rank": 2}}, {"type": "Feature", "geometry": {"type": "Point", "coordinates": [98.96732, 18.79775]}, "properties": {"id": "cm-osm-node-12402103101", "name": "Okada Izakaya", "nameTh": null, "nameEn": "Okada Izakaya", "cat": ["food"], "province": "cm", "slug": "okada-izakaya-12402103101", "rank": 2}}, {"type": "Feature", "geometry": {"type": "Point", "coordinates": [98.97079, 18.80965]}, "properties": {"id": "cm-osm-node-13891104701", "name": "Okasan", "nameTh": null, "nameEn": "Okasan", "cat": ["food"], "province": "cm", "slug": "okasan-13891104701", "rank": 3}}, {"type": "Feature", "geometry": {"type": "Point", "coordinates": [98.97175, 18.78348]}, "properties": {"id": "cm-osm-node-4685185619", "name": "Papa Curry", "nameTh": null, "nameEn": "Papa Curry", "cat": ["food"], "province": "cm", "slug": "papa-curry-4685185619", "rank": 1}}, {"type": "Feature", "geometry": {"type": "Point", "coordinates": [99.1308, 18.84087]}, "properties": {"id": "cm-osm-node-3320142129", "name": "Racha", "nameTh": null, "nameEn": "Racha", "cat": ["food"], "province": "cm", "slug": "racha-3320142129", "rank": 3}}, {"type": "Feature", "geometry": {"type": "Point", "coordinates": [98.97606, 18.80235]}, "properties": {"id": "cm-osm-node-11936111070", "name": "Ramen", "nameTh": null, "nameEn": "Ramen", "cat": ["food"], "province": "cm", "slug": "ramen-11936111070", "rank": 2}}, {"type": "Feature", "geometry": {"type": "Point", "coordinates": [98.9989, 18.77762]}, "properties": {"id": "cm-osm-node-4423570366", "name": "Ramen Bar", "nameTh": null, "nameEn": "Ramen Bar", "cat": ["food"], "province": "cm", "slug": "ramen-bar-4423570366", "rank": 1}}, {"type": "Feature", "geometry": {"type": "Point", "coordinates": [99.00863, 18.7526]}, "properties": {"id": "cm-osm-node-13052183922", "name": "Ryota", "nameTh": null, "nameEn": "Ryota", "cat": ["food"], "province": "cm", "slug": "ryota-13052183922", "rank": 1}}, {"type": "Feature", "geometry": {"type": "Point", "coordinates": [99.00996, 18.74974]}, "properties": {"id": "cm-osm-node-7865264548", "name": "Samurai Kitchen", "nameTh": null, "nameEn": "Samurai Kitchen", "cat": ["food"], "province": "cm", "slug": "samurai-kitchen-7865264548", "rank": 1}}, {"type": "Feature", "geometry": {"type": "Point", "coordinates": [98.9971, 18.7898]}, "properties": {"id": "cm-osm-way-668376838", "name": "Samurai Kitchen", "nameTh": null, "nameEn": "Samurai Kitchen", "cat": ["food"], "province": "cm", "slug": "samurai-kitchen-668376838", "rank": 1}}, {"type": "Feature", "geometry": {"type": "Point", "coordinates": [98.99415, 18.78787]}, "properties": {"id": "cm-osm-node-11626451133", "name": "Saroji Kushikatsu", "nameTh": null, "nameEn": "Saroji Kushikatsu", "cat": ["food"], "province": "cm", "slug": "saroji-kushikatsu-11626451133", "rank": 2}}, {"type": "Feature", "geometry": {"type": "Point", "coordinates": [99.0177, 18.80684]}, "properties": {"id": "cm-osm-node-2865811701", "name": "Shabu-Chan", "nameTh": null, "nameEn": "Shabu-Chan", "cat": ["food"], "province": "cm", "slug": "shabu-chan-2865811701", "rank": 1}}, {"type": "Feature", "geometry": {"type": "Point", "coordinates": [98.97038, 18.80492]}, "properties": {"id": "cm-osm-node-3184683028", "name": "Shabu-Shabu", "nameTh": null, "nameEn": "Shabu-Shabu", "cat": ["food"], "province": "cm", "slug": "shabu-shabu-3184683028", "rank": 1}}, {"type": "Feature", "geometry": {"type": "Point", "coordinates": [99.02389, 18.79888]}, "properties": {"id": "cm-osm-node-3180206961", "name": "Shabugu", "nameTh": null, "nameEn": "Shabugu", "cat": ["food"], "province": "cm", "slug": "shabugu-3180206961", "rank": 1}}, {"type": "Feature", "geometry": {"type": "Point", "coordinates": [98.99964, 18.78127]}, "properties": {"id": "cm-osm-node-1527856527", "name": "Shabushi", "nameTh": null, "nameEn": "Shabushi", "cat": ["food"], "province": "cm", "slug": "shabushi-1527856527", "rank": 1}}, {"type": "Feature", "geometry": {"type": "Point", "coordinates": [99.01771, 18.80617]}, "properties": {"id": "cm-osm-node-2865865702", "name": "Shabushi", "nameTh": null, "nameEn": "Shabushi", "cat": ["food"], "province": "cm", "slug": "shabushi-2865865702", "rank": 1}}, {"type": "Feature", "geometry": {"type": "Point", "coordinates": [98.99398, 18.79047]}, "properties": {"id": "cm-osm-node-4679811590", "name": "Shiga Dea", "nameTh": null, "nameEn": "Shiga Dea", "cat": ["food"], "province": "cm", "slug": "shiga-dea-4679811590", "rank": 3}}, {"type": "Feature", "geometry": {"type": "Point", "coordinates": [99.02938, 18.81189]}, "properties": {"id": "cm-osm-node-9905664418", "name": "Shogun", "nameTh": null, "nameEn": "Shogun", "cat": ["food"], "province": "cm", "slug": "shogun-9905664418", "rank": 1}}, {"type": "Feature", "geometry": {"type": "Point", "coordinates": [98.98416, 18.79632]}, "properties": {"id": "cm-osm-node-3317902513", "name": "Smile House", "nameTh": null, "nameEn": "Smile House", "cat": ["food"], "province": "cm", "slug": "smile-house-3317902513", "rank": 1}}, {"type": "Feature", "geometry": {"type": "Point", "coordinates": [98.99685, 18.7906]}, "properties": {"id": "cm-osm-node-4704832790", "name": "Steak Woei Hoei", "nameTh": null, "nameEn": "Steak Woei Hoei", "cat": ["food"], "province": "cm", "slug": "steak-woei-hoei-4704832790", "rank": 3}}, {"type": "Feature", "geometry": {"type": "Point", "coordinates": [98.97083, 18.79775]}, "properties": {"id": "cm-osm-node-2696290587", "name": "Sukina Sukiyaki Restaurant", "nameTh": null, "nameEn": "Sukina Sukiyaki Restaurant", "cat": ["food"], "province": "cm", "slug": "sukina-sukiyaki-restaurant-2696290587", "rank": 1}}, {"type": "Feature", "geometry": {"type": "Point", "coordinates": [98.9686, 18.79656]}, "properties": {"id": "cm-osm-way-481787798", "name": "Sumo Sushi", "nameTh": null, "nameEn": "Sumo Sushi", "cat": ["food"], "province": "cm", "slug": "sumo-sushi-481787798", "rank": 1}}, {"type": "Feature", "geometry": {"type": "Point", "coordinates": [98.98394, 18.79616]}, "properties": {"id": "cm-osm-node-3317919571", "name": "Sun Tori", "nameTh": null, "nameEn": "Sun Tori", "cat": ["food"], "province": "cm", "slug": "sun-tori-3317919571", "rank": 3}}, {"type": "Feature", "geometry": {"type": "Point", "coordinates": [98.97558, 18.80029]}, "properties": {"id": "cm-osm-node-3311199586", "name": "Sushi Akagi", "nameTh": null, "nameEn": "Sushi Akagi", "cat": ["food"], "province": "cm", "slug": "sushi-akagi-3311199586", "rank": 3}}, {"type": "Feature", "geometry": {"type": "Point", "coordinates": [98.99417, 18.78097]}, "properties": {"id": "cm-osm-node-1062004204", "name": "Sushi Ichiban", "nameTh": null, "nameEn": "Sushi Ichiban", "cat": ["food"], "province": "cm", "slug": "sushi-ichiban-1062004204", "rank": 2}}, {"type": "Feature", "geometry": {"type": "Point", "coordinates": [98.97642, 18.80224]}, "properties": {"id": "cm-osm-node-11903139669", "name": "Sushi Jiro", "nameTh": null, "nameEn": "Sushi Jiro", "cat": ["food"], "province": "cm", "slug": "sushi-jiro-11903139669", "rank": 3}}, {"type": "Feature", "geometry": {"type": "Point", "coordinates": [99.00867, 18.75202]}, "properties": {"id": "cm-osm-node-9671436944", "name": "Sushi Ninja", "nameTh": null, "nameEn": "Sushi Ninja", "cat": ["food"], "province": "cm", "slug": "sushi-ninja-9671436944", "rank": 1}}, {"type": "Feature", "geometry": {"type": "Point", "coordinates": [98.97666, 18.77142]}, "properties": {"id": "cm-osm-node-10091315302", "name": "Sushi Umai", "nameTh": null, "nameEn": "Sushi Umai", "cat": ["food"], "province": "cm", "slug": "sushi-umai-10091315302", "rank": 1}}, {"type": "Feature", "geometry": {"type": "Point", "coordinates": [98.96828, 18.79598]}, "properties": {"id": "cm-osm-node-3421305620", "name": "Sushi Umai", "nameTh": null, "nameEn": "Sushi Umai", "cat": ["food"], "province": "cm", "slug": "sushi-umai-3421305620", "rank": 3}}, {"type": "Feature", "geometry": {"type": "Point", "coordinates": [98.93233, 18.703]}, "properties": {"id": "cm-osm-node-11505239135", "name": "Takeshi Japanese Restaurant", "nameTh": null, "nameEn": "Takeshi Japanese Restaurant", "cat": ["food"], "province": "cm", "slug": "takeshi-japanese-restaurant-11505239135", "rank": 1}}, {"type": "Feature", "geometry": {"type": "Point", "coordinates": [98.97989, 18.78783]}, "properties": {"id": "cm-osm-node-7882732035", "name": "TaroRamen Honten", "nameTh": "ทาโร่ราเมงฮอนเตง", "nameEn": "TaroRamen Honten", "cat": ["food"], "province": "cm", "slug": "taroramen-honten-7882732035", "rank": 2}}, {"type": "Feature", "geometry": {"type": "Point", "coordinates": [98.96845, 18.7987]}, "properties": {"id": "cm-osm-node-3426415668", "name": "Tengoku", "nameTh": null, "nameEn": "Tengoku", "cat": ["food"], "province": "cm", "slug": "tengoku-3426415668", "rank": 3}}, {"type": "Feature", "geometry": {"type": "Point", "coordinates": [99.03961, 18.77825]}, "properties": {"id": "cm-osm-node-1417087929", "name": "Tengoku de Cuisine", "nameTh": null, "nameEn": "Tengoku de Cuisine", "cat": ["food"], "province": "cm", "slug": "tengoku-de-cuisine-1417087929", "rank": 1}}, {"type": "Feature", "geometry": {"type": "Point", "coordinates": [98.94905, 18.82174]}, "properties": {"id": "cm-osm-node-7501410419", "name": "Tenyuu", "nameTh": null, "nameEn": "Tenyuu", "cat": ["food"], "province": "cm", "slug": "tenyuu-7501410419", "rank": 1}}, {"type": "Feature", "geometry": {"type": "Point", "coordinates": [98.9721, 18.79885]}, "properties": {"id": "cm-osm-node-3304475330", "name": "Tomodachi Ramen", "nameTh": null, "nameEn": "Tomodachi Ramen", "cat": ["food"], "province": "cm", "slug": "tomodachi-ramen-3304475330", "rank": 2}}, {"type": "Feature", "geometry": {"type": "Point", "coordinates": [98.98163, 18.79607]}, "properties": {"id": "cm-osm-node-5558856823", "name": "Wake Up Coffee", "nameTh": null, "nameEn": "WakeUp24Hrs", "cat": ["food"], "province": "cm", "slug": "wakeup24hrs-5558856823", "rank": 3}}, {"type": "Feature", "geometry": {"type": "Point", "coordinates": [98.95722, 18.80731]}, "properties": {"id": "cm-osm-node-5558883026", "name": "Wake Up Coffee", "nameTh": null, "nameEn": "WakeUp24Hrs", "cat": ["food"], "province": "cm", "slug": "wakeup24hrs-5558883026", "rank": 3}}, {"type": "Feature", "geometry": {"type": "Point", "coordinates": [99.01102, 18.82422]}, "properties": {"id": "cm-osm-node-3541526795", "name": "Wasabi", "nameTh": null, "nameEn": "Wasabi", "cat": ["food"], "province": "cm", "slug": "wasabi-3541526795", "rank": 2}}, {"type": "Feature", "geometry": {"type": "Point", "coordinates": [99.00964, 18.75269]}, "properties": {"id": "cm-osm-node-1374413059", "name": "Yamato", "nameTh": null, "nameEn": "Yamato", "cat": ["food"], "province": "cm", "slug": "yamato-1374413059", "rank": 1}}, {"type": "Feature", "geometry": {"type": "Point", "coordinates": [98.97456, 18.76888]}, "properties": {"id": "cm-osm-node-3347677638", "name": "Zen", "nameTh": null, "nameEn": "Zen", "cat": ["food"], "province": "cm", "slug": "zen-3347677638", "rank": 2}}, {"type": "Feature", "geometry": {"type": "Point", "coordinates": [98.95533, 18.79175]}, "properties": {"id": "cm-osm-node-7735597043", "name": "คุโมะ ชาบู", "nameTh": "คุโมะ ชาบู", "nameEn": "Kumo Shbu", "cat": ["food"], "province": "cm", "slug": "kumo-shbu-7735597043", "rank": 4}}, {"type": "Feature", "geometry": {"type": "Point", "coordinates": [98.95102, 18.74711]}, "properties": {"id": "cm-osm-node-2671430422", "name": "พี กะ จู", "nameTh": "พี กะ จู", "nameEn": "P-Ka-Ju", "cat": ["food"], "province": "cm", "slug": "p-ka-ju-2671430422", "rank": 3}}, {"type": "Feature", "geometry": {"type": "Point", "coordinates": [98.96137, 18.79919]}, "properties": {"id": "cm-osm-node-13371208902", "name": "มุมสบายMo", "nameTh": "มุมสบายMo", "nameEn": "Moon Sabai", "cat": ["food"], "province": "cm", "slug": "moon-sabai-13371208902", "rank": 4}}, {"type": "Feature", "geometry": {"type": "Point", "coordinates": [98.99435, 18.78923]}, "properties": {"id": "cm-osm-node-1617076544", "name": "ร้านซากุระ", "nameTh": "ร้านซากุระ", "nameEn": "Sakura Restaurant", "cat": ["food"], "province": "cm", "slug": "sakura-restaurant-1617076544", "rank": 2}}, {"type": "Feature", "geometry": {"type": "Point", "coordinates": [98.95377, 18.79194]}, "properties": {"id": "cm-osm-node-5346614636", "name": "ร้านระเบียง", "nameTh": "ร้านระเบียง", "nameEn": "Sushi, pasta and steak", "cat": ["food"], "province": "cm", "slug": "sushi-pasta-and-steak-5346614636", "rank": 2}}, {"type": "Feature", "geometry": {"type": "Point", "coordinates": [99.00508, 18.80667]}, "properties": {"id": "cm-osm-node-13763476301", "name": "สึเกะเม็ง โกโก​ เชียงใหม่", "nameTh": "สึเกะเม็ง โกโก​ เชียงใหม่", "nameEn": "TSUKEMEN GO GO CNX", "cat": ["food"], "province": "cm", "slug": "tsukemen-go-go-cnx-13763476301", "rank": 3}}, {"type": "Feature", "geometry": {"type": "Point", "coordinates": [98.9796, 18.80075]}, "properties": {"id": "cm-osm-node-3283996918", "name": "อูมามิ เทปันยากิ", "nameTh": "อูมามิ เทปันยากิ", "nameEn": "Umami Tepunyaki", "cat": ["food"], "province": "cm", "slug": "umami-tepunyaki-3283996918", "rank": 2}}, {"type": "Feature", "geometry": {"type": "Point", "coordinates": [98.9619, 18.74345]}, "properties": {"id": "cm-osm-node-907784575", "name": "ฮะจิบัง ราเมน", "nameTh": "ฮะจิบัง ราเมน", "nameEn": "Hachiban Ramen", "cat": ["food"], "province": "cm", "slug": "hachiban-ramen-907784575", "rank": 2}}, {"type": "Feature", "geometry": {"type": "Point", "coordinates": [98.97904, 18.80112]}, "properties": {"id": "cm-osm-node-11936100969", "name": "โกฮังเต", "nameTh": "โกฮังเต", "nameEn": "Gohangtei", "cat": ["food"], "province": "cm", "slug": "gohangtei-11936100969", "rank": 4}}, {"type": "Feature", "geometry": {"type": "Point", "coordinates": [98.97843, 18.80256]}, "properties": {"id": "cm-osm-node-2530422478", "name": "โซนเอ ยากิ", "nameTh": "โซนเอ ยากิ", "nameEn": null, "cat": ["food"], "province": "cm", "slug": "2530422478", "rank": 1}}, {"type": "Feature", "geometry": {"type": "Point", "coordinates": [99.00868, 18.75861]}, "properties": {"id": "cm-osm-node-5000148487", "name": "のび田", "nameTh": null, "nameEn": "Nobita", "cat": ["food"], "province": "cm", "slug": "nobita-5000148487", "rank": 3}}, {"type": "Feature", "geometry": {"type": "Point", "coordinates": [98.9979, 18.78651]}, "properties": {"id": "cm-osm-node-11336769586", "name": "もみじ", "nameTh": null, "nameEn": "もみじ", "cat": ["food"], "province": "cm", "slug": "11336769586", "rank": 3}}, {"type": "Feature", "geometry": {"type": "Point", "coordinates": [98.96577, 18.7962]}, "properties": {"id": "cm-osm-node-12768187538", "name": "炭と鮨 Sumi to Sushi", "nameTh": null, "nameEn": "Sumi to Sushi", "cat": ["food"], "province": "cm", "slug": "sumi-to-sushi-12768187538", "rank": 2}}]}