{"type": "FeatureCollection", "features": [{"type": "Feature", "geometry": {"type": "Point", "coordinates": [99.03888, 18.77815]}, "properties": {"id": "cm-osm-node-4620095577", "name": "Ailegro", "nameTh": null, "nameEn": "Ailegro", "cat": ["food"], "province": "cm", "slug": "ailegro-4620095577", "rank": 2}}, {"type": "Feature", "geometry": {"type": "Point", "coordinates": [99.01422, 18.80089]}, "properties": {"id": "cm-osm-node-10230177655", "name": "Allegria", "nameTh": null, "nameEn": "Allegria", "cat": ["food"], "province": "cm", "slug": "allegria-10230177655", "rank": 1}}, {"type": "Feature", "geometry": {"type": "Point", "coordinates": [99.12972, 18.91302]}, "properties": {"id": "cm-osm-node-3199744563", "name": "Arbusto", "nameTh": null, "nameEn": "Arbusto", "cat": ["food"], "province": "cm", "slug": "arbusto-3199744563", "rank": 2}}, {"type": "Feature", "geometry": {"type": "Point", "coordinates": [99.00574, 18.79257]}, "properties": {"id": "cm-osm-node-2855391235", "name": "Arbusto Italian House", "nameTh": null, "nameEn": "Arbusto Italian House", "cat": ["food"], "province": "cm", "slug": "arbusto-italian-house-2855391235", "rank": 1}}, {"type": "Feature", "geometry": {"type": "Point", "coordinates": [99.00344, 18.79387]}, "properties": {"id": "cm-osm-node-3804514670", "name": "Arcobaleno Italian Restaurant", "nameTh": null, "nameEn": "Arcobaleno Italian Restaurant", "cat": ["food"], "province": "cm", "slug": "arcobaleno-italian-restaurant-3804514670", "rank": 2}}, {"type": "Feature", "geometry": {"type": "Point", "coordinates": [98.99937, 18.76416]}, "properties": {"id": "cm-osm-node-1615256599", "name": "Baan Prachan", "nameTh": null, "nameEn": "Baan Prachan", "cat": ["food"], "province": "cm", "slug": "baan-prachan-1615256599", "rank": 2}}, {"type": "Feature", "geometry": {"type": "Point", "coordinates": [98.99002, 18.79009]}, "properties": {"id": "cm-osm-node-4506190889", "name": "Bamboo cofe co", "nameTh": null, "nameEn": "Bamboo cofe co", "cat": ["food"], "province": "cm", "slug": "bamboo-cofe-co-4506190889", "rank": 1}}, {"type": "Feature", "geometry": {"type": "Point", "coordinates": [98.96931, 18.79842]}, "properties": {"id": "cm-osm-node-2668816242", "name": "Beccofino", "nameTh": null, "nameEn": "Beccofino", "cat": ["food"], "province": "cm", "slug": "beccofino-2668816242", "rank": 1}}, {"type": "Feature", "geometry": {"type": "Point", "coordinates": [99.00772, 18.79602]}, "properties": {"id": "cm-osm-node-4518930189", "name": "Bella Madre Pizza", "nameTh": null, "nameEn": "Bella Madre Pizza", "cat": ["food"], "province": "cm", "slug": "bella-madre-pizza-4518930189", "rank": 2}}, {"type": "Feature", "geometry": {"type": "Point", "coordinates": [98.99795, 18.78655]}, "properties": {"id": "cm-osm-node-2597978364", "name": "Billy's Restaurant", "nameTh": null, "nameEn": "Billy's Restaurant", "cat": ["food"], "province": "cm", "slug": "billy-s-restaurant-2597978364", "rank": 2}}, {"type": "Feature", "geometry": {"type": "Point", "coordinates": [99.00057, 18.7954]}, "properties": {"id": "cm-osm-node-3207247633", "name": "Buono Italian Restaurant", "nameTh": null, "nameEn": "Buono Italian Restaurant", "cat": ["food"], "province": "cm", "slug": "buono-italian-restaurant-3207247633", "rank": 1}}, {"type": "Feature", "geometry": {"type": "Point", "coordinates": [98.96857, 18.7944]}, "properties": {"id": "cm-osm-node-3419504896", "name": "Daddy", "nameTh": null, "nameEn": "Daddy", "cat": ["food"], "province": "cm", "slug": "daddy-3419504896", "rank": 2}}, {"type": "Feature", "geometry": {"type": "Point", "coordinates": [99.01492, 18.82924]}, "properties": {"id": "cm-osm-node-4352231408", "name": "Enoteca Great Fine Wine", "nameTh": null, "nameEn": "Enoteca Great Fine Wine", "cat": ["food"], "province": "cm", "slug": "enoteca-great-fine-wine-4352231408", "rank": 3}}, {"type": "Feature", "geometry": {"type": "Point", "coordinates": [98.99983, 18.78457]}, "properties": {"id": "cm-osm-node-4866129712", "name": "Favola", "nameTh": null, "nameEn": "Favola", "cat": ["food"], "province": "cm", "slug": "favola-4866129712", "rank": 2}}, {"type": "Feature", "geometry": {"type": "Point", "coordinates": [99.09114, 18.84333]}, "properties": {"id": "cm-osm-node-2086681241", "name": "Fiore Rosa", "nameTh": null, "nameEn": "Fiore Rosa", "cat": ["food"], "province": "cm", "slug": "fiore-rosa-2086681241", "rank": 3}}, {"type": "Feature", "geometry": {"type": "Point", "coordinates": [98.94014, 18.74295]}, "properties": {"id": "cm-osm-node-2094920592", "name": "Francesca Italian Restaurant", "nameTh": null, "nameEn": "Francesca Italian Restaurant", "cat": ["food"], "province": "cm", "slug": "francesca-italian-restaurant-2094920592", "rank": 1}}, {"type": "Feature", "geometry": {"type": "Point", "coordinates": [98.98726, 18.78815]}, "properties": {"id": "cm-osm-node-2039975212", "name": "Garden Island", "nameTh": null, "nameEn": "Garden Island", "cat": ["food"], "province": "cm", "slug": "garden-island-2039975212", "rank": 1}}, {"type": "Feature", "geometry": {"type": "Point", "coordinates": [98.95852, 18.69398]}, "properties": {"id": "cm-osm-node-11552992665", "name": "Gioia", "nameTh": null, "nameEn": "Gioia", "cat": ["food"], "province": "cm", "slug": "gioia-11552992665", "rank": 1}}, {"type": "Feature", "geometry": {"type": "Point", "coordinates": [98.9994, 18.78032]}, "properties": {"id": "cm-osm-node-1527856500", "name": "Giorgio", "nameTh": null, "nameEn": "Giorgio", "cat": ["food"], "province": "cm", "slug": "giorgio-1527856500", "rank": 1}}, {"type": "Feature", "geometry": {"type": "Point", "coordinates": [98.99014, 18.78767]}, "properties": {"id": "cm-osm-node-2567821739", "name": "Girasole", "nameTh": null, "nameEn": "Girasole", "cat": ["food"], "province": "cm", "slug": "girasole-2567821739", "rank": 1}}, {"type": "Feature", "geometry": {"type": "Point", "coordinates": [98.96948, 18.79737]}, "properties": {"id": "cm-osm-node-4866191746", "name": "Italics Restaurant & Rise Bar", "nameTh": null, "nameEn": "Italics Restaurant & Rise Bar", "cat": ["food"], "province": "cm", "slug": "italics-restaurant-rise-bar-4866191746", "rank": 3}}, {"type": "Feature", "geometry": {"type": "Point", "coordinates": [98.96595, 18.8031]}, "properties": {"id": "cm-osm-node-5554356221", "name": "Jazz Me", "nameTh": null, "nameEn": "Jazz Me", "cat": ["food"], "province": "cm", "slug": "jazz-me-5554356221", "rank": 3}}, {"type": "Feature", "geometry": {"type": "Point", "coordinates": [98.99126, 18.78939]}, "properties": {"id": "cm-osm-node-2055855113", "name": "Kristi House Restaurant", "nameTh": null, "nameEn": "Kristi House Restaurant", "cat": ["food"], "province": "cm", "slug": "kristi-house-restaurant-2055855113", "rank": 1}}, {"type": "Feature", "geometry": {"type": "Point", "coordinates": [98.9924, 18.79416]}, "properties": {"id": "cm-osm-node-2669393878", "name": "La Cucina", "nameTh": null, "nameEn": "La Cucina", "cat": ["food"], "province": "cm", "slug": "la-cucina-2669393878", "rank": 1}}, {"type": "Feature", "geometry": {"type": "Point", "coordinates": [98.91217, 18.9668]}, "properties": {"id": "cm-osm-node-13394591201", "name": "La Factoria", "nameTh": null, "nameEn": "La Factoria", "cat": ["food"], "province": "cm", "slug": "la-factoria-13394591201", "rank": 2}}, {"type": "Feature", "geometry": {"type": "Point", "coordinates": [98.99107, 18.78524]}, "properties": {"id": "cm-osm-node-1416857573", "name": "La Fontana", "nameTh": null, "nameEn": "La Fontana", "cat": ["food"], "province": "cm", "slug": "la-fontana-1416857573", "rank": 3}}, {"type": "Feature", "geometry": {"type": "Point", "coordinates": [98.99244, 18.78772]}, "properties": {"id": "cm-osm-node-3419811908", "name": "La Lanterna Di Genova", "nameTh": null, "nameEn": "La Lanterna Di Genova", "cat": ["food"], "province": "cm", "slug": "la-lanterna-di-genova-3419811908", "rank": 1}}, {"type": "Feature", "geometry": {"type": "Point", "coordinates": [99.03947, 18.78083]}, "properties": {"id": "cm-osm-node-5561163722", "name": "Lamdee Cafe", "nameTh": null, "nameEn": "Lamdee Cafe", "cat": ["food"], "province": "cm", "slug": "lamdee-cafe-5561163722", "rank": 3}}, {"type": "Feature", "geometry": {"type": "Point", "coordinates": [98.97923, 18.81156]}, "properties": {"id": "cm-osm-node-13616287147", "name": "Lapin Cafe", "nameTh": "ลาแปง คาเฟ่", "nameEn": "Lapin Cafe", "cat": ["food"], "province": "cm", "slug": "lapin-cafe-13616287147", "rank": 4}}, {"type": "Feature", "geometry": {"type": "Point", "coordinates": [98.96916, 18.79819]}, "properties": {"id": "cm-osm-node-3287776262", "name": "Limoncello", "nameTh": null, "nameEn": "Limoncello", "cat": ["food"], "province": "cm", "slug": "limoncello-3287776262", "rank": 2}}, {"type": "Feature", "geometry": {"type": "Point", "coordinates": [98.93362, 18.73802]}, "properties": {"id": "cm-osm-way-550089525", "name": "Little Italy Pizza Garden", "nameTh": null, "nameEn": "Little Italy Pizza Garden", "cat": ["food"], "province": "cm", "slug": "little-italy-pizza-garden-550089525", "rank": 2}}, {"type": "Feature", "geometry": {"type": "Point", "coordinates": [99.13853, 18.86627]}, "properties": {"id": "cm-osm-node-8918140752", "name": "Locanda", "nameTh": null, "nameEn": "Locanda", "cat": ["food"], "province": "cm", "slug": "locanda-8918140752", "rank": 2}}, {"type": "Feature", "geometry": {"type": "Point", "coordinates": [99.01523, 18.87091]}, "properties": {"id": "cm-osm-node-3237980730", "name": "Mamma Mia Pizza", "nameTh": null, "nameEn": "Mamma Mia Pizza", "cat": ["food"], "province": "cm", "slug": "mamma-mia-pizza-3237980730", "rank": 1}}, {"type": "Feature", "geometry": {"type": "Point", "coordinates": [98.9959, 18.7843]}, "properties": {"id": "cm-osm-node-3414272480", "name": "Mike Pizza", "nameTh": null, "nameEn": "Mike Pizza", "cat": ["food"], "province": "cm", "slug": "mike-pizza-3414272480", "rank": 1}}, {"type": "Feature", "geometry": {"type": "Point", "coordinates": [98.93124, 18.7372]}, "properties": {"id": "cm-osm-node-1954789274", "name": "Mr. Chan & Miss Pauline", "nameTh": null, "nameEn": "Mr. Chan & Miss Pauline", "cat": ["food"], "province": "cm", "slug": "mr-chan-miss-pauline-1954789274", "rank": 1}}, {"type": "Feature", "geometry": {"type": "Point", "coordinates": [99.10428, 18.79366]}, "properties": {"id": "cm-osm-node-2532030162", "name": "My Wife", "nameTh": null, "nameEn": "My Wife", "cat": ["food"], "province": "cm", "slug": "my-wife-2532030162", "rank": 1}}, {"type": "Feature", "geometry": {"type": "Point", "coordinates": [98.95844, 18.80062]}, "properties": {"id": "cm-osm-node-12861030508", "name": "Noi's Cuisine", "nameTh": null, "nameEn": "Noi's Cuisine", "cat": ["food"], "province": "cm", "slug": "noi-s-cuisine-12861030508", "rank": 1}}, {"type": "Feature", "geometry": {"type": "Point", "coordinates": [98.96261, 18.79919]}, "properties": {"id": "cm-osm-node-7470489380", "name": "Pasta Corner", "nameTh": null, "nameEn": "Pasta Corner", "cat": ["food"], "province": "cm", "slug": "pasta-corner-7470489380", "rank": 2}}, {"type": "Feature", "geometry": {"type": "Point", "coordinates": [98.98269, 18.78995]}, "properties": {"id": "cm-osm-way-405950983", "name": "Pastó", "nameTh": null, "nameEn": "Pastó", "cat": ["food"], "province": "cm", "slug": "past-405950983", "rank": 1}}, {"type": "Feature", "geometry": {"type": "Point", "coordinates": [99.00781, 18.75213]}, "properties": {"id": "cm-osm-node-3394945824", "name": "Pepino Pizza Pasta", "nameTh": null, "nameEn": "Pepino Pizza Pasta", "cat": ["food"], "province": "cm", "slug": "pepino-pizza-pasta-3394945824", "rank": 1}}, {"type": "Feature", "geometry": {"type": "Point", "coordinates": [99.00345, 18.78149]}, "properties": {"id": "cm-osm-node-3394773237", "name": "Piccola Roma Palace", "nameTh": null, "nameEn": "Piccola Roma Palace", "cat": ["food"], "province": "cm", "slug": "piccola-roma-palace-3394773237", "rank": 1}}, {"type": "Feature", "geometry": {"type": "Point", "coordinates": [99.00279, 18.7856]}, "properties": {"id": "cm-osm-node-3417165386", "name": "Puccini", "nameTh": null, "nameEn": "Puccini", "cat": ["food"], "province": "cm", "slug": "puccini-3417165386", "rank": 1}}, {"type": "Feature", "geometry": {"type": "Point", "coordinates": [98.99396, 18.78816]}, "properties": {"id": "cm-osm-node-4538160419", "name": "Pulcinella de Stefano", "nameTh": null, "nameEn": "Pulcinella de Stefano", "cat": ["food"], "province": "cm", "slug": "pulcinella-de-stefano-4538160419", "rank": 1}}, {"type": "Feature", "geometry": {"type": "Point", "coordinates": [99.1308, 18.84087]}, "properties": {"id": "cm-osm-node-3320142129", "name": "Racha", "nameTh": null, "nameEn": "Racha", "cat": ["food"], "province": "cm", "slug": "racha-3320142129", "rank": 3}}, {"type": "Feature", "geometry": {"type": "Point", "coordinates": [98.98731, 18.78815]}, "properties": {"id": "cm-osm-node-2039979007", "name": "Rachadamneon Kitchen", "nameTh": null, "nameEn": "Rachadamneon Kitchen", "cat": ["food"], "province": "cm", "slug": "rachadamneon-kitchen-2039979007", "rank": 1}}, {"type": "Feature", "geometry": {"type": "Point", "coordinates": [98.95427, 18.74553]}, "properties": {"id": "cm-osm-node-1433472018", "name": "Rose's Roadhouse", "nameTh": null, "nameEn": "Rose's Roadhouse", "cat": ["food"], "province": "cm", "slug": "rose-s-roadhouse-1433472018", "rank": 3}}, {"type": "Feature", "geometry": {"type": "Point", "coordinates": [98.9915, 18.79162]}, "properties": {"id": "cm-osm-way-492846791", "name": "S.L. Italian Pasta", "nameTh": "Secret Learning Italian Pasta", "nameEn": null, "cat": ["food"], "province": "cm", "slug": "secret-learning-italian-pasta-492846791", "rank": 2}}, {"type": "Feature", "geometry": {"type": "Point", "coordinates": [98.95394, 18.82704]}, "properties": {"id": "cm-osm-node-5643026621", "name": "Santi Bar & Bistro", "nameTh": null, "nameEn": "Santi Bar & Bistro", "cat": ["food"], "province": "cm", "slug": "santi-bar-bistro-5643026621", "rank": 2}}, {"type": "Feature", "geometry": {"type": "Point", "coordinates": [98.95105, 18.82094]}, "properties": {"id": "cm-osm-way-1015397923", "name": "Sipolle by Chef Dan", "nameTh": null, "nameEn": "Sipolle by Chef Dan", "cat": ["food"], "province": "cm", "slug": "sipolle-by-chef-dan-1015397923", "rank": 3}}, {"type": "Feature", "geometry": {"type": "Point", "coordinates": [99.00311, 18.83079]}, "properties": {"id": "cm-osm-node-4474523527", "name": "Tamarind Garden", "nameTh": null, "nameEn": "Tamarind Garden", "cat": ["food"], "province": "cm", "slug": "tamarind-garden-4474523527", "rank": 2}}, {"type": "Feature", "geometry": {"type": "Point", "coordinates": [98.98737, 18.78186]}, "properties": {"id": "cm-osm-way-793933944", "name": "The Faces - Gallery & Gastrobar", "nameTh": null, "nameEn": "The Faces - Gallery & Gastrobar", "cat": ["food"], "province": "cm", "slug": "the-faces-gallery-gastrobar-793933944", "rank": 3}}, {"type": "Feature", "geometry": {"type": "Point", "coordinates": [98.9969, 18.7935]}, "properties": {"id": "cm-osm-node-9959364218", "name": "The Food Trust CNX", "nameTh": null, "nameEn": "The Food Trust CNX", "cat": ["food"], "province": "cm", "slug": "the-food-trust-cnx-9959364218", "rank": 3}}, {"type": "Feature", "geometry": {"type": "Point", "coordinates": [98.96114, 18.80923]}, "properties": {"id": "cm-osm-node-4436821589", "name": "The Zest", "nameTh": null, "nameEn": "The Zest", "cat": ["food"], "province": "cm", "slug": "the-zest-4436821589", "rank": 1}}, {"type": "Feature", "geometry": {"type": "Point", "coordinates": [98.99111, 18.79044]}, "properties": {"id": "cm-osm-node-1491302514", "name": "Viva Pizza", "nameTh": null, "nameEn": "Viva Pizza", "cat": ["food"], "province": "cm", "slug": "viva-pizza-1491302514", "rank": 1}}, {"type": "Feature", "geometry": {"type": "Point", "coordinates": [98.92355, 18.71121]}, "properties": {"id": "cm-osm-node-2642106196", "name": "Viva Pizza & Coffee", "nameTh": null, "nameEn": "Viva Pizza & Coffee", "cat": ["food"], "province": "cm", "slug": "viva-pizza-coffee-2642106196", "rank": 3}}, {"type": "Feature", "geometry": {"type": "Point", "coordinates": [98.9679, 18.79681]}, "properties": {"id": "cm-osm-node-1797043367", "name": "Why Not?", "nameTh": null, "nameEn": "Why Not?", "cat": ["food"], "province": "cm", "slug": "why-not-1797043367", "rank": 2}}, {"type": "Feature", "geometry": {"type": "Point", "coordinates": [98.93184, 18.70178]}, "properties": {"id": "cm-osm-node-3476116051", "name": "Wine Connection", "nameTh": null, "nameEn": "Wine Connection", "cat": ["food"], "province": "cm", "slug": "wine-connection-3476116051", "rank": 1}}, {"type": "Feature", "geometry": {"type": "Point", "coordinates": [98.99887, 18.77594]}, "properties": {"id": "cm-osm-way-623164199", "name": "long ma dí", "nameTh": null, "nameEn": "long ma dí", "cat": ["food"], "province": "cm", "slug": "long-ma-d-623164199", "rank": 1}}, {"type": "Feature", "geometry": {"type": "Point", "coordinates": [99.07349, 18.84428]}, "properties": {"id": "cm-osm-node-1388461069", "name": "พิซซ่า จาร์ดิโน่", "nameTh": "พิซซ่า จาร์ดิโน่", "nameEn": "Pizza Giardino", "cat": ["food"], "province": "cm", "slug": "pizza-giardino-1388461069", "rank": 4}}, {"type": "Feature", "geometry": {"type": "Point", "coordinates": [98.98821, 18.77942]}, "properties": {"id": "cm-osm-node-2656759535", "name": "ร้านมาริโอ", "nameTh": "ร้านมาริโอ", "nameEn": "Mario", "cat": ["food"], "province": "cm", "slug": "mario-2656759535", "rank": 2}}, {"type": "Feature", "geometry": {"type": "Point", "coordinates": [98.92448, 18.74273]}, "properties": {"id": "cm-osm-node-5276808922", "name": "สหภาพกระต่าย", "nameTh": "สหภาพกระต่าย", "nameEn": "The Rabbit Union", "cat": ["food"], "province": "cm", "slug": "the-rabbit-union-5276808922", "rank": 3}}, {"type": "Feature", "geometry": {"type": "Point", "coordinates": [98.99293, 18.78639]}, "properties": {"id": "cm-osm-way-482772359", "name": "7-11", "nameTh": "หลอด biers", "nameEn": "Bier Stube", "cat": ["essentials"], "province": "cm", "slug": "bier-stube-482772359", "rank": 5}}]}