{"type": "FeatureCollection", "features": [{"type": "Feature", "geometry": {"type": "Point", "coordinates": [99.01917, 18.80034]}, "properties": {"id": "cm-osm-node-1936295529", "name": "McDonald's", "nameTh": "แมคโดนัลด์", "nameEn": "McDonald's", "cat": ["food"], "province": "cm", "slug": "mcdonald-s-1936295529", "rank": 5}}, {"type": "Feature", "geometry": {"type": "Point", "coordinates": [98.99165, 18.76515]}, "properties": {"id": "cm-osm-node-2559859302", "name": "McDonald's", "nameTh": "แมคโดนัลด์", "nameEn": "McDonald's", "cat": ["food"], "province": "cm", "slug": "mcdonald-s-2559859302", "rank": 4}}, {"type": "Feature", "geometry": {"type": "Point", "coordinates": [99.02276, 18.79897]}, "properties": {"id": "cm-osm-node-2610782959", "name": "McDonald's", "nameTh": "แมคโดนัลด์", "nameEn": "McDonald's", "cat": ["food"], "province": "cm", "slug": "mcdonald-s-2610782959", "rank": 4}}, {"type": "Feature", "geometry": {"type": "Point", "coordinates": [98.97065, 18.7586]}, "properties": {"id": "cm-osm-node-3190138862", "name": "McDonald's", "nameTh": "แมคโดนัลด์", "nameEn": "McDonald's", "cat": ["food"], "province": "cm", "slug": "mcdonald-s-3190138862", "rank": 5}}, {"type": "Feature", "geometry": {"type": "Point", "coordinates": [98.97058, 18.78934]}, "properties": {"id": "cm-osm-node-3291712479", "name": "McDonald's", "nameTh": "แมคโดนัลด์", "nameEn": "McDonald's", "cat": ["food"], "province": "cm", "slug": "mcdonald-s-3291712479", "rank": 5}}, {"type": "Feature", "geometry": {"type": "Point", "coordinates": [98.93109, 18.70072]}, "properties": {"id": "cm-osm-node-3306841368", "name": "McDonald's", "nameTh": "แมคโดนัลด์", "nameEn": "McDonald's", "cat": ["food"], "province": "cm", "slug": "mcdonald-s-3306841368", "rank": 5}}, {"type": "Feature", "geometry": {"type": "Point", "coordinates": [98.97461, 18.76877]}, "properties": {"id": "cm-osm-node-3347677634", "name": "McDonald's", "nameTh": "แมคโดนัลด์", "nameEn": "McDonald's", "cat": ["food"], "province": "cm", "slug": "mcdonald-s-3347677634", "rank": 5}}, {"type": "Feature", "geometry": {"type": "Point", "coordinates": [98.96649, 18.79805]}, "properties": {"id": "cm-osm-node-4349789389", "name": "McDonald's", "nameTh": "Macdonald's", "nameEn": "McDonald's", "cat": ["food"], "province": "cm", "slug": "mcdonald-s-4349789389", "rank": 2}}, {"type": "Feature", "geometry": {"type": "Point", "coordinates": [98.96827, 18.76863]}, "properties": {"id": "cm-osm-node-7026355370", "name": "McDonald's", "nameTh": null, "nameEn": "McDonald's", "cat": ["food"], "province": "cm", "slug": "mcdonald-s-7026355370", "rank": 1}}, {"type": "Feature", "geometry": {"type": "Point", "coordinates": [99.00043, 18.78375]}, "properties": {"id": "cm-osm-node-725620521", "name": "McDonald's", "nameTh": "แมคโดนัลด์", "nameEn": "McDonald's", "cat": ["food"], "province": "cm", "slug": "mcdonald-s-725620521", "rank": 5}}, {"type": "Feature", "geometry": {"type": "Point", "coordinates": [98.99393, 18.7875]}, "properties": {"id": "cm-osm-node-964809008", "name": "McDonald's", "nameTh": "แมคโดนัลด์", "nameEn": "McDonald's", "cat": ["food"], "province": "cm", "slug": "mcdonald-s-964809008", "rank": 5}}, {"type": "Feature", "geometry": {"type": "Point", "coordinates": [99.01151, 18.82396]}, "properties": {"id": "cm-osm-way-347940513", "name": "McDonald's", "nameTh": "แมคโดนัลด์", "nameEn": "McDonald's", "cat": ["food"], "province": "cm", "slug": "mcdonald-s-347940513", "rank": 4}}]}