{"type": "FeatureCollection", "features": [{"type": "Feature", "geometry": {"type": "Point", "coordinates": [99.00086, 18.83186]}, "properties": {"id": "cm-osm-node-12801978151", "name": "1678 Cafe", "nameTh": null, "nameEn": "1678 Cafe", "cat": ["food"], "province": "cm", "slug": "1678-cafe-12801978151", "rank": 3}}, {"type": "Feature", "geometry": {"type": "Point", "coordinates": [98.97029, 18.80331]}, "properties": {"id": "cm-osm-node-11372700314", "name": "200 แรงหมู Noodle Cafe", "nameTh": "200 Pigs Power Noodle Café", "nameEn": null, "cat": ["food"], "province": "cm", "slug": "200-noodle-cafe-11372700314", "rank": 1}}, {"type": "Feature", "geometry": {"type": "Point", "coordinates": [98.98404, 18.79617]}, "properties": {"id": "cm-osm-node-5995143552", "name": "248 Roof Top Bar and Pool Bar", "nameTh": null, "nameEn": "248 Roof Top Bar and Pool Bar", "cat": ["food"], "province": "cm", "slug": "248-roof-top-bar-and-pool-bar-5995143552", "rank": 2}}, {"type": "Feature", "geometry": {"type": "Point", "coordinates": [98.93811, 18.76761]}, "properties": {"id": "cm-osm-node-13531478362", "name": "99 Villa & Cafe", "nameTh": null, "nameEn": "99 Villa & Cafe", "cat": ["food"], "province": "cm", "slug": "99-villa-cafe-13531478362", "rank": 1}}, {"type": "Feature", "geometry": {"type": "Point", "coordinates": [98.97682, 18.79637]}, "properties": {"id": "cm-osm-node-5915461228", "name": "A.B.C.D.", "nameTh": null, "nameEn": "A.B.C.D.", "cat": ["food"], "province": "cm", "slug": "a-b-c-d-5915461228", "rank": 2}}, {"type": "Feature", "geometry": {"type": "Point", "coordinates": [99.00007, 18.78363]}, "properties": {"id": "cm-osm-node-3416994634", "name": "AIKU bar & restaurant", "nameTh": null, "nameEn": "AIKU bar & restaurant", "cat": ["food"], "province": "cm", "slug": "aiku-bar-restaurant-3416994634", "rank": 1}}, {"type": "Feature", "geometry": {"type": "Point", "coordinates": [98.97524, 18.79867]}, "properties": {"id": "cm-osm-node-3117930572", "name": "AMM (Aung Myint Mo Kyay Oh)", "nameTh": null, "nameEn": "AMM (Aung Myint Mo Kyay Oh)", "cat": ["food"], "province": "cm", "slug": "amm-aung-myint-mo-kyay-oh-3117930572", "rank": 3}}, {"type": "Feature", "geometry": {"type": "Point", "coordinates": [98.9926, 18.794]}, "properties": {"id": "cm-osm-node-13202532002", "name": "Akha Ama (The New Original)", "nameTh": null, "nameEn": "Akha Ama (The New Original)", "cat": ["food"], "province": "cm", "slug": "akha-ama-the-new-original-13202532002", "rank": 1}}, {"type": "Feature", "geometry": {"type": "Point", "coordinates": [98.98322, 18.78843]}, "properties": {"id": "cm-osm-node-2404044286", "name": "Akha Ama Phrasingh", "nameTh": "กาแฟอาข่าอามา (สาขา 2)", "nameEn": "Akha Ama Phrasingh", "cat": ["food"], "province": "cm", "slug": "akha-ama-phrasingh-2404044286", "rank": 4}}, {"type": "Feature", "geometry": {"type": "Point", "coordinates": [98.97867, 18.79289]}, "properties": {"id": "cm-osm-node-5190374623", "name": "Anila Gelato", "nameTh": null, "nameEn": "Anila Gelato", "cat": ["food"], "province": "cm", "slug": "anila-gelato-5190374623", "rank": 1}}, {"type": "Feature", "geometry": {"type": "Point", "coordinates": [99.0048, 18.8253]}, "properties": {"id": "cm-osm-node-11228388952", "name": "Ann&Mom", "nameTh": null, "nameEn": "Ann&Mom", "cat": ["food"], "province": "cm", "slug": "ann-mom-11228388952", "rank": 2}}, {"type": "Feature", "geometry": {"type": "Point", "coordinates": [98.95532, 18.80195]}, "properties": {"id": "cm-osm-node-2434773550", "name": "Au choix", "nameTh": null, "nameEn": "Au choix", "cat": ["food"], "province": "cm", "slug": "au-choix-2434773550", "rank": 1}}, {"type": "Feature", "geometry": {"type": "Point", "coordinates": [98.9054, 18.84205]}, "properties": {"id": "cm-osm-node-13478692584", "name": "Ba Rung Cafe", "nameTh": null, "nameEn": "Ba Rung Cafe", "cat": ["food"], "province": "cm", "slug": "ba-rung-cafe-13478692584", "rank": 1}}, {"type": "Feature", "geometry": {"type": "Point", "coordinates": [98.97244, 18.80396]}, "properties": {"id": "cm-osm-way-1162793798", "name": "Baan Mae", "nameTh": "บ้านแม่ คาเฟ่ แอนด์ เรสเทอรองท์ เชียงใหม่", "nameEn": "Baan Mae Café & Restaurant Chiang Mai", "cat": ["food"], "province": "cm", "slug": "baan-mae-caf-restaurant-chiang-mai-1162793798", "rank": 5}}, {"type": "Feature", "geometry": {"type": "Point", "coordinates": [98.97595, 18.96779]}, "properties": {"id": "cm-osm-node-13408916517", "name": "Baansuanpurajit", "nameTh": "บ้านสวนภูรจิตร", "nameEn": "Baansuanpurajit", "cat": ["food"], "province": "cm", "slug": "baansuanpurajit-13408916517", "rank": 2}}, {"type": "Feature", "geometry": {"type": "Point", "coordinates": [98.96929, 18.81489]}, "properties": {"id": "cm-osm-node-13313131801", "name": "Baby Sprouts Chiang Mai", "nameTh": null, "nameEn": "Baby Sprouts Chiang Mai", "cat": ["food"], "province": "cm", "slug": "baby-sprouts-chiang-mai-13313131801", "rank": 1}}, {"type": "Feature", "geometry": {"type": "Point", "coordinates": [98.93446, 18.91875]}, "properties": {"id": "cm-osm-node-7904752021", "name": "Bai Orchid Cafe", "nameTh": null, "nameEn": "Bai Orchid Cafe", "cat": ["food"], "province": "cm", "slug": "bai-orchid-cafe-7904752021", "rank": 1}}, {"type": "Feature", "geometry": {"type": "Point", "coordinates": [98.97735, 18.70978]}, "properties": {"id": "cm-osm-way-1038999093", "name": "Bella Goose Cafe on the Pond", "nameTh": null, "nameEn": "Bella Goose Cafe on the Pond", "cat": ["food"], "province": "cm", "slug": "bella-goose-cafe-on-the-pond-1038999093", "rank": 2}}, {"type": "Feature", "geometry": {"type": "Point", "coordinates": [98.999, 18.78125]}, "properties": {"id": "cm-osm-node-2655145988", "name": "Bella Goose Coffee", "nameTh": null, "nameEn": "Bella Goose Coffee", "cat": ["food"], "province": "cm", "slug": "bella-goose-coffee-2655145988", "rank": 2}}, {"type": "Feature", "geometry": {"type": "Point", "coordinates": [99.00772, 18.79602]}, "properties": {"id": "cm-osm-node-4518930189", "name": "Bella Madre Pizza", "nameTh": null, "nameEn": "Bella Madre Pizza", "cat": ["food"], "province": "cm", "slug": "bella-madre-pizza-4518930189", "rank": 2}}, {"type": "Feature", "geometry": {"type": "Point", "coordinates": [98.99759, 18.78426]}, "properties": {"id": "cm-osm-node-2597948382", "name": "Ben Cocktail", "nameTh": null, "nameEn": "Ben Cocktail", "cat": ["food"], "province": "cm", "slug": "ben-cocktail-2597948382", "rank": 2}}, {"type": "Feature", "geometry": {"type": "Point", "coordinates": [98.99795, 18.78655]}, "properties": {"id": "cm-osm-node-2597978364", "name": "Billy's Restaurant", "nameTh": null, "nameEn": "Billy's Restaurant", "cat": ["food"], "province": "cm", "slug": "billy-s-restaurant-2597978364", "rank": 2}}, {"type": "Feature", "geometry": {"type": "Point", "coordinates": [98.98217, 18.78683]}, "properties": {"id": "cm-osm-node-5203532422", "name": "Bistro Terrace", "nameTh": null, "nameEn": "Bistro Terrace", "cat": ["food"], "province": "cm", "slug": "bistro-terrace-5203532422", "rank": 1}}, {"type": "Feature", "geometry": {"type": "Point", "coordinates": [98.98163, 18.78297]}, "properties": {"id": "cm-osm-node-12306896388", "name": "Bloomin' Moon", "nameTh": null, "nameEn": "Bloomin' Moon", "cat": ["food"], "province": "cm", "slug": "bloomin-moon-12306896388", "rank": 2}}, {"type": "Feature", "geometry": {"type": "Point", "coordinates": [98.98869, 18.78825]}, "properties": {"id": "cm-osm-node-5987644570", "name": "Blue Coffee", "nameTh": null, "nameEn": "Blue Coffee", "cat": ["food"], "province": "cm", "slug": "blue-coffee-5987644570", "rank": 1}}, {"type": "Feature", "geometry": {"type": "Point", "coordinates": [98.99142, 18.7939]}, "properties": {"id": "cm-osm-way-259707860", "name": "Blue Diamond The Breakfast Club", "nameTh": null, "nameEn": "Blue Diamond The Breakfast Club", "cat": ["food"], "province": "cm", "slug": "blue-diamond-the-breakfast-club-259707860", "rank": 3}}, {"type": "Feature", "geometry": {"type": "Point", "coordinates": [98.99106, 18.78916]}, "properties": {"id": "cm-osm-node-4925330150", "name": "Bodhi Tree Cafe", "nameTh": null, "nameEn": "Bodhi Tree Cafe", "cat": ["food"], "province": "cm", "slug": "bodhi-tree-cafe-4925330150", "rank": 1}}, {"type": "Feature", "geometry": {"type": "Point", "coordinates": [99.00804, 18.78724]}, "properties": {"id": "cm-osm-node-13202529005", "name": "Brewing Room", "nameTh": null, "nameEn": "Brewing Room", "cat": ["food"], "province": "cm", "slug": "brewing-room-13202529005", "rank": 2}}, {"type": "Feature", "geometry": {"type": "Point", "coordinates": [99.03961, 18.83355]}, "properties": {"id": "cm-osm-node-13428443754", "name": "Bualuang Studio Coffee&Arts", "nameTh": null, "nameEn": "Bualuang Studio Coffee&Arts", "cat": ["food"], "province": "cm", "slug": "bualuang-studio-coffee-arts-13428443754", "rank": 2}}, {"type": "Feature", "geometry": {"type": "Point", "coordinates": [99.11042, 18.87187]}, "properties": {"id": "cm-osm-node-1604441376", "name": "Bualuang Terasse", "nameTh": null, "nameEn": "Bualuang Terasse", "cat": ["food"], "province": "cm", "slug": "bualuang-terasse-1604441376", "rank": 2}}, {"type": "Feature", "geometry": {"type": "Point", "coordinates": [99.07523, 18.86296]}, "properties": {"id": "cm-osm-node-5631820686", "name": "Bucoliq", "nameTh": null, "nameEn": "Bucoliq", "cat": ["food"], "province": "cm", "slug": "bucoliq-5631820686", "rank": 1}}, {"type": "Feature", "geometry": {"type": "Point", "coordinates": [99.00659, 18.78419]}, "properties": {"id": "cm-osm-node-9526112065", "name": "Burger Box", "nameTh": null, "nameEn": "Burger Box", "cat": ["food"], "province": "cm", "slug": "burger-box-9526112065", "rank": 1}}, {"type": "Feature", "geometry": {"type": "Point", "coordinates": [98.99976, 18.78039]}, "properties": {"id": "cm-osm-node-2641740599", "name": "Butter is Better", "nameTh": null, "nameEn": "Butter is Better", "cat": ["food"], "province": "cm", "slug": "butter-is-better-2641740599", "rank": 2}}, {"type": "Feature", "geometry": {"type": "Point", "coordinates": [98.98503, 18.81014]}, "properties": {"id": "cm-osm-node-6700467244", "name": "By'N", "nameTh": null, "nameEn": "By'N", "cat": ["food"], "province": "cm", "slug": "by-n-6700467244", "rank": 1}}, {"type": "Feature", "geometry": {"type": "Point", "coordinates": [99.00068, 18.78105]}, "properties": {"id": "cm-osm-node-1101287698", "name": "Cafe de L'Amour", "nameTh": null, "nameEn": "Cafe de L'Amour", "cat": ["food"], "province": "cm", "slug": "cafe-de-l-amour-1101287698", "rank": 2}}, {"type": "Feature", "geometry": {"type": "Point", "coordinates": [98.98848, 18.78547]}, "properties": {"id": "cm-osm-node-1006843145", "name": "Cafe de Thaan Aoan", "nameTh": null, "nameEn": "Cafe de Thaan Aoan", "cat": ["food"], "province": "cm", "slug": "cafe-de-thaan-aoan-1006843145", "rank": 2}}, {"type": "Feature", "geometry": {"type": "Point", "coordinates": [98.99854, 18.784]}, "properties": {"id": "cm-osm-node-2655180134", "name": "Cafe' de Siam", "nameTh": null, "nameEn": "Cafe' de Siam", "cat": ["food"], "province": "cm", "slug": "cafe-de-siam-2655180134", "rank": 2}}, {"type": "Feature", "geometry": {"type": "Point", "coordinates": [98.96088, 18.79688]}, "properties": {"id": "cm-osm-node-12031519067", "name": "Café Amazon", "nameTh": null, "nameEn": "Café Amazon", "cat": ["food"], "province": "cm", "slug": "caf-amazon-12031519067", "rank": 2}}, {"type": "Feature", "geometry": {"type": "Point", "coordinates": [99.10988, 18.86612]}, "properties": {"id": "cm-osm-node-13604835663", "name": "Cats Station Cafe", "nameTh": null, "nameEn": "Cats Station Cafe", "cat": ["food"], "province": "cm", "slug": "cats-station-cafe-13604835663", "rank": 2}}, {"type": "Feature", "geometry": {"type": "Point", "coordinates": [99.13511, 18.84093]}, "properties": {"id": "cm-osm-node-12201114507", "name": "Celapot Café", "nameTh": null, "nameEn": "Celapot Café", "cat": ["food"], "province": "cm", "slug": "celapot-caf-12201114507", "rank": 2}}, {"type": "Feature", "geometry": {"type": "Point", "coordinates": [98.99043, 18.78637]}, "properties": {"id": "cm-osm-node-9872196618", "name": "Chada Vegetarian", "nameTh": null, "nameEn": "Chada Vegetarian", "cat": ["food"], "province": "cm", "slug": "chada-vegetarian-9872196618", "rank": 2}}, {"type": "Feature", "geometry": {"type": "Point", "coordinates": [99.05999, 18.77521]}, "properties": {"id": "cm-osm-node-5230148372", "name": "Chez Nous", "nameTh": null, "nameEn": "Chez Nous", "cat": ["food"], "province": "cm", "slug": "chez-nous-5230148372", "rank": 2}}, {"type": "Feature", "geometry": {"type": "Point", "coordinates": [98.99171, 18.78414]}, "properties": {"id": "cm-osm-node-4149593989", "name": "ChiangMai Breakfast World", "nameTh": null, "nameEn": "ChiangMai Breakfast World", "cat": ["food"], "province": "cm", "slug": "chiangmai-breakfast-world-4149593989", "rank": 2}}, {"type": "Feature", "geometry": {"type": "Point", "coordinates": [98.99387, 18.79131]}, "properties": {"id": "cm-osm-node-5643365518", "name": "Chit Chai", "nameTh": null, "nameEn": "Chit Chai", "cat": ["food"], "province": "cm", "slug": "chit-chai-5643365518", "rank": 3}}, {"type": "Feature", "geometry": {"type": "Point", "coordinates": [98.94543, 18.74826]}, "properties": {"id": "cm-osm-node-5608450921", "name": "Chom Cafe and Restaurant", "nameTh": null, "nameEn": "Chom Cafe and Restaurant", "cat": ["food"], "province": "cm", "slug": "chom-cafe-and-restaurant-5608450921", "rank": 2}}, {"type": "Feature", "geometry": {"type": "Point", "coordinates": [98.99944, 18.7805]}, "properties": {"id": "cm-osm-node-8578957019", "name": "Chuan Chuan Xiang", "nameTh": null, "nameEn": "Chuan Chuan Xiang", "cat": ["food"], "province": "cm", "slug": "chuan-chuan-xiang-8578957019", "rank": 1}}, {"type": "Feature", "geometry": {"type": "Point", "coordinates": [99.11662, 18.87084]}, "properties": {"id": "cm-osm-node-13540019101", "name": "Cof & Fur", "nameTh": null, "nameEn": "Cof & Fur", "cat": ["food"], "province": "cm", "slug": "cof-fur-13540019101", "rank": 3}}, {"type": "Feature", "geometry": {"type": "Point", "coordinates": [99.00272, 18.78591]}, "properties": {"id": "cm-osm-node-3417167515", "name": "Coffee Bug", "nameTh": null, "nameEn": "Coffee Bug", "cat": ["food"], "province": "cm", "slug": "coffee-bug-3417167515", "rank": 1}}, {"type": "Feature", "geometry": {"type": "Point", "coordinates": [98.97034, 18.79833]}, "properties": {"id": "cm-osm-node-11425558688", "name": "Coffee INC. Nicohub", "nameTh": null, "nameEn": "Coffee INC. Nicohub", "cat": ["food"], "province": "cm", "slug": "coffee-inc-nicohub-11425558688", "rank": 3}}, {"type": "Feature", "geometry": {"type": "Point", "coordinates": [98.99405, 18.7795]}, "properties": {"id": "cm-osm-node-1477518782", "name": "Coffee Waf", "nameTh": null, "nameEn": "Coffee Waf", "cat": ["food"], "province": "cm", "slug": "coffee-waf-1477518782", "rank": 3}}, {"type": "Feature", "geometry": {"type": "Point", "coordinates": [98.99312, 18.78845]}, "properties": {"id": "cm-osm-node-5758046621", "name": "CoolMuang", "nameTh": null, "nameEn": "CoolMuang", "cat": ["food"], "province": "cm", "slug": "coolmuang-5758046621", "rank": 2}}, {"type": "Feature", "geometry": {"type": "Point", "coordinates": [98.99146, 18.78327]}, "properties": {"id": "cm-osm-node-3385473024", "name": "Dash", "nameTh": null, "nameEn": "Dash", "cat": ["food"], "province": "cm", "slug": "dash-3385473024", "rank": 3}}, {"type": "Feature", "geometry": {"type": "Point", "coordinates": [98.98175, 18.78588]}, "properties": {"id": "cm-osm-node-10819184705", "name": "Deep Green", "nameTh": null, "nameEn": "Deep Green", "cat": ["food"], "province": "cm", "slug": "deep-green-10819184705", "rank": 2}}, {"type": "Feature", "geometry": {"type": "Point", "coordinates": [98.97642, 18.77126]}, "properties": {"id": "cm-osm-node-1903665319", "name": "Doi Chaang Coffee", "nameTh": null, "nameEn": "Doi Chaang Coffee", "cat": ["food"], "province": "cm", "slug": "doi-chaang-coffee-1903665319", "rank": 2}}, {"type": "Feature", "geometry": {"type": "Point", "coordinates": [98.98206, 18.78519]}, "properties": {"id": "cm-osm-node-7005727190", "name": "Drop in Restaurant & Bar", "nameTh": null, "nameEn": "Drop in Restaurant & Bar", "cat": ["food"], "province": "cm", "slug": "drop-in-restaurant-bar-7005727190", "rank": 1}}, {"type": "Feature", "geometry": {"type": "Point", "coordinates": [98.98891, 18.80573]}, "properties": {"id": "cm-osm-node-11499304969", "name": "Early Owls", "nameTh": null, "nameEn": "Early Owls", "cat": ["food"], "province": "cm", "slug": "early-owls-11499304969", "rank": 2}}, {"type": "Feature", "geometry": {"type": "Point", "coordinates": [98.96856, 18.79715]}, "properties": {"id": "cm-osm-node-10110549005", "name": "Eighty-six Ramen", "nameTh": null, "nameEn": "Eighty-six Ramen", "cat": ["food"], "province": "cm", "slug": "eighty-six-ramen-10110549005", "rank": 1}}, {"type": "Feature", "geometry": {"type": "Point", "coordinates": [98.96928, 18.78869]}, "properties": {"id": "cm-osm-node-4539213082", "name": "Everest 8848", "nameTh": null, "nameEn": "Everest 8848", "cat": ["food"], "province": "cm", "slug": "everest-8848-4539213082", "rank": 1}}, {"type": "Feature", "geometry": {"type": "Point", "coordinates": [98.98187, 18.78493]}, "properties": {"id": "cm-osm-node-11409266290", "name": "Falafel and Salad", "nameTh": null, "nameEn": "Falafel and Salad", "cat": ["food"], "province": "cm", "slug": "falafel-and-salad-11409266290", "rank": 2}}, {"type": "Feature", "geometry": {"type": "Point", "coordinates": [98.9841, 18.77794]}, "properties": {"id": "cm-osm-node-6377522006", "name": "Farango Cafe & Restaurant", "nameTh": null, "nameEn": "Farango Cafe & Restaurant", "cat": ["food"], "province": "cm", "slug": "farango-cafe-restaurant-6377522006", "rank": 2}}, {"type": "Feature", "geometry": {"type": "Point", "coordinates": [98.98203, 18.79339]}, "properties": {"id": "cm-osm-node-3385494997", "name": "Fern Forest Cafe", "nameTh": null, "nameEn": "Fern Forest Cafe", "cat": ["food"], "province": "cm", "slug": "fern-forest-cafe-3385494997", "rank": 3}}, {"type": "Feature", "geometry": {"type": "Point", "coordinates": [98.93497, 18.76166]}, "properties": {"id": "cm-osm-way-881590330", "name": "Fernpresso At Lake", "nameTh": null, "nameEn": "Fernpresso At Lake", "cat": ["food"], "province": "cm", "slug": "fernpresso-at-lake-881590330", "rank": 1}}, {"type": "Feature", "geometry": {"type": "Point", "coordinates": [98.9704, 18.78574]}, "properties": {"id": "cm-osm-node-12591619151", "name": "First Officer Coffee Roasters", "nameTh": null, "nameEn": "First Officer Coffee Roasters", "cat": ["food"], "province": "cm", "slug": "first-officer-coffee-roasters-12591619151", "rank": 2}}, {"type": "Feature", "geometry": {"type": "Point", "coordinates": [98.9671, 18.81223]}, "properties": {"id": "cm-osm-node-7072049862", "name": "Fleur de Mai", "nameTh": null, "nameEn": "Fleur de Mai", "cat": ["food"], "province": "cm", "slug": "fleur-de-mai-7072049862", "rank": 2}}, {"type": "Feature", "geometry": {"type": "Point", "coordinates": [98.96321, 18.80183]}, "properties": {"id": "cm-osm-node-13517068101", "name": "Foucault", "nameTh": null, "nameEn": "Foucault", "cat": ["food"], "province": "cm", "slug": "foucault-13517068101", "rank": 3}}, {"type": "Feature", "geometry": {"type": "Point", "coordinates": [98.9748, 18.79148]}, "properties": {"id": "cm-osm-node-4905277321", "name": "Fresh& Mild", "nameTh": "เฟรชแอนด์ไมลด์", "nameEn": "Fresh& Mild", "cat": ["food"], "province": "cm", "slug": "fresh-mild-4905277321", "rank": 2}}, {"type": "Feature", "geometry": {"type": "Point", "coordinates": [98.99324, 18.79062]}, "properties": {"id": "cm-osm-node-4557856199", "name": "GRASP 1981 Espresso Bar", "nameTh": null, "nameEn": "GRASP 1981 Espresso Bar", "cat": ["food"], "province": "cm", "slug": "grasp-1981-espresso-bar-4557856199", "rank": 3}}, {"type": "Feature", "geometry": {"type": "Point", "coordinates": [98.96804, 18.79687]}, "properties": {"id": "cm-osm-node-13202528902", "name": "Ging Grai", "nameTh": null, "nameEn": "Ging Grai", "cat": ["food"], "province": "cm", "slug": "ging-grai-13202528902", "rank": 2}}, {"type": "Feature", "geometry": {"type": "Point", "coordinates": [98.9923, 18.72444]}, "properties": {"id": "cm-osm-way-677842671", "name": "Ginger Farm Chiang Mai", "nameTh": null, "nameEn": "Ginger Farm Chiang Mai", "cat": ["food"], "province": "cm", "slug": "ginger-farm-chiang-mai-677842671", "rank": 3}}, {"type": "Feature", "geometry": {"type": "Point", "coordinates": [98.98209, 18.79326]}, "properties": {"id": "cm-osm-way-623140246", "name": "Goodsouls Kitchen", "nameTh": null, "nameEn": "Goodsouls Kitchen", "cat": ["food"], "province": "cm", "slug": "goodsouls-kitchen-623140246", "rank": 3}}, {"type": "Feature", "geometry": {"type": "Point", "coordinates": [98.99963, 18.78811]}, "properties": {"id": "cm-osm-node-7059455285", "name": "Grape Wine Bar", "nameTh": null, "nameEn": "Grape Wine Bar", "cat": ["food"], "province": "cm", "slug": "grape-wine-bar-7059455285", "rank": 1}}, {"type": "Feature", "geometry": {"type": "Point", "coordinates": [98.98193, 18.78584]}, "properties": {"id": "cm-osm-way-623156415", "name": "Gravity Cafe & Bistro", "nameTh": null, "nameEn": "Gravity Cafe & Bistro", "cat": ["food"], "province": "cm", "slug": "gravity-cafe-bistro-623156415", "rank": 2}}, {"type": "Feature", "geometry": {"type": "Point", "coordinates": [98.98987, 18.77873]}, "properties": {"id": "cm-osm-node-11699795495", "name": "Haiya Ta-bur Experience Space", "nameTh": null, "nameEn": "Haiya Ta-bur Experience Space", "cat": ["food"], "province": "cm", "slug": "haiya-ta-bur-experience-space-11699795495", "rank": 2}}, {"type": "Feature", "geometry": {"type": "Point", "coordinates": [98.89576, 18.68227]}, "properties": {"id": "cm-osm-node-13533499755", "name": "Hangdong Family Minigolf  + German Rrestaurant", "nameTh": null, "nameEn": "Hangdong Family Minigolf  + German Rrestaurant", "cat": ["food"], "province": "cm", "slug": "hangdong-family-minigolf-german-rrestaurant-13533499755", "rank": 4}}, {"type": "Feature", "geometry": {"type": "Point", "coordinates": [98.87507, 18.76435]}, "properties": {"id": "cm-osm-node-13403797106", "name": "Harmony Retreat Chiang Mai", "nameTh": null, "nameEn": "Harmony Retreat Chiang Mai", "cat": ["food"], "province": "cm", "slug": "harmony-retreat-chiang-mai-13403797106", "rank": 2}}, {"type": "Feature", "geometry": {"type": "Point", "coordinates": [98.96767, 18.79873]}, "properties": {"id": "cm-osm-node-9872355417", "name": "Healthy junk", "nameTh": null, "nameEn": "Healthy Junk", "cat": ["food"], "province": "cm", "slug": "healthy-junk-9872355417", "rank": 2}}, {"type": "Feature", "geometry": {"type": "Point", "coordinates": [98.90476, 18.76233]}, "properties": {"id": "cm-osm-node-6326937923", "name": "Hill Coffee", "nameTh": null, "nameEn": "Hill Coffee", "cat": ["food"], "province": "cm", "slug": "hill-coffee-6326937923", "rank": 3}}, {"type": "Feature", "geometry": {"type": "Point", "coordinates": [98.95415, 18.80302]}, "properties": {"id": "cm-osm-node-2434777647", "name": "Him Tang", "nameTh": null, "nameEn": "Him Tang", "cat": ["food"], "province": "cm", "slug": "him-tang-2434777647", "rank": 1}}, {"type": "Feature", "geometry": {"type": "Point", "coordinates": [99.11125, 18.72004]}, "properties": {"id": "cm-osm-node-7399161957", "name": "Home@29", "nameTh": null, "nameEn": "Home@29", "cat": ["food"], "province": "cm", "slug": "home-29-7399161957", "rank": 2}}, {"type": "Feature", "geometry": {"type": "Point", "coordinates": [98.87134, 18.65877]}, "properties": {"id": "cm-osm-node-13542339943", "name": "Homemade Corner Bake and Slowbar", "nameTh": null, "nameEn": "Homemade Corner Bake and Slowbar", "cat": ["food"], "province": "cm", "slug": "homemade-corner-bake-and-slowbar-13542339943", "rank": 3}}, {"type": "Feature", "geometry": {"type": "Point", "coordinates": [99.02758, 18.77286]}, "properties": {"id": "cm-osm-node-13413161152", "name": "Honey Bee Coffee & Meal", "nameTh": null, "nameEn": "Honey Bee Coffee & Meal", "cat": ["food"], "province": "cm", "slug": "honey-bee-coffee-meal-13413161152", "rank": 3}}, {"type": "Feature", "geometry": {"type": "Point", "coordinates": [98.98235, 18.79008]}, "properties": {"id": "cm-osm-node-7027943486", "name": "Hug Smoothie", "nameTh": null, "nameEn": "Hug Smoothie", "cat": ["food"], "province": "cm", "slug": "hug-smoothie-7027943486", "rank": 1}}, {"type": "Feature", "geometry": {"type": "Point", "coordinates": [98.99944, 18.77482]}, "properties": {"id": "cm-osm-node-1237366507", "name": "Hummus Chiang Mai", "nameTh": null, "nameEn": "Hummus Chiang Mai", "cat": ["food"], "province": "cm", "slug": "hummus-chiang-mai-1237366507", "rank": 1}}, {"type": "Feature", "geometry": {"type": "Point", "coordinates": [98.97909, 18.78533]}, "properties": {"id": "cm-osm-node-11572062055", "name": "I Am Pizza", "nameTh": null, "nameEn": "I Am Pizza", "cat": ["food"], "province": "cm", "slug": "i-am-pizza-11572062055", "rank": 1}}, {"type": "Feature", "geometry": {"type": "Point", "coordinates": [98.98747, 18.79521]}, "properties": {"id": "cm-osm-node-12310893222", "name": "In Town", "nameTh": null, "nameEn": "In Town", "cat": ["food"], "province": "cm", "slug": "in-town-12310893222", "rank": 2}}, {"type": "Feature", "geometry": {"type": "Point", "coordinates": [98.96948, 18.79737]}, "properties": {"id": "cm-osm-node-4866191746", "name": "Italics Restaurant & Rise Bar", "nameTh": null, "nameEn": "Italics Restaurant & Rise Bar", "cat": ["food"], "province": "cm", "slug": "italics-restaurant-rise-bar-4866191746", "rank": 3}}, {"type": "Feature", "geometry": {"type": "Point", "coordinates": [98.96838, 18.7964]}, "properties": {"id": "cm-osm-node-12568119920", "name": "Jaeb", "nameTh": null, "nameEn": "Jaeb", "cat": ["food"], "province": "cm", "slug": "jaeb-12568119920", "rank": 1}}, {"type": "Feature", "geometry": {"type": "Point", "coordinates": [98.92981, 18.92985]}, "properties": {"id": "cm-osm-node-3803713498", "name": "Kaffee Bitte", "nameTh": null, "nameEn": "Kaffee Bitte", "cat": ["food"], "province": "cm", "slug": "kaffee-bitte-3803713498", "rank": 1}}, {"type": "Feature", "geometry": {"type": "Point", "coordinates": [98.98626, 18.78367]}, "properties": {"id": "cm-osm-node-13545071979", "name": "Kalm Coffee", "nameTh": null, "nameEn": "Kalm Coffee", "cat": ["food"], "province": "cm", "slug": "kalm-coffee-13545071979", "rank": 1}}, {"type": "Feature", "geometry": {"type": "Point", "coordinates": [98.99395, 18.79148]}, "properties": {"id": "cm-osm-node-6117570345", "name": "Kangaroo Bar", "nameTh": null, "nameEn": "Kangaroo Bar", "cat": ["food"], "province": "cm", "slug": "kangaroo-bar-6117570345", "rank": 2}}, {"type": "Feature", "geometry": {"type": "Point", "coordinates": [98.88691, 18.75441]}, "properties": {"id": "cm-osm-node-13390856571", "name": "Kao Some Por", "nameTh": null, "nameEn": "Kao Some Por", "cat": ["food"], "province": "cm", "slug": "kao-some-por-13390856571", "rank": 1}}, {"type": "Feature", "geometry": {"type": "Point", "coordinates": [98.98861, 18.78806]}, "properties": {"id": "cm-osm-node-4623096989", "name": "Kati breakfast & brunch", "nameTh": null, "nameEn": "Kati breakfast & brunch", "cat": ["food"], "province": "cm", "slug": "kati-breakfast-brunch-4623096989", "rank": 1}}, {"type": "Feature", "geometry": {"type": "Point", "coordinates": [98.98112, 18.80305]}, "properties": {"id": "cm-osm-node-9872146918", "name": "Kinphak Cafe (Cmu vegan Food)", "nameTh": null, "nameEn": "Kinphak Cafe (Cmu vegan Food)", "cat": ["food"], "province": "cm", "slug": "kinphak-cafe-cmu-vegan-food-9872146918", "rank": 2}}, {"type": "Feature", "geometry": {"type": "Point", "coordinates": [98.95355, 18.80159]}, "properties": {"id": "cm-osm-node-2434791094", "name": "Kopi Gusto", "nameTh": null, "nameEn": "Kopi Gusto", "cat": ["food"], "province": "cm", "slug": "kopi-gusto-2434791094", "rank": 1}}, {"type": "Feature", "geometry": {"type": "Point", "coordinates": [98.96906, 18.79727]}, "properties": {"id": "cm-osm-node-10110509988", "name": "Kopy Nimman", "nameTh": null, "nameEn": "Kopy Nimman", "cat": ["food"], "province": "cm", "slug": "kopy-nimman-10110509988", "rank": 1}}, {"type": "Feature", "geometry": {"type": "Point", "coordinates": [99.00145, 18.766]}, "properties": {"id": "cm-osm-node-3983431257", "name": "Krusty's Bar & Grill", "nameTh": null, "nameEn": "Krusty's Bar & Grill", "cat": ["food"], "province": "cm", "slug": "krusty-s-bar-grill-3983431257", "rank": 3}}, {"type": "Feature", "geometry": {"type": "Point", "coordinates": [98.99229, 18.79056]}, "properties": {"id": "cm-osm-node-12581980207", "name": "La Casita", "nameTh": null, "nameEn": "La Casita", "cat": ["food"], "province": "cm", "slug": "la-casita-12581980207", "rank": 1}}, {"type": "Feature", "geometry": {"type": "Point", "coordinates": [98.99107, 18.78524]}, "properties": {"id": "cm-osm-node-1416857573", "name": "La Fontana", "nameTh": null, "nameEn": "La Fontana", "cat": ["food"], "province": "cm", "slug": "la-fontana-1416857573", "rank": 3}}, {"type": "Feature", "geometry": {"type": "Point", "coordinates": [98.96235, 18.72034]}, "properties": {"id": "cm-osm-node-4879578088", "name": "Laab Khwan Wieng", "nameTh": null, "nameEn": "Laab Khwan Wieng", "cat": ["food"], "province": "cm", "slug": "laab-khwan-wieng-4879578088", "rank": 1}}, {"type": "Feature", "geometry": {"type": "Point", "coordinates": [98.89611, 18.69977]}, "properties": {"id": "cm-osm-node-13000324058", "name": "Lake House CNX (Wakeboarding park)", "nameTh": null, "nameEn": "Lake House CNX (Wakeboarding park)", "cat": ["food"], "province": "cm", "slug": "lake-house-cnx-wakeboarding-park-13000324058", "rank": 4}}, {"type": "Feature", "geometry": {"type": "Point", "coordinates": [98.94195, 18.86927]}, "properties": {"id": "cm-osm-node-13245055880", "name": "Lake View Cafe", "nameTh": "ร้านกาแฟผ่อห้วย", "nameEn": "Lake View Cafe", "cat": ["food"], "province": "cm", "slug": "lake-view-cafe-13245055880", "rank": 2}}, {"type": "Feature", "geometry": {"type": "Point", "coordinates": [98.99112, 18.79109]}, "properties": {"id": "cm-osm-way-97923157", "name": "Lanna Square Market", "nameTh": "ลานนา สแควร์", "nameEn": "Lanna Square Market", "cat": ["food"], "province": "cm", "slug": "lanna-square-market-97923157", "rank": 3}}, {"type": "Feature", "geometry": {"type": "Point", "coordinates": [98.93892, 18.73321]}, "properties": {"id": "cm-osm-node-8972417444", "name": "Lee Cafe Chiangmai", "nameTh": null, "nameEn": "Lee Cafe Chiangmai", "cat": ["food"], "province": "cm", "slug": "lee-cafe-chiangmai-8972417444", "rank": 2}}, {"type": "Feature", "geometry": {"type": "Point", "coordinates": [98.94992, 18.80497]}, "properties": {"id": "cm-osm-way-311212963", "name": "Living a Dream", "nameTh": null, "nameEn": "Living a Dream", "cat": ["food"], "province": "cm", "slug": "living-a-dream-311212963", "rank": 1}}, {"type": "Feature", "geometry": {"type": "Point", "coordinates": [98.94813, 18.74756]}, "properties": {"id": "cm-osm-way-723744491", "name": "Maepen Seafood", "nameTh": null, "nameEn": "Maepen Seafood", "cat": ["food"], "province": "cm", "slug": "maepen-seafood-723744491", "rank": 1}}, {"type": "Feature", "geometry": {"type": "Point", "coordinates": [99.13536, 18.90408]}, "properties": {"id": "cm-osm-node-13530702802", "name": "Magic Beans Coffee (Specialty coffee & Roastery)", "nameTh": null, "nameEn": "Magic Beans Coffee (Specialty coffee & Roastery)", "cat": ["food"], "province": "cm", "slug": "magic-beans-coffee-specialty-coffee-roastery-13530702802", "rank": 3}}, {"type": "Feature", "geometry": {"type": "Point", "coordinates": [98.99923, 18.80732]}, "properties": {"id": "cm-osm-node-13403843262", "name": "Margaret", "nameTh": null, "nameEn": "Margaret", "cat": ["food"], "province": "cm", "slug": "margaret-13403843262", "rank": 2}}, {"type": "Feature", "geometry": {"type": "Point", "coordinates": [98.96774, 18.79691]}, "properties": {"id": "cm-osm-node-1797043368", "name": "Middle 11", "nameTh": null, "nameEn": "Middle 11", "cat": ["food"], "province": "cm", "slug": "middle-11-1797043368", "rank": 2}}, {"type": "Feature", "geometry": {"type": "Point", "coordinates": [98.95037, 18.79116]}, "properties": {"id": "cm-osm-node-9084096823", "name": "Milk on the rock", "nameTh": null, "nameEn": "Milk on the rock", "cat": ["food"], "province": "cm", "slug": "milk-on-the-rock-9084096823", "rank": 2}}, {"type": "Feature", "geometry": {"type": "Point", "coordinates": [98.94589, 18.77228]}, "properties": {"id": "cm-osm-node-12658068482", "name": "More Craft", "nameTh": null, "nameEn": "More Craft", "cat": ["food"], "province": "cm", "slug": "more-craft-12658068482", "rank": 3}}, {"type": "Feature", "geometry": {"type": "Point", "coordinates": [98.9863, 18.79509]}, "properties": {"id": "cm-osm-node-4333699923", "name": "Mountain view garden restaurant", "nameTh": null, "nameEn": "Mountain view garden restaurant", "cat": ["food"], "province": "cm", "slug": "mountain-view-garden-restaurant-4333699923", "rank": 4}}, {"type": "Feature", "geometry": {"type": "Point", "coordinates": [98.93393, 18.75289]}, "properties": {"id": "cm-osm-node-13994098801", "name": "Munchies Café", "nameTh": null, "nameEn": "Munchies Café", "cat": ["food"], "province": "cm", "slug": "munchies-caf-13994098801", "rank": 2}}, {"type": "Feature", "geometry": {"type": "Point", "coordinates": [99.00939, 18.74968]}, "properties": {"id": "cm-osm-node-4223831689", "name": "My Kitchen", "nameTh": null, "nameEn": "My Kitchen", "cat": ["food"], "province": "cm", "slug": "my-kitchen-4223831689", "rank": 3}}, {"type": "Feature", "geometry": {"type": "Point", "coordinates": [98.99743, 18.78412]}, "properties": {"id": "cm-osm-node-2300395636", "name": "My Place Lounge Chiang Mai - Sports Bar & Restaurant", "nameTh": null, "nameEn": "My Place Lounge Chiang Mai - Sports Bar & Restaurant", "cat": ["food"], "province": "cm", "slug": "my-place-lounge-chiang-mai-sports-bar-restaurant-2300395636", "rank": 5}}, {"type": "Feature", "geometry": {"type": "Point", "coordinates": [98.98323, 18.7881]}, "properties": {"id": "cm-osm-node-3907871477", "name": "My Secret Cafe", "nameTh": null, "nameEn": "My Secret Cafe", "cat": ["food"], "province": "cm", "slug": "my-secret-cafe-3907871477", "rank": 1}}, {"type": "Feature", "geometry": {"type": "Point", "coordinates": [98.99145, 18.79232]}, "properties": {"id": "cm-osm-way-492846698", "name": "NOWHERE COFFEE BREWERS", "nameTh": null, "nameEn": "NOWHERE COFFEE BREWERS", "cat": ["food"], "province": "cm", "slug": "nowhere-coffee-brewers-492846698", "rank": 3}}, {"type": "Feature", "geometry": {"type": "Point", "coordinates": [98.97204, 18.69548]}, "properties": {"id": "cm-osm-node-13859401882", "name": "Na Non Restaurant, Pool & Gym", "nameTh": null, "nameEn": "Na Non Restaurant, Pool & Gym", "cat": ["food", "sport"], "province": "cm", "slug": "na-non-restaurant-pool-gym-13859401882", "rank": 2}}, {"type": "Feature", "geometry": {"type": "Point", "coordinates": [99.01059, 18.74933]}, "properties": {"id": "cm-osm-node-13051829612", "name": "Na Sookjai", "nameTh": null, "nameEn": "Na Sookjai", "cat": ["food"], "province": "cm", "slug": "na-sookjai-13051829612", "rank": 1}}, {"type": "Feature", "geometry": {"type": "Point", "coordinates": [99.00854, 18.7529]}, "properties": {"id": "cm-osm-way-651665508", "name": "Nana Jungle", "nameTh": null, "nameEn": "Nana Jungle", "cat": ["food"], "province": "cm", "slug": "nana-jungle-651665508", "rank": 2}}, {"type": "Feature", "geometry": {"type": "Point", "coordinates": [99.0043, 18.79951]}, "properties": {"id": "cm-osm-node-5023530126", "name": "Nat Wat Home Cafe", "nameTh": null, "nameEn": "Nat Wat Home Cafe", "cat": ["food"], "province": "cm", "slug": "nat-wat-home-cafe-5023530126", "rank": 2}}, {"type": "Feature", "geometry": {"type": "Point", "coordinates": [98.96689, 18.797]}, "properties": {"id": "cm-osm-node-13202531601", "name": "Nine One Coffee", "nameTh": null, "nameEn": "Nine One Coffee", "cat": ["food"], "province": "cm", "slug": "nine-one-coffee-13202531601", "rank": 2}}, {"type": "Feature", "geometry": {"type": "Point", "coordinates": [99.02444, 18.78412]}, "properties": {"id": "cm-osm-way-555930243", "name": "Niyom Coffee", "nameTh": null, "nameEn": "Niyom Coffee", "cat": ["food"], "province": "cm", "slug": "niyom-coffee-555930243", "rank": 2}}, {"type": "Feature", "geometry": {"type": "Point", "coordinates": [98.99142, 18.79186]}, "properties": {"id": "cm-osm-node-5933370531", "name": "Nowhere", "nameTh": null, "nameEn": "Nowhere", "cat": ["food"], "province": "cm", "slug": "nowhere-5933370531", "rank": 1}}, {"type": "Feature", "geometry": {"type": "Point", "coordinates": [99.00047, 18.78242]}, "properties": {"id": "cm-osm-node-4711807589", "name": "O'Malley's Irish Pub", "nameTh": null, "nameEn": "O'Malley's Irish Pub", "cat": ["food"], "province": "cm", "slug": "o-malley-s-irish-pub-4711807589", "rank": 4}}, {"type": "Feature", "geometry": {"type": "Point", "coordinates": [98.94841, 18.7768]}, "properties": {"id": "cm-osm-node-6176059286", "name": "Obchoei Original Homemade", "nameTh": null, "nameEn": "Obchoei Original Homemade", "cat": ["food"], "province": "cm", "slug": "obchoei-original-homemade-6176059286", "rank": 2}}, {"type": "Feature", "geometry": {"type": "Point", "coordinates": [98.97079, 18.80965]}, "properties": {"id": "cm-osm-node-13891104701", "name": "Okasan", "nameTh": null, "nameEn": "Okasan", "cat": ["food"], "province": "cm", "slug": "okasan-13891104701", "rank": 3}}, {"type": "Feature", "geometry": {"type": "Point", "coordinates": [98.97885, 18.70265]}, "properties": {"id": "cm-osm-node-13449486844", "name": "Olio Restaurant", "nameTh": null, "nameEn": "Olio Restaurant", "cat": ["food"], "province": "cm", "slug": "olio-restaurant-13449486844", "rank": 2}}, {"type": "Feature", "geometry": {"type": "Point", "coordinates": [98.97424, 18.79905]}, "properties": {"id": "cm-osm-node-4505551231", "name": "Ombra Cafe", "nameTh": null, "nameEn": "Ombra Cafe", "cat": ["food"], "province": "cm", "slug": "ombra-cafe-4505551231", "rank": 2}}, {"type": "Feature", "geometry": {"type": "Point", "coordinates": [98.97164, 18.79606]}, "properties": {"id": "cm-osm-node-12401425802", "name": "On the Bread", "nameTh": null, "nameEn": "On the Bread", "cat": ["food"], "province": "cm", "slug": "on-the-bread-12401425802", "rank": 2}}, {"type": "Feature", "geometry": {"type": "Point", "coordinates": [98.9992, 18.78106]}, "properties": {"id": "cm-osm-node-4869763722", "name": "Outlaws Bar & Grill", "nameTh": null, "nameEn": "Outlaws Bar & Grill", "cat": ["food"], "province": "cm", "slug": "outlaws-bar-grill-4869763722", "rank": 1}}, {"type": "Feature", "geometry": {"type": "Point", "coordinates": [98.95232, 18.80389]}, "properties": {"id": "cm-osm-node-2434787311", "name": "PAK Cafe", "nameTh": null, "nameEn": "PAK Cafe", "cat": ["food"], "province": "cm", "slug": "pak-cafe-2434787311", "rank": 2}}, {"type": "Feature", "geometry": {"type": "Point", "coordinates": [98.97957, 18.79137]}, "properties": {"id": "cm-osm-node-13850510801", "name": "Pa Rang Cafe & Art Stay", "nameTh": null, "nameEn": "Pa Rang Cafe & Art Stay", "cat": ["food"], "province": "cm", "slug": "pa-rang-cafe-art-stay-13850510801", "rank": 1}}, {"type": "Feature", "geometry": {"type": "Point", "coordinates": [99.14309, 18.88076]}, "properties": {"id": "cm-osm-node-12313548512", "name": "Padthai @Doisaket", "nameTh": null, "nameEn": "Padthai @Doisaket", "cat": ["food"], "province": "cm", "slug": "padthai-doisaket-12313548512", "rank": 3}}, {"type": "Feature", "geometry": {"type": "Point", "coordinates": [98.99789, 18.8149]}, "properties": {"id": "cm-osm-node-11064083778", "name": "Pals Cafe", "nameTh": null, "nameEn": "Pals Cafe", "cat": ["food"], "province": "cm", "slug": "pals-cafe-11064083778", "rank": 2}}, {"type": "Feature", "geometry": {"type": "Point", "coordinates": [98.93273, 18.93456]}, "properties": {"id": "cm-osm-way-760725626", "name": "Pamayea", "nameTh": null, "nameEn": "Pamayea", "cat": ["food"], "province": "cm", "slug": "pamayea-760725626", "rank": 2}}, {"type": "Feature", "geometry": {"type": "Point", "coordinates": [99.11338, 18.65054]}, "properties": {"id": "cm-osm-way-1344776327", "name": "PangNa Cafe-ปังนา คาเฟ่", "nameTh": "PangNa Cafe-ปังนา คาเฟ่", "nameEn": null, "cat": ["food"], "province": "cm", "slug": "pangna-cafe-1344776327", "rank": 2}}, {"type": "Feature", "geometry": {"type": "Point", "coordinates": [98.97121, 18.80504]}, "properties": {"id": "cm-osm-node-10750980255", "name": "Paper Plane CNX", "nameTh": null, "nameEn": "Paper Plane CNX", "cat": ["food"], "province": "cm", "slug": "paper-plane-cnx-10750980255", "rank": 3}}, {"type": "Feature", "geometry": {"type": "Point", "coordinates": [99.01753, 18.73092]}, "properties": {"id": "cm-osm-node-12304193010", "name": "Parichart Cafe & Restaurant", "nameTh": null, "nameEn": "Parichart Cafe & Restaurant", "cat": ["food"], "province": "cm", "slug": "parichart-cafe-restaurant-12304193010", "rank": 3}}, {"type": "Feature", "geometry": {"type": "Point", "coordinates": [98.97548, 18.80128]}, "properties": {"id": "cm-osm-node-6217907797", "name": "Passion Project The Café", "nameTh": null, "nameEn": "Passion Project The Café", "cat": ["food"], "province": "cm", "slug": "passion-project-the-caf-6217907797", "rank": 1}}, {"type": "Feature", "geometry": {"type": "Point", "coordinates": [98.9673, 18.78757]}, "properties": {"id": "cm-osm-node-5992439094", "name": "Pun Pun", "nameTh": null, "nameEn": "Pun Pun", "cat": ["food"], "province": "cm", "slug": "pun-pun-5992439094", "rank": 3}}, {"type": "Feature", "geometry": {"type": "Point", "coordinates": [98.98523, 18.77223]}, "properties": {"id": "cm-osm-node-13543188501", "name": "Qin Kitchen", "nameTh": null, "nameEn": "Qin Kitchen", "cat": ["food"], "province": "cm", "slug": "qin-kitchen-13543188501", "rank": 1}}, {"type": "Feature", "geometry": {"type": "Point", "coordinates": [98.98424, 18.79067]}, "properties": {"id": "cm-osm-node-4655307491", "name": "Rakuda", "nameTh": "Ponganes Coffee Roasters", "nameEn": null, "cat": ["food"], "province": "cm", "slug": "ponganes-coffee-roasters-4655307491", "rank": 3}}, {"type": "Feature", "geometry": {"type": "Point", "coordinates": [98.9843, 18.79454]}, "properties": {"id": "cm-osm-node-5237522624", "name": "Reform Kafé", "nameTh": null, "nameEn": "Reform Kafé", "cat": ["food"], "province": "cm", "slug": "reform-kaf-5237522624", "rank": 3}}, {"type": "Feature", "geometry": {"type": "Point", "coordinates": [98.98385, 18.78818]}, "properties": {"id": "cm-osm-node-11715925137", "name": "Republic Coffee", "nameTh": null, "nameEn": "Republic Coffee", "cat": ["food"], "province": "cm", "slug": "republic-coffee-11715925137", "rank": 1}}, {"type": "Feature", "geometry": {"type": "Point", "coordinates": [98.96722, 18.7991]}, "properties": {"id": "cm-osm-node-2105726947", "name": "Ristr8to", "nameTh": "ด็อปปิโอ ริสเทรสโต้", "nameEn": "Ristr8to", "cat": ["food"], "province": "cm", "slug": "ristr8to-2105726947", "rank": 3}}, {"type": "Feature", "geometry": {"type": "Point", "coordinates": [98.96863, 18.79883]}, "properties": {"id": "cm-osm-node-4438545289", "name": "Roast8ry Lab", "nameTh": "Roast8ry Lab", "nameEn": null, "cat": ["food"], "province": "cm", "slug": "roast8ry-lab-4438545289", "rank": 3}}, {"type": "Feature", "geometry": {"type": "Point", "coordinates": [98.97101, 18.79756]}, "properties": {"id": "cm-osm-node-2689662657", "name": "Roastniyom Coffee", "nameTh": null, "nameEn": "Roastniyom Coffee", "cat": ["food"], "province": "cm", "slug": "roastniyom-coffee-2689662657", "rank": 2}}, {"type": "Feature", "geometry": {"type": "Point", "coordinates": [99.00164, 18.74964]}, "properties": {"id": "cm-osm-way-621074736", "name": "Rolf Coffee", "nameTh": null, "nameEn": "Rolf Coffee", "cat": ["food"], "province": "cm", "slug": "rolf-coffee-621074736", "rank": 2}}, {"type": "Feature", "geometry": {"type": "Point", "coordinates": [98.98049, 18.81614]}, "properties": {"id": "cm-osm-node-5009187333", "name": "Rx Cafe", "nameTh": null, "nameEn": "Rx Cafe", "cat": ["food"], "province": "cm", "slug": "rx-cafe-5009187333", "rank": 2}}, {"type": "Feature", "geometry": {"type": "Point", "coordinates": [98.95394, 18.82704]}, "properties": {"id": "cm-osm-node-5643026621", "name": "Santi Bar & Bistro", "nameTh": null, "nameEn": "Santi Bar & Bistro", "cat": ["food"], "province": "cm", "slug": "santi-bar-bistro-5643026621", "rank": 2}}, {"type": "Feature", "geometry": {"type": "Point", "coordinates": [98.98228, 18.79047]}, "properties": {"id": "cm-osm-node-12301174700", "name": "Seven Slash Two", "nameTh": null, "nameEn": "Seven Slash Two", "cat": ["food"], "province": "cm", "slug": "seven-slash-two-12301174700", "rank": 2}}, {"type": "Feature", "geometry": {"type": "Point", "coordinates": [98.99753, 18.78837]}, "properties": {"id": "cm-osm-node-11237661640", "name": "SipSpot", "nameTh": null, "nameEn": "SipSpot", "cat": ["food"], "province": "cm", "slug": "sipspot-11237661640", "rank": 1}}, {"type": "Feature", "geometry": {"type": "Point", "coordinates": [99.03899, 18.87808]}, "properties": {"id": "cm-osm-node-13004478307", "name": "Slow Bar Coffee", "nameTh": null, "nameEn": "Slow Bar Coffee", "cat": ["food"], "province": "cm", "slug": "slow-bar-coffee-13004478307", "rank": 3}}, {"type": "Feature", "geometry": {"type": "Point", "coordinates": [99.00275, 18.77961]}, "properties": {"id": "cm-osm-node-5480647765", "name": "SnoozeChaingmai", "nameTh": null, "nameEn": "SnoozeChaingmai", "cat": ["food"], "province": "cm", "slug": "snoozechaingmai-5480647765", "rank": 2}}, {"type": "Feature", "geometry": {"type": "Point", "coordinates": [98.96647, 18.79609]}, "properties": {"id": "cm-osm-node-13264886801", "name": "So Good Thai Restaurant", "nameTh": null, "nameEn": "So Good Thai Restaurant", "cat": ["food"], "province": "cm", "slug": "so-good-thai-restaurant-13264886801", "rank": 2}}, {"type": "Feature", "geometry": {"type": "Point", "coordinates": [99.02525, 18.78395]}, "properties": {"id": "cm-osm-node-13851937467", "name": "Son Of A Brew", "nameTh": null, "nameEn": "Son Of A Brew", "cat": ["food"], "province": "cm", "slug": "son-of-a-brew-13851937467", "rank": 3}}, {"type": "Feature", "geometry": {"type": "Point", "coordinates": [98.97786, 18.79313]}, "properties": {"id": "cm-osm-way-461273739", "name": "Starbucks Coffee", "nameTh": null, "nameEn": "Starbucks Coffee", "cat": ["food"], "province": "cm", "slug": "starbucks-coffee-461273739", "rank": 1}}, {"type": "Feature", "geometry": {"type": "Point", "coordinates": [98.92263, 18.94217]}, "properties": {"id": "cm-osm-node-5968279199", "name": "Steak It's Me", "nameTh": null, "nameEn": "Steak It's Me", "cat": ["food"], "province": "cm", "slug": "steak-it-s-me-5968279199", "rank": 1}}, {"type": "Feature", "geometry": {"type": "Point", "coordinates": [98.99077, 18.78773]}, "properties": {"id": "cm-osm-way-1443190424", "name": "Streetfood Market with sit down area!", "nameTh": null, "nameEn": "Streetfood Market with sit down area!", "cat": ["food"], "province": "cm", "slug": "streetfood-market-with-sit-down-area-1443190424", "rank": 1}}, {"type": "Feature", "geometry": {"type": "Point", "coordinates": [99.04754, 18.74208]}, "properties": {"id": "cm-osm-node-11886014037", "name": "Sukhum Caffe' Saraphi", "nameTh": "สุขุม คาฟเฟ่ สารภี", "nameEn": "Sukhum Caffe' Saraphi", "cat": ["food"], "province": "cm", "slug": "sukhum-caffe-saraphi-11886014037", "rank": 4}}, {"type": "Feature", "geometry": {"type": "Point", "coordinates": [98.97666, 18.77142]}, "properties": {"id": "cm-osm-node-10091315302", "name": "Sushi Umai", "nameTh": null, "nameEn": "Sushi Umai", "cat": ["food"], "province": "cm", "slug": "sushi-umai-10091315302", "rank": 1}}, {"type": "Feature", "geometry": {"type": "Point", "coordinates": [98.98213, 18.78295]}, "properties": {"id": "cm-osm-node-10301591909", "name": "Sweet Home Coffee", "nameTh": null, "nameEn": "Sweet Home Coffee", "cat": ["food"], "province": "cm", "slug": "sweet-home-coffee-10301591909", "rank": 2}}, {"type": "Feature", "geometry": {"type": "Point", "coordinates": [98.97543, 18.79882]}, "properties": {"id": "cm-osm-way-381032215", "name": "Take a Sip", "nameTh": null, "nameEn": "Take a Sip", "cat": ["food"], "province": "cm", "slug": "take-a-sip-381032215", "rank": 1}}, {"type": "Feature", "geometry": {"type": "Point", "coordinates": [98.96309, 18.79517]}, "properties": {"id": "cm-osm-node-5202076922", "name": "Taste Cafe", "nameTh": null, "nameEn": "Taste Cafe", "cat": ["food"], "province": "cm", "slug": "taste-cafe-5202076922", "rank": 2}}, {"type": "Feature", "geometry": {"type": "Point", "coordinates": [98.92269, 18.72447]}, "properties": {"id": "cm-osm-node-13240145513", "name": "Terroir Roasters", "nameTh": null, "nameEn": "Terroir Roasters", "cat": ["food"], "province": "cm", "slug": "terroir-roasters-13240145513", "rank": 2}}, {"type": "Feature", "geometry": {"type": "Point", "coordinates": [98.99009, 18.78296]}, "properties": {"id": "cm-osm-node-6342563399", "name": "Thank God It‘s Fry Day", "nameTh": null, "nameEn": "Thank God It‘s Fry Day", "cat": ["food"], "province": "cm", "slug": "thank-god-it-s-fry-day-6342563399", "rank": 2}}, {"type": "Feature", "geometry": {"type": "Point", "coordinates": [98.9992, 18.81712]}, "properties": {"id": "cm-osm-node-11786207667", "name": "The Baristro Coffee Roaster", "nameTh": null, "nameEn": "The Baristro Coffee Roaster", "cat": ["food"], "province": "cm", "slug": "the-baristro-coffee-roaster-11786207667", "rank": 3}}, {"type": "Feature", "geometry": {"type": "Point", "coordinates": [98.92939, 18.93179]}, "properties": {"id": "cm-osm-node-9872648917", "name": "The Chiang Mai Cream Tea House", "nameTh": null, "nameEn": "The Chiang Mai Cream Tea House", "cat": ["food"], "province": "cm", "slug": "the-chiang-mai-cream-tea-house-9872648917", "rank": 1}}, {"type": "Feature", "geometry": {"type": "Point", "coordinates": [98.91126, 18.72904]}, "properties": {"id": "cm-osm-node-11726764476", "name": "The Extraction", "nameTh": null, "nameEn": "The Extraction", "cat": ["food"], "province": "cm", "slug": "the-extraction-11726764476", "rank": 2}}, {"type": "Feature", "geometry": {"type": "Point", "coordinates": [98.97554, 18.60503]}, "properties": {"id": "cm-osm-way-1255981121", "name": "The Terracotta Garden Restaurant", "nameTh": null, "nameEn": "The Terracotta Garden Restaurant", "cat": ["food"], "province": "cm", "slug": "the-terracotta-garden-restaurant-1255981121", "rank": 1}}, {"type": "Feature", "geometry": {"type": "Point", "coordinates": [98.97552, 18.60505]}, "properties": {"id": "cm-osm-node-11687435282", "name": "The Terracotta Garden at Lamphun Cafe", "nameTh": null, "nameEn": "The Terracotta Garden at Lamphun Cafe", "cat": ["food"], "province": "cm", "slug": "the-terracotta-garden-at-lamphun-cafe-11687435282", "rank": 1}}, {"type": "Feature", "geometry": {"type": "Point", "coordinates": [98.9842, 18.79922]}, "properties": {"id": "cm-osm-node-11726497304", "name": "Uncle Home", "nameTh": null, "nameEn": "Uncle Home", "cat": ["food"], "province": "cm", "slug": "uncle-home-11726497304", "rank": 3}}, {"type": "Feature", "geometry": {"type": "Point", "coordinates": [98.92676, 18.91893]}, "properties": {"id": "cm-osm-node-7904752039", "name": "Vassana", "nameTh": null, "nameEn": "Vassana", "cat": ["food"], "province": "cm", "slug": "vassana-7904752039", "rank": 1}}, {"type": "Feature", "geometry": {"type": "Point", "coordinates": [98.90195, 18.8412]}, "properties": {"id": "cm-osm-node-7933208877", "name": "View Suai Coffee", "nameTh": null, "nameEn": "View Suai Coffee", "cat": ["food"], "province": "cm", "slug": "view-suai-coffee-7933208877", "rank": 3}}, {"type": "Feature", "geometry": {"type": "Point", "coordinates": [98.9743, 18.73264]}, "properties": {"id": "cm-osm-node-4052303895", "name": "Wangtan Cafe", "nameTh": "วังตาลคาเฟ่", "nameEn": "Wangtan Cafe", "cat": ["food"], "province": "cm", "slug": "wangtan-cafe-4052303895", "rank": 3}}, {"type": "Feature", "geometry": {"type": "Point", "coordinates": [98.96693, 18.80029]}, "properties": {"id": "cm-osm-node-13202531701", "name": "Yelloo", "nameTh": null, "nameEn": "Yelloo", "cat": ["food"], "province": "cm", "slug": "yelloo-13202531701", "rank": 1}}, {"type": "Feature", "geometry": {"type": "Point", "coordinates": [98.98053, 18.77766]}, "properties": {"id": "cm-osm-node-8862954017", "name": "Yummy India", "nameTh": null, "nameEn": "Yummy India", "cat": ["food"], "province": "cm", "slug": "yummy-india-8862954017", "rank": 3}}, {"type": "Feature", "geometry": {"type": "Point", "coordinates": [98.99181, 18.78586]}, "properties": {"id": "cm-osm-node-2055855111", "name": "Zalux Coffee", "nameTh": null, "nameEn": "Zalux Coffee", "cat": ["food"], "province": "cm", "slug": "zalux-coffee-2055855111", "rank": 1}}, {"type": "Feature", "geometry": {"type": "Point", "coordinates": [98.98273, 18.78959]}, "properties": {"id": "cm-osm-node-11936206969", "name": "Zohng Coffee", "nameTh": null, "nameEn": "Zohng Coffee", "cat": ["food"], "province": "cm", "slug": "zohng-coffee-11936206969", "rank": 2}}, {"type": "Feature", "geometry": {"type": "Point", "coordinates": [98.95418, 18.80366]}, "properties": {"id": "cm-osm-node-2434783251", "name": "กาแฟรัฐศาสตร์", "nameTh": "กาแฟรัฐศาสตร์", "nameEn": null, "cat": ["food"], "province": "cm", "slug": "2434783251", "rank": 1}}, {"type": "Feature", "geometry": {"type": "Point", "coordinates": [98.97473, 18.80952]}, "properties": {"id": "cm-osm-node-13805318901", "name": "ก๋วยเตี๋ยวหลุดโลก เชียงใหม่", "nameTh": "ก๋วยเตี๋ยวหลุดโลก เชียงใหม่", "nameEn": "Crazy Noodle", "cat": ["food"], "province": "cm", "slug": "crazy-noodle-13805318901", "rank": 4}}, {"type": "Feature", "geometry": {"type": "Point", "coordinates": [98.9822, 18.78693]}, "properties": {"id": "cm-osm-node-11383883700", "name": "ขนมหวานสามล้าน", "nameTh": "ขนมหวานสามล้าน", "nameEn": "Samlan Thai Desserts", "cat": ["food"], "province": "cm", "slug": "samlan-thai-desserts-11383883700", "rank": 3}}, {"type": "Feature", "geometry": {"type": "Point", "coordinates": [98.98848, 18.84996]}, "properties": {"id": "cm-osm-node-11215147987", "name": "ของลุงสมหวัง", "nameTh": "ของลุงสมหวัง", "nameEn": "Homemade Hamburger", "cat": ["food"], "province": "cm", "slug": "homemade-hamburger-11215147987", "rank": 2}}, {"type": "Feature", "geometry": {"type": "Point", "coordinates": [98.96928, 18.79797]}, "properties": {"id": "cm-osm-node-2660415682", "name": "ข้าวซอยนิมมาน", "nameTh": "ข้าวซอยนิมมาน", "nameEn": "Kao Soy Nimman", "cat": ["food"], "province": "cm", "slug": "kao-soy-nimman-2660415682", "rank": 4}}, {"type": "Feature", "geometry": {"type": "Point", "coordinates": [98.97075, 18.79675]}, "properties": {"id": "cm-osm-node-7158628085", "name": "ข้าวต้ม บาทเดียว", "nameTh": "ข้าวต้ม บาทเดียว", "nameEn": "Khao Tom Baht Diao", "cat": ["food"], "province": "cm", "slug": "khao-tom-baht-diao-7158628085", "rank": 2}}, {"type": "Feature", "geometry": {"type": "Point", "coordinates": [98.94369, 18.73018]}, "properties": {"id": "cm-osm-way-1069512536", "name": "ข้าวเม่า-ข้าวฟ่าง ป่าในจินตนาการ", "nameTh": "ข้าวเม่า-ข้าวฟ่าง ป่าในจินตนาการ", "nameEn": "Khaomao Khaofang Imaginary Jungle", "cat": ["food"], "province": "cm", "slug": "khaomao-khaofang-imaginary-jungle-1069512536", "rank": 3}}, {"type": "Feature", "geometry": {"type": "Point", "coordinates": [99.00522, 18.83104]}, "properties": {"id": "cm-osm-way-1268327414", "name": "ครัวคุณไซ", "nameTh": "ครัวคุณไซ", "nameEn": null, "cat": ["food"], "province": "cm", "slug": "1268327414", "rank": 3}}, {"type": "Feature", "geometry": {"type": "Point", "coordinates": [98.97329, 18.75178]}, "properties": {"id": "cm-osm-way-1312622889", "name": "ครัวอีสาน", "nameTh": "ครัวอีสาน", "nameEn": "Isan Kitchen", "cat": ["food"], "province": "cm", "slug": "isan-kitchen-1312622889", "rank": 2}}, {"type": "Feature", "geometry": {"type": "Point", "coordinates": [98.92521, 18.7508]}, "properties": {"id": "cm-osm-node-3927203442", "name": "คาเฟ่ อเมซอน", "nameTh": "คาเฟ่ อเมซอน", "nameEn": "Café Amazon", "cat": ["food"], "province": "cm", "slug": "caf-amazon-3927203442", "rank": 2}}, {"type": "Feature", "geometry": {"type": "Point", "coordinates": [99.06749, 18.79608]}, "properties": {"id": "cm-osm-way-1112896522", "name": "คาเฟ่ อเมซอน", "nameTh": "คาเฟ่ อเมซอน", "nameEn": "Café Amazon", "cat": ["food"], "province": "cm", "slug": "caf-amazon-1112896522", "rank": 2}}, {"type": "Feature", "geometry": {"type": "Point", "coordinates": [99.01328, 18.83525]}, "properties": {"id": "cm-osm-node-13527859601", "name": "ตำหรับใต้", "nameTh": "ตำหรับใต้", "nameEn": null, "cat": ["food"], "province": "cm", "slug": "13527859601", "rank": 3}}, {"type": "Feature", "geometry": {"type": "Point", "coordinates": [98.97719, 18.78131]}, "properties": {"id": "cm-osm-node-13870668983", "name": "ถิงถิง Ting Ting บิงซูน้ำขิง เชียงใหม่", "nameTh": "ถิงถิง Ting Ting บิงซูน้ำขิง เชียงใหม่", "nameEn": null, "cat": ["food"], "province": "cm", "slug": "ting-ting-13870668983", "rank": 3}}, {"type": "Feature", "geometry": {"type": "Point", "coordinates": [98.96288, 18.80726]}, "properties": {"id": "cm-osm-node-13468353589", "name": "ทองดี", "nameTh": "ทองดี", "nameEn": "Thongdee", "cat": ["food"], "province": "cm", "slug": "thongdee-13468353589", "rank": 2}}, {"type": "Feature", "geometry": {"type": "Point", "coordinates": [98.94871, 18.79949]}, "properties": {"id": "cm-osm-node-7882720540", "name": "ฟลุ๊ค-ฟ้า สลัดฝายหิน", "nameTh": "ฟลุ๊ค-ฟ้า สลัดฝายหิน", "nameEn": "Fluk-Fah| Fai hin Salad", "cat": ["food"], "province": "cm", "slug": "fluk-fah-fai-hin-salad-7882720540", "rank": 2}}, {"type": "Feature", "geometry": {"type": "Point", "coordinates": [99.07677, 18.74423]}, "properties": {"id": "cm-osm-node-4679897606", "name": "ฟินปลาจุ่ม", "nameTh": "ฟินปลาจุ่ม", "nameEn": null, "cat": ["food"], "province": "cm", "slug": "4679897606", "rank": 1}}, {"type": "Feature", "geometry": {"type": "Point", "coordinates": [98.95015, 18.76755]}, "properties": {"id": "cm-osm-way-846389447", "name": "มายเวียดนาม", "nameTh": "มายเวียดนาม", "nameEn": "My Vietnam", "cat": ["food"], "province": "cm", "slug": "my-vietnam-846389447", "rank": 2}}, {"type": "Feature", "geometry": {"type": "Point", "coordinates": [99.0046, 18.74829]}, "properties": {"id": "cm-osm-way-383728982", "name": "ยุ้งข้าวล้านนา", "nameTh": "ยุ้งข้าวล้านนา", "nameEn": "Lanna Rice Barn", "cat": ["food"], "province": "cm", "slug": "lanna-rice-barn-383728982", "rank": 3}}, {"type": "Feature", "geometry": {"type": "Point", "coordinates": [98.88462, 18.81202]}, "properties": {"id": "cm-osm-node-3046913649", "name": "ร้านกาแฟสวนสองแสน", "nameTh": "ร้านกาแฟสวนสองแสน", "nameEn": "Song Saen Coffee", "cat": ["food"], "province": "cm", "slug": "song-saen-coffee-3046913649", "rank": 2}}, {"type": "Feature", "geometry": {"type": "Point", "coordinates": [98.86519, 18.89913]}, "properties": {"id": "cm-osm-node-4728841092", "name": "ร้านอาหารทับริมธาร", "nameTh": "ร้านอาหารทับริมธาร", "nameEn": "Thap Rim Than", "cat": ["food"], "province": "cm", "slug": "thap-rim-than-4728841092", "rank": 4}}, {"type": "Feature", "geometry": {"type": "Point", "coordinates": [98.87664, 18.62559]}, "properties": {"id": "cm-osm-node-13524372601", "name": "ร้านอาหารบ้านสองนคร", "nameTh": "ร้านอาหารบ้านสองนคร", "nameEn": null, "cat": ["food"], "province": "cm", "slug": "13524372601", "rank": 3}}, {"type": "Feature", "geometry": {"type": "Point", "coordinates": [99.04596, 18.78459]}, "properties": {"id": "cm-osm-node-4686351107", "name": "ร้านอาหารมีนามีข้าว", "nameTh": "ร้านอาหารมีนา", "nameEn": "Meena Rice Based Cuisine", "cat": ["food"], "province": "cm", "slug": "meena-rice-based-cuisine-4686351107", "rank": 4}}, {"type": "Feature", "geometry": {"type": "Point", "coordinates": [99.00891, 18.75212]}, "properties": {"id": "cm-osm-node-3412153328", "name": "สภากาแฟ 89", "nameTh": "สภากาแฟ 89", "nameEn": "Sapha Coffee 89", "cat": ["food"], "province": "cm", "slug": "sapha-coffee-89-3412153328", "rank": 2}}, {"type": "Feature", "geometry": {"type": "Point", "coordinates": [98.9666, 18.79718]}, "properties": {"id": "cm-osm-node-13984742401", "name": "อาหารจีนเสฉวน", "nameTh": "อาหารจีนเสฉวน", "nameEn": null, "cat": ["food"], "province": "cm", "slug": "13984742401", "rank": 3}}, {"type": "Feature", "geometry": {"type": "Point", "coordinates": [99.01203, 18.74717]}, "properties": {"id": "cm-osm-node-13382564001", "name": "ฮาหลิง", "nameTh": "ฮาหลิง", "nameEn": null, "cat": ["food"], "province": "cm", "slug": "13382564001", "rank": 3}}, {"type": "Feature", "geometry": {"type": "Point", "coordinates": [98.95974, 18.73236]}, "properties": {"id": "cm-osm-way-1136920287", "name": "ฮ้นนาห์ ฮาห์น", "nameTh": "ฮ้นนาห์ ฮาห์น", "nameEn": "Hannah Hahn", "cat": ["food"], "province": "cm", "slug": "hannah-hahn-1136920287", "rank": 2}}, {"type": "Feature", "geometry": {"type": "Point", "coordinates": [98.99572, 18.84413]}, "properties": {"id": "cm-osm-node-13074392601", "name": "เขาช่อง ปาร์ค", "nameTh": "เขาช่อง ปาร์ค", "nameEn": null, "cat": ["food"], "province": "cm", "slug": "13074392601", "rank": 2}}, {"type": "Feature", "geometry": {"type": "Point", "coordinates": [98.91421, 18.76006]}, "properties": {"id": "cm-osm-node-6326963011", "name": "เดอะ เคฟ ดอยคำ", "nameTh": "เดอะ เคฟ ดอยคำ", "nameEn": "The Cave Doikam", "cat": ["food"], "province": "cm", "slug": "the-cave-doikam-6326963011", "rank": 4}}, {"type": "Feature", "geometry": {"type": "Point", "coordinates": [98.97717, 18.80903]}, "properties": {"id": "cm-osm-way-542885990", "name": "เรือนนที เทอเรส", "nameTh": "เรือนนที เทอเรส", "nameEn": "Ruan Natee Terrace", "cat": ["food"], "province": "cm", "slug": "ruan-natee-terrace-542885990", "rank": 3}}, {"type": "Feature", "geometry": {"type": "Point", "coordinates": [98.97904, 18.80112]}, "properties": {"id": "cm-osm-node-11936100969", "name": "โกฮังเต", "nameTh": "โกฮังเต", "nameEn": "Gohangtei", "cat": ["food"], "province": "cm", "slug": "gohangtei-11936100969", "rank": 4}}, {"type": "Feature", "geometry": {"type": "Point", "coordinates": [99.038, 18.61283]}, "properties": {"id": "cm-osm-node-7085519908", "name": "โตวันไฮโดรฟาร์ม", "nameTh": "โตวันไฮโดรฟาร์ม", "nameEn": null, "cat": ["food"], "province": "cm", "slug": "7085519908", "rank": 1}}, {"type": "Feature", "geometry": {"type": "Point", "coordinates": [98.99233, 18.78913]}, "properties": {"id": "cm-osm-node-9982674526", "name": "Mavoix Coffee & Weed", "nameTh": null, "nameEn": "Mavoix Coffee & Weed", "cat": ["cannabis"], "province": "cm", "slug": "mavoix-coffee-weed-9982674526", "rank": 2}}, {"type": "Feature", "geometry": {"type": "Point", "coordinates": [98.92589, 18.74331]}, "properties": {"id": "cm-osm-node-11295824999", "name": "stuff cannabis dispensary", "nameTh": null, "nameEn": "stuff cannabis dispensary", "cat": ["cannabis"], "province": "cm", "slug": "stuff-cannabis-dispensary-11295824999", "rank": 4}}, {"type": "Feature", "geometry": {"type": "Point", "coordinates": [99.00618, 18.75447]}, "properties": {"id": "cm-osm-node-7727982409", "name": "42 Cafe & Resort", "nameTh": null, "nameEn": "42 Cafe & Resort", "cat": ["hotel"], "province": "cm", "slug": "42-cafe-resort-7727982409", "rank": 1}}, {"type": "Feature", "geometry": {"type": "Point", "coordinates": [99.06946, 18.88074]}, "properties": {"id": "cm-osm-way-961802207", "name": "Thai Secret Cooking School & Organic Garden Farm", "nameTh": null, "nameEn": "Thai Secret Cooking School & Organic Garden Farm", "cat": ["cooking", "school"], "province": "cm", "slug": "thai-secret-cooking-school-organic-garden-farm-961802207", "rank": 3}}]}