{"type": "FeatureCollection", "features": [{"type": "Feature", "geometry": {"type": "Point", "coordinates": [98.99402, 18.7809]}, "properties": {"id": "cm-osm-node-1026006141", "name": "Kasikorn Bank", "nameTh": null, "nameEn": "Kasikorn Bank", "cat": ["essentials"], "province": "cm", "slug": "kasikorn-bank-1026006141", "rank": 2}}, {"type": "Feature", "geometry": {"type": "Point", "coordinates": [98.94174, 18.74692]}, "properties": {"id": "cm-osm-node-10778022046", "name": "ธนาคารกสิกรไทย", "nameTh": "ธนาคารกสิกรไทย", "nameEn": "Kasikorn Bank", "cat": ["essentials"], "province": "cm", "slug": "kasikorn-bank-10778022046", "rank": 2}}, {"type": "Feature", "geometry": {"type": "Point", "coordinates": [98.99951, 18.77753]}, "properties": {"id": "cm-osm-node-11276486323", "name": "ธนาคารกสิกรไทย", "nameTh": "ธนาคารกสิกรไทย", "nameEn": "Kasikornbank", "cat": ["essentials"], "province": "cm", "slug": "kasikornbank-11276486323", "rank": 2}}, {"type": "Feature", "geometry": {"type": "Point", "coordinates": [98.98555, 18.80496]}, "properties": {"id": "cm-osm-node-2100755384", "name": "ธนาคารกสิกรไทย", "nameTh": "ธนาคารกสิกรไทย", "nameEn": "Kasikorn Bank", "cat": ["essentials"], "province": "cm", "slug": "kasikorn-bank-2100755384", "rank": 2}}, {"type": "Feature", "geometry": {"type": "Point", "coordinates": [98.9972, 18.80893]}, "properties": {"id": "cm-osm-node-2607655451", "name": "ธนาคารกสิกรไทย", "nameTh": "ธนาคารกสิกรไทย", "nameEn": "Kasikornbank", "cat": ["essentials"], "province": "cm", "slug": "kasikornbank-2607655451", "rank": 2}}, {"type": "Feature", "geometry": {"type": "Point", "coordinates": [98.94379, 18.91705]}, "properties": {"id": "cm-osm-node-2611030935", "name": "ธนาคารกสิกรไทย", "nameTh": "ธนาคารกสิกรไทย", "nameEn": "Kasikornbank", "cat": ["essentials"], "province": "cm", "slug": "kasikornbank-2611030935", "rank": 2}}, {"type": "Feature", "geometry": {"type": "Point", "coordinates": [99.01141, 18.82357]}, "properties": {"id": "cm-osm-node-2641511936", "name": "ธนาคารกสิกรไทย", "nameTh": "ธนาคารกสิกรไทย", "nameEn": "Kasikornbank", "cat": ["essentials"], "province": "cm", "slug": "kasikornbank-2641511936", "rank": 2}}, {"type": "Feature", "geometry": {"type": "Point", "coordinates": [98.89541, 18.62421]}, "properties": {"id": "cm-osm-node-2685466297", "name": "ธนาคารกสิกรไทย", "nameTh": "ธนาคารกสิกรไทย", "nameEn": "Kasikorn Bank", "cat": ["essentials"], "province": "cm", "slug": "kasikorn-bank-2685466297", "rank": 3}}, {"type": "Feature", "geometry": {"type": "Point", "coordinates": [99.01782, 18.80636]}, "properties": {"id": "cm-osm-node-3249111060", "name": "ธนาคารกสิกรไทย", "nameTh": "ธนาคารกสิกรไทย", "nameEn": "Kasikorn Bank", "cat": ["essentials"], "province": "cm", "slug": "kasikorn-bank-3249111060", "rank": 2}}, {"type": "Feature", "geometry": {"type": "Point", "coordinates": [98.96706, 18.80261]}, "properties": {"id": "cm-osm-node-3287356495", "name": "ธนาคารกสิกรไทย", "nameTh": "ธนาคารกสิกรไทย", "nameEn": "Kasikornbank", "cat": ["essentials"], "province": "cm", "slug": "kasikornbank-3287356495", "rank": 3}}, {"type": "Feature", "geometry": {"type": "Point", "coordinates": [99.00872, 18.8954]}, "properties": {"id": "cm-osm-node-3340987269", "name": "ธนาคารกสิกรไทย", "nameTh": "ธนาคารกสิกรไทย", "nameEn": "Kasikorn Bank", "cat": ["essentials"], "province": "cm", "slug": "kasikorn-bank-3340987269", "rank": 2}}, {"type": "Feature", "geometry": {"type": "Point", "coordinates": [98.97444, 18.76879]}, "properties": {"id": "cm-osm-node-3347633195", "name": "ธนาคารกสิกรไทย", "nameTh": "ธนาคารกสิกรไทย", "nameEn": "Kasikornbank", "cat": ["essentials"], "province": "cm", "slug": "kasikornbank-3347633195", "rank": 3}}, {"type": "Feature", "geometry": {"type": "Point", "coordinates": [98.97553, 18.76924]}, "properties": {"id": "cm-osm-node-3347664216", "name": "ธนาคารกสิกรไทย", "nameTh": "ธนาคารกสิกรไทย", "nameEn": "Kasikornbank", "cat": ["essentials"], "province": "cm", "slug": "kasikornbank-3347664216", "rank": 3}}, {"type": "Feature", "geometry": {"type": "Point", "coordinates": [99.00023, 18.78298]}, "properties": {"id": "cm-osm-node-3416997054", "name": "ธนาคารกสิกรไทย", "nameTh": "ธนาคารกสิกรไทย", "nameEn": "Kasikorn Bank", "cat": ["essentials"], "province": "cm", "slug": "kasikorn-bank-3416997054", "rank": 3}}, {"type": "Feature", "geometry": {"type": "Point", "coordinates": [99.0005, 18.79102]}, "properties": {"id": "cm-osm-node-3419811896", "name": "ธนาคารกสิกรไทย", "nameTh": "ธนาคารกสิกรไทย", "nameEn": "Kasikorn Bank", "cat": ["essentials"], "province": "cm", "slug": "kasikorn-bank-3419811896", "rank": 2}}, {"type": "Feature", "geometry": {"type": "Point", "coordinates": [98.97509, 18.76633]}, "properties": {"id": "cm-osm-node-3419871305", "name": "ธนาคารกสิกรไทย", "nameTh": "ธนาคารกสิกรไทย", "nameEn": "Kasikornbank", "cat": ["essentials"], "province": "cm", "slug": "kasikornbank-3419871305", "rank": 2}}, {"type": "Feature", "geometry": {"type": "Point", "coordinates": [98.93134, 18.7012]}, "properties": {"id": "cm-osm-node-3476121784", "name": "ธนาคารกสิกรไทย", "nameTh": "ธนาคารกสิกรไทย", "nameEn": "Kasikornbank", "cat": ["essentials"], "province": "cm", "slug": "kasikornbank-3476121784", "rank": 2}}, {"type": "Feature", "geometry": {"type": "Point", "coordinates": [99.11961, 18.74483]}, "properties": {"id": "cm-osm-node-3607175493", "name": "ธนาคารกสิกรไทย", "nameTh": "ธนาคารกสิกรไทย", "nameEn": "Kasikorn Bank", "cat": ["essentials"], "province": "cm", "slug": "kasikorn-bank-3607175493", "rank": 2}}, {"type": "Feature", "geometry": {"type": "Point", "coordinates": [99.00907, 18.7519]}, "properties": {"id": "cm-osm-node-3860662407", "name": "ธนาคารกสิกรไทย", "nameTh": "ธนาคารกสิกรไทย", "nameEn": "Kasikornbank", "cat": ["essentials"], "province": "cm", "slug": "kasikornbank-3860662407", "rank": 3}}, {"type": "Feature", "geometry": {"type": "Point", "coordinates": [98.99335, 18.79345]}, "properties": {"id": "cm-osm-node-4454180037", "name": "ธนาคารกสิกรไทย", "nameTh": "ธนาคารกสิกรไทย", "nameEn": "Kasikorn Bank", "cat": ["essentials"], "province": "cm", "slug": "kasikorn-bank-4454180037", "rank": 3}}, {"type": "Feature", "geometry": {"type": "Point", "coordinates": [99.02796, 18.81028]}, "properties": {"id": "cm-osm-node-6592339650", "name": "ธนาคารกสิกรไทย", "nameTh": "ธนาคารกสิกรไทย", "nameEn": "Kasikorn Bank", "cat": ["essentials"], "province": "cm", "slug": "kasikorn-bank-6592339650", "rank": 3}}, {"type": "Feature", "geometry": {"type": "Point", "coordinates": [99.00118, 18.78932]}, "properties": {"id": "cm-osm-node-915447886", "name": "ธนาคารกสิกรไทย", "nameTh": "ธนาคารกสิกรไทย", "nameEn": "Kasikornbank", "cat": ["essentials"], "province": "cm", "slug": "kasikornbank-915447886", "rank": 3}}, {"type": "Feature", "geometry": {"type": "Point", "coordinates": [99.0378, 18.71186]}, "properties": {"id": "cm-osm-way-101459737", "name": "ธนาคารกสิกรไทย", "nameTh": "ธนาคารกสิกรไทย", "nameEn": "Kasikorn Bank", "cat": ["essentials"], "province": "cm", "slug": "kasikorn-bank-101459737", "rank": 2}}, {"type": "Feature", "geometry": {"type": "Point", "coordinates": [98.99718, 18.78795]}, "properties": {"id": "cm-osm-way-102771767", "name": "ธนาคารกสิกรไทย", "nameTh": "ธนาคารกสิกรไทย", "nameEn": "Kasikorn Bank", "cat": ["essentials"], "province": "cm", "slug": "kasikorn-bank-102771767", "rank": 3}}, {"type": "Feature", "geometry": {"type": "Point", "coordinates": [98.95318, 18.80323]}, "properties": {"id": "cm-osm-way-235413760", "name": "ธนาคารกสิกรไทย", "nameTh": "ธนาคารกสิกรไทย", "nameEn": "Kasikorn Bank", "cat": ["essentials"], "province": "cm", "slug": "kasikorn-bank-235413760", "rank": 3}}, {"type": "Feature", "geometry": {"type": "Point", "coordinates": [99.00502, 18.75788]}, "properties": {"id": "cm-osm-way-287045361", "name": "ธนาคารกสิกรไทย", "nameTh": "ธนาคารกสิกรไทย", "nameEn": "Kasikorn Bank", "cat": ["essentials"], "province": "cm", "slug": "kasikorn-bank-287045361", "rank": 2}}, {"type": "Feature", "geometry": {"type": "Point", "coordinates": [98.96474, 18.78952]}, "properties": {"id": "cm-osm-way-437325041", "name": "ธนาคารกสิกรไทย", "nameTh": "ธนาคารกสิกรไทย", "nameEn": "Kasikornbank", "cat": ["essentials"], "province": "cm", "slug": "kasikornbank-437325041", "rank": 2}}, {"type": "Feature", "geometry": {"type": "Point", "coordinates": [98.96557, 18.79604]}, "properties": {"id": "cm-osm-way-451373767", "name": "ธนาคารกสิกรไทย", "nameTh": "ธนาคารกสิกรไทย", "nameEn": "Kasikornbank", "cat": ["essentials"], "province": "cm", "slug": "kasikornbank-451373767", "rank": 3}}, {"type": "Feature", "geometry": {"type": "Point", "coordinates": [99.02422, 18.78377]}, "properties": {"id": "cm-osm-way-582887583", "name": "ธนาคารกสิกรไทย", "nameTh": "ธนาคารกสิกรไทย", "nameEn": "Kasikorn Bank", "cat": ["essentials"], "province": "cm", "slug": "kasikorn-bank-582887583", "rank": 2}}, {"type": "Feature", "geometry": {"type": "Point", "coordinates": [99.08038, 18.76488]}, "properties": {"id": "cm-osm-way-83250063", "name": "ธนาคารกสิกรไทย", "nameTh": "ธนาคารกสิกรไทย", "nameEn": "Kasikornbank", "cat": ["essentials"], "province": "cm", "slug": "kasikornbank-83250063", "rank": 2}}]}