{"type": "FeatureCollection", "features": [{"type": "Feature", "geometry": {"type": "Point", "coordinates": [99.00756, 18.79349]}, "properties": {"id": "cm-osm-node-2468510964", "name": "Bake & Bite", "nameTh": null, "nameEn": "Bake & Bite", "cat": ["food"], "province": "cm", "slug": "bake-bite-2468510964", "rank": 1}}, {"type": "Feature", "geometry": {"type": "Point", "coordinates": [98.999, 18.78125]}, "properties": {"id": "cm-osm-node-2655145988", "name": "Bella Goose Coffee", "nameTh": null, "nameEn": "Bella Goose Coffee", "cat": ["food"], "province": "cm", "slug": "bella-goose-coffee-2655145988", "rank": 2}}, {"type": "Feature", "geometry": {"type": "Point", "coordinates": [99.02449, 18.79882]}, "properties": {"id": "cm-osm-node-4427268751", "name": "Blue Cafe", "nameTh": null, "nameEn": "Blue Cafe", "cat": ["food"], "province": "cm", "slug": "blue-cafe-4427268751", "rank": 3}}, {"type": "Feature", "geometry": {"type": "Point", "coordinates": [98.99142, 18.7939]}, "properties": {"id": "cm-osm-way-259707860", "name": "Blue Diamond The Breakfast Club", "nameTh": null, "nameEn": "Blue Diamond The Breakfast Club", "cat": ["food"], "province": "cm", "slug": "blue-diamond-the-breakfast-club-259707860", "rank": 3}}, {"type": "Feature", "geometry": {"type": "Point", "coordinates": [99.07523, 18.86296]}, "properties": {"id": "cm-osm-node-5631820686", "name": "Bucoliq", "nameTh": null, "nameEn": "Bucoliq", "cat": ["food"], "province": "cm", "slug": "bucoliq-5631820686", "rank": 1}}, {"type": "Feature", "geometry": {"type": "Point", "coordinates": [98.98873, 18.77915]}, "properties": {"id": "cm-osm-node-3843126639", "name": "Cozy Cafe Chiangmai", "nameTh": null, "nameEn": "Cozy Cafe Chiangmai", "cat": ["food"], "province": "cm", "slug": "cozy-cafe-chiangmai-3843126639", "rank": 3}}, {"type": "Feature", "geometry": {"type": "Point", "coordinates": [98.92478, 18.69287]}, "properties": {"id": "cm-osm-node-10575974496", "name": "Duke's", "nameTh": null, "nameEn": "Duke's", "cat": ["food"], "province": "cm", "slug": "duke-s-10575974496", "rank": 1}}, {"type": "Feature", "geometry": {"type": "Point", "coordinates": [98.99483, 18.80809]}, "properties": {"id": "cm-osm-node-2408617528", "name": "Four Corners", "nameTh": null, "nameEn": "Four Corners", "cat": ["food"], "province": "cm", "slug": "four-corners-2408617528", "rank": 1}}, {"type": "Feature", "geometry": {"type": "Point", "coordinates": [98.9985, 18.78104]}, "properties": {"id": "cm-osm-way-482768719", "name": "Gekko Garden", "nameTh": null, "nameEn": "Gekko Garden", "cat": ["food"], "province": "cm", "slug": "gekko-garden-482768719", "rank": 1}}, {"type": "Feature", "geometry": {"type": "Point", "coordinates": [98.98717, 18.78921]}, "properties": {"id": "cm-osm-way-1300133896", "name": "Glyn Chiangmai Cuisine", "nameTh": null, "nameEn": "Glyn Chiangmai Cuisine", "cat": ["food"], "province": "cm", "slug": "glyn-chiangmai-cuisine-1300133896", "rank": 2}}, {"type": "Feature", "geometry": {"type": "Point", "coordinates": [98.98533, 18.78359]}, "properties": {"id": "cm-osm-way-1300133894", "name": "Gord Chiangmai Kitchen", "nameTh": null, "nameEn": "Gord Chiangmai Kitchen", "cat": ["food"], "province": "cm", "slug": "gord-chiangmai-kitchen-1300133894", "rank": 3}}, {"type": "Feature", "geometry": {"type": "Point", "coordinates": [99.00063, 18.78406]}, "properties": {"id": "cm-osm-node-1743968214", "name": "Hard Rock Cafe", "nameTh": null, "nameEn": "Hard Rock Cafe", "cat": ["food"], "province": "cm", "slug": "hard-rock-cafe-1743968214", "rank": 1}}, {"type": "Feature", "geometry": {"type": "Point", "coordinates": [99.00061, 18.78395]}, "properties": {"id": "cm-osm-node-4742617322", "name": "Hard Rock Cafe", "nameTh": null, "nameEn": "Hard Rock Cafe", "cat": ["food"], "province": "cm", "slug": "hard-rock-cafe-4742617322", "rank": 1}}, {"type": "Feature", "geometry": {"type": "Point", "coordinates": [99.00075, 18.784]}, "properties": {"id": "cm-osm-node-4869007121", "name": "Hard Rock Cafe", "nameTh": null, "nameEn": "Hard Rock Café", "cat": ["food"], "province": "cm", "slug": "hard-rock-caf-4869007121", "rank": 1}}, {"type": "Feature", "geometry": {"type": "Point", "coordinates": [98.97635, 18.76088]}, "properties": {"id": "cm-osm-node-4586385524", "name": "Hideaway Cafe", "nameTh": null, "nameEn": "Hideaway Cafe", "cat": ["food"], "province": "cm", "slug": "hideaway-cafe-4586385524", "rank": 1}}, {"type": "Feature", "geometry": {"type": "Point", "coordinates": [98.97812, 18.78316]}, "properties": {"id": "cm-osm-node-4721967593", "name": "Le Kaa", "nameTh": null, "nameEn": "Le Kaa", "cat": ["food"], "province": "cm", "slug": "le-kaa-4721967593", "rank": 1}}, {"type": "Feature", "geometry": {"type": "Point", "coordinates": [98.98376, 18.79678]}, "properties": {"id": "cm-osm-node-3317919569", "name": "Little Cook Cafe", "nameTh": "ลิตเติ้ลคุ๊กคาเฟ่", "nameEn": "Little Cook Cafe", "cat": ["food"], "province": "cm", "slug": "little-cook-cafe-3317919569", "rank": 3}}, {"type": "Feature", "geometry": {"type": "Point", "coordinates": [98.9863, 18.79509]}, "properties": {"id": "cm-osm-node-4333699923", "name": "Mountain view garden restaurant", "nameTh": null, "nameEn": "Mountain view garden restaurant", "cat": ["food"], "province": "cm", "slug": "mountain-view-garden-restaurant-4333699923", "rank": 4}}, {"type": "Feature", "geometry": {"type": "Point", "coordinates": [99.00008, 18.78366]}, "properties": {"id": "cm-osm-node-4873094922", "name": "Munch", "nameTh": null, "nameEn": "Munch", "cat": ["food"], "province": "cm", "slug": "munch-4873094922", "rank": 1}}, {"type": "Feature", "geometry": {"type": "Point", "coordinates": [98.99743, 18.78412]}, "properties": {"id": "cm-osm-node-2300395636", "name": "My Place Lounge Chiang Mai - Sports Bar & Restaurant", "nameTh": null, "nameEn": "My Place Lounge Chiang Mai - Sports Bar & Restaurant", "cat": ["food"], "province": "cm", "slug": "my-place-lounge-chiang-mai-sports-bar-restaurant-2300395636", "rank": 5}}, {"type": "Feature", "geometry": {"type": "Point", "coordinates": [99.00047, 18.78242]}, "properties": {"id": "cm-osm-node-4711807589", "name": "O'Malley's Irish Pub", "nameTh": null, "nameEn": "O'Malley's Irish Pub", "cat": ["food"], "province": "cm", "slug": "o-malley-s-irish-pub-4711807589", "rank": 4}}, {"type": "Feature", "geometry": {"type": "Point", "coordinates": [99.13151, 18.85561]}, "properties": {"id": "cm-osm-node-1363493098", "name": "Pizza Plus", "nameTh": null, "nameEn": "Pizza Plus", "cat": ["food"], "province": "cm", "slug": "pizza-plus-1363493098", "rank": 2}}, {"type": "Feature", "geometry": {"type": "Point", "coordinates": [99.0354, 18.79841]}, "properties": {"id": "cm-osm-node-12084582995", "name": "Route 66 Diner Chiang Mai", "nameTh": null, "nameEn": "Route 66 Diner Chiang Mai", "cat": ["food"], "province": "cm", "slug": "route-66-diner-chiang-mai-12084582995", "rank": 4}}, {"type": "Feature", "geometry": {"type": "Point", "coordinates": [98.99685, 18.7906]}, "properties": {"id": "cm-osm-node-4704832790", "name": "Steak Woei Hoei", "nameTh": null, "nameEn": "Steak Woei Hoei", "cat": ["food"], "province": "cm", "slug": "steak-woei-hoei-4704832790", "rank": 3}}, {"type": "Feature", "geometry": {"type": "Point", "coordinates": [98.99304, 18.7931]}, "properties": {"id": "cm-osm-node-5154830781", "name": "The Bagel House", "nameTh": null, "nameEn": "The Bagel House", "cat": ["food"], "province": "cm", "slug": "the-bagel-house-5154830781", "rank": 1}}, {"type": "Feature", "geometry": {"type": "Point", "coordinates": [98.99397, 18.78998]}, "properties": {"id": "cm-osm-node-4965389324", "name": "Zimple Resto & Cafe", "nameTh": null, "nameEn": "Zimple Resto & Cafe", "cat": ["food"], "province": "cm", "slug": "zimple-resto-cafe-4965389324", "rank": 2}}, {"type": "Feature", "geometry": {"type": "Point", "coordinates": [98.9528, 18.71701]}, "properties": {"id": "cm-osm-node-5260174926", "name": "jasmine restaurant", "nameTh": null, "nameEn": "jasmine restaurant", "cat": ["food"], "province": "cm", "slug": "jasmine-restaurant-5260174926", "rank": 2}}, {"type": "Feature", "geometry": {"type": "Point", "coordinates": [98.93664, 18.74087]}, "properties": {"id": "cm-osm-way-562707352", "name": "ครัวคุณขวัญ", "nameTh": "ครัวคุณขวัญ", "nameEn": "Kwan's Kitchen", "cat": ["food"], "province": "cm", "slug": "kwan-s-kitchen-562707352", "rank": 3}}, {"type": "Feature", "geometry": {"type": "Point", "coordinates": [98.96918, 18.79385]}, "properties": {"id": "cm-osm-node-5340666521", "name": "สวนไอเบอร์รี่", "nameTh": "สวนไอเบอร์รี่", "nameEn": "iberry garden", "cat": ["food"], "province": "cm", "slug": "iberry-garden-5340666521", "rank": 5}}, {"type": "Feature", "geometry": {"type": "Point", "coordinates": [98.92448, 18.74273]}, "properties": {"id": "cm-osm-node-5276808922", "name": "สหภาพกระต่าย", "nameTh": "สหภาพกระต่าย", "nameEn": "The Rabbit Union", "cat": ["food"], "province": "cm", "slug": "the-rabbit-union-5276808922", "rank": 3}}, {"type": "Feature", "geometry": {"type": "Point", "coordinates": [98.93315, 18.72367]}, "properties": {"id": "cm-osm-node-5447299922", "name": "เมล ซาเ้ลง ฮอทดอก", "nameTh": "เมล ซาเ้ลง ฮอทดอก", "nameEn": "Mel's Saleng Hotdogs", "cat": ["food"], "province": "cm", "slug": "mel-s-saleng-hotdogs-5447299922", "rank": 4}}]}