{"type": "FeatureCollection", "features": [{"type": "Feature", "geometry": {"type": "Point", "coordinates": [98.99142, 18.7939]}, "properties": {"id": "cm-osm-way-259707860", "name": "Blue Diamond The Breakfast Club", "nameTh": null, "nameEn": "Blue Diamond The Breakfast Club", "cat": ["food"], "province": "cm", "slug": "blue-diamond-the-breakfast-club-259707860", "rank": 3}}, {"type": "Feature", "geometry": {"type": "Point", "coordinates": [98.98533, 18.78359]}, "properties": {"id": "cm-osm-way-1300133894", "name": "Gord Chiangmai Kitchen", "nameTh": null, "nameEn": "Gord Chiangmai Kitchen", "cat": ["food"], "province": "cm", "slug": "gord-chiangmai-kitchen-1300133894", "rank": 3}}, {"type": "Feature", "geometry": {"type": "Point", "coordinates": [98.99527, 18.78552]}, "properties": {"id": "cm-osm-node-6110461185", "name": "Mam’s Cake Coffee Breakfast", "nameTh": null, "nameEn": "Mam’s Cake Coffee Breakfast", "cat": ["food"], "province": "cm", "slug": "mam-s-cake-coffee-breakfast-6110461185", "rank": 2}}, {"type": "Feature", "geometry": {"type": "Point", "coordinates": [98.9863, 18.79509]}, "properties": {"id": "cm-osm-node-4333699923", "name": "Mountain view garden restaurant", "nameTh": null, "nameEn": "Mountain view garden restaurant", "cat": ["food"], "province": "cm", "slug": "mountain-view-garden-restaurant-4333699923", "rank": 4}}, {"type": "Feature", "geometry": {"type": "Point", "coordinates": [98.99628, 18.79137]}, "properties": {"id": "cm-osm-node-7042932985", "name": "RaadNah Bangkok", "nameTh": null, "nameEn": "RaadNah Bangkok", "cat": ["food"], "province": "cm", "slug": "raadnah-bangkok-7042932985", "rank": 2}}, {"type": "Feature", "geometry": {"type": "Point", "coordinates": [98.96721, 18.79921]}, "properties": {"id": "cm-osm-node-4564569789", "name": "Rogu Roti", "nameTh": null, "nameEn": "Rogu Roti", "cat": ["food"], "province": "cm", "slug": "rogu-roti-4564569789", "rank": 2}}, {"type": "Feature", "geometry": {"type": "Point", "coordinates": [98.96445, 18.80842]}, "properties": {"id": "cm-osm-way-668015250", "name": "Something Like Cat & Daughters Bag", "nameTh": null, "nameEn": "Something Like Cat & Daughters Bag", "cat": ["food"], "province": "cm", "slug": "something-like-cat-daughters-bag-668015250", "rank": 3}}, {"type": "Feature", "geometry": {"type": "Point", "coordinates": [98.99133, 18.79016]}, "properties": {"id": "cm-osm-node-13347185301", "name": "The Little Sunday", "nameTh": null, "nameEn": "The Little Sunday", "cat": ["food"], "province": "cm", "slug": "the-little-sunday-13347185301", "rank": 2}}, {"type": "Feature", "geometry": {"type": "Point", "coordinates": [98.99935, 18.76831]}, "properties": {"id": "cm-osm-node-4879591522", "name": "สภากาแฟ(เจ้าเก่า)", "nameTh": "สภากาแฟ(เจ้าเก่า)", "nameEn": null, "cat": ["food"], "province": "cm", "slug": "4879591522", "rank": 3}}]}