{"type": "FeatureCollection", "features": [{"type": "Feature", "geometry": {"type": "Point", "coordinates": [98.98404, 18.79617]}, "properties": {"id": "cm-osm-node-5995143552", "name": "248 Roof Top Bar and Pool Bar", "nameTh": null, "nameEn": "248 Roof Top Bar and Pool Bar", "cat": ["food"], "province": "cm", "slug": "248-roof-top-bar-and-pool-bar-5995143552", "rank": 2}}, {"type": "Feature", "geometry": {"type": "Point", "coordinates": [98.97682, 18.79637]}, "properties": {"id": "cm-osm-node-5915461228", "name": "A.B.C.D.", "nameTh": null, "nameEn": "A.B.C.D.", "cat": ["food"], "province": "cm", "slug": "a-b-c-d-5915461228", "rank": 2}}, {"type": "Feature", "geometry": {"type": "Point", "coordinates": [98.98002, 18.80323]}, "properties": {"id": "cm-osm-node-2527662833", "name": "Akha Ama", "nameTh": "กาแฟอาข่าอามา", "nameEn": "Akha Ama", "cat": ["food"], "province": "cm", "slug": "akha-ama-2527662833", "rank": 4}}, {"type": "Feature", "geometry": {"type": "Point", "coordinates": [98.98322, 18.78843]}, "properties": {"id": "cm-osm-node-2404044286", "name": "Akha Ama Phrasingh", "nameTh": "กาแฟอาข่าอามา (สาขา 2)", "nameEn": "Akha Ama Phrasingh", "cat": ["food"], "province": "cm", "slug": "akha-ama-phrasingh-2404044286", "rank": 4}}, {"type": "Feature", "geometry": {"type": "Point", "coordinates": [98.90044, 18.70503]}, "properties": {"id": "cm-osm-node-4261547531", "name": "Areeya Garden Home", "nameTh": null, "nameEn": "Areeya Garden Home", "cat": ["food"], "province": "cm", "slug": "areeya-garden-home-4261547531", "rank": 2}}, {"type": "Feature", "geometry": {"type": "Point", "coordinates": [98.98794, 18.77844]}, "properties": {"id": "cm-osm-node-5484616521", "name": "Aum Vegetarian Restaurant", "nameTh": null, "nameEn": "Aum Vegetarian Restaurant", "cat": ["food"], "province": "cm", "slug": "aum-vegetarian-restaurant-5484616521", "rank": 2}}, {"type": "Feature", "geometry": {"type": "Point", "coordinates": [98.99759, 18.78426]}, "properties": {"id": "cm-osm-node-2597948382", "name": "Ben Cocktail", "nameTh": null, "nameEn": "Ben Cocktail", "cat": ["food"], "province": "cm", "slug": "ben-cocktail-2597948382", "rank": 2}}, {"type": "Feature", "geometry": {"type": "Point", "coordinates": [99.11042, 18.87187]}, "properties": {"id": "cm-osm-node-1604441376", "name": "Bualuang Terasse", "nameTh": null, "nameEn": "Bualuang Terasse", "cat": ["food"], "province": "cm", "slug": "bualuang-terasse-1604441376", "rank": 2}}, {"type": "Feature", "geometry": {"type": "Point", "coordinates": [98.99976, 18.78039]}, "properties": {"id": "cm-osm-node-2641740599", "name": "Butter is Better", "nameTh": null, "nameEn": "Butter is Better", "cat": ["food"], "province": "cm", "slug": "butter-is-better-2641740599", "rank": 2}}, {"type": "Feature", "geometry": {"type": "Point", "coordinates": [99.00068, 18.78105]}, "properties": {"id": "cm-osm-node-1101287698", "name": "Cafe de L'Amour", "nameTh": null, "nameEn": "Cafe de L'Amour", "cat": ["food"], "province": "cm", "slug": "cafe-de-l-amour-1101287698", "rank": 2}}, {"type": "Feature", "geometry": {"type": "Point", "coordinates": [98.99182, 18.79037]}, "properties": {"id": "cm-osm-node-1491320808", "name": "City Cafe", "nameTh": null, "nameEn": "City Cafe", "cat": ["food"], "province": "cm", "slug": "city-cafe-1491320808", "rank": 2}}, {"type": "Feature", "geometry": {"type": "Point", "coordinates": [98.99246, 18.79188]}, "properties": {"id": "cm-osm-node-3456825435", "name": "Funkydog", "nameTh": null, "nameEn": "Funkydog", "cat": ["food"], "province": "cm", "slug": "funkydog-3456825435", "rank": 1}}, {"type": "Feature", "geometry": {"type": "Point", "coordinates": [98.99395, 18.79148]}, "properties": {"id": "cm-osm-node-6117570345", "name": "Kangaroo Bar", "nameTh": null, "nameEn": "Kangaroo Bar", "cat": ["food"], "province": "cm", "slug": "kangaroo-bar-6117570345", "rank": 2}}, {"type": "Feature", "geometry": {"type": "Point", "coordinates": [99.00077, 18.78479]}, "properties": {"id": "cm-osm-node-11459504534", "name": "Kiki bar", "nameTh": null, "nameEn": "Kiki bar", "cat": ["food"], "province": "cm", "slug": "kiki-bar-11459504534", "rank": 3}}, {"type": "Feature", "geometry": {"type": "Point", "coordinates": [99.00145, 18.766]}, "properties": {"id": "cm-osm-node-3983431257", "name": "Krusty's Bar & Grill", "nameTh": null, "nameEn": "Krusty's Bar & Grill", "cat": ["food"], "province": "cm", "slug": "krusty-s-bar-grill-3983431257", "rank": 3}}, {"type": "Feature", "geometry": {"type": "Point", "coordinates": [98.97274, 18.79]}, "properties": {"id": "cm-osm-node-3672043732", "name": "Library Coffee (5F)", "nameTh": "กาแฟห้องสมุด (ชั้น 5)", "nameEn": "Library Coffee (5F)", "cat": ["food"], "province": "cm", "slug": "library-coffee-5f-3672043732", "rank": 2}}, {"type": "Feature", "geometry": {"type": "Point", "coordinates": [98.99281, 18.7844]}, "properties": {"id": "cm-osm-node-964686601", "name": "Mad Dog", "nameTh": null, "nameEn": "Mad Dog", "cat": ["food"], "province": "cm", "slug": "mad-dog-964686601", "rank": 3}}, {"type": "Feature", "geometry": {"type": "Point", "coordinates": [98.98231, 18.80269]}, "properties": {"id": "cm-osm-node-4441486862", "name": "Moom la Moon Café", "nameTh": "มมุ ละมนุคาเฟ่", "nameEn": "Moom la Moon Café", "cat": ["food"], "province": "cm", "slug": "moom-la-moon-caf-4441486862", "rank": 3}}, {"type": "Feature", "geometry": {"type": "Point", "coordinates": [99.00939, 18.74968]}, "properties": {"id": "cm-osm-node-4223831689", "name": "My Kitchen", "nameTh": null, "nameEn": "My Kitchen", "cat": ["food"], "province": "cm", "slug": "my-kitchen-4223831689", "rank": 3}}, {"type": "Feature", "geometry": {"type": "Point", "coordinates": [98.99743, 18.78412]}, "properties": {"id": "cm-osm-node-2300395636", "name": "My Place Lounge Chiang Mai - Sports Bar & Restaurant", "nameTh": null, "nameEn": "My Place Lounge Chiang Mai - Sports Bar & Restaurant", "cat": ["food"], "province": "cm", "slug": "my-place-lounge-chiang-mai-sports-bar-restaurant-2300395636", "rank": 5}}, {"type": "Feature", "geometry": {"type": "Point", "coordinates": [98.98666, 18.78835]}, "properties": {"id": "cm-osm-node-2442812998", "name": "Pacamara", "nameTh": "พาคามารา", "nameEn": "Pacamara", "cat": ["food"], "province": "cm", "slug": "pacamara-2442812998", "rank": 2}}, {"type": "Feature", "geometry": {"type": "Point", "coordinates": [98.93229, 18.74916]}, "properties": {"id": "cm-osm-node-3337859200", "name": "Pantawan Cooking", "nameTh": null, "nameEn": "Pantawan Cooking", "cat": ["cooking", "food"], "province": "cm", "slug": "pantawan-cooking-3337859200", "rank": 3}}, {"type": "Feature", "geometry": {"type": "Point", "coordinates": [98.98535, 18.7882]}, "properties": {"id": "cm-osm-node-2419667430", "name": "Rajdamnoen Coffee", "nameTh": null, "nameEn": "Rajdamnoen Coffee", "cat": ["food"], "province": "cm", "slug": "rajdamnoen-coffee-2419667430", "rank": 1}}, {"type": "Feature", "geometry": {"type": "Point", "coordinates": [99.00275, 18.77961]}, "properties": {"id": "cm-osm-node-5480647765", "name": "SnoozeChaingmai", "nameTh": null, "nameEn": "SnoozeChaingmai", "cat": ["food"], "province": "cm", "slug": "snoozechaingmai-5480647765", "rank": 2}}, {"type": "Feature", "geometry": {"type": "Point", "coordinates": [99.04754, 18.74208]}, "properties": {"id": "cm-osm-node-11886014037", "name": "Sukhum Caffe' Saraphi", "nameTh": "สุขุม คาฟเฟ่ สารภี", "nameEn": "Sukhum Caffe' Saraphi", "cat": ["food"], "province": "cm", "slug": "sukhum-caffe-saraphi-11886014037", "rank": 4}}, {"type": "Feature", "geometry": {"type": "Point", "coordinates": [98.96309, 18.79517]}, "properties": {"id": "cm-osm-node-5202076922", "name": "Taste Cafe", "nameTh": null, "nameEn": "Taste Cafe", "cat": ["food"], "province": "cm", "slug": "taste-cafe-5202076922", "rank": 2}}, {"type": "Feature", "geometry": {"type": "Point", "coordinates": [98.99767, 18.77686]}, "properties": {"id": "cm-osm-node-2884931814", "name": "Tawan's Corner Bar and Bistro", "nameTh": null, "nameEn": "Tawan's Corner Bar and Bistro", "cat": ["food"], "province": "cm", "slug": "tawan-s-corner-bar-and-bistro-2884931814", "rank": 3}}, {"type": "Feature", "geometry": {"type": "Point", "coordinates": [98.99268, 18.78445]}, "properties": {"id": "cm-osm-node-3385473043", "name": "The Half Moon", "nameTh": null, "nameEn": "The Half Moon", "cat": ["food"], "province": "cm", "slug": "the-half-moon-3385473043", "rank": 2}}, {"type": "Feature", "geometry": {"type": "Point", "coordinates": [98.99448, 18.79362]}, "properties": {"id": "cm-osm-node-2655178493", "name": "The Hideout", "nameTh": "เดอะไฮดเอาท์", "nameEn": "The Hideout", "cat": ["food"], "province": "cm", "slug": "the-hideout-2655178493", "rank": 3}}, {"type": "Feature", "geometry": {"type": "Point", "coordinates": [98.98667, 18.77749]}, "properties": {"id": "cm-osm-node-3844952731", "name": "The Old Man", "nameTh": null, "nameEn": "The Old Man", "cat": ["food"], "province": "cm", "slug": "the-old-man-3844952731", "rank": 2}}, {"type": "Feature", "geometry": {"type": "Point", "coordinates": [98.98453, 18.79588]}, "properties": {"id": "cm-osm-node-2041535372", "name": "Three Little Pigs", "nameTh": null, "nameEn": "Three Little Pigs", "cat": ["food"], "province": "cm", "slug": "three-little-pigs-2041535372", "rank": 1}}, {"type": "Feature", "geometry": {"type": "Point", "coordinates": [98.98283, 18.78941]}, "properties": {"id": "cm-osm-node-3197689690", "name": "Tree Sis Coffee", "nameTh": "ทรีซิสคอฟฟี่", "nameEn": "Tree Sis Coffee", "cat": ["food"], "province": "cm", "slug": "tree-sis-coffee-3197689690", "rank": 3}}, {"type": "Feature", "geometry": {"type": "Point", "coordinates": [98.97247, 18.79306]}, "properties": {"id": "cm-osm-way-322604384", "name": "Wide-awake 24 hours", "nameTh": null, "nameEn": "Wide-awake 24 hours", "cat": ["food"], "province": "cm", "slug": "wide-awake-24-hours-322604384", "rank": 2}}, {"type": "Feature", "geometry": {"type": "Point", "coordinates": [98.96706, 18.79863]}, "properties": {"id": "cm-osm-way-372055197", "name": "Xaviernimman5", "nameTh": null, "nameEn": "Xaviernimman5", "cat": ["food"], "province": "cm", "slug": "xaviernimman5-372055197", "rank": 2}}, {"type": "Feature", "geometry": {"type": "Point", "coordinates": [98.99518, 18.80469]}, "properties": {"id": "cm-osm-way-97690878", "name": "หัวลำโพง", "nameTh": "หัวลำโพง", "nameEn": "Hua Lamphong", "cat": ["food"], "province": "cm", "slug": "hua-lamphong-97690878", "rank": 3}}, {"type": "Feature", "geometry": {"type": "Point", "coordinates": [98.93438, 18.73815]}, "properties": {"id": "cm-osm-way-1098454510", "name": "High Speed 420 Weed Shop & Medical Cannabis Dispensary", "nameTh": null, "nameEn": "High Speed 420 Weed Shop & Medical Cannabis Dispensary", "cat": ["cannabis"], "province": "cm", "slug": "high-speed-420-weed-shop-medical-cannabis-dispensary-1098454510", "rank": 3}}, {"type": "Feature", "geometry": {"type": "Point", "coordinates": [98.98395, 18.79601]}, "properties": {"id": "cm-osm-node-5995145521", "name": "248 Street Hostel", "nameTh": null, "nameEn": "248 Street Hostel", "cat": ["hotel"], "province": "cm", "slug": "248-street-hostel-5995145521", "rank": 1}}, {"type": "Feature", "geometry": {"type": "Point", "coordinates": [98.98395, 18.79598]}, "properties": {"id": "cm-osm-node-5995150123", "name": "248 Street Hostel", "nameTh": null, "nameEn": "248 Street Hostel", "cat": ["hotel"], "province": "cm", "slug": "248-street-hostel-5995150123", "rank": 1}}, {"type": "Feature", "geometry": {"type": "Point", "coordinates": [98.98325, 18.783]}, "properties": {"id": "cm-osm-way-566083669", "name": "Champion Hostel 2", "nameTh": null, "nameEn": "Champion Hostel 2", "cat": ["hotel"], "province": "cm", "slug": "champion-hostel-2-566083669", "rank": 2}}, {"type": "Feature", "geometry": {"type": "Point", "coordinates": [98.99691, 18.78977]}, "properties": {"id": "cm-osm-node-5566673219", "name": "Hugnur Hostel & Coffee", "nameTh": null, "nameEn": "Hugnur Hostel & Coffee", "cat": ["hotel"], "province": "cm", "slug": "hugnur-hostel-coffee-5566673219", "rank": 1}}, {"type": "Feature", "geometry": {"type": "Point", "coordinates": [98.98243, 18.80062]}, "properties": {"id": "cm-osm-way-668372298", "name": "ISTY Hotel", "nameTh": null, "nameEn": "ISTY Hotel", "cat": ["hotel"], "province": "cm", "slug": "isty-hotel-668372298", "rank": 2}}, {"type": "Feature", "geometry": {"type": "Point", "coordinates": [98.99534, 18.79081]}, "properties": {"id": "cm-osm-node-2649612347", "name": "Karinthip Village", "nameTh": null, "nameEn": "Karinthip Village", "cat": ["hotel"], "province": "cm", "slug": "karinthip-village-2649612347", "rank": 2}}, {"type": "Feature", "geometry": {"type": "Point", "coordinates": [98.98258, 18.8084]}, "properties": {"id": "cm-osm-way-668371809", "name": "Kaysorn Residence", "nameTh": "เกษร เรสซิเดนซ์", "nameEn": "Kaysorn Residence", "cat": ["hotel"], "province": "cm", "slug": "kaysorn-residence-668371809", "rank": 3}}, {"type": "Feature", "geometry": {"type": "Point", "coordinates": [99.00562, 18.8057]}, "properties": {"id": "cm-osm-way-320364949", "name": "Latitude Chiang Mai", "nameTh": null, "nameEn": "Latitude Chiang Mai", "cat": ["hotel"], "province": "cm", "slug": "latitude-chiang-mai-320364949", "rank": 1}}, {"type": "Feature", "geometry": {"type": "Point", "coordinates": [98.99093, 18.77876]}, "properties": {"id": "cm-osm-node-11699781425", "name": "Le Ville Lanna Boutique Hotel", "nameTh": null, "nameEn": "Le Ville Lanna Boutique Hotel", "cat": ["hotel"], "province": "cm", "slug": "le-ville-lanna-boutique-hotel-11699781425", "rank": 2}}, {"type": "Feature", "geometry": {"type": "Point", "coordinates": [99.11083, 18.87186]}, "properties": {"id": "cm-osm-node-1629161343", "name": "Lha's Place Homestay holiday homes", "nameTh": null, "nameEn": "Lha's Place Homestay holiday homes", "cat": ["hotel"], "province": "cm", "slug": "lha-s-place-homestay-holiday-homes-1629161343", "rank": 1}}, {"type": "Feature", "geometry": {"type": "Point", "coordinates": [98.90944, 18.92595]}, "properties": {"id": "cm-osm-node-3751056345", "name": "Monoceros Resort", "nameTh": null, "nameEn": "Monoceros Resort", "cat": ["hotel"], "province": "cm", "slug": "monoceros-resort-3751056345", "rank": 3}}, {"type": "Feature", "geometry": {"type": "Point", "coordinates": [98.98826, 18.77919]}, "properties": {"id": "cm-osm-node-2656777412", "name": "Nonni Guesthouse", "nameTh": null, "nameEn": "Nonni Guesthouse", "cat": ["hotel"], "province": "cm", "slug": "nonni-guesthouse-2656777412", "rank": 2}}, {"type": "Feature", "geometry": {"type": "Point", "coordinates": [98.97926, 18.77748]}, "properties": {"id": "cm-osm-node-6038314334", "name": "OnPoint Hostel", "nameTh": null, "nameEn": "OnPoint Hostel", "cat": ["hotel"], "province": "cm", "slug": "onpoint-hostel-6038314334", "rank": 1}}, {"type": "Feature", "geometry": {"type": "Point", "coordinates": [99.09743, 18.7811]}, "properties": {"id": "cm-osm-way-314940925", "name": "Secret Garden", "nameTh": "ซิเคร์ท การร์เด้นท์", "nameEn": "Secret Garden", "cat": ["hotel"], "province": "cm", "slug": "secret-garden-314940925", "rank": 4}}, {"type": "Feature", "geometry": {"type": "Point", "coordinates": [98.98259, 18.78401]}, "properties": {"id": "cm-osm-way-406416408", "name": "Stay Here Hostel", "nameTh": null, "nameEn": "Stay Here Hostel", "cat": ["hotel"], "province": "cm", "slug": "stay-here-hostel-406416408", "rank": 2}}, {"type": "Feature", "geometry": {"type": "Point", "coordinates": [98.97412, 18.80594]}, "properties": {"id": "cm-osm-way-668369307", "name": "Vanilla Residence", "nameTh": null, "nameEn": "Vanilla Residence", "cat": ["hotel"], "province": "cm", "slug": "vanilla-residence-668369307", "rank": 2}}, {"type": "Feature", "geometry": {"type": "Point", "coordinates": [98.98795, 18.79378]}, "properties": {"id": "cm-osm-way-251437111", "name": "Vista Hotel", "nameTh": null, "nameEn": "Vista Hotel", "cat": ["hotel"], "province": "cm", "slug": "vista-hotel-251437111", "rank": 2}}, {"type": "Feature", "geometry": {"type": "Point", "coordinates": [98.98628, 18.79502]}, "properties": {"id": "cm-osm-node-1616042306", "name": "เมาเท็นวิว", "nameTh": "เมาเท็นวิว", "nameEn": "Mountain View Guest House", "cat": ["hotel"], "province": "cm", "slug": "mountain-view-guest-house-1616042306", "rank": 3}}, {"type": "Feature", "geometry": {"type": "Point", "coordinates": [99.06946, 18.88074]}, "properties": {"id": "cm-osm-way-961802207", "name": "Thai Secret Cooking School & Organic Garden Farm", "nameTh": null, "nameEn": "Thai Secret Cooking School & Organic Garden Farm", "cat": ["cooking", "school"], "province": "cm", "slug": "thai-secret-cooking-school-organic-garden-farm-961802207", "rank": 3}}]}