{"type": "FeatureCollection", "features": [{"type": "Feature", "geometry": {"type": "Point", "coordinates": [98.97701, 18.77171]}, "properties": {"id": "cm-osm-node-1903662457", "name": "S&P", "nameTh": null, "nameEn": "S&P", "cat": ["food"], "province": "cm", "slug": "s-p-1903662457", "rank": 1}}, {"type": "Feature", "geometry": {"type": "Point", "coordinates": [99.00558, 18.78341]}, "properties": {"id": "cm-osm-node-2160380718", "name": "S&P", "nameTh": null, "nameEn": "S&P", "cat": ["food"], "province": "cm", "slug": "s-p-2160380718", "rank": 1}}, {"type": "Feature", "geometry": {"type": "Point", "coordinates": [99.0105, 18.82365]}, "properties": {"id": "cm-osm-node-2336752955", "name": "S&P", "nameTh": null, "nameEn": "S&P", "cat": ["food"], "province": "cm", "slug": "s-p-2336752955", "rank": 1}}, {"type": "Feature", "geometry": {"type": "Point", "coordinates": [99.01768, 18.80724]}, "properties": {"id": "cm-osm-node-2865868302", "name": "S&P", "nameTh": null, "nameEn": "S&P", "cat": ["food"], "province": "cm", "slug": "s-p-2865868302", "rank": 1}}, {"type": "Feature", "geometry": {"type": "Point", "coordinates": [98.97482, 18.76921]}, "properties": {"id": "cm-osm-node-3347633201", "name": "S&P", "nameTh": null, "nameEn": "S&P", "cat": ["food"], "province": "cm", "slug": "s-p-3347633201", "rank": 2}}, {"type": "Feature", "geometry": {"type": "Point", "coordinates": [99.01416, 18.82435]}, "properties": {"id": "cm-osm-node-4593074892", "name": "S&P", "nameTh": null, "nameEn": "S&P", "cat": ["food"], "province": "cm", "slug": "s-p-4593074892", "rank": 1}}, {"type": "Feature", "geometry": {"type": "Point", "coordinates": [98.9818, 18.79601]}, "properties": {"id": "cm-osm-node-5076637522", "name": "S&P", "nameTh": null, "nameEn": "S&P", "cat": ["food"], "province": "cm", "slug": "s-p-5076637522", "rank": 1}}, {"type": "Feature", "geometry": {"type": "Point", "coordinates": [98.97238, 18.75872]}, "properties": {"id": "cm-osm-node-7882686658", "name": "S&P", "nameTh": null, "nameEn": "S&P", "cat": ["food"], "province": "cm", "slug": "s-p-7882686658", "rank": 1}}]}