{"type": "FeatureCollection", "features": [{"type": "Feature", "geometry": {"type": "Point", "coordinates": [99.0048, 18.8253]}, "properties": {"id": "cm-osm-node-11228388952", "name": "Ann&Mom", "nameTh": null, "nameEn": "Ann&Mom", "cat": ["food"], "province": "cm", "slug": "ann-mom-11228388952", "rank": 2}}, {"type": "Feature", "geometry": {"type": "Point", "coordinates": [98.99795, 18.78655]}, "properties": {"id": "cm-osm-node-2597978364", "name": "Billy's Restaurant", "nameTh": null, "nameEn": "Billy's Restaurant", "cat": ["food"], "province": "cm", "slug": "billy-s-restaurant-2597978364", "rank": 2}}, {"type": "Feature", "geometry": {"type": "Point", "coordinates": [99.02305, 18.76281]}, "properties": {"id": "cm-osm-node-4572686702", "name": "Burger King", "nameTh": null, "nameEn": "Burger King", "cat": ["food"], "province": "cm", "slug": "burger-king-4572686702", "rank": 1}}, {"type": "Feature", "geometry": {"type": "Point", "coordinates": [98.99854, 18.784]}, "properties": {"id": "cm-osm-node-2655180134", "name": "Cafe' de Siam", "nameTh": null, "nameEn": "Cafe' de Siam", "cat": ["food"], "province": "cm", "slug": "cafe-de-siam-2655180134", "rank": 2}}, {"type": "Feature", "geometry": {"type": "Point", "coordinates": [98.98209, 18.79326]}, "properties": {"id": "cm-osm-way-623140246", "name": "Goodsouls Kitchen", "nameTh": null, "nameEn": "Goodsouls Kitchen", "cat": ["food"], "province": "cm", "slug": "goodsouls-kitchen-623140246", "rank": 3}}, {"type": "Feature", "geometry": {"type": "Point", "coordinates": [98.89576, 18.68227]}, "properties": {"id": "cm-osm-node-13533499755", "name": "Hangdong Family Minigolf  + German Rrestaurant", "nameTh": null, "nameEn": "Hangdong Family Minigolf  + German Rrestaurant", "cat": ["food"], "province": "cm", "slug": "hangdong-family-minigolf-german-rrestaurant-13533499755", "rank": 4}}, {"type": "Feature", "geometry": {"type": "Point", "coordinates": [99.11125, 18.72004]}, "properties": {"id": "cm-osm-node-7399161957", "name": "Home@29", "nameTh": null, "nameEn": "Home@29", "cat": ["food"], "province": "cm", "slug": "home-29-7399161957", "rank": 2}}, {"type": "Feature", "geometry": {"type": "Point", "coordinates": [99.07406, 18.73652]}, "properties": {"id": "cm-osm-way-648653220", "name": "Kuaytiew Delivery", "nameTh": null, "nameEn": "Kuaytiew Delivery", "cat": ["food"], "province": "cm", "slug": "kuaytiew-delivery-648653220", "rank": 1}}, {"type": "Feature", "geometry": {"type": "Point", "coordinates": [98.97923, 18.81156]}, "properties": {"id": "cm-osm-node-13616287147", "name": "Lapin Cafe", "nameTh": "ลาแปง คาเฟ่", "nameEn": "Lapin Cafe", "cat": ["food"], "province": "cm", "slug": "lapin-cafe-13616287147", "rank": 4}}, {"type": "Feature", "geometry": {"type": "Point", "coordinates": [98.99743, 18.78412]}, "properties": {"id": "cm-osm-node-2300395636", "name": "My Place Lounge Chiang Mai - Sports Bar & Restaurant", "nameTh": null, "nameEn": "My Place Lounge Chiang Mai - Sports Bar & Restaurant", "cat": ["food"], "province": "cm", "slug": "my-place-lounge-chiang-mai-sports-bar-restaurant-2300395636", "rank": 5}}, {"type": "Feature", "geometry": {"type": "Point", "coordinates": [98.94593, 18.68986]}, "properties": {"id": "cm-osm-node-11032795792", "name": "NK Cafe", "nameTh": "เอ็น เค คาเฟ่", "nameEn": "NK Cafe", "cat": ["food"], "province": "cm", "slug": "nk-cafe-11032795792", "rank": 4}}, {"type": "Feature", "geometry": {"type": "Point", "coordinates": [98.96732, 18.79665]}, "properties": {"id": "cm-osm-node-12250855974", "name": "October Flavor Coffee", "nameTh": null, "nameEn": "October Flavor Coffee", "cat": ["food"], "province": "cm", "slug": "october-flavor-coffee-12250855974", "rank": 2}}, {"type": "Feature", "geometry": {"type": "Point", "coordinates": [98.99421, 18.78221]}, "properties": {"id": "cm-osm-node-9821661982", "name": "Sababa Chiang Mai", "nameTh": null, "nameEn": "Sababa Chiang Mai", "cat": ["food"], "province": "cm", "slug": "sababa-chiang-mai-9821661982", "rank": 4}}, {"type": "Feature", "geometry": {"type": "Point", "coordinates": [99.02525, 18.78395]}, "properties": {"id": "cm-osm-node-13851937467", "name": "Son Of A Brew", "nameTh": null, "nameEn": "Son Of A Brew", "cat": ["food"], "province": "cm", "slug": "son-of-a-brew-13851937467", "rank": 3}}, {"type": "Feature", "geometry": {"type": "Point", "coordinates": [99.04754, 18.74208]}, "properties": {"id": "cm-osm-node-11886014037", "name": "Sukhum Caffe' Saraphi", "nameTh": "สุขุม คาฟเฟ่ สารภี", "nameEn": "Sukhum Caffe' Saraphi", "cat": ["food"], "province": "cm", "slug": "sukhum-caffe-saraphi-11886014037", "rank": 4}}, {"type": "Feature", "geometry": {"type": "Point", "coordinates": [99.12603, 18.7283]}, "properties": {"id": "cm-osm-node-13040779448", "name": "ข้าวขาหมู บ้านแม่ ออเดย์ ดอนปีน ป่าไผ่ สันกำแพง", "nameTh": "ข้าวขาหมู บ้านแม่ ออเดย์ ดอนปีน ป่าไผ่ สันกำแพง", "nameEn": "ฺBAN MAE ALL DAY Braised Pork Leg with Rice", "cat": ["food"], "province": "cm", "slug": "ban-mae-all-day-braised-pork-leg-with-rice-13040779448", "rank": 4}}, {"type": "Feature", "geometry": {"type": "Point", "coordinates": [98.97075, 18.79675]}, "properties": {"id": "cm-osm-node-7158628085", "name": "ข้าวต้ม บาทเดียว", "nameTh": "ข้าวต้ม บาทเดียว", "nameEn": "Khao Tom Baht Diao", "cat": ["food"], "province": "cm", "slug": "khao-tom-baht-diao-7158628085", "rank": 2}}, {"type": "Feature", "geometry": {"type": "Point", "coordinates": [98.96622, 18.91647]}, "properties": {"id": "cm-osm-node-7908728067", "name": "หวานละมุนเครป", "nameTh": "หวานละมุนเครป", "nameEn": "Crepe Waan", "cat": ["food"], "province": "cm", "slug": "crepe-waan-7908728067", "rank": 3}}, {"type": "Feature", "geometry": {"type": "Point", "coordinates": [98.99222, 18.79564]}, "properties": {"id": "cm-osm-node-8891761479", "name": "เจไม่จำเจ เชียงใหม่", "nameTh": "เจไม่จำเจ เชียงใหม่", "nameEn": "Jay Mai Jamjay", "cat": ["food"], "province": "cm", "slug": "jay-mai-jamjay-8891761479", "rank": 4}}, {"type": "Feature", "geometry": {"type": "Point", "coordinates": [99.0382, 18.76516]}, "properties": {"id": "cm-osm-node-8251077688", "name": "โคตรลำ​ เนื้อย่าง", "nameTh": "โคตรลำ​ เนื้อย่าง", "nameEn": null, "cat": ["food"], "province": "cm", "slug": "8251077688", "rank": 3}}]}