{"type": "FeatureCollection", "features": [{"type": "Feature", "geometry": {"type": "Point", "coordinates": [98.97524, 18.79867]}, "properties": {"id": "cm-osm-node-3117930572", "name": "AMM (Aung Myint Mo Kyay Oh)", "nameTh": null, "nameEn": "AMM (Aung Myint Mo Kyay Oh)", "cat": ["food"], "province": "cm", "slug": "amm-aung-myint-mo-kyay-oh-3117930572", "rank": 3}}, {"type": "Feature", "geometry": {"type": "Point", "coordinates": [98.95928, 18.69538]}, "properties": {"id": "cm-osm-node-11552969539", "name": "Boss Ramen", "nameTh": null, "nameEn": "Boss Ramen", "cat": ["food"], "province": "cm", "slug": "boss-ramen-11552969539", "rank": 1}}, {"type": "Feature", "geometry": {"type": "Point", "coordinates": [98.96882, 18.79695]}, "properties": {"id": "cm-osm-node-4830093022", "name": "Chinese noodle", "nameTh": null, "nameEn": "Chinese noodle", "cat": ["food"], "province": "cm", "slug": "chinese-noodle-4830093022", "rank": 3}}, {"type": "Feature", "geometry": {"type": "Point", "coordinates": [98.9886, 18.78493]}, "properties": {"id": "cm-osm-way-761867078", "name": "Fresh Time Vegetarian", "nameTh": null, "nameEn": "Fresh Time Vegetarian", "cat": ["food"], "province": "cm", "slug": "fresh-time-vegetarian-761867078", "rank": 2}}, {"type": "Feature", "geometry": {"type": "Point", "coordinates": [99.00181, 18.79453]}, "properties": {"id": "cm-osm-node-7150405587", "name": "Happy Time - Vegan Foods & Salad bar", "nameTh": null, "nameEn": "Happy Time - Vegan Foods & Salad bar", "cat": ["food"], "province": "cm", "slug": "happy-time-vegan-foods-salad-bar-7150405587", "rank": 3}}, {"type": "Feature", "geometry": {"type": "Point", "coordinates": [98.99808, 18.78114]}, "properties": {"id": "cm-osm-node-12434999501", "name": "Khao Soi Doinang 3", "nameTh": null, "nameEn": "Khao Soi Doinang 3", "cat": ["food"], "province": "cm", "slug": "khao-soi-doinang-3-12434999501", "rank": 1}}, {"type": "Feature", "geometry": {"type": "Point", "coordinates": [98.94782, 18.7637]}, "properties": {"id": "cm-osm-node-9435600318", "name": "Kitipong", "nameTh": null, "nameEn": "Kitipong", "cat": ["food"], "province": "cm", "slug": "kitipong-9435600318", "rank": 1}}, {"type": "Feature", "geometry": {"type": "Point", "coordinates": [98.99166, 18.79203]}, "properties": {"id": "cm-osm-way-492846798", "name": "Lucky too", "nameTh": "18 Cottage", "nameEn": null, "cat": ["food"], "province": "cm", "slug": "18-cottage-492846798", "rank": 1}}, {"type": "Feature", "geometry": {"type": "Point", "coordinates": [98.98489, 18.78663]}, "properties": {"id": "cm-osm-node-11492126219", "name": "Nam Ngiaw Loong Pong", "nameTh": null, "nameEn": "Nam Ngiaw Loong Pong", "cat": ["food"], "province": "cm", "slug": "nam-ngiaw-loong-pong-11492126219", "rank": 1}}, {"type": "Feature", "geometry": {"type": "Point", "coordinates": [99.115, 18.74789]}, "properties": {"id": "cm-osm-node-10117710253", "name": "Nini", "nameTh": null, "nameEn": "Nini", "cat": ["food"], "province": "cm", "slug": "nini-10117710253", "rank": 1}}, {"type": "Feature", "geometry": {"type": "Point", "coordinates": [98.99908, 18.77628]}, "properties": {"id": "cm-osm-node-11276514280", "name": "Nok Lae Sukhothai Noodle", "nameTh": null, "nameEn": "Nok Lae Sukhothai Noodle", "cat": ["food"], "province": "cm", "slug": "nok-lae-sukhothai-noodle-11276514280", "rank": 3}}, {"type": "Feature", "geometry": {"type": "Point", "coordinates": [98.98493, 18.78688]}, "properties": {"id": "cm-osm-node-13955897664", "name": "Noodles & Restaurant", "nameTh": null, "nameEn": "Noodles & Restaurant", "cat": ["food"], "province": "cm", "slug": "noodles-restaurant-13955897664", "rank": 1}}, {"type": "Feature", "geometry": {"type": "Point", "coordinates": [98.97778, 18.76363]}, "properties": {"id": "cm-osm-node-12913876246", "name": "Rainbownoodle ก๋วยเตี๋ยวรุ้งเสวย", "nameTh": "Rainbownoodle ก๋วยเตี๋ยวรุ้งเสวย", "nameEn": null, "cat": ["food"], "province": "cm", "slug": "rainbownoodle-12913876246", "rank": 3}}, {"type": "Feature", "geometry": {"type": "Point", "coordinates": [98.99348, 18.79429]}, "properties": {"id": "cm-osm-node-6849126285", "name": "Rote yiam", "nameTh": null, "nameEn": "Rote yiam", "cat": ["food"], "province": "cm", "slug": "rote-yiam-6849126285", "rank": 1}}, {"type": "Feature", "geometry": {"type": "Point", "coordinates": [99.00797, 18.79681]}, "properties": {"id": "cm-osm-node-9779145017", "name": "Takiab Noodles", "nameTh": null, "nameEn": "Takiab Noodles", "cat": ["food"], "province": "cm", "slug": "takiab-noodles-9779145017", "rank": 3}}, {"type": "Feature", "geometry": {"type": "Point", "coordinates": [99.02212, 18.7846]}, "properties": {"id": "cm-osm-node-12607900301", "name": "Thai Cuisine", "nameTh": null, "nameEn": "Thai Cuisine", "cat": ["food"], "province": "cm", "slug": "thai-cuisine-12607900301", "rank": 3}}, {"type": "Feature", "geometry": {"type": "Point", "coordinates": [98.95694, 18.80706]}, "properties": {"id": "cm-osm-node-5436937744", "name": "The Boat Chiangmai", "nameTh": null, "nameEn": "The Boat Chiangmai", "cat": ["food"], "province": "cm", "slug": "the-boat-chiangmai-5436937744", "rank": 1}}, {"type": "Feature", "geometry": {"type": "Point", "coordinates": [98.98875, 18.78306]}, "properties": {"id": "cm-osm-node-5195493721", "name": "always Caf", "nameTh": null, "nameEn": "always Caf", "cat": ["food"], "province": "cm", "slug": "always-caf-5195493721", "rank": 1}}, {"type": "Feature", "geometry": {"type": "Point", "coordinates": [99.04038, 18.83068]}, "properties": {"id": "cm-osm-node-12709665779", "name": "ก๋วยเตียวเรือครูใหญ่ อนุบาลสันทราย", "nameTh": "ก๋วยเตียวเรือครูใหญ่ อนุบาลสันทราย", "nameEn": null, "cat": ["food"], "province": "cm", "slug": "12709665779", "rank": 3}}, {"type": "Feature", "geometry": {"type": "Point", "coordinates": [99.0416, 18.77371]}, "properties": {"id": "cm-osm-node-5725272494", "name": "ก๋วยเตี๋ยวลูกชิ้นปลาคุณหมอ", "nameTh": "ก๋วยเตี๋ยวลูกชิ้นปลาคุณหมอ", "nameEn": "Khun Mor Fish Ball Noodle", "cat": ["food"], "province": "cm", "slug": "khun-mor-fish-ball-noodle-5725272494", "rank": 2}}, {"type": "Feature", "geometry": {"type": "Point", "coordinates": [99.14981, 18.71871]}, "properties": {"id": "cm-osm-node-2802888337", "name": "ก๋วยเตี๋ยวเรือ ห้อยขา", "nameTh": "ก๋วยเตี๋ยวเรือ ห้อยขา", "nameEn": null, "cat": ["food"], "province": "cm", "slug": "2802888337", "rank": 1}}, {"type": "Feature", "geometry": {"type": "Point", "coordinates": [98.97022, 18.8492]}, "properties": {"id": "cm-osm-node-9316917917", "name": "ก๋วยเตี๋ยวไก่ตุ๋นหมูตุ๋น", "nameTh": "ก๋วยเตี๋ยวไก่ตุ๋นหมูตุ๋น", "nameEn": "Chicken and pork soup Noodles", "cat": ["food"], "province": "cm", "slug": "chicken-and-pork-soup-noodles-9316917917", "rank": 3}}, {"type": "Feature", "geometry": {"type": "Point", "coordinates": [98.93913, 18.92139]}, "properties": {"id": "cm-osm-way-741830434", "name": "ครัวป้าแต๋ว", "nameTh": "ครัวป้าแต๋ว", "nameEn": "Tal  restaurant", "cat": ["food"], "province": "cm", "slug": "tal-restaurant-741830434", "rank": 4}}, {"type": "Feature", "geometry": {"type": "Point", "coordinates": [99.00126, 18.83791]}, "properties": {"id": "cm-osm-way-529288337", "name": "คร้วคำหวาน", "nameTh": "คร้วคำหวาน", "nameEn": null, "cat": ["food"], "province": "cm", "slug": "529288337", "rank": 1}}, {"type": "Feature", "geometry": {"type": "Point", "coordinates": [98.9719, 18.78892]}, "properties": {"id": "cm-osm-node-9465951117", "name": "จันทิมา", "nameTh": "จันทิมา", "nameEn": null, "cat": ["food"], "province": "cm", "slug": "9465951117", "rank": 3}}, {"type": "Feature", "geometry": {"type": "Point", "coordinates": [98.93764, 18.72381]}, "properties": {"id": "cm-osm-way-546257209", "name": "น้ำต้น เย็นตาโฟ", "nameTh": "น้ำต้น เย็นตาโฟ", "nameEn": "Namton Yen-Ta-Fo", "cat": ["food"], "province": "cm", "slug": "namton-yen-ta-fo-546257209", "rank": 2}}, {"type": "Feature", "geometry": {"type": "Point", "coordinates": [98.9882, 18.78591]}, "properties": {"id": "cm-osm-node-11370589284", "name": "มุมอร่อย", "nameTh": "มุมอร่อย", "nameEn": null, "cat": ["food"], "province": "cm", "slug": "11370589284", "rank": 1}}, {"type": "Feature", "geometry": {"type": "Point", "coordinates": [98.97807, 18.78248]}, "properties": {"id": "cm-osm-node-4681467849", "name": "รสเสวย ก๋วยเตี๋ยวไก่ตุ๋นยาจีน", "nameTh": "รสเสวย ก๋วยเตี๋ยวไก่ตุ๋นยาจีน", "nameEn": null, "cat": ["food"], "province": "cm", "slug": "4681467849", "rank": 2}}, {"type": "Feature", "geometry": {"type": "Point", "coordinates": [99.00951, 18.80156]}, "properties": {"id": "cm-osm-node-7883348785", "name": "ร้านก๋วยเตี๋ยว 3 บาท", "nameTh": "ร้านก๋วยเตี๋ยว 3 บาท", "nameEn": "3 Baht Noodles", "cat": ["food"], "province": "cm", "slug": "3-baht-noodles-7883348785", "rank": 3}}, {"type": "Feature", "geometry": {"type": "Point", "coordinates": [98.98326, 18.76655]}, "properties": {"id": "cm-osm-node-2724770135", "name": "ลูกทุ่งรุ่งเรือง", "nameTh": "ลูกทุ่งรุ่งเรือง", "nameEn": "Countryside Restaurant", "cat": ["food"], "province": "cm", "slug": "countryside-restaurant-2724770135", "rank": 2}}, {"type": "Feature", "geometry": {"type": "Point", "coordinates": [99.01203, 18.74717]}, "properties": {"id": "cm-osm-node-13382564001", "name": "ฮาหลิง", "nameTh": "ฮาหลิง", "nameEn": null, "cat": ["food"], "province": "cm", "slug": "13382564001", "rank": 3}}, {"type": "Feature", "geometry": {"type": "Point", "coordinates": [98.95811, 18.79184]}, "properties": {"id": "cm-osm-node-13251111701", "name": "เสียก๋วยเตี๋ยว", "nameTh": "เสียก๋วยเตี๋ยว", "nameEn": "Sia Noodle", "cat": ["food"], "province": "cm", "slug": "sia-noodle-13251111701", "rank": 2}}, {"type": "Feature", "geometry": {"type": "Point", "coordinates": [98.98102, 18.77859]}, "properties": {"id": "cm-osm-node-9326279217", "name": "แม่จันทร์หมี่เกี๊ยวฮ่องกง", "nameTh": "แม่จันทร์หมี่เกี๊ยวฮ่องกง", "nameEn": null, "cat": ["food"], "province": "cm", "slug": "9326279217", "rank": 1}}]}