{"type": "FeatureCollection", "features": [{"type": "Feature", "geometry": {"type": "Point", "coordinates": [98.9675, 18.80118]}, "properties": {"id": "cm-osm-node-2969701534", "name": "Camellia & Co.", "nameTh": null, "nameEn": "Camellia & Co.", "cat": ["food"], "province": "cm", "slug": "camellia-co-2969701534", "rank": 2}}, {"type": "Feature", "geometry": {"type": "Point", "coordinates": [99.02085, 18.81606]}, "properties": {"id": "cm-osm-node-12068236969", "name": "Jade Bar & Restaurant", "nameTh": null, "nameEn": "Jade Bar & Restaurant", "cat": ["food"], "province": "cm", "slug": "jade-bar-restaurant-12068236969", "rank": 3}}, {"type": "Feature", "geometry": {"type": "Point", "coordinates": [98.99392, 18.78787]}, "properties": {"id": "cm-osm-node-13115040801", "name": "Lanzhou Noodles", "nameTh": null, "nameEn": "Lanzhou Noodles", "cat": ["food"], "province": "cm", "slug": "lanzhou-noodles-13115040801", "rank": 2}}, {"type": "Feature", "geometry": {"type": "Point", "coordinates": [99.01883, 18.8002]}, "properties": {"id": "cm-osm-node-4586086268", "name": "Tom N Toms", "nameTh": null, "nameEn": "Tom N Toms", "cat": ["food"], "province": "cm", "slug": "tom-n-toms-4586086268", "rank": 2}}, {"type": "Feature", "geometry": {"type": "Point", "coordinates": [98.98163, 18.79607]}, "properties": {"id": "cm-osm-node-5558856823", "name": "Wake Up Coffee", "nameTh": null, "nameEn": "WakeUp24Hrs", "cat": ["food"], "province": "cm", "slug": "wakeup24hrs-5558856823", "rank": 3}}, {"type": "Feature", "geometry": {"type": "Point", "coordinates": [98.95722, 18.80731]}, "properties": {"id": "cm-osm-node-5558883026", "name": "Wake Up Coffee", "nameTh": null, "nameEn": "WakeUp24Hrs", "cat": ["food"], "province": "cm", "slug": "wakeup24hrs-5558883026", "rank": 3}}, {"type": "Feature", "geometry": {"type": "Point", "coordinates": [98.99384, 18.79033]}, "properties": {"id": "cm-osm-node-4286098289", "name": "Wetherspoon's BBQ", "nameTh": null, "nameEn": "Wetherspoon's BBQ", "cat": ["food"], "province": "cm", "slug": "wetherspoon-s-bbq-4286098289", "rank": 3}}, {"type": "Feature", "geometry": {"type": "Point", "coordinates": [98.97247, 18.79306]}, "properties": {"id": "cm-osm-way-322604384", "name": "Wide-awake 24 hours", "nameTh": null, "nameEn": "Wide-awake 24 hours", "cat": ["food"], "province": "cm", "slug": "wide-awake-24-hours-322604384", "rank": 2}}, {"type": "Feature", "geometry": {"type": "Point", "coordinates": [98.96706, 18.79863]}, "properties": {"id": "cm-osm-way-372055197", "name": "Xaviernimman5", "nameTh": null, "nameEn": "Xaviernimman5", "cat": ["food"], "province": "cm", "slug": "xaviernimman5-372055197", "rank": 2}}, {"type": "Feature", "geometry": {"type": "Point", "coordinates": [98.98996, 18.80625]}, "properties": {"id": "cm-osm-node-12695955103", "name": "ข้าวมันไก่สามเซียน ราชภัฏ เชียงใหม่", "nameTh": "ข้าวมันไก่สามเซียน ราชภัฏ เชียงใหม่", "nameEn": null, "cat": ["food"], "province": "cm", "slug": "12695955103", "rank": 3}}, {"type": "Feature", "geometry": {"type": "Point", "coordinates": [98.97054, 18.79807]}, "properties": {"id": "cm-osm-way-1380926650", "name": "บ้านเพื่อน CNX เชียงใหม่ นิมมาน 7", "nameTh": "บ้านเพื่อน CNX เชียงใหม่ นิมมาน 7", "nameEn": null, "cat": ["food"], "province": "cm", "slug": "cnx-7-1380926650", "rank": 2}}, {"type": "Feature", "geometry": {"type": "Point", "coordinates": [98.95254, 18.73354]}, "properties": {"id": "cm-osm-node-11644899746", "name": "สาววัวย่าง", "nameTh": "สาววัวย่าง", "nameEn": null, "cat": ["food"], "province": "cm", "slug": "11644899746", "rank": 3}}, {"type": "Feature", "geometry": {"type": "Point", "coordinates": [98.97267, 18.78892]}, "properties": {"id": "cm-osm-node-4559256801", "name": "โกเหลียง", "nameTh": "โกเหลียง", "nameEn": "Ko Liang", "cat": ["food"], "province": "cm", "slug": "ko-liang-4559256801", "rank": 3}}, {"type": "Feature", "geometry": {"type": "Point", "coordinates": [99.02654, 18.78873]}, "properties": {"id": "cm-osm-way-294031574", "name": "Bangkok Hospital", "nameTh": "โรงพยาบาลกรุงเทพ", "nameEn": "Bangkok Hospital", "cat": ["medical"], "province": "cm", "slug": "bangkok-hospital-294031574", "rank": 6}}, {"type": "Feature", "geometry": {"type": "Point", "coordinates": [98.98279, 18.80937]}, "properties": {"id": "cm-osm-node-7053637677", "name": "The River Rehab", "nameTh": null, "nameEn": "The River Rehab", "cat": ["medical"], "province": "cm", "slug": "the-river-rehab-7053637677", "rank": 3}}, {"type": "Feature", "geometry": {"type": "Point", "coordinates": [99.02099, 18.77361]}, "properties": {"id": "cm-osm-node-4334725589", "name": "บ้านต้นขาม 2", "nameTh": "บ้านต้นขาม 2", "nameEn": null, "cat": ["medical"], "province": "cm", "slug": "2-4334725589", "rank": 2}}, {"type": "Feature", "geometry": {"type": "Point", "coordinates": [98.96104, 18.79937]}, "properties": {"id": "cm-osm-node-2638612443", "name": "ร้านยา เอพลัส", "nameTh": "ร้านยา เอพลัส", "nameEn": "A+ Pharmacy", "cat": ["essentials", "medical"], "province": "cm", "slug": "a-pharmacy-2638612443", "rank": 3}}, {"type": "Feature", "geometry": {"type": "Point", "coordinates": [98.9945, 18.77328]}, "properties": {"id": "cm-osm-node-5650846061", "name": "ศูนย์อนามัยที่ 10", "nameTh": "ศูนย์อนามัยที่ 10", "nameEn": "Medical Center 10", "cat": ["medical"], "province": "cm", "slug": "medical-center-10-5650846061", "rank": 3}}, {"type": "Feature", "geometry": {"type": "Point", "coordinates": [98.98694, 18.79911]}, "properties": {"id": "cm-osm-way-103540040", "name": "โรงพยาบาลช้างเผือก", "nameTh": "โรงพยาบาลช้างเผือก", "nameEn": "Chang Puak Hospital", "cat": ["medical"], "province": "cm", "slug": "chang-puak-hospital-103540040", "rank": 3}}, {"type": "Feature", "geometry": {"type": "Point", "coordinates": [99.0159, 18.80801]}, "properties": {"id": "cm-osm-node-10110426947", "name": "7-Eleven", "nameTh": null, "nameEn": "7-Eleven", "cat": ["essentials"], "province": "cm", "slug": "7-eleven-10110426947", "rank": 2}}, {"type": "Feature", "geometry": {"type": "Point", "coordinates": [99.11745, 18.74645]}, "properties": {"id": "cm-osm-node-1020060071", "name": "7-Eleven", "nameTh": null, "nameEn": "7-Eleven", "cat": ["essentials"], "province": "cm", "slug": "7-eleven-1020060071", "rank": 3}}, {"type": "Feature", "geometry": {"type": "Point", "coordinates": [98.98751, 18.78092]}, "properties": {"id": "cm-osm-node-1030391638", "name": "7-Eleven", "nameTh": null, "nameEn": "7-Eleven", "cat": ["essentials"], "province": "cm", "slug": "7-eleven-1030391638", "rank": 3}}, {"type": "Feature", "geometry": {"type": "Point", "coordinates": [98.99942, 18.77701]}, "properties": {"id": "cm-osm-node-1034645681", "name": "7-Eleven", "nameTh": null, "nameEn": "7-Eleven", "cat": ["essentials"], "province": "cm", "slug": "7-eleven-1034645681", "rank": 3}}, {"type": "Feature", "geometry": {"type": "Point", "coordinates": [99.0416, 18.76179]}, "properties": {"id": "cm-osm-node-1042837264", "name": "7-Eleven", "nameTh": null, "nameEn": "7-Eleven", "cat": ["essentials"], "province": "cm", "slug": "7-eleven-1042837264", "rank": 3}}, {"type": "Feature", "geometry": {"type": "Point", "coordinates": [98.906, 18.65438]}, "properties": {"id": "cm-osm-node-1058644297", "name": "7-Eleven", "nameTh": null, "nameEn": "7-Eleven", "cat": ["essentials"], "province": "cm", "slug": "7-eleven-1058644297", "rank": 3}}, {"type": "Feature", "geometry": {"type": "Point", "coordinates": [99.01702, 18.8016]}, "properties": {"id": "cm-osm-node-10617407225", "name": "7-Eleven", "nameTh": null, "nameEn": "7-Eleven", "cat": ["essentials"], "province": "cm", "slug": "7-eleven-10617407225", "rank": 2}}, {"type": "Feature", "geometry": {"type": "Point", "coordinates": [98.96643, 18.79794]}, "properties": {"id": "cm-osm-node-1074593974", "name": "7-Eleven", "nameTh": null, "nameEn": "7-Eleven", "cat": ["essentials"], "province": "cm", "slug": "7-eleven-1074593974", "rank": 3}}, {"type": "Feature", "geometry": {"type": "Point", "coordinates": [98.96602, 18.74146]}, "properties": {"id": "cm-osm-node-10778022018", "name": "7-Eleven", "nameTh": null, "nameEn": "7-Eleven", "cat": ["essentials"], "province": "cm", "slug": "7-eleven-10778022018", "rank": 2}}, {"type": "Feature", "geometry": {"type": "Point", "coordinates": [98.94577, 18.68934]}, "properties": {"id": "cm-osm-node-11030137805", "name": "7-Eleven", "nameTh": null, "nameEn": "7-Eleven", "cat": ["essentials"], "province": "cm", "slug": "7-eleven-11030137805", "rank": 2}}, {"type": "Feature", "geometry": {"type": "Point", "coordinates": [99.0053, 18.81381]}, "properties": {"id": "cm-osm-node-11217695113", "name": "7-Eleven", "nameTh": null, "nameEn": "7-Eleven", "cat": ["essentials"], "province": "cm", "slug": "7-eleven-11217695113", "rank": 2}}, {"type": "Feature", "geometry": {"type": "Point", "coordinates": [98.96607, 18.79683]}, "properties": {"id": "cm-osm-node-1131144927", "name": "7-Eleven", "nameTh": null, "nameEn": "7-Eleven", "cat": ["essentials"], "province": "cm", "slug": "7-eleven-1131144927", "rank": 3}}, {"type": "Feature", "geometry": {"type": "Point", "coordinates": [98.96581, 18.70232]}, "properties": {"id": "cm-osm-node-11575590342", "name": "7-Eleven", "nameTh": null, "nameEn": "7-Eleven", "cat": ["essentials"], "province": "cm", "slug": "7-eleven-11575590342", "rank": 2}}, {"type": "Feature", "geometry": {"type": "Point", "coordinates": [99.13071, 18.65873]}, "properties": {"id": "cm-osm-node-11581270440", "name": "7-Eleven", "nameTh": null, "nameEn": "7-Eleven", "cat": ["essentials"], "province": "cm", "slug": "7-eleven-11581270440", "rank": 2}}, {"type": "Feature", "geometry": {"type": "Point", "coordinates": [98.993, 18.7446]}, "properties": {"id": "cm-osm-node-11647437407", "name": "7-Eleven", "nameTh": null, "nameEn": "7-Eleven", "cat": ["essentials"], "province": "cm", "slug": "7-eleven-11647437407", "rank": 2}}, {"type": "Feature", "geometry": {"type": "Point", "coordinates": [98.94601, 18.77098]}, "properties": {"id": "cm-osm-node-11668248426", "name": "7-Eleven", "nameTh": null, "nameEn": "7-Eleven", "cat": ["essentials"], "province": "cm", "slug": "7-eleven-11668248426", "rank": 2}}, {"type": "Feature", "geometry": {"type": "Point", "coordinates": [98.97507, 18.72023]}, "properties": {"id": "cm-osm-node-12213166971", "name": "7-Eleven", "nameTh": null, "nameEn": "7-Eleven", "cat": ["essentials"], "province": "cm", "slug": "7-eleven-12213166971", "rank": 2}}, {"type": "Feature", "geometry": {"type": "Point", "coordinates": [98.89685, 18.61758]}, "properties": {"id": "cm-osm-node-1287571782", "name": "7-Eleven", "nameTh": null, "nameEn": "7-Eleven", "cat": ["essentials"], "province": "cm", "slug": "7-eleven-1287571782", "rank": 3}}, {"type": "Feature", "geometry": {"type": "Point", "coordinates": [99.02373, 18.7843]}, "properties": {"id": "cm-osm-node-13027791819", "name": "7-Eleven", "nameTh": null, "nameEn": "7-Eleven", "cat": ["essentials"], "province": "cm", "slug": "7-eleven-13027791819", "rank": 3}}, {"type": "Feature", "geometry": {"type": "Point", "coordinates": [99.02946, 18.79415]}, "properties": {"id": "cm-osm-node-1350007396", "name": "7-Eleven", "nameTh": null, "nameEn": "7-Eleven", "cat": ["essentials"], "province": "cm", "slug": "7-eleven-1350007396", "rank": 3}}, {"type": "Feature", "geometry": {"type": "Point", "coordinates": [99.02361, 18.76232]}, "properties": {"id": "cm-osm-node-1353289156", "name": "7-Eleven", "nameTh": null, "nameEn": "7-Eleven", "cat": ["essentials"], "province": "cm", "slug": "7-eleven-1353289156", "rank": 3}}, {"type": "Feature", "geometry": {"type": "Point", "coordinates": [99.00937, 18.75262]}, "properties": {"id": "cm-osm-node-1358869282", "name": "7-Eleven", "nameTh": null, "nameEn": "7-Eleven", "cat": ["essentials"], "province": "cm", "slug": "7-eleven-1358869282", "rank": 3}}, {"type": "Feature", "geometry": {"type": "Point", "coordinates": [98.95846, 18.77892]}, "properties": {"id": "cm-osm-node-1489645366", "name": "7-Eleven", "nameTh": null, "nameEn": "7-Eleven", "cat": ["essentials"], "province": "cm", "slug": "7-eleven-1489645366", "rank": 3}}, {"type": "Feature", "geometry": {"type": "Point", "coordinates": [98.99381, 18.79117]}, "properties": {"id": "cm-osm-node-1491349953", "name": "7-Eleven", "nameTh": null, "nameEn": "7-Eleven", "cat": ["essentials"], "province": "cm", "slug": "7-eleven-1491349953", "rank": 3}}, {"type": "Feature", "geometry": {"type": "Point", "coordinates": [98.96149, 18.79053]}, "properties": {"id": "cm-osm-node-1492467188", "name": "7-Eleven", "nameTh": null, "nameEn": "7-Eleven", "cat": ["essentials"], "province": "cm", "slug": "7-eleven-1492467188", "rank": 3}}, {"type": "Feature", "geometry": {"type": "Point", "coordinates": [99.12201, 18.74322]}, "properties": {"id": "cm-osm-node-1508535774", "name": "7-Eleven", "nameTh": null, "nameEn": "7-Eleven", "cat": ["essentials"], "province": "cm", "slug": "7-eleven-1508535774", "rank": 3}}, {"type": "Feature", "geometry": {"type": "Point", "coordinates": [99.04263, 18.68112]}, "properties": {"id": "cm-osm-node-1539268410", "name": "7-Eleven", "nameTh": null, "nameEn": "7-Eleven", "cat": ["essentials"], "province": "cm", "slug": "7-eleven-1539268410", "rank": 3}}, {"type": "Feature", "geometry": {"type": "Point", "coordinates": [99.05657, 18.75436]}, "properties": {"id": "cm-osm-node-1563350803", "name": "7-Eleven", "nameTh": null, "nameEn": "7-Eleven", "cat": ["essentials"], "province": "cm", "slug": "7-eleven-1563350803", "rank": 3}}, {"type": "Feature", "geometry": {"type": "Point", "coordinates": [99.02846, 18.88879]}, "properties": {"id": "cm-osm-node-1577804363", "name": "7-Eleven", "nameTh": null, "nameEn": "7-Eleven", "cat": ["essentials"], "province": "cm", "slug": "7-eleven-1577804363", "rank": 3}}, {"type": "Feature", "geometry": {"type": "Point", "coordinates": [98.95552, 18.72214]}, "properties": {"id": "cm-osm-node-1579924982", "name": "7-Eleven", "nameTh": null, "nameEn": "7-Eleven", "cat": ["essentials"], "province": "cm", "slug": "7-eleven-1579924982", "rank": 3}}, {"type": "Feature", "geometry": {"type": "Point", "coordinates": [98.9415, 18.7484]}, "properties": {"id": "cm-osm-node-1588327464", "name": "7-Eleven", "nameTh": null, "nameEn": "7-Eleven", "cat": ["essentials"], "province": "cm", "slug": "7-eleven-1588327464", "rank": 3}}, {"type": "Feature", "geometry": {"type": "Point", "coordinates": [98.92071, 18.68887]}, "properties": {"id": "cm-osm-node-1589074360", "name": "7-Eleven", "nameTh": null, "nameEn": "7-Eleven", "cat": ["essentials"], "province": "cm", "slug": "7-eleven-1589074360", "rank": 3}}, {"type": "Feature", "geometry": {"type": "Point", "coordinates": [98.9562, 18.80738]}, "properties": {"id": "cm-osm-node-1595585874", "name": "7-Eleven", "nameTh": null, "nameEn": "7-Eleven", "cat": ["essentials"], "province": "cm", "slug": "7-eleven-1595585874", "rank": 3}}, {"type": "Feature", "geometry": {"type": "Point", "coordinates": [98.98616, 18.79597]}, "properties": {"id": "cm-osm-node-1595614860", "name": "7-Eleven", "nameTh": null, "nameEn": "7-Eleven", "cat": ["essentials"], "province": "cm", "slug": "7-eleven-1595614860", "rank": 3}}, {"type": "Feature", "geometry": {"type": "Point", "coordinates": [98.95899, 18.80595]}, "properties": {"id": "cm-osm-node-1595614864", "name": "7-Eleven", "nameTh": null, "nameEn": "7-Eleven", "cat": ["essentials"], "province": "cm", "slug": "7-eleven-1595614864", "rank": 3}}, {"type": "Feature", "geometry": {"type": "Point", "coordinates": [99.01122, 18.80905]}, "properties": {"id": "cm-osm-node-1616141878", "name": "7-Eleven", "nameTh": null, "nameEn": "7-Eleven", "cat": ["essentials"], "province": "cm", "slug": "7-eleven-1616141878", "rank": 3}}, {"type": "Feature", "geometry": {"type": "Point", "coordinates": [98.99392, 18.79634]}, "properties": {"id": "cm-osm-node-1617076614", "name": "7-Eleven", "nameTh": null, "nameEn": "7-Eleven", "cat": ["essentials"], "province": "cm", "slug": "7-eleven-1617076614", "rank": 3}}, {"type": "Feature", "geometry": {"type": "Point", "coordinates": [98.98195, 18.79194]}, "properties": {"id": "cm-osm-node-1618122063", "name": "7-Eleven", "nameTh": null, "nameEn": "7-Eleven", "cat": ["essentials"], "province": "cm", "slug": "7-eleven-1618122063", "rank": 3}}, {"type": "Feature", "geometry": {"type": "Point", "coordinates": [98.98762, 18.79145]}, "properties": {"id": "cm-osm-node-1619287964", "name": "7-Eleven", "nameTh": null, "nameEn": "7-Eleven", "cat": ["essentials"], "province": "cm", "slug": "7-eleven-1619287964", "rank": 3}}, {"type": "Feature", "geometry": {"type": "Point", "coordinates": [98.98285, 18.78868]}, "properties": {"id": "cm-osm-node-1619445283", "name": "7-Eleven", "nameTh": null, "nameEn": "7-Eleven", "cat": ["essentials"], "province": "cm", "slug": "7-eleven-1619445283", "rank": 3}}, {"type": "Feature", "geometry": {"type": "Point", "coordinates": [98.95625, 18.79058]}, "properties": {"id": "cm-osm-node-1814987327", "name": "7-Eleven", "nameTh": null, "nameEn": "7-Eleven", "cat": ["essentials"], "province": "cm", "slug": "7-eleven-1814987327", "rank": 3}}, {"type": "Feature", "geometry": {"type": "Point", "coordinates": [98.96107, 18.79927]}, "properties": {"id": "cm-osm-node-1819823722", "name": "7-Eleven", "nameTh": null, "nameEn": "7-Eleven", "cat": ["essentials"], "province": "cm", "slug": "7-eleven-1819823722", "rank": 3}}, {"type": "Feature", "geometry": {"type": "Point", "coordinates": [99.01713, 18.84564]}, "properties": {"id": "cm-osm-node-1862656739", "name": "7-Eleven", "nameTh": null, "nameEn": "7-Eleven", "cat": ["essentials"], "province": "cm", "slug": "7-eleven-1862656739", "rank": 3}}, {"type": "Feature", "geometry": {"type": "Point", "coordinates": [99.05154, 18.87413]}, "properties": {"id": "cm-osm-node-1874844752", "name": "7-Eleven", "nameTh": null, "nameEn": "7-Eleven", "cat": ["essentials"], "province": "cm", "slug": "7-eleven-1874844752", "rank": 3}}, {"type": "Feature", "geometry": {"type": "Point", "coordinates": [99.00687, 18.76023]}, "properties": {"id": "cm-osm-node-1931786094", "name": "7-Eleven", "nameTh": null, "nameEn": "7-Eleven", "cat": ["essentials"], "province": "cm", "slug": "7-eleven-1931786094", "rank": 3}}, {"type": "Feature", "geometry": {"type": "Point", "coordinates": [99.00547, 18.76555]}, "properties": {"id": "cm-osm-node-1931787953", "name": "7-Eleven", "nameTh": null, "nameEn": "7-Eleven", "cat": ["essentials"], "province": "cm", "slug": "7-eleven-1931787953", "rank": 3}}, {"type": "Feature", "geometry": {"type": "Point", "coordinates": [99.00885, 18.79763]}, "properties": {"id": "cm-osm-node-1936293993", "name": "7-Eleven", "nameTh": null, "nameEn": "7-Eleven", "cat": ["essentials"], "province": "cm", "slug": "7-eleven-1936293993", "rank": 3}}, {"type": "Feature", "geometry": {"type": "Point", "coordinates": [98.96298, 18.72003]}, "properties": {"id": "cm-osm-node-1954752006", "name": "7-Eleven", "nameTh": null, "nameEn": "7-Eleven", "cat": ["essentials"], "province": "cm", "slug": "7-eleven-1954752006", "rank": 3}}, {"type": "Feature", "geometry": {"type": "Point", "coordinates": [98.99499, 18.74369]}, "properties": {"id": "cm-osm-node-1956905698", "name": "7-Eleven", "nameTh": null, "nameEn": "7-Eleven", "cat": ["essentials"], "province": "cm", "slug": "7-eleven-1956905698", "rank": 3}}, {"type": "Feature", "geometry": {"type": "Point", "coordinates": [99.01925, 18.80061]}, "properties": {"id": "cm-osm-node-2002017233", "name": "7-Eleven", "nameTh": null, "nameEn": "7-Eleven", "cat": ["essentials"], "province": "cm", "slug": "7-eleven-2002017233", "rank": 3}}, {"type": "Feature", "geometry": {"type": "Point", "coordinates": [98.98145, 18.80589]}, "properties": {"id": "cm-osm-node-2038072655", "name": "7-Eleven", "nameTh": null, "nameEn": "7-Eleven", "cat": ["essentials"], "province": "cm", "slug": "7-eleven-2038072655", "rank": 3}}, {"type": "Feature", "geometry": {"type": "Point", "coordinates": [98.98841, 18.78609]}, "properties": {"id": "cm-osm-node-2040001657", "name": "7-Eleven", "nameTh": null, "nameEn": "7-Eleven", "cat": ["essentials"], "province": "cm", "slug": "7-eleven-2040001657", "rank": 3}}, {"type": "Feature", "geometry": {"type": "Point", "coordinates": [99.01629, 18.78399]}, "properties": {"id": "cm-osm-node-2062356171", "name": "7-Eleven", "nameTh": null, "nameEn": "7-Eleven", "cat": ["essentials"], "province": "cm", "slug": "7-eleven-2062356171", "rank": 3}}, {"type": "Feature", "geometry": {"type": "Point", "coordinates": [99.06849, 18.7898]}, "properties": {"id": "cm-osm-node-2089617386", "name": "7-Eleven", "nameTh": null, "nameEn": "7-Eleven", "cat": ["essentials"], "province": "cm", "slug": "7-eleven-2089617386", "rank": 3}}, {"type": "Feature", "geometry": {"type": "Point", "coordinates": [98.99024, 18.79913]}, "properties": {"id": "cm-osm-node-2090246433", "name": "7-Eleven", "nameTh": null, "nameEn": "7-Eleven", "cat": ["essentials"], "province": "cm", "slug": "7-eleven-2090246433", "rank": 3}}, {"type": "Feature", "geometry": {"type": "Point", "coordinates": [98.97087, 18.79504]}, "properties": {"id": "cm-osm-node-2099113282", "name": "7-Eleven", "nameTh": null, "nameEn": "7-Eleven", "cat": ["essentials"], "province": "cm", "slug": "7-eleven-2099113282", "rank": 3}}, {"type": "Feature", "geometry": {"type": "Point", "coordinates": [98.97997, 18.80012]}, "properties": {"id": "cm-osm-node-2099426586", "name": "7-Eleven", "nameTh": null, "nameEn": "7-Eleven", "cat": ["essentials"], "province": "cm", "slug": "7-eleven-2099426586", "rank": 3}}, {"type": "Feature", "geometry": {"type": "Point", "coordinates": [98.98524, 18.80476]}, "properties": {"id": "cm-osm-node-2100755383", "name": "7-Eleven", "nameTh": null, "nameEn": "7-Eleven", "cat": ["essentials"], "province": "cm", "slug": "7-eleven-2100755383", "rank": 3}}, {"type": "Feature", "geometry": {"type": "Point", "coordinates": [98.98938, 18.83756]}, "properties": {"id": "cm-osm-node-2102612742", "name": "7-Eleven", "nameTh": null, "nameEn": "7-Eleven", "cat": ["essentials"], "province": "cm", "slug": "7-eleven-2102612742", "rank": 3}}, {"type": "Feature", "geometry": {"type": "Point", "coordinates": [99.08355, 18.73934]}, "properties": {"id": "cm-osm-node-2307998393", "name": "7-Eleven", "nameTh": null, "nameEn": "7-Eleven", "cat": ["essentials"], "province": "cm", "slug": "7-eleven-2307998393", "rank": 3}}, {"type": "Feature", "geometry": {"type": "Point", "coordinates": [98.97573, 18.78979]}, "properties": {"id": "cm-osm-node-2337768921", "name": "7-Eleven", "nameTh": null, "nameEn": "7-Eleven", "cat": ["essentials"], "province": "cm", "slug": "7-eleven-2337768921", "rank": 3}}, {"type": "Feature", "geometry": {"type": "Point", "coordinates": [98.97845, 18.78984]}, "properties": {"id": "cm-osm-node-2466325290", "name": "7-Eleven", "nameTh": null, "nameEn": "7-Eleven", "cat": ["essentials"], "province": "cm", "slug": "7-eleven-2466325290", "rank": 3}}, {"type": "Feature", "geometry": {"type": "Point", "coordinates": [99.12772, 18.86939]}, "properties": {"id": "cm-osm-node-2477476570", "name": "7-Eleven", "nameTh": null, "nameEn": "7-Eleven", "cat": ["essentials"], "province": "cm", "slug": "7-eleven-2477476570", "rank": 3}}, {"type": "Feature", "geometry": {"type": "Point", "coordinates": [98.97873, 18.80455]}, "properties": {"id": "cm-osm-node-2509993172", "name": "7-Eleven", "nameTh": null, "nameEn": "7-Eleven", "cat": ["essentials"], "province": "cm", "slug": "7-eleven-2509993172", "rank": 3}}, {"type": "Feature", "geometry": {"type": "Point", "coordinates": [99.01097, 18.81416]}, "properties": {"id": "cm-osm-node-2517090141", "name": "7-Eleven", "nameTh": null, "nameEn": "7-Eleven", "cat": ["essentials"], "province": "cm", "slug": "7-eleven-2517090141", "rank": 3}}, {"type": "Feature", "geometry": {"type": "Point", "coordinates": [98.98111, 18.80282]}, "properties": {"id": "cm-osm-node-2530336690", "name": "7-Eleven", "nameTh": null, "nameEn": "7-Eleven", "cat": ["essentials"], "province": "cm", "slug": "7-eleven-2530336690", "rank": 3}}, {"type": "Feature", "geometry": {"type": "Point", "coordinates": [98.97299, 18.80381]}, "properties": {"id": "cm-osm-node-2530413336", "name": "7-Eleven", "nameTh": null, "nameEn": "7-Eleven", "cat": ["essentials"], "province": "cm", "slug": "7-eleven-2530413336", "rank": 3}}, {"type": "Feature", "geometry": {"type": "Point", "coordinates": [98.97817, 18.8024]}, "properties": {"id": "cm-osm-node-2530435337", "name": "7-Eleven", "nameTh": null, "nameEn": "7-Eleven", "cat": ["essentials"], "province": "cm", "slug": "7-eleven-2530435337", "rank": 3}}, {"type": "Feature", "geometry": {"type": "Point", "coordinates": [98.94583, 18.91339]}, "properties": {"id": "cm-osm-node-2556193498", "name": "7-Eleven", "nameTh": null, "nameEn": "7-Eleven", "cat": ["essentials"], "province": "cm", "slug": "7-eleven-2556193498", "rank": 3}}, {"type": "Feature", "geometry": {"type": "Point", "coordinates": [98.94482, 18.91526]}, "properties": {"id": "cm-osm-node-2556220802", "name": "7-Eleven", "nameTh": null, "nameEn": "7-Eleven", "cat": ["essentials"], "province": "cm", "slug": "7-eleven-2556220802", "rank": 3}}, {"type": "Feature", "geometry": {"type": "Point", "coordinates": [98.99344, 18.80516]}, "properties": {"id": "cm-osm-node-2580478784", "name": "7-Eleven", "nameTh": null, "nameEn": "7-Eleven", "cat": ["essentials"], "province": "cm", "slug": "7-eleven-2580478784", "rank": 3}}, {"type": "Feature", "geometry": {"type": "Point", "coordinates": [99.1272, 18.73453]}, "properties": {"id": "cm-osm-node-2581651718", "name": "7-Eleven", "nameTh": null, "nameEn": "7-Eleven", "cat": ["essentials"], "province": "cm", "slug": "7-eleven-2581651718", "rank": 3}}, {"type": "Feature", "geometry": {"type": "Point", "coordinates": [99.00515, 18.90186]}, "properties": {"id": "cm-osm-node-2587314929", "name": "7-Eleven", "nameTh": null, "nameEn": "7-Eleven", "cat": ["essentials"], "province": "cm", "slug": "7-eleven-2587314929", "rank": 3}}, {"type": "Feature", "geometry": {"type": "Point", "coordinates": [99.04346, 18.84515]}, "properties": {"id": "cm-osm-node-2590185736", "name": "7-Eleven", "nameTh": null, "nameEn": "7-Eleven", "cat": ["essentials"], "province": "cm", "slug": "7-eleven-2590185736", "rank": 3}}, {"type": "Feature", "geometry": {"type": "Point", "coordinates": [99.03122, 18.78279]}, "properties": {"id": "cm-osm-node-2595939982", "name": "7-Eleven", "nameTh": null, "nameEn": "7-Eleven", "cat": ["essentials"], "province": "cm", "slug": "7-eleven-2595939982", "rank": 3}}, {"type": "Feature", "geometry": {"type": "Point", "coordinates": [99.029, 18.81587]}, "properties": {"id": "cm-osm-node-2600091532", "name": "7-Eleven", "nameTh": null, "nameEn": "7-Eleven", "cat": ["essentials"], "province": "cm", "slug": "7-eleven-2600091532", "rank": 3}}, {"type": "Feature", "geometry": {"type": "Point", "coordinates": [99.0145, 18.86138]}, "properties": {"id": "cm-osm-node-2600943728", "name": "7-Eleven", "nameTh": null, "nameEn": "7-Eleven", "cat": ["essentials"], "province": "cm", "slug": "7-eleven-2600943728", "rank": 3}}, {"type": "Feature", "geometry": {"type": "Point", "coordinates": [99.01172, 18.89112]}, "properties": {"id": "cm-osm-node-2600986664", "name": "7-Eleven", "nameTh": null, "nameEn": "7-Eleven", "cat": ["essentials"], "province": "cm", "slug": "7-eleven-2600986664", "rank": 3}}, {"type": "Feature", "geometry": {"type": "Point", "coordinates": [98.99895, 18.77262]}, "properties": {"id": "cm-osm-node-2609696943", "name": "7-Eleven", "nameTh": null, "nameEn": "7-Eleven", "cat": ["essentials"], "province": "cm", "slug": "7-eleven-2609696943", "rank": 3}}, {"type": "Feature", "geometry": {"type": "Point", "coordinates": [98.98706, 18.78155]}, "properties": {"id": "cm-osm-node-2609696944", "name": "7-Eleven", "nameTh": null, "nameEn": "7-Eleven", "cat": ["essentials"], "province": "cm", "slug": "7-eleven-2609696944", "rank": 3}}, {"type": "Feature", "geometry": {"type": "Point", "coordinates": [98.98793, 18.78154]}, "properties": {"id": "cm-osm-node-2609696945", "name": "7-Eleven", "nameTh": null, "nameEn": "7-Eleven", "cat": ["essentials"], "province": "cm", "slug": "7-eleven-2609696945", "rank": 3}}, {"type": "Feature", "geometry": {"type": "Point", "coordinates": [98.97571, 18.79734]}, "properties": {"id": "cm-osm-node-2609696946", "name": "7-Eleven", "nameTh": null, "nameEn": "7-Eleven", "cat": ["essentials"], "province": "cm", "slug": "7-eleven-2609696946", "rank": 3}}, {"type": "Feature", "geometry": {"type": "Point", "coordinates": [98.99866, 18.76917]}, "properties": {"id": "cm-osm-node-2610123180", "name": "7-Eleven", "nameTh": null, "nameEn": "7-Eleven", "cat": ["essentials"], "province": "cm", "slug": "7-eleven-2610123180", "rank": 3}}, {"type": "Feature", "geometry": {"type": "Point", "coordinates": [98.99939, 18.7796]}, "properties": {"id": "cm-osm-node-2610123183", "name": "7-Eleven", "nameTh": null, "nameEn": "7-Eleven", "cat": ["essentials"], "province": "cm", "slug": "7-eleven-2610123183", "rank": 3}}, {"type": "Feature", "geometry": {"type": "Point", "coordinates": [99.02499, 18.76334]}, "properties": {"id": "cm-osm-node-2610146257", "name": "7-Eleven", "nameTh": null, "nameEn": "7-Eleven", "cat": ["essentials"], "province": "cm", "slug": "7-eleven-2610146257", "rank": 3}}, {"type": "Feature", "geometry": {"type": "Point", "coordinates": [98.96555, 18.78947]}, "properties": {"id": "cm-osm-node-2638649069", "name": "7-Eleven", "nameTh": null, "nameEn": "7-Eleven", "cat": ["essentials"], "province": "cm", "slug": "7-eleven-2638649069", "rank": 3}}, {"type": "Feature", "geometry": {"type": "Point", "coordinates": [98.97279, 18.78891]}, "properties": {"id": "cm-osm-node-2638687780", "name": "7-Eleven", "nameTh": null, "nameEn": "7-Eleven", "cat": ["essentials"], "province": "cm", "slug": "7-eleven-2638687780", "rank": 3}}, {"type": "Feature", "geometry": {"type": "Point", "coordinates": [98.96984, 18.78904]}, "properties": {"id": "cm-osm-node-2638687785", "name": "7-Eleven", "nameTh": null, "nameEn": "7-Eleven", "cat": ["essentials"], "province": "cm", "slug": "7-eleven-2638687785", "rank": 3}}, {"type": "Feature", "geometry": {"type": "Point", "coordinates": [99.00532, 18.78381]}, "properties": {"id": "cm-osm-node-2648382126", "name": "7-Eleven", "nameTh": null, "nameEn": "7-Eleven", "cat": ["essentials"], "province": "cm", "slug": "7-eleven-2648382126", "rank": 3}}, {"type": "Feature", "geometry": {"type": "Point", "coordinates": [98.99908, 18.79636]}, "properties": {"id": "cm-osm-node-2649636478", "name": "7-Eleven", "nameTh": null, "nameEn": "7-Eleven", "cat": ["essentials"], "province": "cm", "slug": "7-eleven-2649636478", "rank": 3}}, {"type": "Feature", "geometry": {"type": "Point", "coordinates": [98.95814, 18.7917]}, "properties": {"id": "cm-osm-node-2650752229", "name": "7-Eleven", "nameTh": null, "nameEn": "7-Eleven", "cat": ["essentials"], "province": "cm", "slug": "7-eleven-2650752229", "rank": 3}}, {"type": "Feature", "geometry": {"type": "Point", "coordinates": [99.00085, 18.80124]}, "properties": {"id": "cm-osm-node-2650782949", "name": "7-Eleven", "nameTh": null, "nameEn": "7-Eleven", "cat": ["essentials"], "province": "cm", "slug": "7-eleven-2650782949", "rank": 3}}, {"type": "Feature", "geometry": {"type": "Point", "coordinates": [98.99907, 18.78413]}, "properties": {"id": "cm-osm-node-2655201559", "name": "7-Eleven", "nameTh": null, "nameEn": "7-Eleven", "cat": ["essentials"], "province": "cm", "slug": "7-eleven-2655201559", "rank": 3}}, {"type": "Feature", "geometry": {"type": "Point", "coordinates": [98.96004, 18.80042]}, "properties": {"id": "cm-osm-node-2660452152", "name": "7-Eleven", "nameTh": null, "nameEn": "7-Eleven", "cat": ["essentials"], "province": "cm", "slug": "7-eleven-2660452152", "rank": 3}}, {"type": "Feature", "geometry": {"type": "Point", "coordinates": [98.96924, 18.80478]}, "properties": {"id": "cm-osm-node-2660469647", "name": "7-Eleven", "nameTh": null, "nameEn": "7-Eleven", "cat": ["essentials"], "province": "cm", "slug": "7-eleven-2660469647", "rank": 3}}, {"type": "Feature", "geometry": {"type": "Point", "coordinates": [99.00241, 18.81053]}, "properties": {"id": "cm-osm-node-2660472373", "name": "7-Eleven", "nameTh": null, "nameEn": "7-Eleven", "cat": ["essentials"], "province": "cm", "slug": "7-eleven-2660472373", "rank": 3}}, {"type": "Feature", "geometry": {"type": "Point", "coordinates": [99.00587, 18.76343]}, "properties": {"id": "cm-osm-node-2661432120", "name": "7-Eleven", "nameTh": null, "nameEn": "7-Eleven", "cat": ["essentials"], "province": "cm", "slug": "7-eleven-2661432120", "rank": 3}}, {"type": "Feature", "geometry": {"type": "Point", "coordinates": [98.92127, 18.7093]}, "properties": {"id": "cm-osm-node-2670834423", "name": "7-Eleven", "nameTh": null, "nameEn": "7-Eleven", "cat": ["essentials"], "province": "cm", "slug": "7-eleven-2670834423", "rank": 3}}, {"type": "Feature", "geometry": {"type": "Point", "coordinates": [99.01658, 18.79615]}, "properties": {"id": "cm-osm-node-2682488387", "name": "7-Eleven", "nameTh": null, "nameEn": "7-Eleven", "cat": ["essentials"], "province": "cm", "slug": "7-eleven-2682488387", "rank": 3}}, {"type": "Feature", "geometry": {"type": "Point", "coordinates": [99.00986, 18.80121]}, "properties": {"id": "cm-osm-node-2682539780", "name": "7-Eleven", "nameTh": null, "nameEn": "7-Eleven", "cat": ["essentials"], "province": "cm", "slug": "7-eleven-2682539780", "rank": 3}}, {"type": "Feature", "geometry": {"type": "Point", "coordinates": [99.0133, 18.89202]}, "properties": {"id": "cm-osm-node-2682577301", "name": "7-Eleven", "nameTh": null, "nameEn": "7-Eleven", "cat": ["essentials"], "province": "cm", "slug": "7-eleven-2682577301", "rank": 3}}, {"type": "Feature", "geometry": {"type": "Point", "coordinates": [98.8956, 18.6253]}, "properties": {"id": "cm-osm-node-2684213287", "name": "7-Eleven", "nameTh": null, "nameEn": "7-Eleven", "cat": ["essentials"], "province": "cm", "slug": "7-eleven-2684213287", "rank": 3}}, {"type": "Feature", "geometry": {"type": "Point", "coordinates": [98.91863, 18.68225]}, "properties": {"id": "cm-osm-node-2685558607", "name": "7-Eleven", "nameTh": null, "nameEn": "7-Eleven", "cat": ["essentials"], "province": "cm", "slug": "7-eleven-2685558607", "rank": 3}}, {"type": "Feature", "geometry": {"type": "Point", "coordinates": [98.95372, 18.73508]}, "properties": {"id": "cm-osm-node-2685576115", "name": "7-Eleven", "nameTh": null, "nameEn": "7-Eleven", "cat": ["essentials"], "province": "cm", "slug": "7-eleven-2685576115", "rank": 3}}, {"type": "Feature", "geometry": {"type": "Point", "coordinates": [98.95434, 18.7353]}, "properties": {"id": "cm-osm-node-2685576116", "name": "7-Eleven", "nameTh": null, "nameEn": "7-Eleven", "cat": ["essentials"], "province": "cm", "slug": "7-eleven-2685576116", "rank": 3}}, {"type": "Feature", "geometry": {"type": "Point", "coordinates": [98.97104, 18.79773]}, "properties": {"id": "cm-osm-node-2696290620", "name": "7-Eleven", "nameTh": null, "nameEn": "7-Eleven", "cat": ["essentials"], "province": "cm", "slug": "7-eleven-2696290620", "rank": 3}}, {"type": "Feature", "geometry": {"type": "Point", "coordinates": [99.04865, 18.75729]}, "properties": {"id": "cm-osm-node-3124163116", "name": "7-Eleven", "nameTh": null, "nameEn": "7-Eleven", "cat": ["essentials"], "province": "cm", "slug": "7-eleven-3124163116", "rank": 3}}, {"type": "Feature", "geometry": {"type": "Point", "coordinates": [98.99325, 18.8111]}, "properties": {"id": "cm-osm-node-3184683033", "name": "7-Eleven", "nameTh": null, "nameEn": "7-Eleven", "cat": ["essentials"], "province": "cm", "slug": "7-eleven-3184683033", "rank": 3}}, {"type": "Feature", "geometry": {"type": "Point", "coordinates": [98.9974, 18.79976]}, "properties": {"id": "cm-osm-node-3297927098", "name": "7-Eleven", "nameTh": null, "nameEn": "7-Eleven", "cat": ["essentials"], "province": "cm", "slug": "7-eleven-3297927098", "rank": 3}}, {"type": "Feature", "geometry": {"type": "Point", "coordinates": [98.99644, 18.78127]}, "properties": {"id": "cm-osm-node-3298800097", "name": "7-Eleven", "nameTh": null, "nameEn": "7-Eleven", "cat": ["essentials"], "province": "cm", "slug": "7-eleven-3298800097", "rank": 3}}, {"type": "Feature", "geometry": {"type": "Point", "coordinates": [98.98833, 18.79519]}, "properties": {"id": "cm-osm-node-3298800098", "name": "7-Eleven", "nameTh": null, "nameEn": "7-Eleven", "cat": ["essentials"], "province": "cm", "slug": "7-eleven-3298800098", "rank": 3}}, {"type": "Feature", "geometry": {"type": "Point", "coordinates": [98.9751, 18.80556]}, "properties": {"id": "cm-osm-node-3311589186", "name": "7-Eleven", "nameTh": null, "nameEn": "7-Eleven", "cat": ["essentials"], "province": "cm", "slug": "7-eleven-3311589186", "rank": 3}}, {"type": "Feature", "geometry": {"type": "Point", "coordinates": [98.95013, 18.77009]}, "properties": {"id": "cm-osm-node-3341640391", "name": "7-Eleven", "nameTh": null, "nameEn": "7-Eleven", "cat": ["essentials"], "province": "cm", "slug": "7-eleven-3341640391", "rank": 3}}, {"type": "Feature", "geometry": {"type": "Point", "coordinates": [98.97035, 18.74171]}, "properties": {"id": "cm-osm-node-3342167098", "name": "7-Eleven", "nameTh": null, "nameEn": "7-Eleven", "cat": ["essentials"], "province": "cm", "slug": "7-eleven-3342167098", "rank": 3}}, {"type": "Feature", "geometry": {"type": "Point", "coordinates": [99.05057, 18.77868]}, "properties": {"id": "cm-osm-node-3383962933", "name": "7-Eleven", "nameTh": null, "nameEn": "7-Eleven", "cat": ["essentials"], "province": "cm", "slug": "7-eleven-3383962933", "rank": 3}}, {"type": "Feature", "geometry": {"type": "Point", "coordinates": [99.13649, 18.73704]}, "properties": {"id": "cm-osm-node-3383965571", "name": "7-Eleven", "nameTh": null, "nameEn": "7-Eleven", "cat": ["essentials"], "province": "cm", "slug": "7-eleven-3383965571", "rank": 3}}, {"type": "Feature", "geometry": {"type": "Point", "coordinates": [98.9955, 18.78461]}, "properties": {"id": "cm-osm-node-3415499426", "name": "7-Eleven", "nameTh": null, "nameEn": "7-Eleven", "cat": ["essentials"], "province": "cm", "slug": "7-eleven-3415499426", "rank": 3}}, {"type": "Feature", "geometry": {"type": "Point", "coordinates": [99.00039, 18.78351]}, "properties": {"id": "cm-osm-node-3416994640", "name": "7-Eleven", "nameTh": null, "nameEn": "7-Eleven", "cat": ["essentials"], "province": "cm", "slug": "7-eleven-3416994640", "rank": 3}}, {"type": "Feature", "geometry": {"type": "Point", "coordinates": [99.0008, 18.78579]}, "properties": {"id": "cm-osm-node-3417307169", "name": "7-Eleven", "nameTh": null, "nameEn": "7-Eleven", "cat": ["essentials"], "province": "cm", "slug": "7-eleven-3417307169", "rank": 3}}, {"type": "Feature", "geometry": {"type": "Point", "coordinates": [98.97369, 18.80824]}, "properties": {"id": "cm-osm-node-3779647860", "name": "7-Eleven", "nameTh": null, "nameEn": "7-Eleven", "cat": ["essentials"], "province": "cm", "slug": "7-eleven-3779647860", "rank": 3}}, {"type": "Feature", "geometry": {"type": "Point", "coordinates": [99.01569, 18.73681]}, "properties": {"id": "cm-osm-node-3870411642", "name": "7-Eleven", "nameTh": null, "nameEn": "7-Eleven", "cat": ["essentials"], "province": "cm", "slug": "7-eleven-3870411642", "rank": 3}}, {"type": "Feature", "geometry": {"type": "Point", "coordinates": [99.02027, 18.81659]}, "properties": {"id": "cm-osm-node-3912487238", "name": "7-Eleven", "nameTh": null, "nameEn": "7-Eleven", "cat": ["essentials"], "province": "cm", "slug": "7-eleven-3912487238", "rank": 3}}, {"type": "Feature", "geometry": {"type": "Point", "coordinates": [99.01838, 18.81964]}, "properties": {"id": "cm-osm-node-3915585391", "name": "7-Eleven", "nameTh": null, "nameEn": "7-Eleven", "cat": ["essentials"], "province": "cm", "slug": "7-eleven-3915585391", "rank": 3}}, {"type": "Feature", "geometry": {"type": "Point", "coordinates": [98.96904, 18.85089]}, "properties": {"id": "cm-osm-node-3937204911", "name": "7-Eleven", "nameTh": null, "nameEn": "7-Eleven", "cat": ["essentials"], "province": "cm", "slug": "7-eleven-3937204911", "rank": 3}}, {"type": "Feature", "geometry": {"type": "Point", "coordinates": [98.99342, 18.77263]}, "properties": {"id": "cm-osm-node-4064638403", "name": "7-Eleven", "nameTh": null, "nameEn": "7-Eleven", "cat": ["essentials"], "province": "cm", "slug": "7-eleven-4064638403", "rank": 3}}, {"type": "Feature", "geometry": {"type": "Point", "coordinates": [98.9805, 18.73979]}, "properties": {"id": "cm-osm-node-4067902170", "name": "7-Eleven", "nameTh": null, "nameEn": "7-Eleven", "cat": ["essentials"], "province": "cm", "slug": "7-eleven-4067902170", "rank": 3}}, {"type": "Feature", "geometry": {"type": "Point", "coordinates": [99.06344, 18.75086]}, "properties": {"id": "cm-osm-node-4115297795", "name": "7-Eleven", "nameTh": null, "nameEn": "7-Eleven", "cat": ["essentials"], "province": "cm", "slug": "7-eleven-4115297795", "rank": 3}}, {"type": "Feature", "geometry": {"type": "Point", "coordinates": [99.03014, 18.80497]}, "properties": {"id": "cm-osm-node-4160790070", "name": "7-Eleven", "nameTh": null, "nameEn": "7-Eleven", "cat": ["essentials"], "province": "cm", "slug": "7-eleven-4160790070", "rank": 3}}, {"type": "Feature", "geometry": {"type": "Point", "coordinates": [99.01181, 18.82534]}, "properties": {"id": "cm-osm-node-4213689893", "name": "7-Eleven", "nameTh": null, "nameEn": "7-Eleven", "cat": ["essentials"], "province": "cm", "slug": "7-eleven-4213689893", "rank": 3}}, {"type": "Feature", "geometry": {"type": "Point", "coordinates": [98.9824, 18.81566]}, "properties": {"id": "cm-osm-node-4216607001", "name": "7-Eleven", "nameTh": null, "nameEn": "7-Eleven", "cat": ["essentials"], "province": "cm", "slug": "7-eleven-4216607001", "rank": 3}}, {"type": "Feature", "geometry": {"type": "Point", "coordinates": [98.98499, 18.8074]}, "properties": {"id": "cm-osm-node-4252082831", "name": "7-Eleven", "nameTh": null, "nameEn": "7-Eleven", "cat": ["essentials"], "province": "cm", "slug": "7-eleven-4252082831", "rank": 3}}, {"type": "Feature", "geometry": {"type": "Point", "coordinates": [98.969, 18.85265]}, "properties": {"id": "cm-osm-node-4480923151", "name": "7-Eleven", "nameTh": null, "nameEn": "7-Eleven", "cat": ["essentials"], "province": "cm", "slug": "7-eleven-4480923151", "rank": 2}}, {"type": "Feature", "geometry": {"type": "Point", "coordinates": [98.97186, 18.84525]}, "properties": {"id": "cm-osm-node-4480923768", "name": "7-Eleven", "nameTh": null, "nameEn": "7-Eleven", "cat": ["essentials"], "province": "cm", "slug": "7-eleven-4480923768", "rank": 2}}, {"type": "Feature", "geometry": {"type": "Point", "coordinates": [98.99004, 18.79379]}, "properties": {"id": "cm-osm-node-4484769089", "name": "7-Eleven", "nameTh": "7-Eleven", "nameEn": null, "cat": ["essentials"], "province": "cm", "slug": "7-eleven-4484769089", "rank": 2}}, {"type": "Feature", "geometry": {"type": "Point", "coordinates": [99.03756, 18.71226]}, "properties": {"id": "cm-osm-node-4509362290", "name": "7-Eleven", "nameTh": null, "nameEn": "7-Eleven", "cat": ["essentials"], "province": "cm", "slug": "7-eleven-4509362290", "rank": 2}}, {"type": "Feature", "geometry": {"type": "Point", "coordinates": [99.03407, 18.71521]}, "properties": {"id": "cm-osm-node-4509362291", "name": "7-Eleven", "nameTh": null, "nameEn": "7-Eleven", "cat": ["essentials"], "province": "cm", "slug": "7-eleven-4509362291", "rank": 2}}, {"type": "Feature", "geometry": {"type": "Point", "coordinates": [99.04167, 18.64976]}, "properties": {"id": "cm-osm-node-4509445499", "name": "7-Eleven", "nameTh": null, "nameEn": "7-Eleven", "cat": ["essentials"], "province": "cm", "slug": "7-eleven-4509445499", "rank": 2}}, {"type": "Feature", "geometry": {"type": "Point", "coordinates": [98.9357, 18.70757]}, "properties": {"id": "cm-osm-node-4532822024", "name": "7-Eleven", "nameTh": null, "nameEn": "7-Eleven", "cat": ["essentials"], "province": "cm", "slug": "7-eleven-4532822024", "rank": 2}}, {"type": "Feature", "geometry": {"type": "Point", "coordinates": [98.95929, 18.78624]}, "properties": {"id": "cm-osm-node-4559286249", "name": "7-Eleven", "nameTh": null, "nameEn": "7-Eleven", "cat": ["essentials"], "province": "cm", "slug": "7-eleven-4559286249", "rank": 2}}, {"type": "Feature", "geometry": {"type": "Point", "coordinates": [99.01274, 18.83681]}, "properties": {"id": "cm-osm-node-4587843668", "name": "7-Eleven", "nameTh": null, "nameEn": "7-Eleven", "cat": ["essentials"], "province": "cm", "slug": "7-eleven-4587843668", "rank": 2}}, {"type": "Feature", "geometry": {"type": "Point", "coordinates": [98.95469, 18.78331]}, "properties": {"id": "cm-osm-node-5989927476", "name": "7-Eleven", "nameTh": null, "nameEn": "7-Eleven", "cat": ["essentials"], "province": "cm", "slug": "7-eleven-5989927476", "rank": 2}}, {"type": "Feature", "geometry": {"type": "Point", "coordinates": [99.0473, 18.75896]}, "properties": {"id": "cm-osm-node-6004761433", "name": "7-Eleven", "nameTh": null, "nameEn": "7-Eleven", "cat": ["essentials"], "province": "cm", "slug": "7-eleven-6004761433", "rank": 2}}, {"type": "Feature", "geometry": {"type": "Point", "coordinates": [98.98962, 18.77559]}, "properties": {"id": "cm-osm-node-6261749447", "name": "7-Eleven", "nameTh": null, "nameEn": "7-Eleven", "cat": ["essentials"], "province": "cm", "slug": "7-eleven-6261749447", "rank": 2}}, {"type": "Feature", "geometry": {"type": "Point", "coordinates": [98.98487, 18.77875]}, "properties": {"id": "cm-osm-node-6352076492", "name": "7-Eleven", "nameTh": null, "nameEn": "7 eleven", "cat": ["essentials"], "province": "cm", "slug": "7-eleven-6352076492", "rank": 2}}, {"type": "Feature", "geometry": {"type": "Point", "coordinates": [98.98165, 18.78374]}, "properties": {"id": "cm-osm-node-6352082587", "name": "7-Eleven", "nameTh": null, "nameEn": "7-Eleven", "cat": ["essentials"], "province": "cm", "slug": "7-eleven-6352082587", "rank": 2}}, {"type": "Feature", "geometry": {"type": "Point", "coordinates": [99.00002, 18.78322]}, "properties": {"id": "cm-osm-node-6545649502", "name": "7-Eleven", "nameTh": null, "nameEn": "7-Eleven", "cat": ["essentials"], "province": "cm", "slug": "7-eleven-6545649502", "rank": 3}}, {"type": "Feature", "geometry": {"type": "Point", "coordinates": [99.13549, 18.87293]}, "properties": {"id": "cm-osm-node-694942450", "name": "7-Eleven", "nameTh": null, "nameEn": "7-Eleven", "cat": ["essentials"], "province": "cm", "slug": "7-eleven-694942450", "rank": 3}}, {"type": "Feature", "geometry": {"type": "Point", "coordinates": [99.02228, 18.80693]}, "properties": {"id": "cm-osm-node-695008010", "name": "7-Eleven", "nameTh": null, "nameEn": "7-Eleven", "cat": ["essentials"], "province": "cm", "slug": "7-eleven-695008010", "rank": 3}}, {"type": "Feature", "geometry": {"type": "Point", "coordinates": [99.02735, 18.81051]}, "properties": {"id": "cm-osm-node-695008016", "name": "7-Eleven", "nameTh": null, "nameEn": "7-Eleven", "cat": ["essentials"], "province": "cm", "slug": "7-eleven-695008016", "rank": 3}}, {"type": "Feature", "geometry": {"type": "Point", "coordinates": [99.07434, 18.8442]}, "properties": {"id": "cm-osm-node-719463355", "name": "7-Eleven", "nameTh": null, "nameEn": "7-Eleven", "cat": ["essentials"], "province": "cm", "slug": "7-eleven-719463355", "rank": 3}}, {"type": "Feature", "geometry": {"type": "Point", "coordinates": [99.10439, 18.79381]}, "properties": {"id": "cm-osm-node-725620368", "name": "7-Eleven", "nameTh": null, "nameEn": "7-Eleven", "cat": ["essentials"], "province": "cm", "slug": "7-eleven-725620368", "rank": 3}}, {"type": "Feature", "geometry": {"type": "Point", "coordinates": [98.96271, 18.79526]}, "properties": {"id": "cm-osm-node-725689741", "name": "7-Eleven", "nameTh": null, "nameEn": "7-Eleven", "cat": ["essentials"], "province": "cm", "slug": "7-eleven-725689741", "rank": 3}}, {"type": "Feature", "geometry": {"type": "Point", "coordinates": [99.01131, 18.81119]}, "properties": {"id": "cm-osm-node-772433650", "name": "7-Eleven", "nameTh": null, "nameEn": "7-Eleven", "cat": ["essentials"], "province": "cm", "slug": "7-eleven-772433650", "rank": 3}}, {"type": "Feature", "geometry": {"type": "Point", "coordinates": [99.08199, 18.76511]}, "properties": {"id": "cm-osm-node-838775359", "name": "7-Eleven", "nameTh": null, "nameEn": "7-Eleven", "cat": ["essentials"], "province": "cm", "slug": "7-eleven-838775359", "rank": 3}}, {"type": "Feature", "geometry": {"type": "Point", "coordinates": [99.00909, 18.89475]}, "properties": {"id": "cm-osm-node-840185285", "name": "7-Eleven", "nameTh": null, "nameEn": "7-Eleven", "cat": ["essentials"], "province": "cm", "slug": "7-eleven-840185285", "rank": 3}}, {"type": "Feature", "geometry": {"type": "Point", "coordinates": [98.98312, 18.68029]}, "properties": {"id": "cm-osm-node-856566123", "name": "7-Eleven", "nameTh": null, "nameEn": "7-Eleven", "cat": ["essentials"], "province": "cm", "slug": "7-eleven-856566123", "rank": 3}}, {"type": "Feature", "geometry": {"type": "Point", "coordinates": [99.07166, 18.76983]}, "properties": {"id": "cm-osm-node-863464773", "name": "7-Eleven", "nameTh": null, "nameEn": "7-Eleven", "cat": ["essentials"], "province": "cm", "slug": "7-eleven-863464773", "rank": 3}}, {"type": "Feature", "geometry": {"type": "Point", "coordinates": [99.0531, 18.83088]}, "properties": {"id": "cm-osm-node-8699173889", "name": "7-Eleven", "nameTh": null, "nameEn": "7-Eleven", "cat": ["essentials"], "province": "cm", "slug": "7-eleven-8699173889", "rank": 2}}, {"type": "Feature", "geometry": {"type": "Point", "coordinates": [99.03764, 18.72133]}, "properties": {"id": "cm-osm-node-9492146646", "name": "7-Eleven", "nameTh": null, "nameEn": "7-Eleven", "cat": ["essentials"], "province": "cm", "slug": "7-eleven-9492146646", "rank": 2}}, {"type": "Feature", "geometry": {"type": "Point", "coordinates": [98.99171, 18.92064]}, "properties": {"id": "cm-osm-way-1017064983", "name": "7-Eleven", "nameTh": null, "nameEn": "7-Eleven", "cat": ["essentials"], "province": "cm", "slug": "7-eleven-1017064983", "rank": 3}}, {"type": "Feature", "geometry": {"type": "Point", "coordinates": [99.08857, 18.7346]}, "properties": {"id": "cm-osm-way-1035238802", "name": "7-Eleven", "nameTh": null, "nameEn": "7-Eleven", "cat": ["essentials"], "province": "cm", "slug": "7-eleven-1035238802", "rank": 2}}, {"type": "Feature", "geometry": {"type": "Point", "coordinates": [98.97793, 18.79413]}, "properties": {"id": "cm-osm-way-1106554072", "name": "7-Eleven", "nameTh": null, "nameEn": "7-Eleven", "cat": ["essentials"], "province": "cm", "slug": "7-eleven-1106554072", "rank": 3}}, {"type": "Feature", "geometry": {"type": "Point", "coordinates": [99.02382, 18.84112]}, "properties": {"id": "cm-osm-way-1110949519", "name": "7-Eleven", "nameTh": null, "nameEn": "7-Eleven", "cat": ["essentials"], "province": "cm", "slug": "7-eleven-1110949519", "rank": 2}}, {"type": "Feature", "geometry": {"type": "Point", "coordinates": [98.92343, 18.72475]}, "properties": {"id": "cm-osm-way-1130565272", "name": "7-Eleven", "nameTh": null, "nameEn": "7-Eleven", "cat": ["essentials"], "province": "cm", "slug": "7-eleven-1130565272", "rank": 3}}, {"type": "Feature", "geometry": {"type": "Point", "coordinates": [98.93073, 18.72391]}, "properties": {"id": "cm-osm-way-1130565274", "name": "7-Eleven", "nameTh": null, "nameEn": "7-Eleven", "cat": ["essentials"], "province": "cm", "slug": "7-eleven-1130565274", "rank": 3}}, {"type": "Feature", "geometry": {"type": "Point", "coordinates": [98.98674, 18.80034]}, "properties": {"id": "cm-osm-way-1215513811", "name": "7-Eleven", "nameTh": null, "nameEn": "7-Eleven", "cat": ["essentials"], "province": "cm", "slug": "7-eleven-1215513811", "rank": 3}}, {"type": "Feature", "geometry": {"type": "Point", "coordinates": [98.99023, 18.77421]}, "properties": {"id": "cm-osm-way-1253163166", "name": "7-Eleven", "nameTh": null, "nameEn": "7-Eleven", "cat": ["essentials"], "province": "cm", "slug": "7-eleven-1253163166", "rank": 3}}, {"type": "Feature", "geometry": {"type": "Point", "coordinates": [99.04422, 18.64359]}, "properties": {"id": "cm-osm-way-1360315542", "name": "7-Eleven", "nameTh": null, "nameEn": "7-Eleven", "cat": ["essentials"], "province": "cm", "slug": "7-eleven-1360315542", "rank": 2}}, {"type": "Feature", "geometry": {"type": "Point", "coordinates": [99.06306, 18.83659]}, "properties": {"id": "cm-osm-way-1468154737", "name": "7-Eleven", "nameTh": null, "nameEn": "7-Eleven", "cat": ["essentials"], "province": "cm", "slug": "7-eleven-1468154737", "rank": 3}}, {"type": "Feature", "geometry": {"type": "Point", "coordinates": [98.99297, 18.7873]}, "properties": {"id": "cm-osm-way-238151855", "name": "7-Eleven", "nameTh": null, "nameEn": "7-Eleven", "cat": ["essentials"], "province": "cm", "slug": "7-eleven-238151855", "rank": 3}}, {"type": "Feature", "geometry": {"type": "Point", "coordinates": [99.052, 18.66924]}, "properties": {"id": "cm-osm-way-282467209", "name": "7-Eleven", "nameTh": null, "nameEn": "7-Eleven", "cat": ["essentials"], "province": "cm", "slug": "7-eleven-282467209", "rank": 3}}, {"type": "Feature", "geometry": {"type": "Point", "coordinates": [98.96266, 18.80993]}, "properties": {"id": "cm-osm-way-314669226", "name": "7-Eleven", "nameTh": null, "nameEn": "7-Eleven", "cat": ["essentials"], "province": "cm", "slug": "7-eleven-314669226", "rank": 3}}, {"type": "Feature", "geometry": {"type": "Point", "coordinates": [98.96394, 18.80809]}, "properties": {"id": "cm-osm-way-314669370", "name": "7-Eleven", "nameTh": null, "nameEn": "7-Eleven", "cat": ["essentials"], "province": "cm", "slug": "7-eleven-314669370", "rank": 3}}, {"type": "Feature", "geometry": {"type": "Point", "coordinates": [98.96486, 18.80273]}, "properties": {"id": "cm-osm-way-314670472", "name": "7-Eleven", "nameTh": null, "nameEn": "7-Eleven", "cat": ["essentials"], "province": "cm", "slug": "7-eleven-314670472", "rank": 3}}, {"type": "Feature", "geometry": {"type": "Point", "coordinates": [98.9171, 18.91976]}, "properties": {"id": "cm-osm-way-317471533", "name": "7-Eleven", "nameTh": null, "nameEn": "7-Eleven", "cat": ["essentials"], "province": "cm", "slug": "7-eleven-317471533", "rank": 3}}, {"type": "Feature", "geometry": {"type": "Point", "coordinates": [98.97314, 18.81931]}, "properties": {"id": "cm-osm-way-331504418", "name": "7-Eleven", "nameTh": null, "nameEn": "7-Eleven", "cat": ["essentials"], "province": "cm", "slug": "7-eleven-331504418", "rank": 2}}, {"type": "Feature", "geometry": {"type": "Point", "coordinates": [98.9589, 18.78462]}, "properties": {"id": "cm-osm-way-342887914", "name": "7-Eleven", "nameTh": null, "nameEn": "7-Eleven", "cat": ["essentials"], "province": "cm", "slug": "7-eleven-342887914", "rank": 3}}, {"type": "Feature", "geometry": {"type": "Point", "coordinates": [99.04999, 18.6791]}, "properties": {"id": "cm-osm-way-367603296", "name": "7-Eleven", "nameTh": null, "nameEn": "7-Eleven", "cat": ["essentials"], "province": "cm", "slug": "7-eleven-367603296", "rank": 3}}, {"type": "Feature", "geometry": {"type": "Point", "coordinates": [98.99159, 18.79033]}, "properties": {"id": "cm-osm-way-481723943", "name": "7-Eleven", "nameTh": null, "nameEn": "7-Eleven", "cat": ["essentials"], "province": "cm", "slug": "7-eleven-481723943", "rank": 3}}, {"type": "Feature", "geometry": {"type": "Point", "coordinates": [98.99499, 18.78788]}, "properties": {"id": "cm-osm-way-482773625", "name": "7-Eleven", "nameTh": null, "nameEn": "7-Eleven", "cat": ["essentials"], "province": "cm", "slug": "7-eleven-482773625", "rank": 3}}, {"type": "Feature", "geometry": {"type": "Point", "coordinates": [98.99014, 18.81236]}, "properties": {"id": "cm-osm-way-529099390", "name": "7-Eleven", "nameTh": null, "nameEn": "7-Eleven", "cat": ["essentials"], "province": "cm", "slug": "7-eleven-529099390", "rank": 3}}, {"type": "Feature", "geometry": {"type": "Point", "coordinates": [98.98525, 18.71471]}, "properties": {"id": "cm-osm-way-544559166", "name": "7-Eleven", "nameTh": null, "nameEn": "7-Eleven", "cat": ["essentials"], "province": "cm", "slug": "7-eleven-544559166", "rank": 2}}, {"type": "Feature", "geometry": {"type": "Point", "coordinates": [99.02934, 18.76936]}, "properties": {"id": "cm-osm-way-560600829", "name": "7-Eleven", "nameTh": null, "nameEn": "7-Eleven", "cat": ["essentials"], "province": "cm", "slug": "7-eleven-560600829", "rank": 3}}, {"type": "Feature", "geometry": {"type": "Point", "coordinates": [98.95447, 18.7879]}, "properties": {"id": "cm-osm-way-575410489", "name": "7-Eleven", "nameTh": null, "nameEn": "7-Eleven", "cat": ["essentials"], "province": "cm", "slug": "7-eleven-575410489", "rank": 3}}, {"type": "Feature", "geometry": {"type": "Point", "coordinates": [99.00594, 18.82819]}, "properties": {"id": "cm-osm-way-650462849", "name": "7-Eleven", "nameTh": null, "nameEn": "7-Eleven", "cat": ["essentials"], "province": "cm", "slug": "7-eleven-650462849", "rank": 3}}, {"type": "Feature", "geometry": {"type": "Point", "coordinates": [98.94327, 18.91884]}, "properties": {"id": "cm-osm-way-657097388", "name": "7-Eleven", "nameTh": null, "nameEn": "7-Eleven", "cat": ["essentials"], "province": "cm", "slug": "7-eleven-657097388", "rank": 3}}, {"type": "Feature", "geometry": {"type": "Point", "coordinates": [98.99257, 18.76376]}, "properties": {"id": "cm-osm-way-668009032", "name": "7-Eleven", "nameTh": null, "nameEn": "7-Eleven", "cat": ["essentials"], "province": "cm", "slug": "7-eleven-668009032", "rank": 3}}, {"type": "Feature", "geometry": {"type": "Point", "coordinates": [98.98787, 18.80542]}, "properties": {"id": "cm-osm-way-668372095", "name": "7-Eleven", "nameTh": null, "nameEn": "7-Eleven", "cat": ["essentials"], "province": "cm", "slug": "7-eleven-668372095", "rank": 3}}, {"type": "Feature", "geometry": {"type": "Point", "coordinates": [98.97263, 18.77185]}, "properties": {"id": "cm-osm-way-676260810", "name": "7-Eleven", "nameTh": null, "nameEn": "7-Eleven", "cat": ["essentials"], "province": "cm", "slug": "7-eleven-676260810", "rank": 3}}, {"type": "Feature", "geometry": {"type": "Point", "coordinates": [99.01508, 18.87561]}, "properties": {"id": "cm-osm-way-739556148", "name": "7-Eleven", "nameTh": null, "nameEn": "7-Eleven", "cat": ["essentials"], "province": "cm", "slug": "7-eleven-739556148", "rank": 3}}, {"type": "Feature", "geometry": {"type": "Point", "coordinates": [98.94026, 18.92249]}, "properties": {"id": "cm-osm-way-741830437", "name": "7-Eleven", "nameTh": null, "nameEn": "7-Eleven", "cat": ["essentials"], "province": "cm", "slug": "7-eleven-741830437", "rank": 2}}, {"type": "Feature", "geometry": {"type": "Point", "coordinates": [99.0573, 18.83382]}, "properties": {"id": "cm-osm-way-746278574", "name": "7-Eleven", "nameTh": null, "nameEn": "7-Eleven", "cat": ["essentials"], "province": "cm", "slug": "7-eleven-746278574", "rank": 3}}, {"type": "Feature", "geometry": {"type": "Point", "coordinates": [98.9978, 18.78105]}, "properties": {"id": "cm-osm-node-4867347423", "name": "Big C Mini", "nameTh": null, "nameEn": "Big C Mini", "cat": ["essentials"], "province": "cm", "slug": "big-c-mini-4867347423", "rank": 2}}, {"type": "Feature", "geometry": {"type": "Point", "coordinates": [98.97554, 18.80099]}, "properties": {"id": "cm-osm-way-1465099441", "name": "Big C Mini", "nameTh": "มินิบิ๊กซี", "nameEn": "Big C Mini", "cat": ["essentials"], "province": "cm", "slug": "big-c-mini-1465099441", "rank": 3}}, {"type": "Feature", "geometry": {"type": "Point", "coordinates": [98.98815, 18.80333]}, "properties": {"id": "cm-osm-node-12543092101", "name": "Big C mini", "nameTh": null, "nameEn": "Big C mini", "cat": ["essentials"], "province": "cm", "slug": "big-c-mini-12543092101", "rank": 2}}, {"type": "Feature", "geometry": {"type": "Point", "coordinates": [99.00112, 18.7744]}, "properties": {"id": "cm-osm-node-2648578466", "name": "Fresh Mart", "nameTh": null, "nameEn": "Fresh Mart", "cat": ["essentials"], "province": "cm", "slug": "fresh-mart-2648578466", "rank": 2}}, {"type": "Feature", "geometry": {"type": "Point", "coordinates": [99.12294, 18.71546]}, "properties": {"id": "cm-osm-node-974382529", "name": "K Twenty-Four", "nameTh": null, "nameEn": "K Twenty-Four", "cat": ["essentials"], "province": "cm", "slug": "k-twenty-four-974382529", "rank": 2}}, {"type": "Feature", "geometry": {"type": "Point", "coordinates": [99.02089, 18.84804]}, "properties": {"id": "cm-osm-way-418263407", "name": "Lotus Express", "nameTh": null, "nameEn": "Lotus Express", "cat": ["essentials"], "province": "cm", "slug": "lotus-express-418263407", "rank": 2}}, {"type": "Feature", "geometry": {"type": "Point", "coordinates": [99.00958, 18.75243]}, "properties": {"id": "cm-osm-node-1358898658", "name": "Lotus's", "nameTh": null, "nameEn": "Lotus's", "cat": ["essentials"], "province": "cm", "slug": "lotus-s-1358898658", "rank": 2}}, {"type": "Feature", "geometry": {"type": "Point", "coordinates": [98.99767, 18.79265]}, "properties": {"id": "cm-osm-node-2649636470", "name": "Lotus's", "nameTh": null, "nameEn": "Lotus's", "cat": ["essentials"], "province": "cm", "slug": "lotus-s-2649636470", "rank": 2}}, {"type": "Feature", "geometry": {"type": "Point", "coordinates": [98.92805, 18.72411]}, "properties": {"id": "cm-osm-way-244115196", "name": "Lotus's", "nameTh": null, "nameEn": "Lotus's", "cat": ["essentials"], "province": "cm", "slug": "lotus-s-244115196", "rank": 2}}, {"type": "Feature", "geometry": {"type": "Point", "coordinates": [98.96725, 18.80763]}, "properties": {"id": "cm-osm-way-668015256", "name": "Lotus's", "nameTh": null, "nameEn": "Lotus's", "cat": ["essentials"], "province": "cm", "slug": "lotus-s-668015256", "rank": 2}}, {"type": "Feature", "geometry": {"type": "Point", "coordinates": [99.00498, 18.81391]}, "properties": {"id": "cm-osm-node-3366969393", "name": "Lotus's Go Fresh", "nameTh": null, "nameEn": "Lotus's Go Fresh", "cat": ["essentials"], "province": "cm", "slug": "lotus-s-go-fresh-3366969393", "rank": 2}}, {"type": "Feature", "geometry": {"type": "Point", "coordinates": [98.99037, 18.77422]}, "properties": {"id": "cm-osm-way-668806032", "name": "Lotus's Go Fresh", "nameTh": null, "nameEn": "Lotus's Go Fresh", "cat": ["essentials"], "province": "cm", "slug": "lotus-s-go-fresh-668806032", "rank": 2}}, {"type": "Feature", "geometry": {"type": "Point", "coordinates": [98.9877, 18.78154]}, "properties": {"id": "cm-osm-node-1030391641", "name": "Lotus's go fresh", "nameTh": null, "nameEn": "Lotus's go fresh", "cat": ["essentials"], "province": "cm", "slug": "lotus-s-go-fresh-1030391641", "rank": 2}}, {"type": "Feature", "geometry": {"type": "Point", "coordinates": [99.10486, 18.79368]}, "properties": {"id": "cm-osm-node-1362557139", "name": "Lotus's go fresh", "nameTh": null, "nameEn": "Lotus's go fresh", "cat": ["essentials"], "province": "cm", "slug": "lotus-s-go-fresh-1362557139", "rank": 2}}, {"type": "Feature", "geometry": {"type": "Point", "coordinates": [99.04149, 18.76184]}, "properties": {"id": "cm-osm-node-1455694190", "name": "Lotus's go fresh", "nameTh": null, "nameEn": "Lotus's go fresh", "cat": ["essentials"], "province": "cm", "slug": "lotus-s-go-fresh-1455694190", "rank": 2}}, {"type": "Feature", "geometry": {"type": "Point", "coordinates": [98.96094, 18.79073]}, "properties": {"id": "cm-osm-node-1489645286", "name": "Lotus's go fresh", "nameTh": null, "nameEn": "Lotus's go fresh", "cat": ["essentials"], "province": "cm", "slug": "lotus-s-go-fresh-1489645286", "rank": 2}}, {"type": "Feature", "geometry": {"type": "Point", "coordinates": [99.12264, 18.74275]}, "properties": {"id": "cm-osm-node-1508541570", "name": "Lotus's go fresh", "nameTh": null, "nameEn": "Lotus's go fresh", "cat": ["essentials"], "province": "cm", "slug": "lotus-s-go-fresh-1508541570", "rank": 2}}, {"type": "Feature", "geometry": {"type": "Point", "coordinates": [98.94176, 18.74702]}, "properties": {"id": "cm-osm-node-1588327842", "name": "Lotus's go fresh", "nameTh": null, "nameEn": "Lotus's go fresh", "cat": ["essentials"], "province": "cm", "slug": "lotus-s-go-fresh-1588327842", "rank": 2}}, {"type": "Feature", "geometry": {"type": "Point", "coordinates": [99.05152, 18.87447]}, "properties": {"id": "cm-osm-node-1874845675", "name": "Lotus's go fresh", "nameTh": null, "nameEn": "Lotus's go fresh", "cat": ["essentials"], "province": "cm", "slug": "lotus-s-go-fresh-1874845675", "rank": 2}}, {"type": "Feature", "geometry": {"type": "Point", "coordinates": [98.92081, 18.68903]}, "properties": {"id": "cm-osm-node-2230597304", "name": "Lotus's go fresh", "nameTh": null, "nameEn": "Lotus's go fresh", "cat": ["essentials"], "province": "cm", "slug": "lotus-s-go-fresh-2230597304", "rank": 2}}, {"type": "Feature", "geometry": {"type": "Point", "coordinates": [98.98479, 18.79588]}, "properties": {"id": "cm-osm-node-3091942581", "name": "Lotus's go fresh", "nameTh": null, "nameEn": "Lotus's go fresh", "cat": ["essentials"], "province": "cm", "slug": "lotus-s-go-fresh-3091942581", "rank": 2}}, {"type": "Feature", "geometry": {"type": "Point", "coordinates": [98.95007, 18.76985]}, "properties": {"id": "cm-osm-node-3205899955", "name": "Lotus's go fresh", "nameTh": null, "nameEn": "Lotus's go fresh", "cat": ["essentials"], "province": "cm", "slug": "lotus-s-go-fresh-3205899955", "rank": 2}}, {"type": "Feature", "geometry": {"type": "Point", "coordinates": [98.98932, 18.83657]}, "properties": {"id": "cm-osm-node-3340959344", "name": "Lotus's go fresh", "nameTh": null, "nameEn": "Lotus's go fresh", "cat": ["essentials"], "province": "cm", "slug": "lotus-s-go-fresh-3340959344", "rank": 2}}, {"type": "Feature", "geometry": {"type": "Point", "coordinates": [99.0423, 18.64906]}, "properties": {"id": "cm-osm-node-4509445497", "name": "Lotus's go fresh", "nameTh": null, "nameEn": "Lotus's go fresh", "cat": ["essentials"], "province": "cm", "slug": "lotus-s-go-fresh-4509445497", "rank": 2}}, {"type": "Feature", "geometry": {"type": "Point", "coordinates": [99.13561, 18.87297]}, "properties": {"id": "cm-osm-node-694942453", "name": "Lotus's go fresh", "nameTh": null, "nameEn": "Lotus's go fresh", "cat": ["essentials"], "province": "cm", "slug": "lotus-s-go-fresh-694942453", "rank": 2}}, {"type": "Feature", "geometry": {"type": "Point", "coordinates": [99.00925, 18.89452]}, "properties": {"id": "cm-osm-node-840185269", "name": "Lotus's go fresh", "nameTh": null, "nameEn": "Lotus's go fresh", "cat": ["essentials"], "province": "cm", "slug": "lotus-s-go-fresh-840185269", "rank": 2}}, {"type": "Feature", "geometry": {"type": "Point", "coordinates": [99.05224, 18.83021]}, "properties": {"id": "cm-osm-node-8699198246", "name": "Lotus's go fresh", "nameTh": null, "nameEn": "Lotus's go fresh", "cat": ["essentials"], "province": "cm", "slug": "lotus-s-go-fresh-8699198246", "rank": 2}}, {"type": "Feature", "geometry": {"type": "Point", "coordinates": [98.91236, 18.91784]}, "properties": {"id": "cm-osm-way-1128462893", "name": "Lotus's go fresh", "nameTh": null, "nameEn": "Lotus's go fresh", "cat": ["essentials"], "province": "cm", "slug": "lotus-s-go-fresh-1128462893", "rank": 2}}, {"type": "Feature", "geometry": {"type": "Point", "coordinates": [98.9464, 18.91204]}, "properties": {"id": "cm-osm-way-1456802849", "name": "Lotus's go fresh", "nameTh": null, "nameEn": "Lotus's go fresh", "cat": ["essentials"], "province": "cm", "slug": "lotus-s-go-fresh-1456802849", "rank": 2}}, {"type": "Feature", "geometry": {"type": "Point", "coordinates": [98.98185, 18.97672]}, "properties": {"id": "cm-osm-way-1459501775", "name": "Lotus's go fresh", "nameTh": null, "nameEn": "Lotus's go fresh", "cat": ["essentials"], "province": "cm", "slug": "lotus-s-go-fresh-1459501775", "rank": 2}}, {"type": "Feature", "geometry": {"type": "Point", "coordinates": [98.9663, 18.79755]}, "properties": {"id": "cm-osm-way-481786770", "name": "Lotus's go fresh", "nameTh": null, "nameEn": "Lotus's go fresh", "cat": ["essentials"], "province": "cm", "slug": "lotus-s-go-fresh-481786770", "rank": 2}}, {"type": "Feature", "geometry": {"type": "Point", "coordinates": [99.01216, 18.7471]}, "properties": {"id": "cm-osm-node-9620777658", "name": "Mini Big C", "nameTh": null, "nameEn": "Mini Big C", "cat": ["essentials"], "province": "cm", "slug": "mini-big-c-9620777658", "rank": 2}}, {"type": "Feature", "geometry": {"type": "Point", "coordinates": [98.99495, 18.78404]}, "properties": {"id": "cm-osm-node-1477733913", "name": "PJ บ้านเครื่องดื่ม", "nameTh": "PJ บ้านเครื่องดื่ม", "nameEn": "PJ", "cat": ["essentials"], "province": "cm", "slug": "pj-1477733913", "rank": 3}}, {"type": "Feature", "geometry": {"type": "Point", "coordinates": [98.97832, 18.8036]}, "properties": {"id": "cm-osm-node-2530393021", "name": "TESCO Lotus Express", "nameTh": null, "nameEn": "TESCO Lotus Express", "cat": ["essentials"], "province": "cm", "slug": "tesco-lotus-express-2530393021", "rank": 2}}, {"type": "Feature", "geometry": {"type": "Point", "coordinates": [99.07453, 18.84431]}, "properties": {"id": "cm-osm-node-2650807937", "name": "TESCO Lotus Express", "nameTh": null, "nameEn": "TESCO Lotus Express", "cat": ["essentials"], "province": "cm", "slug": "tesco-lotus-express-2650807937", "rank": 2}}, {"type": "Feature", "geometry": {"type": "Point", "coordinates": [98.8954, 18.62581]}, "properties": {"id": "cm-osm-node-2684213282", "name": "TESCO Lotus Express", "nameTh": null, "nameEn": "TESCO Lotus Express", "cat": ["essentials"], "province": "cm", "slug": "tesco-lotus-express-2684213282", "rank": 2}}, {"type": "Feature", "geometry": {"type": "Point", "coordinates": [98.99323, 18.79119]}, "properties": {"id": "cm-osm-node-3298818262", "name": "TESCO Lotus Express", "nameTh": null, "nameEn": "TESCO Lotus Express", "cat": ["essentials"], "province": "cm", "slug": "tesco-lotus-express-3298818262", "rank": 2}}, {"type": "Feature", "geometry": {"type": "Point", "coordinates": [98.97158, 18.84591]}, "properties": {"id": "cm-osm-node-4480923766", "name": "TESCO Lotus Express", "nameTh": null, "nameEn": "TESCO Lotus Express", "cat": ["essentials"], "province": "cm", "slug": "tesco-lotus-express-4480923766", "rank": 2}}, {"type": "Feature", "geometry": {"type": "Point", "coordinates": [98.98271, 18.76827]}, "properties": {"id": "cm-osm-node-4582158291", "name": "มินิบิ๊กซี", "nameTh": "มินิบิ๊กซี", "nameEn": "Mini BigC", "cat": ["essentials"], "province": "cm", "slug": "mini-bigc-4582158291", "rank": 3}}]}