{"type": "FeatureCollection", "features": [{"type": "Feature", "geometry": {"type": "Point", "coordinates": [98.9985, 18.77445]}, "properties": {"id": "cm-osm-node-4064638191", "name": "Hawa Halal Kitchen", "nameTh": null, "nameEn": "Hawa Halal Kitchen", "cat": ["food"], "province": "cm", "slug": "hawa-halal-kitchen-4064638191", "rank": 1}}, {"type": "Feature", "geometry": {"type": "Point", "coordinates": [98.99886, 18.77458]}, "properties": {"id": "cm-osm-node-11631004990", "name": "Ruammit Halal Restaurant", "nameTh": "ร้านอาหารรวมมิตรฮาลาล", "nameEn": "Ruammit Halal Restaurant", "cat": ["food"], "province": "cm", "slug": "ruammit-halal-restaurant-11631004990", "rank": 5}}, {"type": "Feature", "geometry": {"type": "Point", "coordinates": [98.97405, 18.79818]}, "properties": {"id": "cm-osm-node-13307552701", "name": "Tawansy Restaurant & Cafe", "nameTh": null, "nameEn": "Tawansy Restaurant & Cafe", "cat": ["food"], "province": "cm", "slug": "tawansy-restaurant-cafe-13307552701", "rank": 4}}, {"type": "Feature", "geometry": {"type": "Point", "coordinates": [99.00522, 18.83104]}, "properties": {"id": "cm-osm-way-1268327414", "name": "ครัวคุณไซ", "nameTh": "ครัวคุณไซ", "nameEn": null, "cat": ["food"], "province": "cm", "slug": "1268327414", "rank": 3}}, {"type": "Feature", "geometry": {"type": "Point", "coordinates": [99.0382, 18.76516]}, "properties": {"id": "cm-osm-node-8251077688", "name": "โคตรลำ​ เนื้อย่าง", "nameTh": "โคตรลำ​ เนื้อย่าง", "nameEn": null, "cat": ["food"], "province": "cm", "slug": "8251077688", "rank": 3}}, {"type": "Feature", "geometry": {"type": "Point", "coordinates": [99.00533, 18.79334]}, "properties": {"id": "cm-osm-node-13279642707", "name": "ไท่ไท่ ทองอินทร", "nameTh": "ไท่ไท่ ทองอินทร", "nameEn": "Tai-Tai Thongin Restaurant", "cat": ["food"], "province": "cm", "slug": "tai-tai-thongin-restaurant-13279642707", "rank": 4}}]}