{"type": "FeatureCollection", "features": [{"type": "Feature", "geometry": {"type": "Point", "coordinates": [98.98686, 18.78697]}, "properties": {"id": "cm-osm-way-243018795", "name": "Wat Chedi Luang", "nameTh": "วัดเจดีย์หลวงวรวิหาร", "nameEn": "Wat Chedi Luang", "cat": ["wat"], "province": "cm", "slug": "wat-chedi-luang-243018795", "rank": 3}}, {"type": "Feature", "geometry": {"type": "Point", "coordinates": [98.99745, 18.87314]}, "properties": {"id": "cm-osm-node-10881109985", "name": "Wat Naboon Thammaram", "nameTh": null, "nameEn": "Wat Naboon Thammaram", "cat": ["wat"], "province": "cm", "slug": "wat-naboon-thammaram-10881109985", "rank": 1}}, {"type": "Feature", "geometry": {"type": "Point", "coordinates": [98.99783, 18.8732]}, "properties": {"id": "cm-osm-way-1170872081", "name": "Wat Naboon Thammaram", "nameTh": null, "nameEn": "Wat Naboon Thammaram", "cat": ["wat"], "province": "cm", "slug": "wat-naboon-thammaram-1170872081", "rank": 1}}, {"type": "Feature", "geometry": {"type": "Point", "coordinates": [98.89094, 18.64311]}, "properties": {"id": "cm-onab-65250120001", "name": "วัดกู่", "nameTh": "วัดกู่", "nameEn": null, "cat": ["wat"], "province": "cm", "slug": "65250120001", "rank": 1}}, {"type": "Feature", "geometry": {"type": "Point", "coordinates": [98.89094, 18.64311]}, "properties": {"id": "cm-onab-62250120001", "name": "วัดจำปาราว", "nameTh": "วัดจำปาราว", "nameEn": null, "cat": ["wat"], "province": "cm", "slug": "62250120001", "rank": 1}}, {"type": "Feature", "geometry": {"type": "Point", "coordinates": [98.94379, 18.77571]}, "properties": {"id": "cm-onab-64250010001", "name": "วัดดอยปุยวิโรจนาราม", "nameTh": "วัดดอยปุยวิโรจนาราม", "nameEn": null, "cat": ["wat"], "province": "cm", "slug": "64250010001", "rank": 1}}, {"type": "Feature", "geometry": {"type": "Point", "coordinates": [99.09689, 18.76093]}, "properties": {"id": "cm-onab-65250130002", "name": "วัดตาโก๋", "nameTh": "วัดตาโก๋", "nameEn": null, "cat": ["wat"], "province": "cm", "slug": "65250130002", "rank": 1}}, {"type": "Feature", "geometry": {"type": "Point", "coordinates": [99.09689, 18.76093]}, "properties": {"id": "cm-onab-65250130001", "name": "วัดต้นขาม", "nameTh": "วัดต้นขาม", "nameEn": null, "cat": ["wat"], "province": "cm", "slug": "65250130001", "rank": 1}}, {"type": "Feature", "geometry": {"type": "Point", "coordinates": [99.09689, 18.76093]}, "properties": {"id": "cm-onab-62250130001", "name": "วัดต้นเปาสันดินกี่หนา", "nameTh": "วัดต้นเปาสันดินกี่หนา", "nameEn": null, "cat": ["wat"], "province": "cm", "slug": "62250130001", "rank": 1}}, {"type": "Feature", "geometry": {"type": "Point", "coordinates": [99.00065, 18.91561]}, "properties": {"id": "cm-onab-03501408007", "name": "วัดทิพวนาราม", "nameTh": "วัดทิพวนาราม", "nameEn": null, "cat": ["wat"], "province": "cm", "slug": "03501408007", "rank": 1}}, {"type": "Feature", "geometry": {"type": "Point", "coordinates": [98.9232, 18.91479]}, "properties": {"id": "cm-onab-03500702003", "name": "วัดธรรมสันติเจดีย์", "nameTh": "วัดธรรมสันติเจดีย์", "nameEn": null, "cat": ["wat"], "province": "cm", "slug": "03500702003", "rank": 1}}, {"type": "Feature", "geometry": {"type": "Point", "coordinates": [99.11283, 18.85074]}, "properties": {"id": "cm-onab-63250050002", "name": "วัดป่าจิตตภาวนาราม", "nameTh": "วัดป่าจิตตภาวนาราม", "nameEn": null, "cat": ["wat"], "province": "cm", "slug": "63250050002", "rank": 1}}, {"type": "Feature", "geometry": {"type": "Point", "coordinates": [99.30274, 20.03454]}, "properties": {"id": "cm-onab-03501002011", "name": "วัดป่าดอยกุสุม", "nameTh": "วัดป่าดอยกุสุม", "nameEn": null, "cat": ["wat"], "province": "cm", "slug": "03501002011", "rank": 1}}, {"type": "Feature", "geometry": {"type": "Point", "coordinates": [99.30274, 20.03454]}, "properties": {"id": "cm-onab-03501004008", "name": "วัดป่าดอยแสงธรรมญาณสัมปันโน", "nameTh": "วัดป่าดอยแสงธรรมญาณสัมปันโน", "nameEn": null, "cat": ["wat"], "province": "cm", "slug": "03501004008", "rank": 1}}, {"type": "Feature", "geometry": {"type": "Point", "coordinates": [98.9232, 18.91479]}, "properties": {"id": "cm-onab-03500701004", "name": "วัดป่าดาราภิรมย์", "nameTh": "วัดป่าดาราภิรมย์", "nameEn": null, "cat": ["wat"], "province": "cm", "slug": "03500701004", "rank": 1}}, {"type": "Feature", "geometry": {"type": "Point", "coordinates": [98.9164, 18.73845]}, "properties": {"id": "cm-onab-03501510006", "name": "วัดป่าธรรมชาติ", "nameTh": "วัดป่าธรรมชาติ", "nameEn": null, "cat": ["wat"], "province": "cm", "slug": "03501510006", "rank": 1}}, {"type": "Feature", "geometry": {"type": "Point", "coordinates": [98.9232, 18.91479]}, "properties": {"id": "cm-onab-03500704005", "name": "วัดป่าน้ำริน", "nameTh": "วัดป่าน้ำริน", "nameEn": null, "cat": ["wat"], "province": "cm", "slug": "03500704005", "rank": 1}}, {"type": "Feature", "geometry": {"type": "Point", "coordinates": [98.90347, 18.90729]}, "properties": {"id": "cm-onab-63250070002", "name": "วัดป่าบุญทวีภิรมย์", "nameTh": "วัดป่าบุญทวีภิรมย์", "nameEn": null, "cat": ["wat"], "province": "cm", "slug": "63250070002", "rank": 1}}, {"type": "Feature", "geometry": {"type": "Point", "coordinates": [98.89094, 18.64311]}, "properties": {"id": "cm-onab-03501201017", "name": "วัดป่าพรหมปัญโญ", "nameTh": "วัดป่าพรหมปัญโญ", "nameEn": null, "cat": ["wat"], "province": "cm", "slug": "03501201017", "rank": 1}}, {"type": "Feature", "geometry": {"type": "Point", "coordinates": [98.9164, 18.73845]}, "properties": {"id": "cm-onab-03501510009", "name": "วัดป่าพุทธพจนาราม", "nameTh": "วัดป่าพุทธพจนาราม", "nameEn": null, "cat": ["wat"], "province": "cm", "slug": "03501510009", "rank": 1}}, {"type": "Feature", "geometry": {"type": "Point", "coordinates": [99.06551, 18.84217]}, "properties": {"id": "cm-onab-63250140001", "name": "วัดป่าสุรีย์พรวนาราม", "nameTh": "วัดป่าสุรีย์พรวนาราม", "nameEn": null, "cat": ["wat"], "province": "cm", "slug": "63250140001", "rank": 1}}, {"type": "Feature", "geometry": {"type": "Point", "coordinates": [98.89094, 18.64311]}, "properties": {"id": "cm-onab-03501205012", "name": "วัดป่าเจดีย์เหลี่ยม", "nameTh": "วัดป่าเจดีย์เหลี่ยม", "nameEn": null, "cat": ["wat"], "province": "cm", "slug": "03501205012", "rank": 1}}, {"type": "Feature", "geometry": {"type": "Point", "coordinates": [98.89094, 18.64311]}, "properties": {"id": "cm-onab-03501201013", "name": "วัดป่าเจริญธรรม", "nameTh": "วัดป่าเจริญธรรม", "nameEn": null, "cat": ["wat"], "province": "cm", "slug": "03501201013", "rank": 1}}, {"type": "Feature", "geometry": {"type": "Point", "coordinates": [99.11283, 18.85074]}, "properties": {"id": "cm-onab-63250050001", "name": "วัดป่าเทวาภิรมย์", "nameTh": "วัดป่าเทวาภิรมย์", "nameEn": null, "cat": ["wat"], "province": "cm", "slug": "63250050001", "rank": 1}}, {"type": "Feature", "geometry": {"type": "Point", "coordinates": [99.01388, 18.74297]}, "properties": {"id": "cm-onab-03501903009", "name": "วัดป่าเป้า", "nameTh": "วัดป่าเป้า", "nameEn": null, "cat": ["wat"], "province": "cm", "slug": "03501903009", "rank": 1}}, {"type": "Feature", "geometry": {"type": "Point", "coordinates": [98.9232, 18.91479]}, "properties": {"id": "cm-onab-63250070001", "name": "วัดป่าโป่งแยงพัฒนาราม", "nameTh": "วัดป่าโป่งแยงพัฒนาราม", "nameEn": null, "cat": ["wat"], "province": "cm", "slug": "63250070001", "rank": 1}}, {"type": "Feature", "geometry": {"type": "Point", "coordinates": [99.01388, 18.74297]}, "properties": {"id": "cm-onab-62250190001", "name": "วัดป่าไม้แดง", "nameTh": "วัดป่าไม้แดง", "nameEn": null, "cat": ["wat"], "province": "cm", "slug": "62250190001", "rank": 1}}, {"type": "Feature", "geometry": {"type": "Point", "coordinates": [99.11283, 18.85074]}, "properties": {"id": "cm-onab-03500503009", "name": "วัดฝั่งหมิ่น", "nameTh": "วัดฝั่งหมิ่น", "nameEn": null, "cat": ["wat"], "province": "cm", "slug": "03500503009", "rank": 1}}, {"type": "Feature", "geometry": {"type": "Point", "coordinates": [99.11283, 18.85074]}, "properties": {"id": "cm-onab-62250050001", "name": "วัดพระธาตุวิสุทธิญาณ", "nameTh": "วัดพระธาตุวิสุทธิญาณ", "nameEn": null, "cat": ["wat"], "province": "cm", "slug": "62250050001", "rank": 1}}, {"type": "Feature", "geometry": {"type": "Point", "coordinates": [99.03834, 18.84416]}, "properties": {"id": "cm-onab-65250140001", "name": "วัดพระเจ้าดวงฤทธิ์", "nameTh": "วัดพระเจ้าดวงฤทธิ์", "nameEn": null, "cat": ["wat"], "province": "cm", "slug": "65250140001", "rank": 1}}, {"type": "Feature", "geometry": {"type": "Point", "coordinates": [99.30274, 20.03454]}, "properties": {"id": "cm-onab-65250100001", "name": "วัดม่วงหาร", "nameTh": "วัดม่วงหาร", "nameEn": null, "cat": ["wat"], "province": "cm", "slug": "65250100001", "rank": 1}}, {"type": "Feature", "geometry": {"type": "Point", "coordinates": [99.09689, 18.76093]}, "properties": {"id": "cm-onab-65250130003", "name": "วัดล่องกอขาม", "nameTh": "วัดล่องกอขาม", "nameEn": null, "cat": ["wat"], "province": "cm", "slug": "65250130003", "rank": 1}}, {"type": "Feature", "geometry": {"type": "Point", "coordinates": [99.30274, 20.03454]}, "properties": {"id": "cm-onab-03501001014", "name": "วัดวังดิน", "nameTh": "วัดวังดิน", "nameEn": null, "cat": ["wat"], "province": "cm", "slug": "03501001014", "rank": 1}}, {"type": "Feature", "geometry": {"type": "Point", "coordinates": [99.11283, 18.85074]}, "properties": {"id": "cm-onab-03500503004", "name": "วัดศรีมุงเมือง", "nameTh": "วัดศรีมุงเมือง", "nameEn": null, "cat": ["wat"], "province": "cm", "slug": "03500503004", "rank": 1}}, {"type": "Feature", "geometry": {"type": "Point", "coordinates": [98.97965, 18.79973]}, "properties": {"id": "cm-osm-way-692137169", "name": "วัดสันติธรรม", "nameTh": "วัดสันติธรรม", "nameEn": "Wat Santi Tham", "cat": ["wat"], "province": "cm", "slug": "wat-santi-tham-692137169", "rank": 3}}, {"type": "Feature", "geometry": {"type": "Point", "coordinates": [98.9164, 18.73845]}, "properties": {"id": "cm-onab-03501509010", "name": "วัดสันป่าสักวรอุไร", "nameTh": "วัดสันป่าสักวรอุไร", "nameEn": null, "cat": ["wat"], "province": "cm", "slug": "03501509010", "rank": 1}}, {"type": "Feature", "geometry": {"type": "Point", "coordinates": [98.9164, 18.73845]}, "properties": {"id": "cm-onab-63250150001", "name": "วัดหัวเสือ", "nameTh": "วัดหัวเสือ", "nameEn": null, "cat": ["wat"], "province": "cm", "slug": "63250150001", "rank": 1}}, {"type": "Feature", "geometry": {"type": "Point", "coordinates": [99.0066, 18.90402]}, "properties": {"id": "cm-onab-03501410006", "name": "วัดห้วยบงวัฒนาราม", "nameTh": "วัดห้วยบงวัฒนาราม", "nameEn": null, "cat": ["wat"], "province": "cm", "slug": "03501410006", "rank": 1}}, {"type": "Feature", "geometry": {"type": "Point", "coordinates": [98.9164, 18.73845]}, "properties": {"id": "cm-onab-03501510005", "name": "วัดห้วยไร่", "nameTh": "วัดห้วยไร่", "nameEn": null, "cat": ["wat"], "province": "cm", "slug": "03501510005", "rank": 1}}, {"type": "Feature", "geometry": {"type": "Point", "coordinates": [99.09689, 18.76093]}, "properties": {"id": "cm-onab-03501301008", "name": "วัดโรงธรรมสามัคคี", "nameTh": "วัดโรงธรรมสามัคคี", "nameEn": null, "cat": ["wat"], "province": "cm", "slug": "03501301008", "rank": 1}}]}