{"type": "FeatureCollection", "features": [{"type": "Feature", "geometry": {"type": "Point", "coordinates": [98.91328, 18.66753]}, "properties": {"id": "cm-osm-node-1058635989", "name": "Bangkok Bank", "nameTh": null, "nameEn": "Bangkok Bank", "cat": ["essentials"], "province": "cm", "slug": "bangkok-bank-1058635989", "rank": 1}}, {"type": "Feature", "geometry": {"type": "Point", "coordinates": [98.97599, 18.78973]}, "properties": {"id": "cm-osm-node-2337768915", "name": "Bangkok Bank", "nameTh": null, "nameEn": "Bangkok Bank", "cat": ["essentials"], "province": "cm", "slug": "bangkok-bank-2337768915", "rank": 1}}, {"type": "Feature", "geometry": {"type": "Point", "coordinates": [98.94675, 18.68875]}, "properties": {"id": "cm-osm-node-3174284861", "name": "Bangkok Bank", "nameTh": null, "nameEn": "Bangkok Bank", "cat": ["essentials"], "province": "cm", "slug": "bangkok-bank-3174284861", "rank": 1}}, {"type": "Feature", "geometry": {"type": "Point", "coordinates": [99.0107, 18.82354]}, "properties": {"id": "cm-osm-node-4213662159", "name": "Bangkok Bank", "nameTh": null, "nameEn": "Bangkok Bank", "cat": ["essentials"], "province": "cm", "slug": "bangkok-bank-4213662159", "rank": 1}}, {"type": "Feature", "geometry": {"type": "Point", "coordinates": [98.98696, 18.78094]}, "properties": {"id": "cm-osm-node-1029522385", "name": "ธนาคารกรุงเทพ", "nameTh": "ธนาคารกรุงเทพ", "nameEn": "Bangkok Bank", "cat": ["essentials"], "province": "cm", "slug": "bangkok-bank-1029522385", "rank": 2}}, {"type": "Feature", "geometry": {"type": "Point", "coordinates": [99.00947, 18.75223]}, "properties": {"id": "cm-osm-node-1358873985", "name": "ธนาคารกรุงเทพ", "nameTh": "ธนาคารกรุงเทพ", "nameEn": "Bangkok Bank", "cat": ["essentials"], "province": "cm", "slug": "bangkok-bank-1358873985", "rank": 2}}, {"type": "Feature", "geometry": {"type": "Point", "coordinates": [99.12635, 18.65232]}, "properties": {"id": "cm-osm-node-1664177331", "name": "ธนาคารกรุงเทพ", "nameTh": "ธนาคารกรุงเทพ", "nameEn": "Bangkok Bank", "cat": ["essentials"], "province": "cm", "slug": "bangkok-bank-1664177331", "rank": 2}}, {"type": "Feature", "geometry": {"type": "Point", "coordinates": [98.95073, 18.80185]}, "properties": {"id": "cm-osm-node-2434757093", "name": "ธนาคารกรุงเทพ", "nameTh": "ธนาคารกรุงเทพ", "nameEn": "Bangkok Bank", "cat": ["essentials"], "province": "cm", "slug": "bangkok-bank-2434757093", "rank": 3}}, {"type": "Feature", "geometry": {"type": "Point", "coordinates": [98.94553, 18.91287]}, "properties": {"id": "cm-osm-node-2556220769", "name": "ธนาคารกรุงเทพ", "nameTh": "ธนาคารกรุงเทพ", "nameEn": "Bangkok Bank", "cat": ["essentials"], "province": "cm", "slug": "bangkok-bank-2556220769", "rank": 2}}, {"type": "Feature", "geometry": {"type": "Point", "coordinates": [99.02804, 18.81095]}, "properties": {"id": "cm-osm-node-2600091523", "name": "ธนาคารกรุงเทพ", "nameTh": "ธนาคารกรุงเทพ", "nameEn": "Bangkok Bank", "cat": ["essentials"], "province": "cm", "slug": "bangkok-bank-2600091523", "rank": 2}}, {"type": "Feature", "geometry": {"type": "Point", "coordinates": [99.00965, 18.89345]}, "properties": {"id": "cm-osm-node-2601003841", "name": "ธนาคารกรุงเทพ", "nameTh": "ธนาคารกรุงเทพ", "nameEn": "Bangkok Bank", "cat": ["essentials"], "province": "cm", "slug": "bangkok-bank-2601003841", "rank": 2}}, {"type": "Feature", "geometry": {"type": "Point", "coordinates": [98.99937, 18.77883]}, "properties": {"id": "cm-osm-node-2610123154", "name": "ธนาคารกรุงเทพ", "nameTh": "ธนาคารกรุงเทพ", "nameEn": "Bangkok Bank", "cat": ["essentials"], "province": "cm", "slug": "bangkok-bank-2610123154", "rank": 2}}, {"type": "Feature", "geometry": {"type": "Point", "coordinates": [98.9652, 18.78948]}, "properties": {"id": "cm-osm-node-2638649044", "name": "ธนาคารกรุงเทพ", "nameTh": "ธนาคารกรุงเทพ", "nameEn": "Bangkok Bank", "cat": ["essentials"], "province": "cm", "slug": "bangkok-bank-2638649044", "rank": 2}}, {"type": "Feature", "geometry": {"type": "Point", "coordinates": [98.89547, 18.62612]}, "properties": {"id": "cm-osm-node-2684213286", "name": "ธนาคารกรุงเทพ", "nameTh": "ธนาคารกรุงเทพ", "nameEn": "Bangkok Bank", "cat": ["essentials"], "province": "cm", "slug": "bangkok-bank-2684213286", "rank": 2}}, {"type": "Feature", "geometry": {"type": "Point", "coordinates": [99.01814, 18.80616]}, "properties": {"id": "cm-osm-node-3249111054", "name": "ธนาคารกรุงเทพ", "nameTh": "ธนาคารกรุงเทพ", "nameEn": "Bangkok Bank", "cat": ["essentials"], "province": "cm", "slug": "bangkok-bank-3249111054", "rank": 2}}, {"type": "Feature", "geometry": {"type": "Point", "coordinates": [98.97567, 18.76915]}, "properties": {"id": "cm-osm-node-3347664214", "name": "ธนาคารกรุงเทพ", "nameTh": "ธนาคารกรุงเทพ", "nameEn": "Bangkok Bank", "cat": ["essentials"], "province": "cm", "slug": "bangkok-bank-3347664214", "rank": 3}}, {"type": "Feature", "geometry": {"type": "Point", "coordinates": [99.00029, 18.78516]}, "properties": {"id": "cm-osm-node-3417307150", "name": "ธนาคารกรุงเทพ", "nameTh": "ธนาคารกรุงเทพ", "nameEn": "Bangkok Bank", "cat": ["essentials"], "province": "cm", "slug": "bangkok-bank-3417307150", "rank": 2}}, {"type": "Feature", "geometry": {"type": "Point", "coordinates": [98.98576, 18.80555]}, "properties": {"id": "cm-osm-node-3862580746", "name": "ธนาคารกรุงเทพ", "nameTh": "ธนาคารกรุงเทพ", "nameEn": "Bangkok Bank", "cat": ["essentials"], "province": "cm", "slug": "bangkok-bank-3862580746", "rank": 2}}, {"type": "Feature", "geometry": {"type": "Point", "coordinates": [98.98346, 18.78099]}, "properties": {"id": "cm-osm-node-3892932436", "name": "ธนาคารกรุงเทพ", "nameTh": "ธนาคารกรุงเทพ", "nameEn": "Bangkok Bank", "cat": ["essentials"], "province": "cm", "slug": "bangkok-bank-3892932436", "rank": 2}}, {"type": "Feature", "geometry": {"type": "Point", "coordinates": [99.00919, 18.78705]}, "properties": {"id": "cm-osm-node-4509283282", "name": "ธนาคารกรุงเทพ", "nameTh": "ธนาคารกรุงเทพ", "nameEn": "Bangkok Bank", "cat": ["essentials"], "province": "cm", "slug": "bangkok-bank-4509283282", "rank": 2}}, {"type": "Feature", "geometry": {"type": "Point", "coordinates": [99.03311, 18.71582]}, "properties": {"id": "cm-osm-node-4509361877", "name": "ธนาคารกรุงเทพ", "nameTh": "ธนาคารกรุงเทพ", "nameEn": "Bangkok Bank", "cat": ["essentials"], "province": "cm", "slug": "bangkok-bank-4509361877", "rank": 2}}, {"type": "Feature", "geometry": {"type": "Point", "coordinates": [99.04265, 18.64612]}, "properties": {"id": "cm-osm-node-4509445495", "name": "ธนาคารกรุงเทพ", "nameTh": "ธนาคารกรุงเทพ", "nameEn": "Bangkok Bank", "cat": ["essentials"], "province": "cm", "slug": "bangkok-bank-4509445495", "rank": 2}}, {"type": "Feature", "geometry": {"type": "Point", "coordinates": [98.9995, 18.78132]}, "properties": {"id": "cm-osm-node-4559245760", "name": "ธนาคารกรุงเทพ", "nameTh": "ธนาคารกรุงเทพ", "nameEn": "Bangkok Bank", "cat": ["essentials"], "province": "cm", "slug": "bangkok-bank-4559245760", "rank": 2}}, {"type": "Feature", "geometry": {"type": "Point", "coordinates": [99.01353, 18.82397]}, "properties": {"id": "cm-osm-node-4593074890", "name": "ธนาคารกรุงเทพ", "nameTh": "ธนาคารกรุงเทพ", "nameEn": "Bangkok Bank", "cat": ["essentials"], "province": "cm", "slug": "bangkok-bank-4593074890", "rank": 2}}, {"type": "Feature", "geometry": {"type": "Point", "coordinates": [99.13466, 18.87228]}, "properties": {"id": "cm-osm-node-688348668", "name": "ธนาคารกรุงเทพ", "nameTh": "ธนาคารกรุงเทพ", "nameEn": "Bangkok Bank", "cat": ["essentials"], "province": "cm", "slug": "bangkok-bank-688348668", "rank": 3}}, {"type": "Feature", "geometry": {"type": "Point", "coordinates": [98.96621, 18.7974]}, "properties": {"id": "cm-osm-node-7026349606", "name": "ธนาคารกรุงเทพ", "nameTh": "ธนาคารกรุงเทพ", "nameEn": "Bangkok Bank", "cat": ["essentials"], "province": "cm", "slug": "bangkok-bank-7026349606", "rank": 2}}, {"type": "Feature", "geometry": {"type": "Point", "coordinates": [98.96138, 18.74316]}, "properties": {"id": "cm-osm-node-907784582", "name": "ธนาคารกรุงเทพ", "nameTh": "ธนาคารกรุงเทพ", "nameEn": "Bangkok Bank", "cat": ["essentials"], "province": "cm", "slug": "bangkok-bank-907784582", "rank": 2}}, {"type": "Feature", "geometry": {"type": "Point", "coordinates": [98.99977, 18.78802]}, "properties": {"id": "cm-osm-node-915457030", "name": "ธนาคารกรุงเทพ", "nameTh": "ธนาคารกรุงเทพ", "nameEn": "Bangkok Bank", "cat": ["essentials"], "province": "cm", "slug": "bangkok-bank-915457030", "rank": 2}}, {"type": "Feature", "geometry": {"type": "Point", "coordinates": [98.9859, 18.7993]}, "properties": {"id": "cm-osm-way-103541464", "name": "ธนาคารกรุงเทพ", "nameTh": "ธนาคารกรุงเทพ", "nameEn": "Bangkok Bank", "cat": ["essentials"], "province": "cm", "slug": "bangkok-bank-103541464", "rank": 2}}, {"type": "Feature", "geometry": {"type": "Point", "coordinates": [98.9455, 18.91286]}, "properties": {"id": "cm-osm-way-1456802836", "name": "ธนาคารกรุงเทพ", "nameTh": "ธนาคารกรุงเทพ", "nameEn": "Bangkok Bank", "cat": ["essentials"], "province": "cm", "slug": "bangkok-bank-1456802836", "rank": 2}}, {"type": "Feature", "geometry": {"type": "Point", "coordinates": [98.99686, 18.79587]}, "properties": {"id": "cm-osm-way-291818793", "name": "ธนาคารกรุงเทพ", "nameTh": "ธนาคารกรุงเทพ", "nameEn": "Bangkok Bank", "cat": ["essentials"], "province": "cm", "slug": "bangkok-bank-291818793", "rank": 2}}, {"type": "Feature", "geometry": {"type": "Point", "coordinates": [98.91994, 18.68816]}, "properties": {"id": "cm-osm-way-390189269", "name": "ธนาคารกรุงเทพ", "nameTh": "ธนาคารกรุงเทพ", "nameEn": "Bangkok Bank", "cat": ["essentials"], "province": "cm", "slug": "bangkok-bank-390189269", "rank": 2}}, {"type": "Feature", "geometry": {"type": "Point", "coordinates": [98.96631, 18.79764]}, "properties": {"id": "cm-osm-way-481786758", "name": "ธนาคารกรุงเทพ", "nameTh": "ธนาคารกรุงเทพ", "nameEn": "Bangkok Bank", "cat": ["essentials"], "province": "cm", "slug": "bangkok-bank-481786758", "rank": 2}}, {"type": "Feature", "geometry": {"type": "Point", "coordinates": [98.99961, 18.79097]}, "properties": {"id": "cm-osm-way-672595995", "name": "ธนาคารกรุงเทพ", "nameTh": "ธนาคารกรุงเทพ", "nameEn": "Bangkok Bank", "cat": ["essentials"], "province": "cm", "slug": "bangkok-bank-672595995", "rank": 3}}, {"type": "Feature", "geometry": {"type": "Point", "coordinates": [99.08009, 18.76505]}, "properties": {"id": "cm-osm-way-83229290", "name": "ธนาคารกรุงเทพ", "nameTh": "ธนาคารกรุงเทพ", "nameEn": "Bangkok Bank", "cat": ["essentials"], "province": "cm", "slug": "bangkok-bank-83229290", "rank": 2}}]}