{"type": "FeatureCollection", "features": [{"type": "Feature", "geometry": {"type": "Point", "coordinates": [98.98002, 18.80323]}, "properties": {"id": "cm-osm-node-2527662833", "name": "Akha Ama", "nameTh": "กาแฟอาข่าอามา", "nameEn": "Akha Ama", "cat": ["food"], "province": "cm", "slug": "akha-ama-2527662833", "rank": 4}}, {"type": "Feature", "geometry": {"type": "Point", "coordinates": [98.98322, 18.78843]}, "properties": {"id": "cm-osm-node-2404044286", "name": "Akha Ama Phrasingh", "nameTh": "กาแฟอาข่าอามา (สาขา 2)", "nameEn": "Akha Ama Phrasingh", "cat": ["food"], "province": "cm", "slug": "akha-ama-phrasingh-2404044286", "rank": 4}}, {"type": "Feature", "geometry": {"type": "Point", "coordinates": [98.99395, 18.78786]}, "properties": {"id": "cm-osm-node-5258746823", "name": "Art Cafe", "nameTh": null, "nameEn": "Art Cafe", "cat": ["food"], "province": "cm", "slug": "art-cafe-5258746823", "rank": 2}}, {"type": "Feature", "geometry": {"type": "Point", "coordinates": [99.00805, 18.77588]}, "properties": {"id": "cm-osm-node-2648502951", "name": "Auf der Au Garden Restaurant & Bistro", "nameTh": null, "nameEn": "Auf der Au Garden Restaurant & Bistro", "cat": ["food"], "province": "cm", "slug": "auf-der-au-garden-restaurant-bistro-2648502951", "rank": 4}}, {"type": "Feature", "geometry": {"type": "Point", "coordinates": [98.94568, 18.77046]}, "properties": {"id": "cm-osm-way-1177625630", "name": "Biscotti House", "nameTh": null, "nameEn": "Biscotti House", "cat": ["food"], "province": "cm", "slug": "biscotti-house-1177625630", "rank": 3}}, {"type": "Feature", "geometry": {"type": "Point", "coordinates": [99.02449, 18.79882]}, "properties": {"id": "cm-osm-node-4427268751", "name": "Blue Cafe", "nameTh": null, "nameEn": "Blue Cafe", "cat": ["food"], "province": "cm", "slug": "blue-cafe-4427268751", "rank": 3}}, {"type": "Feature", "geometry": {"type": "Point", "coordinates": [98.95951, 18.8247]}, "properties": {"id": "cm-osm-way-333203173", "name": "Cafe de Oasis", "nameTh": null, "nameEn": "Cafe de Oasis", "cat": ["food"], "province": "cm", "slug": "cafe-de-oasis-333203173", "rank": 4}}, {"type": "Feature", "geometry": {"type": "Point", "coordinates": [98.98848, 18.78547]}, "properties": {"id": "cm-osm-node-1006843145", "name": "Cafe de Thaan Aoan", "nameTh": null, "nameEn": "Cafe de Thaan Aoan", "cat": ["food"], "province": "cm", "slug": "cafe-de-thaan-aoan-1006843145", "rank": 2}}, {"type": "Feature", "geometry": {"type": "Point", "coordinates": [98.99462, 18.79247]}, "properties": {"id": "cm-osm-node-4430796190", "name": "Cat House", "nameTh": null, "nameEn": "Cat house", "cat": ["food"], "province": "cm", "slug": "cat-house-4430796190", "rank": 1}}, {"type": "Feature", "geometry": {"type": "Point", "coordinates": [98.95791, 18.80635]}, "properties": {"id": "cm-osm-node-3819711686", "name": "Catmosphere Cat Café", "nameTh": "แคทโมสเฟียร์ แคท คาเฟ่", "nameEn": "Catmosphere Cat Café", "cat": ["food"], "province": "cm", "slug": "catmosphere-cat-caf-3819711686", "rank": 3}}, {"type": "Feature", "geometry": {"type": "Point", "coordinates": [98.95123, 18.82027]}, "properties": {"id": "cm-osm-node-4889011525", "name": "Coffee or Me", "nameTh": "Coffee or Me", "nameEn": null, "cat": ["food"], "province": "cm", "slug": "coffee-or-me-4889011525", "rank": 3}}, {"type": "Feature", "geometry": {"type": "Point", "coordinates": [98.95379, 18.78384]}, "properties": {"id": "cm-osm-node-6089830785", "name": "Corner Coff", "nameTh": null, "nameEn": "Corner Coff", "cat": ["food"], "province": "cm", "slug": "corner-coff-6089830785", "rank": 2}}, {"type": "Feature", "geometry": {"type": "Point", "coordinates": [98.96786, 18.80428]}, "properties": {"id": "cm-osm-node-4265515989", "name": "Cottontree", "nameTh": null, "nameEn": "Cottontree", "cat": ["food"], "province": "cm", "slug": "cottontree-4265515989", "rank": 2}}, {"type": "Feature", "geometry": {"type": "Point", "coordinates": [98.96736, 18.80084]}, "properties": {"id": "cm-osm-node-5108961825", "name": "DOM cafe", "nameTh": null, "nameEn": "DOM cafe", "cat": ["food"], "province": "cm", "slug": "dom-cafe-5108961825", "rank": 1}}, {"type": "Feature", "geometry": {"type": "Point", "coordinates": [98.98203, 18.79339]}, "properties": {"id": "cm-osm-node-3385494997", "name": "Fern Forest Cafe", "nameTh": null, "nameEn": "Fern Forest Cafe", "cat": ["food"], "province": "cm", "slug": "fern-forest-cafe-3385494997", "rank": 3}}, {"type": "Feature", "geometry": {"type": "Point", "coordinates": [98.90676, 18.90692]}, "properties": {"id": "cm-osm-node-9483003735", "name": "Fleur Cafe and Eatery", "nameTh": null, "nameEn": "Fleur Cafe and Eatery", "cat": ["food"], "province": "cm", "slug": "fleur-cafe-and-eatery-9483003735", "rank": 3}}, {"type": "Feature", "geometry": {"type": "Point", "coordinates": [98.96892, 18.79485]}, "properties": {"id": "cm-osm-node-6984212486", "name": "Flour Flour", "nameTh": null, "nameEn": "Flour Flour", "cat": ["food"], "province": "cm", "slug": "flour-flour-6984212486", "rank": 1}}, {"type": "Feature", "geometry": {"type": "Point", "coordinates": [98.98619, 18.78157]}, "properties": {"id": "cm-osm-node-13347292501", "name": "Friend Coffee", "nameTh": null, "nameEn": "Friend Coffee", "cat": ["food"], "province": "cm", "slug": "friend-coffee-13347292501", "rank": 2}}, {"type": "Feature", "geometry": {"type": "Point", "coordinates": [98.97309, 18.78887]}, "properties": {"id": "cm-osm-node-2661676325", "name": "Gateaux House", "nameTh": null, "nameEn": "Gateaux House", "cat": ["food"], "province": "cm", "slug": "gateaux-house-2661676325", "rank": 1}}, {"type": "Feature", "geometry": {"type": "Point", "coordinates": [99.00181, 18.79453]}, "properties": {"id": "cm-osm-node-7150405587", "name": "Happy Time - Vegan Foods & Salad bar", "nameTh": null, "nameEn": "Happy Time - Vegan Foods & Salad bar", "cat": ["food"], "province": "cm", "slug": "happy-time-vegan-foods-salad-bar-7150405587", "rank": 3}}, {"type": "Feature", "geometry": {"type": "Point", "coordinates": [98.93655, 18.76434]}, "properties": {"id": "cm-osm-node-7056149471", "name": "Homglai", "nameTh": null, "nameEn": "Homglai", "cat": ["food"], "province": "cm", "slug": "homglai-7056149471", "rank": 5}}, {"type": "Feature", "geometry": {"type": "Point", "coordinates": [98.97529, 18.79986]}, "properties": {"id": "cm-osm-node-11915081269", "name": "House No.33", "nameTh": null, "nameEn": "House No.33", "cat": ["food"], "province": "cm", "slug": "house-no-33-11915081269", "rank": 2}}, {"type": "Feature", "geometry": {"type": "Point", "coordinates": [98.93685, 18.76426]}, "properties": {"id": "cm-osm-node-7056149470", "name": "Impresso Coffee & Etcetera", "nameTh": null, "nameEn": "Impresso Coffee & Etcetera", "cat": ["food"], "province": "cm", "slug": "impresso-coffee-etcetera-7056149470", "rank": 1}}, {"type": "Feature", "geometry": {"type": "Point", "coordinates": [99.13903, 18.87598]}, "properties": {"id": "cm-osm-node-12345599501", "name": "Inthanin", "nameTh": null, "nameEn": "Inthanin", "cat": ["food"], "province": "cm", "slug": "inthanin-12345599501", "rank": 2}}, {"type": "Feature", "geometry": {"type": "Point", "coordinates": [99.03947, 18.78083]}, "properties": {"id": "cm-osm-node-5561163722", "name": "Lamdee Cafe", "nameTh": null, "nameEn": "Lamdee Cafe", "cat": ["food"], "province": "cm", "slug": "lamdee-cafe-5561163722", "rank": 3}}, {"type": "Feature", "geometry": {"type": "Point", "coordinates": [98.98409, 18.83666]}, "properties": {"id": "cm-osm-node-9317017217", "name": "Lee Cafe", "nameTh": null, "nameEn": "Lee Cafe", "cat": ["food"], "province": "cm", "slug": "lee-cafe-9317017217", "rank": 3}}, {"type": "Feature", "geometry": {"type": "Point", "coordinates": [98.99527, 18.78552]}, "properties": {"id": "cm-osm-node-6110461185", "name": "Mam’s Cake Coffee Breakfast", "nameTh": null, "nameEn": "Mam’s Cake Coffee Breakfast", "cat": ["food"], "province": "cm", "slug": "mam-s-cake-coffee-breakfast-6110461185", "rank": 2}}, {"type": "Feature", "geometry": {"type": "Point", "coordinates": [98.96852, 18.79637]}, "properties": {"id": "cm-osm-node-3421308693", "name": "Mango Tango", "nameTh": null, "nameEn": "Mango Tango", "cat": ["food"], "province": "cm", "slug": "mango-tango-3421308693", "rank": 3}}, {"type": "Feature", "geometry": {"type": "Point", "coordinates": [98.99427, 18.76579]}, "properties": {"id": "cm-osm-node-9351789417", "name": "Mingmitr Coffee", "nameTh": null, "nameEn": "Mingmitr Coffee", "cat": ["food"], "province": "cm", "slug": "mingmitr-coffee-9351789417", "rank": 3}}, {"type": "Feature", "geometry": {"type": "Point", "coordinates": [98.98716, 18.78574]}, "properties": {"id": "cm-osm-node-5203695537", "name": "Miranda's café", "nameTh": null, "nameEn": "Miranda's café", "cat": ["food"], "province": "cm", "slug": "miranda-s-caf-5203695537", "rank": 1}}, {"type": "Feature", "geometry": {"type": "Point", "coordinates": [98.94593, 18.68986]}, "properties": {"id": "cm-osm-node-11032795792", "name": "NK Cafe", "nameTh": "เอ็น เค คาเฟ่", "nameEn": "NK Cafe", "cat": ["food"], "province": "cm", "slug": "nk-cafe-11032795792", "rank": 4}}, {"type": "Feature", "geometry": {"type": "Point", "coordinates": [98.99279, 18.78792]}, "properties": {"id": "cm-osm-node-3277470021", "name": "Pai Doi Coffee", "nameTh": null, "nameEn": "Pai Doi Coffee", "cat": ["food"], "province": "cm", "slug": "pai-doi-coffee-3277470021", "rank": 1}}, {"type": "Feature", "geometry": {"type": "Point", "coordinates": [98.95526, 18.7919]}, "properties": {"id": "cm-osm-node-7227016085", "name": "Phuping Coffee", "nameTh": null, "nameEn": "Phuping Coffee", "cat": ["food"], "province": "cm", "slug": "phuping-coffee-7227016085", "rank": 2}}, {"type": "Feature", "geometry": {"type": "Point", "coordinates": [98.96629, 18.78951]}, "properties": {"id": "cm-osm-node-4915032523", "name": "RabBrits café", "nameTh": null, "nameEn": "RabBrits café", "cat": ["food"], "province": "cm", "slug": "rabbrits-caf-4915032523", "rank": 2}}, {"type": "Feature", "geometry": {"type": "Point", "coordinates": [98.96721, 18.79921]}, "properties": {"id": "cm-osm-node-4564569789", "name": "Rogu Roti", "nameTh": null, "nameEn": "Rogu Roti", "cat": ["food"], "province": "cm", "slug": "rogu-roti-4564569789", "rank": 2}}, {"type": "Feature", "geometry": {"type": "Point", "coordinates": [98.97526, 18.7998]}, "properties": {"id": "cm-osm-node-6717751395", "name": "Seasons Ice Cream", "nameTh": null, "nameEn": "Seasons Ice Cream", "cat": ["food"], "province": "cm", "slug": "seasons-ice-cream-6717751395", "rank": 2}}, {"type": "Feature", "geometry": {"type": "Point", "coordinates": [98.96445, 18.80842]}, "properties": {"id": "cm-osm-way-668015250", "name": "Something Like Cat & Daughters Bag", "nameTh": null, "nameEn": "Something Like Cat & Daughters Bag", "cat": ["food"], "province": "cm", "slug": "something-like-cat-daughters-bag-668015250", "rank": 3}}, {"type": "Feature", "geometry": {"type": "Point", "coordinates": [99.04651, 18.79138]}, "properties": {"id": "cm-osm-node-13597778924", "name": "TEDA.cafe&studio cake", "nameTh": null, "nameEn": "TEDA.cafe&studio cake", "cat": ["food"], "province": "cm", "slug": "teda-cafe-studio-cake-13597778924", "rank": 2}}, {"type": "Feature", "geometry": {"type": "Point", "coordinates": [98.98253, 18.78755]}, "properties": {"id": "cm-osm-node-4440847089", "name": "Taa Peng Cat", "nameTh": null, "nameEn": "Taa Peng Cat", "cat": ["food"], "province": "cm", "slug": "taa-peng-cat-4440847089", "rank": 2}}, {"type": "Feature", "geometry": {"type": "Point", "coordinates": [98.98242, 18.78164]}, "properties": {"id": "cm-osm-node-5593553723", "name": "Tenten", "nameTh": null, "nameEn": "Tenten", "cat": ["food"], "province": "cm", "slug": "tenten-5593553723", "rank": 2}}, {"type": "Feature", "geometry": {"type": "Point", "coordinates": [98.9939, 18.79284]}, "properties": {"id": "cm-osm-node-8937123517", "name": "The Baristro", "nameTh": null, "nameEn": "The Baristro", "cat": ["food"], "province": "cm", "slug": "the-baristro-8937123517", "rank": 2}}, {"type": "Feature", "geometry": {"type": "Point", "coordinates": [98.99133, 18.79016]}, "properties": {"id": "cm-osm-node-13347185301", "name": "The Little Sunday", "nameTh": null, "nameEn": "The Little Sunday", "cat": ["food"], "province": "cm", "slug": "the-little-sunday-13347185301", "rank": 2}}, {"type": "Feature", "geometry": {"type": "Point", "coordinates": [98.97552, 18.60505]}, "properties": {"id": "cm-osm-node-11687435282", "name": "The Terracotta Garden at Lamphun Cafe", "nameTh": null, "nameEn": "The Terracotta Garden at Lamphun Cafe", "cat": ["food"], "province": "cm", "slug": "the-terracotta-garden-at-lamphun-cafe-11687435282", "rank": 1}}, {"type": "Feature", "geometry": {"type": "Point", "coordinates": [98.8792, 18.64627]}, "properties": {"id": "cm-osm-node-6379770785", "name": "Thong Na Coffee & John Art Garden", "nameTh": null, "nameEn": "Thong Na Coffee & John Art Garden", "cat": ["food"], "province": "cm", "slug": "thong-na-coffee-john-art-garden-6379770785", "rank": 2}}, {"type": "Feature", "geometry": {"type": "Point", "coordinates": [98.81758, 18.81246]}, "properties": {"id": "cm-osm-node-4403836128", "name": "Tung Luang Royal Project Rose Garden Cafe", "nameTh": null, "nameEn": "Tung Luang Royal Project Rose Garden Cafe", "cat": ["food"], "province": "cm", "slug": "tung-luang-royal-project-rose-garden-cafe-4403836128", "rank": 1}}, {"type": "Feature", "geometry": {"type": "Point", "coordinates": [98.94784, 18.76434]}, "properties": {"id": "cm-osm-node-9435653718", "name": "Valentan", "nameTh": "Valentan café", "nameEn": null, "cat": ["food"], "province": "cm", "slug": "valentan-caf-9435653718", "rank": 3}}, {"type": "Feature", "geometry": {"type": "Point", "coordinates": [98.87702, 18.75538]}, "properties": {"id": "cm-osm-node-9482831717", "name": "Valley Coffee Lanna Resort", "nameTh": null, "nameEn": "Valley Coffee Lanna Resort", "cat": ["food"], "province": "cm", "slug": "valley-coffee-lanna-resort-9482831717", "rank": 3}}, {"type": "Feature", "geometry": {"type": "Point", "coordinates": [98.98163, 18.79607]}, "properties": {"id": "cm-osm-node-5558856823", "name": "Wake Up Coffee", "nameTh": null, "nameEn": "WakeUp24Hrs", "cat": ["food"], "province": "cm", "slug": "wakeup24hrs-5558856823", "rank": 3}}, {"type": "Feature", "geometry": {"type": "Point", "coordinates": [98.95722, 18.80731]}, "properties": {"id": "cm-osm-node-5558883026", "name": "Wake Up Coffee", "nameTh": null, "nameEn": "WakeUp24Hrs", "cat": ["food"], "province": "cm", "slug": "wakeup24hrs-5558883026", "rank": 3}}, {"type": "Feature", "geometry": {"type": "Point", "coordinates": [98.99248, 18.78873]}, "properties": {"id": "cm-osm-node-9982674524", "name": "Wake n' Bake", "nameTh": null, "nameEn": "Wake n' Bake", "cat": ["food"], "province": "cm", "slug": "wake-n-bake-9982674524", "rank": 1}}, {"type": "Feature", "geometry": {"type": "Point", "coordinates": [98.96448, 18.7893]}, "properties": {"id": "cm-osm-node-4893144721", "name": "Yellow Crafts", "nameTh": null, "nameEn": "Yellow Crafts", "cat": ["food"], "province": "cm", "slug": "yellow-crafts-4893144721", "rank": 3}}, {"type": "Feature", "geometry": {"type": "Point", "coordinates": [98.97332, 18.79446]}, "properties": {"id": "cm-osm-node-4641683190", "name": "ชีวิตคนธรรมดา", "nameTh": "ชีวิตคนธรรมดา", "nameEn": "Shewitkhontammada Coffee House", "cat": ["food"], "province": "cm", "slug": "shewitkhontammada-coffee-house-4641683190", "rank": 4}}, {"type": "Feature", "geometry": {"type": "Point", "coordinates": [98.93669, 18.76429]}, "properties": {"id": "cm-osm-node-6810762217", "name": "รสนิยม", "nameTh": "รสนิยม", "nameEn": "Rotniyom", "cat": ["food"], "province": "cm", "slug": "rotniyom-6810762217", "rank": 2}}, {"type": "Feature", "geometry": {"type": "Point", "coordinates": [98.96918, 18.79385]}, "properties": {"id": "cm-osm-node-5340666521", "name": "สวนไอเบอร์รี่", "nameTh": "สวนไอเบอร์รี่", "nameEn": "iberry garden", "cat": ["food"], "province": "cm", "slug": "iberry-garden-5340666521", "rank": 5}}, {"type": "Feature", "geometry": {"type": "Point", "coordinates": [98.96919, 18.81863]}, "properties": {"id": "cm-osm-node-4180090391", "name": "ฮอห์ม คาเฟ่", "nameTh": "ฮอห์ม คาเฟ่", "nameEn": "Hohm cafe", "cat": ["food"], "province": "cm", "slug": "hohm-cafe-4180090391", "rank": 4}}]}