{"type": "FeatureCollection", "features": [{"type": "Feature", "geometry": {"type": "Point", "coordinates": [98.98322, 18.78843]}, "properties": {"id": "cm-osm-node-2404044286", "name": "Akha Ama Phrasingh", "nameTh": "กาแฟอาข่าอามา (สาขา 2)", "nameEn": "Akha Ama Phrasingh", "cat": ["food"], "province": "cm", "slug": "akha-ama-phrasingh-2404044286", "rank": 4}}, {"type": "Feature", "geometry": {"type": "Point", "coordinates": [98.97244, 18.80396]}, "properties": {"id": "cm-osm-way-1162793798", "name": "Baan Mae", "nameTh": "บ้านแม่ คาเฟ่ แอนด์ เรสเทอรองท์ เชียงใหม่", "nameEn": "Baan Mae Café & Restaurant Chiang Mai", "cat": ["food"], "province": "cm", "slug": "baan-mae-caf-restaurant-chiang-mai-1162793798", "rank": 5}}, {"type": "Feature", "geometry": {"type": "Point", "coordinates": [98.999, 18.78125]}, "properties": {"id": "cm-osm-node-2655145988", "name": "Bella Goose Coffee", "nameTh": null, "nameEn": "Bella Goose Coffee", "cat": ["food"], "province": "cm", "slug": "bella-goose-coffee-2655145988", "rank": 2}}, {"type": "Feature", "geometry": {"type": "Point", "coordinates": [98.94568, 18.77046]}, "properties": {"id": "cm-osm-way-1177625630", "name": "Biscotti House", "nameTh": null, "nameEn": "Biscotti House", "cat": ["food"], "province": "cm", "slug": "biscotti-house-1177625630", "rank": 3}}, {"type": "Feature", "geometry": {"type": "Point", "coordinates": [98.98869, 18.78825]}, "properties": {"id": "cm-osm-node-5987644570", "name": "Blue Coffee", "nameTh": null, "nameEn": "Blue Coffee", "cat": ["food"], "province": "cm", "slug": "blue-coffee-5987644570", "rank": 1}}, {"type": "Feature", "geometry": {"type": "Point", "coordinates": [98.99142, 18.7939]}, "properties": {"id": "cm-osm-way-259707860", "name": "Blue Diamond The Breakfast Club", "nameTh": null, "nameEn": "Blue Diamond The Breakfast Club", "cat": ["food"], "province": "cm", "slug": "blue-diamond-the-breakfast-club-259707860", "rank": 3}}, {"type": "Feature", "geometry": {"type": "Point", "coordinates": [98.96827, 18.76877]}, "properties": {"id": "cm-osm-node-1474876241", "name": "Burger King", "nameTh": null, "nameEn": "Burger King", "cat": ["food"], "province": "cm", "slug": "burger-king-1474876241", "rank": 2}}, {"type": "Feature", "geometry": {"type": "Point", "coordinates": [98.96929, 18.79738]}, "properties": {"id": "cm-osm-node-1797005544", "name": "Chai n Thai", "nameTh": null, "nameEn": "Chai n Thai", "cat": ["food"], "province": "cm", "slug": "chai-n-thai-1797005544", "rank": 1}}, {"type": "Feature", "geometry": {"type": "Point", "coordinates": [98.96981, 18.79752]}, "properties": {"id": "cm-osm-node-12573253643", "name": "Chinda Hotpot", "nameTh": null, "nameEn": "Chinda Hotpot", "cat": ["food"], "province": "cm", "slug": "chinda-hotpot-12573253643", "rank": 2}}, {"type": "Feature", "geometry": {"type": "Point", "coordinates": [98.97034, 18.79833]}, "properties": {"id": "cm-osm-node-11425558688", "name": "Coffee INC. Nicohub", "nameTh": null, "nameEn": "Coffee INC. Nicohub", "cat": ["food"], "province": "cm", "slug": "coffee-inc-nicohub-11425558688", "rank": 3}}, {"type": "Feature", "geometry": {"type": "Point", "coordinates": [98.9923, 18.72444]}, "properties": {"id": "cm-osm-way-677842671", "name": "Ginger Farm Chiang Mai", "nameTh": null, "nameEn": "Ginger Farm Chiang Mai", "cat": ["food"], "province": "cm", "slug": "ginger-farm-chiang-mai-677842671", "rank": 3}}, {"type": "Feature", "geometry": {"type": "Point", "coordinates": [98.98209, 18.79326]}, "properties": {"id": "cm-osm-way-623140246", "name": "Goodsouls Kitchen", "nameTh": null, "nameEn": "Goodsouls Kitchen", "cat": ["food"], "province": "cm", "slug": "goodsouls-kitchen-623140246", "rank": 3}}, {"type": "Feature", "geometry": {"type": "Point", "coordinates": [98.98193, 18.78584]}, "properties": {"id": "cm-osm-way-623156415", "name": "Gravity Cafe & Bistro", "nameTh": null, "nameEn": "Gravity Cafe & Bistro", "cat": ["food"], "province": "cm", "slug": "gravity-cafe-bistro-623156415", "rank": 2}}, {"type": "Feature", "geometry": {"type": "Point", "coordinates": [98.98987, 18.77873]}, "properties": {"id": "cm-osm-node-11699795495", "name": "Haiya Ta-bur Experience Space", "nameTh": null, "nameEn": "Haiya Ta-bur Experience Space", "cat": ["food"], "province": "cm", "slug": "haiya-ta-bur-experience-space-11699795495", "rank": 2}}, {"type": "Feature", "geometry": {"type": "Point", "coordinates": [98.96948, 18.79737]}, "properties": {"id": "cm-osm-node-4866191746", "name": "Italics Restaurant & Rise Bar", "nameTh": null, "nameEn": "Italics Restaurant & Rise Bar", "cat": ["food"], "province": "cm", "slug": "italics-restaurant-rise-bar-4866191746", "rank": 3}}, {"type": "Feature", "geometry": {"type": "Point", "coordinates": [98.96884, 18.79994]}, "properties": {"id": "cm-osm-node-11699363920", "name": "Jai Tong Heng", "nameTh": null, "nameEn": "Jai Tong Heng", "cat": ["food"], "province": "cm", "slug": "jai-tong-heng-11699363920", "rank": 2}}, {"type": "Feature", "geometry": {"type": "Point", "coordinates": [98.98626, 18.78367]}, "properties": {"id": "cm-osm-node-13545071979", "name": "Kalm Coffee", "nameTh": null, "nameEn": "Kalm Coffee", "cat": ["food"], "province": "cm", "slug": "kalm-coffee-13545071979", "rank": 1}}, {"type": "Feature", "geometry": {"type": "Point", "coordinates": [98.98861, 18.78806]}, "properties": {"id": "cm-osm-node-4623096989", "name": "Kati breakfast & brunch", "nameTh": null, "nameEn": "Kati breakfast & brunch", "cat": ["food"], "province": "cm", "slug": "kati-breakfast-brunch-4623096989", "rank": 1}}, {"type": "Feature", "geometry": {"type": "Point", "coordinates": [98.96827, 18.76863]}, "properties": {"id": "cm-osm-node-7026355370", "name": "McDonald's", "nameTh": null, "nameEn": "McDonald's", "cat": ["food"], "province": "cm", "slug": "mcdonald-s-7026355370", "rank": 1}}, {"type": "Feature", "geometry": {"type": "Point", "coordinates": [98.99393, 18.7875]}, "properties": {"id": "cm-osm-node-964809008", "name": "McDonald's", "nameTh": "แมคโดนัลด์", "nameEn": "McDonald's", "cat": ["food"], "province": "cm", "slug": "mcdonald-s-964809008", "rank": 5}}, {"type": "Feature", "geometry": {"type": "Point", "coordinates": [98.99487, 18.7879]}, "properties": {"id": "cm-osm-node-13518858073", "name": "Mo Restaurant & Bar", "nameTh": null, "nameEn": "Mo Restaurant & Bar", "cat": ["food"], "province": "cm", "slug": "mo-restaurant-bar-13518858073", "rank": 1}}, {"type": "Feature", "geometry": {"type": "Point", "coordinates": [98.98323, 18.7881]}, "properties": {"id": "cm-osm-node-3907871477", "name": "My Secret Cafe", "nameTh": null, "nameEn": "My Secret Cafe", "cat": ["food"], "province": "cm", "slug": "my-secret-cafe-3907871477", "rank": 1}}, {"type": "Feature", "geometry": {"type": "Point", "coordinates": [99.05954, 18.71401]}, "properties": {"id": "cm-osm-node-5824910727", "name": "Nekoemon Cafe", "nameTh": null, "nameEn": "Nekoemon Cafe", "cat": ["food"], "province": "cm", "slug": "nekoemon-cafe-5824910727", "rank": 1}}, {"type": "Feature", "geometry": {"type": "Point", "coordinates": [98.97424, 18.79905]}, "properties": {"id": "cm-osm-node-4505551231", "name": "Ombra Cafe", "nameTh": null, "nameEn": "Ombra Cafe", "cat": ["food"], "province": "cm", "slug": "ombra-cafe-4505551231", "rank": 2}}, {"type": "Feature", "geometry": {"type": "Point", "coordinates": [98.96778, 18.80236]}, "properties": {"id": "cm-osm-node-3287356498", "name": "Starbucks", "nameTh": "สตาร์บัคส์", "nameEn": "Starbucks Coffee", "cat": ["food"], "province": "cm", "slug": "starbucks-coffee-3287356498", "rank": 3}}, {"type": "Feature", "geometry": {"type": "Point", "coordinates": [98.97866, 18.79302]}, "properties": {"id": "cm-osm-way-623146142", "name": "The Peaberry Cafe & Coworking", "nameTh": null, "nameEn": "The Peaberry Cafe & Coworking", "cat": ["business", "food"], "province": "cm", "slug": "the-peaberry-cafe-coworking-623146142", "rank": 2}}, {"type": "Feature", "geometry": {"type": "Point", "coordinates": [98.9842, 18.79922]}, "properties": {"id": "cm-osm-node-11726497304", "name": "Uncle Home", "nameTh": null, "nameEn": "Uncle Home", "cat": ["food"], "province": "cm", "slug": "uncle-home-11726497304", "rank": 3}}, {"type": "Feature", "geometry": {"type": "Point", "coordinates": [98.92521, 18.7508]}, "properties": {"id": "cm-osm-node-3927203442", "name": "คาเฟ่ อเมซอน", "nameTh": "คาเฟ่ อเมซอน", "nameEn": "Café Amazon", "cat": ["food"], "province": "cm", "slug": "caf-amazon-3927203442", "rank": 2}}, {"type": "Feature", "geometry": {"type": "Point", "coordinates": [99.04601, 18.90487]}, "properties": {"id": "cm-osm-node-4573410090", "name": "สยามการ์เด้นคุ้กกิ้งสคูล", "nameTh": "สยามการ์เด้นคุ้กกิ้งสคูล", "nameEn": "Siam Garden Cooking School", "cat": ["cooking", "food"], "province": "cm", "slug": "siam-garden-cooking-school-4573410090", "rank": 6}}, {"type": "Feature", "geometry": {"type": "Point", "coordinates": [98.96704, 18.80222]}, "properties": {"id": "cm-osm-node-13533539045", "name": "Boots", "nameTh": null, "nameEn": "Boots", "cat": ["essentials", "medical"], "province": "cm", "slug": "boots-13533539045", "rank": 1}}, {"type": "Feature", "geometry": {"type": "Point", "coordinates": [98.96735, 18.79932]}, "properties": {"id": "cm-osm-node-6561551296", "name": "Chiangmai International Dental Center", "nameTh": null, "nameEn": "Chiangmai International Dental Center", "cat": ["medical"], "province": "cm", "slug": "chiangmai-international-dental-center-6561551296", "rank": 5}}, {"type": "Feature", "geometry": {"type": "Point", "coordinates": [98.96704, 18.80265]}, "properties": {"id": "cm-osm-node-11609521632", "name": "Tsuruha", "nameTh": null, "nameEn": "Tsuruha", "cat": ["essentials", "medical"], "province": "cm", "slug": "tsuruha-11609521632", "rank": 1}}, {"type": "Feature", "geometry": {"type": "Point", "coordinates": [98.97749, 18.79494]}, "properties": {"id": "cm-osm-way-257214959", "name": "โรงพยาบาลเชียงใหม่ราม", "nameTh": "โรงพยาบาลเชียงใหม่ราม", "nameEn": "Chiang Mai Ram Hospital", "cat": ["medical"], "province": "cm", "slug": "chiang-mai-ram-hospital-257214959", "rank": 5}}, {"type": "Feature", "geometry": {"type": "Point", "coordinates": [98.92589, 18.74331]}, "properties": {"id": "cm-osm-node-11295824999", "name": "stuff cannabis dispensary", "nameTh": null, "nameEn": "stuff cannabis dispensary", "cat": ["cannabis"], "province": "cm", "slug": "stuff-cannabis-dispensary-11295824999", "rank": 4}}, {"type": "Feature", "geometry": {"type": "Point", "coordinates": [98.96902, 18.79861]}, "properties": {"id": "cm-osm-node-13516631656", "name": "7-Eleven", "nameTh": "7-Eleven", "nameEn": null, "cat": ["essentials"], "province": "cm", "slug": "7-eleven-13516631656", "rank": 1}}, {"type": "Feature", "geometry": {"type": "Point", "coordinates": [98.97104, 18.79773]}, "properties": {"id": "cm-osm-node-2696290620", "name": "7-Eleven", "nameTh": null, "nameEn": "7-Eleven", "cat": ["essentials"], "province": "cm", "slug": "7-eleven-2696290620", "rank": 3}}, {"type": "Feature", "geometry": {"type": "Point", "coordinates": [98.99036, 18.78433]}, "properties": {"id": "cm-osm-node-6117383885", "name": "7-Eleven", "nameTh": null, "nameEn": "7-Eleven", "cat": ["essentials"], "province": "cm", "slug": "7-eleven-6117383885", "rank": 1}}, {"type": "Feature", "geometry": {"type": "Point", "coordinates": [98.95954, 18.806]}, "properties": {"id": "cm-osm-node-725689632", "name": "7-Eleven", "nameTh": null, "nameEn": "7-Eleven", "cat": ["essentials"], "province": "cm", "slug": "7-eleven-725689632", "rank": 2}}, {"type": "Feature", "geometry": {"type": "Point", "coordinates": [98.97793, 18.79413]}, "properties": {"id": "cm-osm-way-1106554072", "name": "7-Eleven", "nameTh": null, "nameEn": "7-Eleven", "cat": ["essentials"], "province": "cm", "slug": "7-eleven-1106554072", "rank": 3}}, {"type": "Feature", "geometry": {"type": "Point", "coordinates": [98.98525, 18.71471]}, "properties": {"id": "cm-osm-way-544559166", "name": "7-Eleven", "nameTh": null, "nameEn": "7-Eleven", "cat": ["essentials"], "province": "cm", "slug": "7-eleven-544559166", "rank": 2}}, {"type": "Feature", "geometry": {"type": "Point", "coordinates": [98.97849, 18.81154]}, "properties": {"id": "cm-osm-way-525727349", "name": "Big C Mini", "nameTh": "มินิบิ๊กซี", "nameEn": "Big C Mini", "cat": ["essentials"], "province": "cm", "slug": "big-c-mini-525727349", "rank": 3}}, {"type": "Feature", "geometry": {"type": "Point", "coordinates": [98.96627, 18.75227]}, "properties": {"id": "cm-osm-node-4449627840", "name": "Shell Select ทองธนพล สาขาสนามบิน", "nameTh": "Shell Select ทองธนพล สาขาสนามบิน", "nameEn": "Shell Select Thongthanaphon - Airport", "cat": ["essentials"], "province": "cm", "slug": "shell-select-thongthanaphon-airport-4449627840", "rank": 2}}, {"type": "Feature", "geometry": {"type": "Point", "coordinates": [99.01372, 18.78579]}, "properties": {"id": "cm-osm-way-528012040", "name": "Shell Select ทองธนพล สาขาเจริญเมือง", "nameTh": "Shell Select ทองธนพล สาขาเจริญเมือง", "nameEn": "Shell Select Thongthanaphon - Charoen Muang", "cat": ["essentials"], "province": "cm", "slug": "shell-select-thongthanaphon-charoen-muang-528012040", "rank": 2}}, {"type": "Feature", "geometry": {"type": "Point", "coordinates": [99.00099, 18.77472]}, "properties": {"id": "cm-osm-node-6897448545", "name": "Empress Premier Hotel Chiang Mai", "nameTh": null, "nameEn": "Empress Premier Hotel Chiang Mai", "cat": ["hotel"], "province": "cm", "slug": "empress-premier-hotel-chiang-mai-6897448545", "rank": 3}}, {"type": "Feature", "geometry": {"type": "Point", "coordinates": [98.98429, 18.79952]}, "properties": {"id": "cm-osm-node-9401545617", "name": "Glory Boutique Suites", "nameTh": null, "nameEn": "Glory Boutique Suites", "cat": ["hotel"], "province": "cm", "slug": "glory-boutique-suites-9401545617", "rank": 3}}, {"type": "Feature", "geometry": {"type": "Point", "coordinates": [98.9872, 18.78482]}, "properties": {"id": "cm-osm-way-623160173", "name": "Hostel Lullaby", "nameTh": null, "nameEn": "Hostel Lullaby", "cat": ["hotel"], "province": "cm", "slug": "hostel-lullaby-623160173", "rank": 3}}, {"type": "Feature", "geometry": {"type": "Point", "coordinates": [98.99709, 18.8082]}, "properties": {"id": "cm-osm-node-11113078829", "name": "MR.DIY", "nameTh": null, "nameEn": "MR.DIY", "cat": ["shopping"], "province": "cm", "slug": "mr-diy-11113078829", "rank": 3}}, {"type": "Feature", "geometry": {"type": "Point", "coordinates": [98.95546, 18.72152]}, "properties": {"id": "cm-osm-node-9168665133", "name": "Sivilai Brick", "nameTh": null, "nameEn": "Sivilai Brick", "cat": ["shopping"], "province": "cm", "slug": "sivilai-brick-9168665133", "rank": 5}}, {"type": "Feature", "geometry": {"type": "Point", "coordinates": [99.06641, 18.76988]}, "properties": {"id": "cm-osm-way-105242816", "name": "นพดลพานิช SCG Home Solution", "nameTh": "นพดลพานิช SCG Home Solution", "nameEn": "Nopadol Panich SCG Home Solution", "cat": ["shopping"], "province": "cm", "slug": "nopadol-panich-scg-home-solution-105242816", "rank": 6}}, {"type": "Feature", "geometry": {"type": "Point", "coordinates": [99.01338, 18.80812]}, "properties": {"id": "cm-osm-way-97690858", "name": "นพดลพานิช โฮมเอ๊กซ์เปิร์ท", "nameTh": "นพดลพานิช โฮมเอ๊กซ์เปิร์ท", "nameEn": "Nopadol Panich - Home Expert", "cat": ["shopping"], "province": "cm", "slug": "nopadol-panich-home-expert-97690858", "rank": 6}}, {"type": "Feature", "geometry": {"type": "Point", "coordinates": [98.99479, 18.78118]}, "properties": {"id": "cm-osm-node-8493398466", "name": "Mr Pop Chiang Mai", "nameTh": null, "nameEn": "Mr Pop Chiang Mai", "cat": ["transport"], "province": "cm", "slug": "mr-pop-chiang-mai-8493398466", "rank": 2}}, {"type": "Feature", "geometry": {"type": "Point", "coordinates": [99.00052, 18.8387]}, "properties": {"id": "cm-osm-node-10093830957", "name": "Runstock", "nameTh": null, "nameEn": "Runstock", "cat": ["repair"], "province": "cm", "slug": "runstock-10093830957", "rank": 3}}, {"type": "Feature", "geometry": {"type": "Point", "coordinates": [99.00058, 18.83873]}, "properties": {"id": "cm-osm-way-1103049661", "name": "Runstock", "nameTh": null, "nameEn": "Runstock", "cat": ["repair"], "province": "cm", "slug": "runstock-1103049661", "rank": 3}}, {"type": "Feature", "geometry": {"type": "Point", "coordinates": [98.97651, 18.76482]}, "properties": {"id": "cm-osm-node-13892959554", "name": "กล้องติดรถเชียงใหม่ 70Mai", "nameTh": "กล้องติดรถเชียงใหม่ 70Mai", "nameEn": null, "cat": ["repair"], "province": "cm", "slug": "70mai-13892959554", "rank": 3}}, {"type": "Feature", "geometry": {"type": "Point", "coordinates": [98.96599, 18.79591]}, "properties": {"id": "cm-osm-node-12976981412", "name": "Artisan Ink Tattoo", "nameTh": null, "nameEn": "Artisan Ink Tattoo", "cat": ["tattoo"], "province": "cm", "slug": "artisan-ink-tattoo-12976981412", "rank": 4}}, {"type": "Feature", "geometry": {"type": "Point", "coordinates": [98.98792, 18.74676]}, "properties": {"id": "cm-osm-way-1159988644", "name": "Progression Climbing Gym", "nameTh": null, "nameEn": "Progression Climbing Gym", "cat": ["sport"], "province": "cm", "slug": "progression-climbing-gym-1159988644", "rank": 2}}, {"type": "Feature", "geometry": {"type": "Point", "coordinates": [98.97336, 18.76706]}, "properties": {"id": "cm-osm-node-12484086694", "name": "GO Wholesale Chiang Mai", "nameTh": null, "nameEn": "GO Wholesale Chiang Mai", "cat": ["business"], "province": "cm", "slug": "go-wholesale-chiang-mai-12484086694", "rank": 3}}]}