{"type": "FeatureCollection", "features": [{"type": "Feature", "geometry": {"type": "Point", "coordinates": [99.00886, 18.75245]}, "properties": {"id": "cm-osm-node-11343226670", "name": "Dairy Queen", "nameTh": null, "nameEn": "Dairy Queen", "cat": ["food"], "province": "cm", "slug": "dairy-queen-11343226670", "rank": 1}}, {"type": "Feature", "geometry": {"type": "Point", "coordinates": [98.96832, 18.76998]}, "properties": {"id": "cm-osm-node-1474872538", "name": "Dairy Queen", "nameTh": null, "nameEn": "Dairy Queen", "cat": ["food"], "province": "cm", "slug": "dairy-queen-1474872538", "rank": 2}}, {"type": "Feature", "geometry": {"type": "Point", "coordinates": [98.97241, 18.75883]}, "properties": {"id": "cm-osm-node-7882686661", "name": "Dairy Queen", "nameTh": null, "nameEn": "Dairy Queen", "cat": ["food"], "province": "cm", "slug": "dairy-queen-7882686661", "rank": 1}}, {"type": "Feature", "geometry": {"type": "Point", "coordinates": [98.96205, 18.74325]}, "properties": {"id": "cm-osm-node-907784580", "name": "Dairy Queen", "nameTh": null, "nameEn": "Dairy Queen", "cat": ["food"], "province": "cm", "slug": "dairy-queen-907784580", "rank": 1}}]}