{"type": "FeatureCollection", "features": [{"type": "Feature", "geometry": {"type": "Point", "coordinates": [98.9746, 18.72032]}, "properties": {"id": "cm-osm-node-10773546984", "name": "PTT", "nameTh": "ปตท", "nameEn": "PTT", "cat": ["transport"], "province": "cm", "slug": "ptt-10773546984", "rank": 3}}, {"type": "Feature", "geometry": {"type": "Point", "coordinates": [99.13083, 18.659]}, "properties": {"id": "cm-osm-node-11581270447", "name": "PTT", "nameTh": "ปตท", "nameEn": "PTT", "cat": ["transport"], "province": "cm", "slug": "ptt-11581270447", "rank": 2}}, {"type": "Feature", "geometry": {"type": "Point", "coordinates": [99.01174, 18.81469]}, "properties": {"id": "cm-osm-node-12347384602", "name": "PTT", "nameTh": "ป.ต.ท.", "nameEn": "PTT", "cat": ["transport"], "province": "cm", "slug": "ptt-12347384602", "rank": 2}}, {"type": "Feature", "geometry": {"type": "Point", "coordinates": [99.0068, 18.7604]}, "properties": {"id": "cm-osm-node-1361121234", "name": "PTT", "nameTh": "ปตท", "nameEn": "PTT", "cat": ["transport"], "province": "cm", "slug": "ptt-1361121234", "rank": 2}}, {"type": "Feature", "geometry": {"type": "Point", "coordinates": [98.94627, 18.61884]}, "properties": {"id": "cm-osm-node-2482361835", "name": "PTT", "nameTh": "ปตท", "nameEn": "PTT", "cat": ["transport"], "province": "cm", "slug": "ptt-2482361835", "rank": 2}}, {"type": "Feature", "geometry": {"type": "Point", "coordinates": [99.06316, 18.75108]}, "properties": {"id": "cm-osm-node-4115297789", "name": "PTT", "nameTh": "ปตท", "nameEn": "PTT", "cat": ["transport"], "province": "cm", "slug": "ptt-4115297789", "rank": 2}}, {"type": "Feature", "geometry": {"type": "Point", "coordinates": [99.0715, 18.76961]}, "properties": {"id": "cm-osm-node-863464777", "name": "PTT", "nameTh": "ปตท", "nameEn": "PTT", "cat": ["transport"], "province": "cm", "slug": "ptt-863464777", "rank": 3}}, {"type": "Feature", "geometry": {"type": "Point", "coordinates": [98.93704, 18.7425]}, "properties": {"id": "cm-osm-node-8912055478", "name": "PTT", "nameTh": null, "nameEn": "PTT", "cat": ["transport"], "province": "cm", "slug": "ptt-8912055478", "rank": 1}}, {"type": "Feature", "geometry": {"type": "Point", "coordinates": [99.05005, 18.67862]}, "properties": {"id": "cm-osm-way-1017739603", "name": "PTT", "nameTh": "ปตท", "nameEn": "PTT", "cat": ["transport"], "province": "cm", "slug": "ptt-1017739603", "rank": 3}}, {"type": "Feature", "geometry": {"type": "Point", "coordinates": [99.04979, 18.67861]}, "properties": {"id": "cm-osm-way-1017739605", "name": "PTT", "nameTh": "ปตท", "nameEn": "PTT NGV", "cat": ["transport"], "province": "cm", "slug": "ptt-ngv-1017739605", "rank": 3}}, {"type": "Feature", "geometry": {"type": "Point", "coordinates": [99.01945, 18.74746]}, "properties": {"id": "cm-osm-way-1029578476", "name": "PTT", "nameTh": "ปตท", "nameEn": "PTT", "cat": ["transport"], "province": "cm", "slug": "ptt-1029578476", "rank": 2}}, {"type": "Feature", "geometry": {"type": "Point", "coordinates": [99.02419, 18.78434]}, "properties": {"id": "cm-osm-way-103151397", "name": "PTT", "nameTh": "ป.ต.ท.", "nameEn": "PTT", "cat": ["transport"], "province": "cm", "slug": "ptt-103151397", "rank": 2}}, {"type": "Feature", "geometry": {"type": "Point", "coordinates": [99.08907, 18.73429]}, "properties": {"id": "cm-osm-way-1035238794", "name": "PTT", "nameTh": "ปตท", "nameEn": "PTT", "cat": ["transport"], "province": "cm", "slug": "ptt-1035238794", "rank": 2}}, {"type": "Feature", "geometry": {"type": "Point", "coordinates": [98.99165, 18.76429]}, "properties": {"id": "cm-osm-way-1037512553", "name": "PTT", "nameTh": "ปตท", "nameEn": "PTT", "cat": ["transport"], "province": "cm", "slug": "ptt-1037512553", "rank": 2}}, {"type": "Feature", "geometry": {"type": "Point", "coordinates": [98.98309, 18.79624]}, "properties": {"id": "cm-osm-way-103814237", "name": "PTT", "nameTh": "ปตท", "nameEn": "PTT", "cat": ["transport"], "province": "cm", "slug": "ptt-103814237", "rank": 2}}, {"type": "Feature", "geometry": {"type": "Point", "coordinates": [98.96575, 18.74145]}, "properties": {"id": "cm-osm-way-1158984150", "name": "PTT", "nameTh": "ปตท", "nameEn": "PTT", "cat": ["transport"], "province": "cm", "slug": "ptt-1158984150", "rank": 2}}, {"type": "Feature", "geometry": {"type": "Point", "coordinates": [99.02794, 18.77912]}, "properties": {"id": "cm-osm-way-128501416", "name": "PTT", "nameTh": "ปตท", "nameEn": "PTT", "cat": ["transport"], "province": "cm", "slug": "ptt-128501416", "rank": 3}}, {"type": "Feature", "geometry": {"type": "Point", "coordinates": [98.92609, 18.69424]}, "properties": {"id": "cm-osm-way-205215357", "name": "PTT", "nameTh": null, "nameEn": "PTT", "cat": ["transport"], "province": "cm", "slug": "ptt-205215357", "rank": 1}}, {"type": "Feature", "geometry": {"type": "Point", "coordinates": [98.82953, 18.60375]}, "properties": {"id": "cm-osm-way-236529203", "name": "PTT", "nameTh": "ปตท", "nameEn": "PTT", "cat": ["transport"], "province": "cm", "slug": "ptt-236529203", "rank": 2}}, {"type": "Feature", "geometry": {"type": "Point", "coordinates": [99.05201, 18.66969]}, "properties": {"id": "cm-osm-way-282467208", "name": "PTT", "nameTh": "ปตท", "nameEn": "PTT", "cat": ["transport"], "province": "cm", "slug": "ptt-282467208", "rank": 3}}, {"type": "Feature", "geometry": {"type": "Point", "coordinates": [98.94319, 18.91903]}, "properties": {"id": "cm-osm-way-311355728", "name": "PTT", "nameTh": "ปตท", "nameEn": "PTT", "cat": ["transport"], "province": "cm", "slug": "ptt-311355728", "rank": 2}}, {"type": "Feature", "geometry": {"type": "Point", "coordinates": [98.97074, 18.84858]}, "properties": {"id": "cm-osm-way-315328682", "name": "PTT", "nameTh": "ปตท", "nameEn": "PTT", "cat": ["transport"], "province": "cm", "slug": "ptt-315328682", "rank": 2}}, {"type": "Feature", "geometry": {"type": "Point", "coordinates": [99.01198, 18.82879]}, "properties": {"id": "cm-osm-way-317524252", "name": "PTT", "nameTh": "ปตท", "nameEn": "PTT", "cat": ["transport"], "province": "cm", "slug": "ptt-317524252", "rank": 2}}, {"type": "Feature", "geometry": {"type": "Point", "coordinates": [99.01516, 18.87529]}, "properties": {"id": "cm-osm-way-317526383", "name": "PTT", "nameTh": "ปตท", "nameEn": "PTT", "cat": ["transport"], "province": "cm", "slug": "ptt-317526383", "rank": 3}}, {"type": "Feature", "geometry": {"type": "Point", "coordinates": [98.95899, 18.78493]}, "properties": {"id": "cm-osm-way-342887913", "name": "PTT", "nameTh": "ปตท", "nameEn": "PTT", "cat": ["transport"], "province": "cm", "slug": "ptt-342887913", "rank": 2}}, {"type": "Feature", "geometry": {"type": "Point", "coordinates": [99.01501, 18.89224]}, "properties": {"id": "cm-osm-way-424983076", "name": "PTT", "nameTh": "ป.ต.ท.", "nameEn": "PTT", "cat": ["transport"], "province": "cm", "slug": "ptt-424983076", "rank": 2}}, {"type": "Feature", "geometry": {"type": "Point", "coordinates": [99.01464, 18.7385]}, "properties": {"id": "cm-osm-way-530489918", "name": "PTT", "nameTh": "ปตท", "nameEn": "PTT", "cat": ["transport"], "province": "cm", "slug": "ptt-530489918", "rank": 2}}, {"type": "Feature", "geometry": {"type": "Point", "coordinates": [98.96111, 18.79669]}, "properties": {"id": "cm-osm-way-540882570", "name": "PTT", "nameTh": "ป.ต.ท.", "nameEn": "PTT", "cat": ["transport"], "province": "cm", "slug": "ptt-540882570", "rank": 2}}, {"type": "Feature", "geometry": {"type": "Point", "coordinates": [99.03433, 18.74769]}, "properties": {"id": "cm-osm-way-544243040", "name": "PTT", "nameTh": "ป.ต.ท.", "nameEn": "PTT", "cat": ["transport"], "province": "cm", "slug": "ptt-544243040", "rank": 2}}, {"type": "Feature", "geometry": {"type": "Point", "coordinates": [99.01572, 18.8671]}, "properties": {"id": "cm-osm-way-551394290", "name": "PTT", "nameTh": "ป.ต.ท.", "nameEn": "PTT", "cat": ["transport"], "province": "cm", "slug": "ptt-551394290", "rank": 2}}, {"type": "Feature", "geometry": {"type": "Point", "coordinates": [99.07946, 18.84653]}, "properties": {"id": "cm-osm-way-552940656", "name": "PTT", "nameTh": "ป.ต.ท.", "nameEn": "PTT", "cat": ["transport"], "province": "cm", "slug": "ptt-552940656", "rank": 2}}, {"type": "Feature", "geometry": {"type": "Point", "coordinates": [99.03636, 18.79463]}, "properties": {"id": "cm-osm-way-554173350", "name": "PTT", "nameTh": "ปตท", "nameEn": "PTT", "cat": ["transport"], "province": "cm", "slug": "ptt-554173350", "rank": 2}}, {"type": "Feature", "geometry": {"type": "Point", "coordinates": [99.02925, 18.76972]}, "properties": {"id": "cm-osm-way-560600825", "name": "PTT", "nameTh": "ปตท", "nameEn": "PTT", "cat": ["transport"], "province": "cm", "slug": "ptt-560600825", "rank": 2}}, {"type": "Feature", "geometry": {"type": "Point", "coordinates": [98.9515, 18.73098]}, "properties": {"id": "cm-osm-way-599074132", "name": "PTT", "nameTh": "ปตท", "nameEn": "PTT", "cat": ["transport"], "province": "cm", "slug": "ptt-599074132", "rank": 2}}, {"type": "Feature", "geometry": {"type": "Point", "coordinates": [98.98348, 18.95743]}, "properties": {"id": "cm-osm-way-661061345", "name": "PTT", "nameTh": "ป.ต.ท.", "nameEn": "PTT", "cat": ["transport"], "province": "cm", "slug": "ptt-661061345", "rank": 2}}, {"type": "Feature", "geometry": {"type": "Point", "coordinates": [98.98349, 18.76804]}, "properties": {"id": "cm-osm-way-669263147", "name": "PTT", "nameTh": "ปตท", "nameEn": "PTT", "cat": ["transport"], "province": "cm", "slug": "ptt-669263147", "rank": 3}}, {"type": "Feature", "geometry": {"type": "Point", "coordinates": [98.88773, 18.67196]}, "properties": {"id": "cm-osm-way-675330123", "name": "PTT", "nameTh": null, "nameEn": "PTT", "cat": ["transport"], "province": "cm", "slug": "ptt-675330123", "rank": 1}}, {"type": "Feature", "geometry": {"type": "Point", "coordinates": [98.97309, 18.76327]}, "properties": {"id": "cm-osm-way-693400691", "name": "PTT", "nameTh": "ปตท", "nameEn": "PTT", "cat": ["transport"], "province": "cm", "slug": "ptt-693400691", "rank": 2}}, {"type": "Feature", "geometry": {"type": "Point", "coordinates": [98.9406, 18.92191]}, "properties": {"id": "cm-osm-way-741830429", "name": "PTT", "nameTh": "ปตท", "nameEn": "PTT", "cat": ["transport"], "province": "cm", "slug": "ptt-741830429", "rank": 2}}, {"type": "Feature", "geometry": {"type": "Point", "coordinates": [99.05699, 18.83366]}, "properties": {"id": "cm-osm-way-746278581", "name": "PTT", "nameTh": "ปตท", "nameEn": "PTT", "cat": ["transport"], "province": "cm", "slug": "ptt-746278581", "rank": 3}}, {"type": "Feature", "geometry": {"type": "Point", "coordinates": [99.03749, 18.72173]}, "properties": {"id": "cm-osm-way-871612269", "name": "PTT", "nameTh": "ปตท", "nameEn": "PTT", "cat": ["transport"], "province": "cm", "slug": "ptt-871612269", "rank": 2}}, {"type": "Feature", "geometry": {"type": "Point", "coordinates": [98.93302, 18.73854]}, "properties": {"id": "cm-osm-way-331608121", "name": "PTT LPG Station", "nameTh": null, "nameEn": "PTT LPG Station", "cat": ["transport"], "province": "cm", "slug": "ptt-lpg-station-331608121", "rank": 1}}, {"type": "Feature", "geometry": {"type": "Point", "coordinates": [99.02851, 18.78342]}, "properties": {"id": "cm-osm-node-260334845", "name": "ป.ต.ท.", "nameTh": "ป.ต.ท.", "nameEn": "PTT", "cat": ["transport"], "province": "cm", "slug": "ptt-260334845", "rank": 3}}, {"type": "Feature", "geometry": {"type": "Point", "coordinates": [99.06694, 18.79577]}, "properties": {"id": "cm-osm-way-1112896521", "name": "ป.ต.ท.", "nameTh": "ป.ต.ท.", "nameEn": "PTT", "cat": ["transport"], "province": "cm", "slug": "ptt-1112896521", "rank": 2}}, {"type": "Feature", "geometry": {"type": "Point", "coordinates": [99.04218, 18.83723]}, "properties": {"id": "cm-osm-way-1348153354", "name": "ป.ต.ท.", "nameTh": "ป.ต.ท.", "nameEn": "PTT", "cat": ["transport"], "province": "cm", "slug": "ptt-1348153354", "rank": 2}}, {"type": "Feature", "geometry": {"type": "Point", "coordinates": [99.01151, 18.80895]}, "properties": {"id": "cm-osm-way-373854689", "name": "ป.ต.ท.", "nameTh": "ปตท", "nameEn": "PTT", "cat": ["transport"], "province": "cm", "slug": "ptt-373854689", "rank": 3}}, {"type": "Feature", "geometry": {"type": "Point", "coordinates": [98.99765, 18.79961]}, "properties": {"id": "cm-osm-way-672587617", "name": "ป.ต.ท.", "nameTh": "ป.ต.ท.", "nameEn": "PTT", "cat": ["transport"], "province": "cm", "slug": "ptt-672587617", "rank": 3}}, {"type": "Feature", "geometry": {"type": "Point", "coordinates": [99.02832, 18.79413]}, "properties": {"id": "cm-osm-node-1350009155", "name": "ปตท", "nameTh": "ปตท", "nameEn": null, "cat": ["transport"], "province": "cm", "slug": "1350009155", "rank": 1}}, {"type": "Feature", "geometry": {"type": "Point", "coordinates": [98.97214, 18.77203]}, "properties": {"id": "cm-osm-way-676260814", "name": "ปตท", "nameTh": "ปตท", "nameEn": "PTT", "cat": ["transport"], "province": "cm", "slug": "ptt-676260814", "rank": 2}}]}