{"type": "FeatureCollection", "features": [{"type": "Feature", "geometry": {"type": "Point", "coordinates": [98.96689, 18.80243]}, "properties": {"id": "cm-osm-node-3287356491", "name": "Fuji", "nameTh": null, "nameEn": "Fuji", "cat": ["food"], "province": "cm", "slug": "fuji-3287356491", "rank": 1}}, {"type": "Feature", "geometry": {"type": "Point", "coordinates": [99.07506, 18.7433]}, "properties": {"id": "cm-osm-node-8629229274", "name": "Kumamon", "nameTh": null, "nameEn": "Kumamon", "cat": ["food"], "province": "cm", "slug": "kumamon-8629229274", "rank": 2}}, {"type": "Feature", "geometry": {"type": "Point", "coordinates": [98.96658, 18.79597]}, "properties": {"id": "cm-osm-node-4358616874", "name": "Minato Sushi Bar", "nameTh": null, "nameEn": "Minato Sushi Bar", "cat": ["food"], "province": "cm", "slug": "minato-sushi-bar-4358616874", "rank": 1}}, {"type": "Feature", "geometry": {"type": "Point", "coordinates": [98.97079, 18.80965]}, "properties": {"id": "cm-osm-node-13891104701", "name": "Okasan", "nameTh": null, "nameEn": "Okasan", "cat": ["food"], "province": "cm", "slug": "okasan-13891104701", "rank": 3}}, {"type": "Feature", "geometry": {"type": "Point", "coordinates": [98.97606, 18.80235]}, "properties": {"id": "cm-osm-node-11936111070", "name": "Ramen", "nameTh": null, "nameEn": "Ramen", "cat": ["food"], "province": "cm", "slug": "ramen-11936111070", "rank": 2}}, {"type": "Feature", "geometry": {"type": "Point", "coordinates": [98.97558, 18.80029]}, "properties": {"id": "cm-osm-node-3311199586", "name": "Sushi Akagi", "nameTh": null, "nameEn": "Sushi Akagi", "cat": ["food"], "province": "cm", "slug": "sushi-akagi-3311199586", "rank": 3}}, {"type": "Feature", "geometry": {"type": "Point", "coordinates": [98.99417, 18.78097]}, "properties": {"id": "cm-osm-node-1062004204", "name": "Sushi Ichiban", "nameTh": null, "nameEn": "Sushi Ichiban", "cat": ["food"], "province": "cm", "slug": "sushi-ichiban-1062004204", "rank": 2}}, {"type": "Feature", "geometry": {"type": "Point", "coordinates": [98.97642, 18.80224]}, "properties": {"id": "cm-osm-node-11903139669", "name": "Sushi Jiro", "nameTh": null, "nameEn": "Sushi Jiro", "cat": ["food"], "province": "cm", "slug": "sushi-jiro-11903139669", "rank": 3}}, {"type": "Feature", "geometry": {"type": "Point", "coordinates": [99.00867, 18.75202]}, "properties": {"id": "cm-osm-node-9671436944", "name": "Sushi Ninja", "nameTh": null, "nameEn": "Sushi Ninja", "cat": ["food"], "province": "cm", "slug": "sushi-ninja-9671436944", "rank": 1}}, {"type": "Feature", "geometry": {"type": "Point", "coordinates": [98.96687, 18.79758]}, "properties": {"id": "cm-osm-node-1796988594", "name": "Wasabi", "nameTh": null, "nameEn": "Wasabi", "cat": ["food"], "province": "cm", "slug": "wasabi-1796988594", "rank": 1}}, {"type": "Feature", "geometry": {"type": "Point", "coordinates": [98.97669, 18.84012]}, "properties": {"id": "cm-osm-node-12767901320", "name": "สาขาพระนอน (ศาลากลาง)", "nameTh": "สาขาพระนอน (ศาลากลาง)", "nameEn": "Salmon room", "cat": ["food"], "province": "cm", "slug": "salmon-room-12767901320", "rank": 2}}, {"type": "Feature", "geometry": {"type": "Point", "coordinates": [99.00827, 18.79553]}, "properties": {"id": "cm-osm-node-9347976017", "name": "ไอเลิฟซูชิซีเอ็นเอ็กซ์", "nameTh": "ไอเลิฟซูชิซีเอ็นเอ็กซ์", "nameEn": "I Luv Sushi", "cat": ["food"], "province": "cm", "slug": "i-luv-sushi-9347976017", "rank": 4}}]}