{"type": "FeatureCollection", "features": [{"type": "Feature", "geometry": {"type": "Point", "coordinates": [98.99927, 18.77854]}, "properties": {"id": "cm-osm-node-4870779223", "name": "Al Reem Restaurant (UAE)", "nameTh": null, "nameEn": "Al Reem Restaurant (UAE)", "cat": ["food"], "province": "cm", "slug": "al-reem-restaurant-uae-4870779223", "rank": 1}}, {"type": "Feature", "geometry": {"type": "Point", "coordinates": [98.96954, 18.79817]}, "properties": {"id": "cm-osm-node-3287791961", "name": "Blackitch", "nameTh": null, "nameEn": "Blackitch", "cat": ["food"], "province": "cm", "slug": "blackitch-3287791961", "rank": 4}}, {"type": "Feature", "geometry": {"type": "Point", "coordinates": [98.96446, 18.79754]}, "properties": {"id": "cm-osm-node-3388756294", "name": "Blessed Food", "nameTh": null, "nameEn": "Blessed Food", "cat": ["food"], "province": "cm", "slug": "blessed-food-3388756294", "rank": 3}}, {"type": "Feature", "geometry": {"type": "Point", "coordinates": [98.95059, 18.77893]}, "properties": {"id": "cm-osm-node-6048476982", "name": "Bluedog Cafe", "nameTh": null, "nameEn": "Bluedog Cafe", "cat": ["food"], "province": "cm", "slug": "bluedog-cafe-6048476982", "rank": 2}}, {"type": "Feature", "geometry": {"type": "Point", "coordinates": [99.11042, 18.87187]}, "properties": {"id": "cm-osm-node-1604441376", "name": "Bualuang Terasse", "nameTh": null, "nameEn": "Bualuang Terasse", "cat": ["food"], "province": "cm", "slug": "bualuang-terasse-1604441376", "rank": 2}}, {"type": "Feature", "geometry": {"type": "Point", "coordinates": [98.98848, 18.78547]}, "properties": {"id": "cm-osm-node-1006843145", "name": "Cafe de Thaan Aoan", "nameTh": null, "nameEn": "Cafe de Thaan Aoan", "cat": ["food"], "province": "cm", "slug": "cafe-de-thaan-aoan-1006843145", "rank": 2}}, {"type": "Feature", "geometry": {"type": "Point", "coordinates": [98.93243, 18.68036]}, "properties": {"id": "cm-osm-node-10575980542", "name": "Cake &  Cafe", "nameTh": null, "nameEn": "Cake &  Cafe", "cat": ["food"], "province": "cm", "slug": "cake-cafe-10575980542", "rank": 3}}, {"type": "Feature", "geometry": {"type": "Point", "coordinates": [98.98533, 18.78359]}, "properties": {"id": "cm-osm-way-1300133894", "name": "Gord Chiangmai Kitchen", "nameTh": null, "nameEn": "Gord Chiangmai Kitchen", "cat": ["food"], "province": "cm", "slug": "gord-chiangmai-kitchen-1300133894", "rank": 3}}, {"type": "Feature", "geometry": {"type": "Point", "coordinates": [99.00181, 18.79453]}, "properties": {"id": "cm-osm-node-7150405587", "name": "Happy Time - Vegan Foods & Salad bar", "nameTh": null, "nameEn": "Happy Time - Vegan Foods & Salad bar", "cat": ["food"], "province": "cm", "slug": "happy-time-vegan-foods-salad-bar-7150405587", "rank": 3}}, {"type": "Feature", "geometry": {"type": "Point", "coordinates": [98.99388, 18.78838]}, "properties": {"id": "cm-osm-node-6975731985", "name": "Jack‘s Kitchen", "nameTh": null, "nameEn": "Jack‘s Kitchen", "cat": ["food"], "province": "cm", "slug": "jack-s-kitchen-6975731985", "rank": 1}}, {"type": "Feature", "geometry": {"type": "Point", "coordinates": [98.98645, 18.78972]}, "properties": {"id": "cm-osm-node-1410763933", "name": "Kiat O Cha", "nameTh": null, "nameEn": "Kiat O Cha", "cat": ["food"], "province": "cm", "slug": "kiat-o-cha-1410763933", "rank": 1}}, {"type": "Feature", "geometry": {"type": "Point", "coordinates": [98.94495, 18.72153]}, "properties": {"id": "cm-osm-way-1160344819", "name": "King Lio", "nameTh": null, "nameEn": "King Lio", "cat": ["food"], "province": "cm", "slug": "king-lio-1160344819", "rank": 3}}, {"type": "Feature", "geometry": {"type": "Point", "coordinates": [99.05712, 18.83296]}, "properties": {"id": "cm-osm-node-6502036186", "name": "Laab Ton Koi", "nameTh": null, "nameEn": "Laab Ton Koi", "cat": ["food"], "province": "cm", "slug": "laab-ton-koi-6502036186", "rank": 3}}, {"type": "Feature", "geometry": {"type": "Point", "coordinates": [98.89611, 18.69977]}, "properties": {"id": "cm-osm-node-13000324058", "name": "Lake House CNX (Wakeboarding park)", "nameTh": null, "nameEn": "Lake House CNX (Wakeboarding park)", "cat": ["food"], "province": "cm", "slug": "lake-house-cnx-wakeboarding-park-13000324058", "rank": 4}}, {"type": "Feature", "geometry": {"type": "Point", "coordinates": [98.93892, 18.73321]}, "properties": {"id": "cm-osm-node-8972417444", "name": "Lee Cafe Chiangmai", "nameTh": null, "nameEn": "Lee Cafe Chiangmai", "cat": ["food"], "province": "cm", "slug": "lee-cafe-chiangmai-8972417444", "rank": 2}}, {"type": "Feature", "geometry": {"type": "Point", "coordinates": [98.99527, 18.78552]}, "properties": {"id": "cm-osm-node-6110461185", "name": "Mam’s Cake Coffee Breakfast", "nameTh": null, "nameEn": "Mam’s Cake Coffee Breakfast", "cat": ["food"], "province": "cm", "slug": "mam-s-cake-coffee-breakfast-6110461185", "rank": 2}}, {"type": "Feature", "geometry": {"type": "Point", "coordinates": [98.99487, 18.7879]}, "properties": {"id": "cm-osm-node-13518858073", "name": "Mo Restaurant & Bar", "nameTh": null, "nameEn": "Mo Restaurant & Bar", "cat": ["food"], "province": "cm", "slug": "mo-restaurant-bar-13518858073", "rank": 1}}, {"type": "Feature", "geometry": {"type": "Point", "coordinates": [98.93393, 18.75289]}, "properties": {"id": "cm-osm-node-13994098801", "name": "Munchies Café", "nameTh": null, "nameEn": "Munchies Café", "cat": ["food"], "province": "cm", "slug": "munchies-caf-13994098801", "rank": 2}}, {"type": "Feature", "geometry": {"type": "Point", "coordinates": [98.9654, 18.80784]}, "properties": {"id": "cm-osm-node-4973476822", "name": "Paris Chiang Mai", "nameTh": null, "nameEn": "Paris Chiang Mai", "cat": ["food"], "province": "cm", "slug": "paris-chiang-mai-4973476822", "rank": 2}}, {"type": "Feature", "geometry": {"type": "Point", "coordinates": [98.99178, 18.79571]}, "properties": {"id": "cm-osm-way-1161677813", "name": "Payod Shanfood Chiangmai", "nameTh": null, "nameEn": "Payod Shanfood Chiangmai", "cat": ["food"], "province": "cm", "slug": "payod-shanfood-chiangmai-1161677813", "rank": 3}}, {"type": "Feature", "geometry": {"type": "Point", "coordinates": [98.99565, 18.78818]}, "properties": {"id": "cm-osm-node-1041248368", "name": "Ratana's Kitchen", "nameTh": "ครัวรัตนา", "nameEn": "Ratana's Kitchen", "cat": ["food"], "province": "cm", "slug": "ratana-s-kitchen-1041248368", "rank": 2}}, {"type": "Feature", "geometry": {"type": "Point", "coordinates": [98.99082, 18.92791]}, "properties": {"id": "cm-osm-node-7278858085", "name": "Restaurant", "nameTh": null, "nameEn": "Restaurant", "cat": ["food"], "province": "cm", "slug": "restaurant-7278858085", "rank": 1}}, {"type": "Feature", "geometry": {"type": "Point", "coordinates": [98.99336, 18.79491]}, "properties": {"id": "cm-osm-way-578863886", "name": "Riders Corner Bar & Restaurant", "nameTh": null, "nameEn": "Riders Corner Bar & Restaurant", "cat": ["food"], "province": "cm", "slug": "riders-corner-bar-restaurant-578863886", "rank": 4}}, {"type": "Feature", "geometry": {"type": "Point", "coordinates": [98.96158, 18.78861]}, "properties": {"id": "cm-osm-node-6768896785", "name": "Sai Krok Isaan", "nameTh": null, "nameEn": "Sai Krok Isaan", "cat": ["food"], "province": "cm", "slug": "sai-krok-isaan-6768896785", "rank": 1}}, {"type": "Feature", "geometry": {"type": "Point", "coordinates": [99.00844, 18.79416]}, "properties": {"id": "cm-osm-node-10926013205", "name": "Salad Khunnai", "nameTh": null, "nameEn": "Salad Khunnai", "cat": ["food"], "province": "cm", "slug": "salad-khunnai-10926013205", "rank": 3}}, {"type": "Feature", "geometry": {"type": "Point", "coordinates": [98.9674, 18.80251]}, "properties": {"id": "cm-osm-node-6052593885", "name": "Shan Tou Hao Chi - Vegetarian & Vegan", "nameTh": null, "nameEn": "Shan Tou Hao Chi - Vegetarian & Vegan", "cat": ["food"], "province": "cm", "slug": "shan-tou-hao-chi-vegetarian-vegan-6052593885", "rank": 3}}, {"type": "Feature", "geometry": {"type": "Point", "coordinates": [98.95323, 18.78127]}, "properties": {"id": "cm-osm-node-3968871253", "name": "Sitive restaurant", "nameTh": null, "nameEn": "Sitive", "cat": ["food"], "province": "cm", "slug": "sitive-3968871253", "rank": 1}}, {"type": "Feature", "geometry": {"type": "Point", "coordinates": [98.9987, 18.77052]}, "properties": {"id": "cm-osm-node-1685437011", "name": "Suthasinee Kitchen", "nameTh": null, "nameEn": "Suthasinee Kitchen", "cat": ["food"], "province": "cm", "slug": "suthasinee-kitchen-1685437011", "rank": 1}}, {"type": "Feature", "geometry": {"type": "Point", "coordinates": [99.04651, 18.79138]}, "properties": {"id": "cm-osm-node-13597778924", "name": "TEDA.cafe&studio cake", "nameTh": null, "nameEn": "TEDA.cafe&studio cake", "cat": ["food"], "province": "cm", "slug": "teda-cafe-studio-cake-13597778924", "rank": 2}}, {"type": "Feature", "geometry": {"type": "Point", "coordinates": [99.02212, 18.7846]}, "properties": {"id": "cm-osm-node-12607900301", "name": "Thai Cuisine", "nameTh": null, "nameEn": "Thai Cuisine", "cat": ["food"], "province": "cm", "slug": "thai-cuisine-12607900301", "rank": 3}}, {"type": "Feature", "geometry": {"type": "Point", "coordinates": [98.98667, 18.77749]}, "properties": {"id": "cm-osm-node-3844952731", "name": "The Old Man", "nameTh": null, "nameEn": "The Old Man", "cat": ["food"], "province": "cm", "slug": "the-old-man-3844952731", "rank": 2}}, {"type": "Feature", "geometry": {"type": "Point", "coordinates": [99.0036, 18.78183]}, "properties": {"id": "cm-osm-node-4865979294", "name": "The Service 1921 Restaurant & Bar", "nameTh": null, "nameEn": "The Service 1921 Restaurant & Bar", "cat": ["food"], "province": "cm", "slug": "the-service-1921-restaurant-bar-4865979294", "rank": 2}}, {"type": "Feature", "geometry": {"type": "Point", "coordinates": [98.98859, 18.77849]}, "properties": {"id": "cm-osm-node-5311551425", "name": "This is", "nameTh": null, "nameEn": "This is", "cat": ["food"], "province": "cm", "slug": "this-is-5311551425", "rank": 2}}, {"type": "Feature", "geometry": {"type": "Point", "coordinates": [98.95535, 18.80401]}, "properties": {"id": "cm-osm-node-5591495441", "name": "University Office Canteen", "nameTh": null, "nameEn": "University Office Canteen", "cat": ["food"], "province": "cm", "slug": "university-office-canteen-5591495441", "rank": 2}}, {"type": "Feature", "geometry": {"type": "Point", "coordinates": [98.94052, 18.75878]}, "properties": {"id": "cm-osm-node-2934994593", "name": "Vet Med Cafeteria", "nameTh": null, "nameEn": "Vet Med Cafeteria", "cat": ["food"], "province": "cm", "slug": "vet-med-cafeteria-2934994593", "rank": 1}}, {"type": "Feature", "geometry": {"type": "Point", "coordinates": [98.99068, 18.78533]}, "properties": {"id": "cm-osm-node-10821771284", "name": "Vipuya Bowls & Juice", "nameTh": null, "nameEn": "Vipuya Bowls & Juice", "cat": ["food"], "province": "cm", "slug": "vipuya-bowls-juice-10821771284", "rank": 2}}, {"type": "Feature", "geometry": {"type": "Point", "coordinates": [98.98741, 18.78817]}, "properties": {"id": "cm-osm-node-6466099585", "name": "padthai & seefood", "nameTh": null, "nameEn": "padthai & seefood", "cat": ["food"], "province": "cm", "slug": "padthai-seefood-6466099585", "rank": 1}}, {"type": "Feature", "geometry": {"type": "Point", "coordinates": [98.98669, 18.79092]}, "properties": {"id": "cm-osm-node-1410753447", "name": "ก๋วยจั๊บ", "nameTh": "ก๋วยจั๊บ", "nameEn": "Le Bon Temps Cafe", "cat": ["food"], "province": "cm", "slug": "le-bon-temps-cafe-1410753447", "rank": 2}}, {"type": "Feature", "geometry": {"type": "Point", "coordinates": [99.08183, 18.86163]}, "properties": {"id": "cm-osm-node-5631826448", "name": "ก๋วยเตี๋ยว เย็นตาโฟ ข้าวซอย ลุงเทือง", "nameTh": "ก๋วยเตี๋ยว เย็นตาโฟ ข้าวซอย ลุงเทือง", "nameEn": null, "cat": ["food"], "province": "cm", "slug": "5631826448", "rank": 1}}, {"type": "Feature", "geometry": {"type": "Point", "coordinates": [98.98025, 18.80484]}, "properties": {"id": "cm-osm-node-2530379624", "name": "ก๋วยเตี๋ยวรสเยี่ยม", "nameTh": "ก๋วยเตี๋ยวรสเยี่ยม", "nameEn": "Excellent Tasting Noodles", "cat": ["food"], "province": "cm", "slug": "excellent-tasting-noodles-2530379624", "rank": 2}}, {"type": "Feature", "geometry": {"type": "Point", "coordinates": [99.0432, 18.77002]}, "properties": {"id": "cm-osm-node-1184034271", "name": "ก๋วยเตี๋ยวศรีบัวเงิน", "nameTh": "ก๋วยเตี๋ยวศรีบัวเงิน", "nameEn": null, "cat": ["food"], "province": "cm", "slug": "1184034271", "rank": 1}}, {"type": "Feature", "geometry": {"type": "Point", "coordinates": [98.98625, 18.78968]}, "properties": {"id": "cm-osm-node-1619287955", "name": "ก๋วยเตี๋ยวเป็ด", "nameTh": "ก๋วยเตี๋ยวเป็ด", "nameEn": null, "cat": ["food"], "province": "cm", "slug": "1619287955", "rank": 1}}, {"type": "Feature", "geometry": {"type": "Point", "coordinates": [99.03996, 18.78796]}, "properties": {"id": "cm-osm-node-1299300409", "name": "ก๋วยเต๋ียวไก่ตุ๋นนัองนิสา", "nameTh": "ก๋วยเต๋ียวไก่ตุ๋นนัองนิสา", "nameEn": null, "cat": ["food"], "province": "cm", "slug": "1299300409", "rank": 2}}, {"type": "Feature", "geometry": {"type": "Point", "coordinates": [99.12603, 18.7283]}, "properties": {"id": "cm-osm-node-13040779448", "name": "ข้าวขาหมู บ้านแม่ ออเดย์ ดอนปีน ป่าไผ่ สันกำแพง", "nameTh": "ข้าวขาหมู บ้านแม่ ออเดย์ ดอนปีน ป่าไผ่ สันกำแพง", "nameEn": "ฺBAN MAE ALL DAY Braised Pork Leg with Rice", "cat": ["food"], "province": "cm", "slug": "ban-mae-all-day-braised-pork-leg-with-rice-13040779448", "rank": 4}}, {"type": "Feature", "geometry": {"type": "Point", "coordinates": [99.02558, 18.79156]}, "properties": {"id": "cm-osm-node-1333122862", "name": "ข้าวซอยต้นข่อย", "nameTh": "ข้าวซอยต้นข่อย", "nameEn": null, "cat": ["food"], "province": "cm", "slug": "1333122862", "rank": 1}}, {"type": "Feature", "geometry": {"type": "Point", "coordinates": [98.98587, 18.78966]}, "properties": {"id": "cm-osm-node-1619287895", "name": "ข้าวซอยศิริชัย", "nameTh": "ข้าวซอยศิริชัย", "nameEn": "Khow Soi and Hainan Chicken Rice", "cat": ["food"], "province": "cm", "slug": "khow-soi-and-hainan-chicken-rice-1619287895", "rank": 2}}, {"type": "Feature", "geometry": {"type": "Point", "coordinates": [99.03255, 18.78243]}, "properties": {"id": "cm-osm-node-1430687148", "name": "ข้าวมันไก่เอื้องคํา", "nameTh": "ข้าวมันไก่เอื้องคํา", "nameEn": null, "cat": ["food"], "province": "cm", "slug": "1430687148", "rank": 1}}, {"type": "Feature", "geometry": {"type": "Point", "coordinates": [99.0096, 18.76573]}, "properties": {"id": "cm-osm-node-1439024336", "name": "ข้าวหมกไก่ไลล่า", "nameTh": "ข้าวหมกไก่ไลล่า", "nameEn": null, "cat": ["food"], "province": "cm", "slug": "1439024336", "rank": 2}}, {"type": "Feature", "geometry": {"type": "Point", "coordinates": [98.94369, 18.73018]}, "properties": {"id": "cm-osm-way-1069512536", "name": "ข้าวเม่า-ข้าวฟ่าง ป่าในจินตนาการ", "nameTh": "ข้าวเม่า-ข้าวฟ่าง ป่าในจินตนาการ", "nameEn": "Khaomao Khaofang Imaginary Jungle", "cat": ["food"], "province": "cm", "slug": "khaomao-khaofang-imaginary-jungle-1069512536", "rank": 3}}, {"type": "Feature", "geometry": {"type": "Point", "coordinates": [98.94153, 18.91394]}, "properties": {"id": "cm-osm-node-5137777427", "name": "ครัวป้าแต๋ว", "nameTh": "ครัวป้าแต๋ว", "nameEn": "Pa Taeo Kitchen", "cat": ["food"], "province": "cm", "slug": "pa-taeo-kitchen-5137777427", "rank": 4}}, {"type": "Feature", "geometry": {"type": "Point", "coordinates": [98.93913, 18.92139]}, "properties": {"id": "cm-osm-way-741830434", "name": "ครัวป้าแต๋ว", "nameTh": "ครัวป้าแต๋ว", "nameEn": "Tal  restaurant", "cat": ["food"], "province": "cm", "slug": "tal-restaurant-741830434", "rank": 4}}, {"type": "Feature", "geometry": {"type": "Point", "coordinates": [98.98706, 18.82197]}, "properties": {"id": "cm-osm-node-3262811709", "name": "ครัวอาจารย์สายหยุด หมอทราย", "nameTh": "ครัวอาจารย์สายหยุด หมอทราย", "nameEn": "Saiyud and Doctor Sai Kitchen", "cat": ["food"], "province": "cm", "slug": "saiyud-and-doctor-sai-kitchen-3262811709", "rank": 3}}, {"type": "Feature", "geometry": {"type": "Point", "coordinates": [98.98958, 18.79067]}, "properties": {"id": "cm-osm-node-1620858578", "name": "ช้างม่อยกาแฟ", "nameTh": "ช้างม่อยกาแฟ", "nameEn": null, "cat": ["food"], "province": "cm", "slug": "1620858578", "rank": 1}}, {"type": "Feature", "geometry": {"type": "Point", "coordinates": [99.00255, 18.91453]}, "properties": {"id": "cm-osm-node-5235865322", "name": "ปุ๊ย บ้านสวนสลัดแม่โจ้", "nameTh": "ปุ๊ย บ้านสวนสลัดแม่โจ้", "nameEn": "Baan Suan Salad Maejo", "cat": ["food"], "province": "cm", "slug": "baan-suan-salad-maejo-5235865322", "rank": 2}}, {"type": "Feature", "geometry": {"type": "Point", "coordinates": [98.9808, 18.81105]}, "properties": {"id": "cm-osm-way-316744869", "name": "ฟ้าใสหมูกะทะ", "nameTh": "พาใสหมูกะทะ", "nameEn": "Pha Sai Mu Kata", "cat": ["food"], "province": "cm", "slug": "pha-sai-mu-kata-316744869", "rank": 2}}, {"type": "Feature", "geometry": {"type": "Point", "coordinates": [99.04169, 18.76174]}, "properties": {"id": "cm-osm-node-1682788165", "name": "มาลี ก๋วยเตี๋ยวต้มยำสุโขทัย สูตรไทยโบราณ", "nameTh": "มาลี ก๋วยเตี๋ยวต้มยำสุโขทัย สูตรไทยโบราณ", "nameEn": "Mali Kuaitiao Tomyam Sukhothai Sut Thai Boran", "cat": ["food"], "province": "cm", "slug": "mali-kuaitiao-tomyam-sukhothai-sut-thai-boran-1682788165", "rank": 2}}, {"type": "Feature", "geometry": {"type": "Point", "coordinates": [98.98371, 18.78861]}, "properties": {"id": "cm-osm-way-1160323326", "name": "มิ่งขวัญ", "nameTh": "มิ่งขวัญ", "nameEn": "Ming Kwan", "cat": ["food"], "province": "cm", "slug": "ming-kwan-1160323326", "rank": 3}}, {"type": "Feature", "geometry": {"type": "Point", "coordinates": [98.9464, 18.76425]}, "properties": {"id": "cm-osm-node-7527815890", "name": "ร้านขนมจีนอ้อมเวียง", "nameTh": "ร้านขนมจีนอ้อมเวียง", "nameEn": "Om Viang", "cat": ["food"], "province": "cm", "slug": "om-viang-7527815890", "rank": 2}}, {"type": "Feature", "geometry": {"type": "Point", "coordinates": [99.00212, 18.78658]}, "properties": {"id": "cm-osm-node-3417272207", "name": "ร้านข้าวซอยอิสลาม", "nameTh": "ร้านข้าวซอยอิสลาม", "nameEn": "Khao Soi Islam", "cat": ["food"], "province": "cm", "slug": "khao-soi-islam-3417272207", "rank": 2}}, {"type": "Feature", "geometry": {"type": "Point", "coordinates": [99.04514, 18.70171]}, "properties": {"id": "cm-osm-node-2098121992", "name": "ร้านลาบต้นมะพร้าว", "nameTh": "ร้านลาบต้นมะพร้าว", "nameEn": "Ran Lap Ton Maphrao", "cat": ["food"], "province": "cm", "slug": "ran-lap-ton-maphrao-2098121992", "rank": 2}}, {"type": "Feature", "geometry": {"type": "Point", "coordinates": [98.98876, 18.77868]}, "properties": {"id": "cm-osm-node-674670538", "name": "ร้านอาหารปาล์มทรี", "nameTh": "ร้านอาหารปาล์มทรี", "nameEn": "Palm Tree Restaurant", "cat": ["food"], "province": "cm", "slug": "palm-tree-restaurant-674670538", "rank": 5}}, {"type": "Feature", "geometry": {"type": "Point", "coordinates": [98.98078, 18.78467]}, "properties": {"id": "cm-osm-way-579076681", "name": "สถานีแมว", "nameTh": "สถานีแมว", "nameEn": "Cats Station Coffee and Food", "cat": ["food"], "province": "cm", "slug": "cats-station-coffee-and-food-579076681", "rank": 4}}, {"type": "Feature", "geometry": {"type": "Point", "coordinates": [98.94227, 18.74943]}, "properties": {"id": "cm-osm-node-3204460962", "name": "สะเปาคำ", "nameTh": "สะเปาคำ", "nameEn": "Sa Pao Kham", "cat": ["food"], "province": "cm", "slug": "sa-pao-kham-3204460962", "rank": 2}}, {"type": "Feature", "geometry": {"type": "Point", "coordinates": [98.99502, 18.8069]}, "properties": {"id": "cm-osm-node-3191104420", "name": "ส้มตำ โซลาว", "nameTh": "ส้มตำ โซลาว", "nameEn": "Solao", "cat": ["food"], "province": "cm", "slug": "solao-3191104420", "rank": 2}}, {"type": "Feature", "geometry": {"type": "Point", "coordinates": [98.93476, 18.92478]}, "properties": {"id": "cm-osm-node-13723571993", "name": "ส้าาป่ะล่ะ", "nameTh": "ส้าาป่ะล่ะ", "nameEn": null, "cat": ["food"], "province": "cm", "slug": "13723571993", "rank": 2}}, {"type": "Feature", "geometry": {"type": "Point", "coordinates": [98.95011, 18.76163]}, "properties": {"id": "cm-osm-node-13312688028", "name": "หม่าล่าบ้านเพื่อน", "nameTh": "หม่าล่าบ้านเพื่อน", "nameEn": null, "cat": ["food"], "province": "cm", "slug": "13312688028", "rank": 3}}, {"type": "Feature", "geometry": {"type": "Point", "coordinates": [98.99868, 18.77043]}, "properties": {"id": "cm-osm-node-1685437013", "name": "หาดใหญ่โชคดี", "nameTh": "หาดใหญ่โชคดี", "nameEn": null, "cat": ["food"], "province": "cm", "slug": "1685437013", "rank": 1}}, {"type": "Feature", "geometry": {"type": "Point", "coordinates": [98.94175, 18.75401]}, "properties": {"id": "cm-osm-node-2521837423", "name": "ฮาเวส", "nameTh": "ฮาเวส", "nameEn": "Harvest Cafe'", "cat": ["food"], "province": "cm", "slug": "harvest-cafe-2521837423", "rank": 2}}, {"type": "Feature", "geometry": {"type": "Point", "coordinates": [98.92811, 18.72465]}, "properties": {"id": "cm-osm-node-1583657462", "name": "เจ๊ดา ลูกชิ้นปลาไร้สาร", "nameTh": "เจ๊ดา ลูกชิ้นปลาไร้สาร", "nameEn": "Jae Da Fish Ball", "cat": ["food"], "province": "cm", "slug": "jae-da-fish-ball-1583657462", "rank": 2}}, {"type": "Feature", "geometry": {"type": "Point", "coordinates": [98.97717, 18.80903]}, "properties": {"id": "cm-osm-way-542885990", "name": "เรือนนที เทอเรส", "nameTh": "เรือนนที เทอเรส", "nameEn": "Ruan Natee Terrace", "cat": ["food"], "province": "cm", "slug": "ruan-natee-terrace-542885990", "rank": 3}}, {"type": "Feature", "geometry": {"type": "Point", "coordinates": [98.95335, 18.78437]}, "properties": {"id": "cm-osm-way-731229888", "name": "เล้งแซ่บ", "nameTh": "เล้งแซ่บ", "nameEn": null, "cat": ["food"], "province": "cm", "slug": "731229888", "rank": 1}}, {"type": "Feature", "geometry": {"type": "Point", "coordinates": [99.12781, 18.83049]}, "properties": {"id": "cm-osm-node-1355987275", "name": "โชคจรรยา", "nameTh": "โชคจรรยา", "nameEn": null, "cat": ["food"], "province": "cm", "slug": "1355987275", "rank": 1}}, {"type": "Feature", "geometry": {"type": "Point", "coordinates": [99.06946, 18.88074]}, "properties": {"id": "cm-osm-way-961802207", "name": "Thai Secret Cooking School & Organic Garden Farm", "nameTh": null, "nameEn": "Thai Secret Cooking School & Organic Garden Farm", "cat": ["cooking", "school"], "province": "cm", "slug": "thai-secret-cooking-school-organic-garden-farm-961802207", "rank": 3}}]}