{"type": "FeatureCollection", "features": [{"type": "Feature", "geometry": {"type": "Point", "coordinates": [99.00078, 18.78298]}, "properties": {"id": "cm-osm-way-494956287", "name": "Anusarn Market Food Court", "nameTh": null, "nameEn": "Anusarn Market Food Court", "cat": ["food"], "province": "cm", "slug": "anusarn-market-food-court-494956287", "rank": 2}}, {"type": "Feature", "geometry": {"type": "Point", "coordinates": [98.98794, 18.77844]}, "properties": {"id": "cm-osm-node-5484616521", "name": "Aum Vegetarian Restaurant", "nameTh": null, "nameEn": "Aum Vegetarian Restaurant", "cat": ["food"], "province": "cm", "slug": "aum-vegetarian-restaurant-5484616521", "rank": 2}}, {"type": "Feature", "geometry": {"type": "Point", "coordinates": [98.98311, 18.78867]}, "properties": {"id": "cm-osm-node-7005708718", "name": "Baan Buri Cafe & Restaurant", "nameTh": null, "nameEn": "Baan Buri Cafe & Restaurant", "cat": ["food"], "province": "cm", "slug": "baan-buri-cafe-restaurant-7005708718", "rank": 2}}, {"type": "Feature", "geometry": {"type": "Point", "coordinates": [98.97593, 18.80218]}, "properties": {"id": "cm-osm-node-11915089170", "name": "Bannom", "nameTh": null, "nameEn": "Bannom", "cat": ["food"], "province": "cm", "slug": "bannom-11915089170", "rank": 2}}, {"type": "Feature", "geometry": {"type": "Point", "coordinates": [98.99305, 18.78798]}, "properties": {"id": "cm-osm-node-3123387493", "name": "Burger King", "nameTh": null, "nameEn": "Burger King", "cat": ["food"], "province": "cm", "slug": "burger-king-3123387493", "rank": 2}}, {"type": "Feature", "geometry": {"type": "Point", "coordinates": [98.98848, 18.78547]}, "properties": {"id": "cm-osm-node-1006843145", "name": "Cafe de Thaan Aoan", "nameTh": null, "nameEn": "Cafe de Thaan Aoan", "cat": ["food"], "province": "cm", "slug": "cafe-de-thaan-aoan-1006843145", "rank": 2}}, {"type": "Feature", "geometry": {"type": "Point", "coordinates": [98.99043, 18.78637]}, "properties": {"id": "cm-osm-node-9872196618", "name": "Chada Vegetarian", "nameTh": null, "nameEn": "Chada Vegetarian", "cat": ["food"], "province": "cm", "slug": "chada-vegetarian-9872196618", "rank": 2}}, {"type": "Feature", "geometry": {"type": "Point", "coordinates": [98.98623, 18.78826]}, "properties": {"id": "cm-osm-node-7178932385", "name": "Chanya’s", "nameTh": null, "nameEn": "Chanya’s", "cat": ["food"], "province": "cm", "slug": "chanya-s-7178932385", "rank": 1}}, {"type": "Feature", "geometry": {"type": "Point", "coordinates": [98.99312, 18.78845]}, "properties": {"id": "cm-osm-node-5758046621", "name": "CoolMuang", "nameTh": null, "nameEn": "CoolMuang", "cat": ["food"], "province": "cm", "slug": "coolmuang-5758046621", "rank": 2}}, {"type": "Feature", "geometry": {"type": "Point", "coordinates": [98.99146, 18.78327]}, "properties": {"id": "cm-osm-node-3385473024", "name": "Dash", "nameTh": null, "nameEn": "Dash", "cat": ["food"], "province": "cm", "slug": "dash-3385473024", "rank": 3}}, {"type": "Feature", "geometry": {"type": "Point", "coordinates": [98.96667, 18.79836]}, "properties": {"id": "cm-osm-node-1074594027", "name": "Ember", "nameTh": null, "nameEn": "Ember", "cat": ["food"], "province": "cm", "slug": "ember-1074594027", "rank": 1}}, {"type": "Feature", "geometry": {"type": "Point", "coordinates": [98.96928, 18.78869]}, "properties": {"id": "cm-osm-node-4539213082", "name": "Everest 8848", "nameTh": null, "nameEn": "Everest 8848", "cat": ["food"], "province": "cm", "slug": "everest-8848-4539213082", "rank": 1}}, {"type": "Feature", "geometry": {"type": "Point", "coordinates": [98.98203, 18.79339]}, "properties": {"id": "cm-osm-node-3385494997", "name": "Fern Forest Cafe", "nameTh": null, "nameEn": "Fern Forest Cafe", "cat": ["food"], "province": "cm", "slug": "fern-forest-cafe-3385494997", "rank": 3}}, {"type": "Feature", "geometry": {"type": "Point", "coordinates": [98.99268, 18.78792]}, "properties": {"id": "cm-osm-node-4748011323", "name": "Fruiturday", "nameTh": null, "nameEn": "Fruiturday", "cat": ["food"], "province": "cm", "slug": "fruiturday-4748011323", "rank": 1}}, {"type": "Feature", "geometry": {"type": "Point", "coordinates": [98.96753, 18.79992]}, "properties": {"id": "cm-osm-node-5928092288", "name": "Ginger Farm", "nameTh": null, "nameEn": "Ginger Farm", "cat": ["food"], "province": "cm", "slug": "ginger-farm-5928092288", "rank": 1}}, {"type": "Feature", "geometry": {"type": "Point", "coordinates": [98.98631, 18.79088]}, "properties": {"id": "cm-osm-way-580333283", "name": "Golden Bee", "nameTh": null, "nameEn": "Golden Bee", "cat": ["food"], "province": "cm", "slug": "golden-bee-580333283", "rank": 1}}, {"type": "Feature", "geometry": {"type": "Point", "coordinates": [98.99044, 18.78784]}, "properties": {"id": "cm-osm-node-6169881285", "name": "Juice Hub", "nameTh": null, "nameEn": "Juice Hub", "cat": ["food"], "province": "cm", "slug": "juice-hub-6169881285", "rank": 1}}, {"type": "Feature", "geometry": {"type": "Point", "coordinates": [98.98653, 18.78823]}, "properties": {"id": "cm-osm-node-4212373091", "name": "Kalapela Tea House", "nameTh": null, "nameEn": "Kalapela Tea House", "cat": ["food"], "province": "cm", "slug": "kalapela-tea-house-4212373091", "rank": 3}}, {"type": "Feature", "geometry": {"type": "Point", "coordinates": [98.98682, 18.78815]}, "properties": {"id": "cm-osm-node-4132247489", "name": "Kaldi Coffee House", "nameTh": null, "nameEn": "Kaldi Coffee House", "cat": ["food"], "province": "cm", "slug": "kaldi-coffee-house-4132247489", "rank": 1}}, {"type": "Feature", "geometry": {"type": "Point", "coordinates": [98.99039, 18.79081]}, "properties": {"id": "cm-osm-node-1491290179", "name": "Kebab House", "nameTh": null, "nameEn": "Kebab House", "cat": ["food"], "province": "cm", "slug": "kebab-house-1491290179", "rank": 2}}, {"type": "Feature", "geometry": {"type": "Point", "coordinates": [98.94992, 18.80497]}, "properties": {"id": "cm-osm-way-311212963", "name": "Living a Dream", "nameTh": null, "nameEn": "Living a Dream", "cat": ["food"], "province": "cm", "slug": "living-a-dream-311212963", "rank": 1}}, {"type": "Feature", "geometry": {"type": "Point", "coordinates": [98.99318, 18.79028]}, "properties": {"id": "cm-osm-way-481723939", "name": "Loco Elvis", "nameTh": null, "nameEn": "Loco Elvis", "cat": ["food"], "province": "cm", "slug": "loco-elvis-481723939", "rank": 1}}, {"type": "Feature", "geometry": {"type": "Point", "coordinates": [98.9687, 18.79973]}, "properties": {"id": "cm-osm-node-6988852486", "name": "Mama's Kitchen", "nameTh": null, "nameEn": "Mama's Kitchen", "cat": ["food"], "province": "cm", "slug": "mama-s-kitchen-6988852486", "rank": 1}}, {"type": "Feature", "geometry": {"type": "Point", "coordinates": [98.96909, 18.79941]}, "properties": {"id": "cm-osm-node-3426415666", "name": "Mix", "nameTh": null, "nameEn": "Mix", "cat": ["food"], "province": "cm", "slug": "mix-3426415666", "rank": 1}}, {"type": "Feature", "geometry": {"type": "Point", "coordinates": [98.98642, 18.78824]}, "properties": {"id": "cm-osm-node-5245253221", "name": "Moon pie", "nameTh": null, "nameEn": "Moon pie", "cat": ["food"], "province": "cm", "slug": "moon-pie-5245253221", "rank": 1}}, {"type": "Feature", "geometry": {"type": "Point", "coordinates": [98.99065, 18.79074]}, "properties": {"id": "cm-osm-node-1491262428", "name": "New Delhi", "nameTh": null, "nameEn": "New Delhi", "cat": ["food"], "province": "cm", "slug": "new-delhi-1491262428", "rank": 1}}, {"type": "Feature", "geometry": {"type": "Point", "coordinates": [98.94841, 18.7768]}, "properties": {"id": "cm-osm-node-6176059286", "name": "Obchoei Original Homemade", "nameTh": null, "nameEn": "Obchoei Original Homemade", "cat": ["food"], "province": "cm", "slug": "obchoei-original-homemade-6176059286", "rank": 2}}, {"type": "Feature", "geometry": {"type": "Point", "coordinates": [98.99396, 18.78816]}, "properties": {"id": "cm-osm-node-4538160419", "name": "Pulcinella de Stefano", "nameTh": null, "nameEn": "Pulcinella de Stefano", "cat": ["food"], "province": "cm", "slug": "pulcinella-de-stefano-4538160419", "rank": 1}}, {"type": "Feature", "geometry": {"type": "Point", "coordinates": [98.96722, 18.7991]}, "properties": {"id": "cm-osm-node-2105726947", "name": "Ristr8to", "nameTh": "ด็อปปิโอ ริสเทรสโต้", "nameEn": "Ristr8to", "cat": ["food"], "province": "cm", "slug": "ristr8to-2105726947", "rank": 3}}, {"type": "Feature", "geometry": {"type": "Point", "coordinates": [98.96721, 18.79921]}, "properties": {"id": "cm-osm-node-4564569789", "name": "Rogu Roti", "nameTh": null, "nameEn": "Rogu Roti", "cat": ["food"], "province": "cm", "slug": "rogu-roti-4564569789", "rank": 2}}, {"type": "Feature", "geometry": {"type": "Point", "coordinates": [98.97368, 18.79809]}, "properties": {"id": "cm-osm-node-13451733091", "name": "Smash Daddy's", "nameTh": null, "nameEn": "Smash Daddy's", "cat": ["food"], "province": "cm", "slug": "smash-daddy-s-13451733091", "rank": 2}}, {"type": "Feature", "geometry": {"type": "Point", "coordinates": [98.99366, 18.78802]}, "properties": {"id": "cm-osm-node-336237972", "name": "Starbucks", "nameTh": "สตาร์บัคส์", "nameEn": "Starbucks Coffee", "cat": ["food"], "province": "cm", "slug": "starbucks-coffee-336237972", "rank": 3}}, {"type": "Feature", "geometry": {"type": "Point", "coordinates": [98.98965, 18.79067]}, "properties": {"id": "cm-osm-node-2039922767", "name": "Tanya", "nameTh": null, "nameEn": "Tanya", "cat": ["food"], "province": "cm", "slug": "tanya-2039922767", "rank": 1}}, {"type": "Feature", "geometry": {"type": "Point", "coordinates": [98.95602, 18.7925]}, "properties": {"id": "cm-osm-node-6217590685", "name": "Tea Inn", "nameTh": null, "nameEn": "Tea Inn", "cat": ["food"], "province": "cm", "slug": "tea-inn-6217590685", "rank": 1}}, {"type": "Feature", "geometry": {"type": "Point", "coordinates": [98.99294, 18.78791]}, "properties": {"id": "cm-osm-node-2716915567", "name": "The Coffee Club", "nameTh": null, "nameEn": "The Coffee Club", "cat": ["food"], "province": "cm", "slug": "the-coffee-club-2716915567", "rank": 1}}, {"type": "Feature", "geometry": {"type": "Point", "coordinates": [98.99071, 18.79073]}, "properties": {"id": "cm-osm-node-2292111473", "name": "The Peppermint", "nameTh": null, "nameEn": "The Peppermint", "cat": ["food"], "province": "cm", "slug": "the-peppermint-2292111473", "rank": 1}}, {"type": "Feature", "geometry": {"type": "Point", "coordinates": [98.96788, 18.79977]}, "properties": {"id": "cm-osm-node-5928090575", "name": "The Volcano", "nameTh": null, "nameEn": "The Volcano", "cat": ["food"], "province": "cm", "slug": "the-volcano-5928090575", "rank": 1}}, {"type": "Feature", "geometry": {"type": "Point", "coordinates": [98.92613, 18.69757]}, "properties": {"id": "cm-osm-way-1138543689", "name": "Triplets Eat & Play", "nameTh": null, "nameEn": "Triplets Eat & Play", "cat": ["food"], "province": "cm", "slug": "triplets-eat-play-1138543689", "rank": 4}}, {"type": "Feature", "geometry": {"type": "Point", "coordinates": [99.02127, 18.78467]}, "properties": {"id": "cm-osm-node-13991334836", "name": "Uncle moustache steak restaurant", "nameTh": null, "nameEn": "Uncle moustache steak restaurant", "cat": ["food"], "province": "cm", "slug": "uncle-moustache-steak-restaurant-13991334836", "rank": 2}}, {"type": "Feature", "geometry": {"type": "Point", "coordinates": [98.99016, 18.78786]}, "properties": {"id": "cm-osm-node-1598984446", "name": "Wawee Coffee", "nameTh": null, "nameEn": "Wawee Coffee", "cat": ["food"], "province": "cm", "slug": "wawee-coffee-1598984446", "rank": 1}}, {"type": "Feature", "geometry": {"type": "Point", "coordinates": [98.99046, 18.79092]}, "properties": {"id": "cm-osm-node-1157479254", "name": "Zoe in Yellow Garden", "nameTh": null, "nameEn": "Zoe in Yellow Garden", "cat": ["food"], "province": "cm", "slug": "zoe-in-yellow-garden-1157479254", "rank": 1}}, {"type": "Feature", "geometry": {"type": "Point", "coordinates": [99.00204, 18.79277]}, "properties": {"id": "cm-osm-node-11806453091", "name": "khna coffee brewers", "nameTh": null, "nameEn": "khna coffee brewers", "cat": ["food"], "province": "cm", "slug": "khna-coffee-brewers-11806453091", "rank": 2}}, {"type": "Feature", "geometry": {"type": "Point", "coordinates": [98.96777, 18.79962]}, "properties": {"id": "cm-osm-node-3426416730", "name": "ก๋วยเตี๋ยวตำลึง", "nameTh": "ก๋วยเตี๋ยวตำลึง", "nameEn": "Tamlueng Noodle", "cat": ["food"], "province": "cm", "slug": "tamlueng-noodle-3426416730", "rank": 2}}, {"type": "Feature", "geometry": {"type": "Point", "coordinates": [98.98625, 18.78968]}, "properties": {"id": "cm-osm-node-1619287955", "name": "ก๋วยเตี๋ยวเป็ด", "nameTh": "ก๋วยเตี๋ยวเป็ด", "nameEn": null, "cat": ["food"], "province": "cm", "slug": "1619287955", "rank": 1}}, {"type": "Feature", "geometry": {"type": "Point", "coordinates": [98.96873, 18.79976]}, "properties": {"id": "cm-osm-node-3426415662", "name": "บ้านตะวันฉาย", "nameTh": "บ้านตะวันฉาย", "nameEn": "Baan Tawan Shine", "cat": ["food"], "province": "cm", "slug": "baan-tawan-shine-3426415662", "rank": 2}}, {"type": "Feature", "geometry": {"type": "Point", "coordinates": [98.98427, 18.78587]}, "properties": {"id": "cm-osm-node-6540348415", "name": "ร้านแม่บุปผา", "nameTh": "ร้านแม่บุปผา", "nameEn": null, "cat": ["food"], "province": "cm", "slug": "6540348415", "rank": 1}}, {"type": "Feature", "geometry": {"type": "Point", "coordinates": [98.95483, 18.78903]}, "properties": {"id": "cm-osm-node-4430887900", "name": "ฮ้านถึงเจียงใหม่ อาหารเหนือ อาหารพื้นเมือง", "nameTh": "ฮ้านถึงเจียงใหม่ อาหารเหนือ อาหารพื้นเมือง", "nameEn": "Han Teung Chiangmai", "cat": ["food"], "province": "cm", "slug": "han-teung-chiangmai-4430887900", "rank": 4}}, {"type": "Feature", "geometry": {"type": "Point", "coordinates": [98.99397, 18.78803]}, "properties": {"id": "cm-osm-way-482773004", "name": "Boots", "nameTh": null, "nameEn": "Boots", "cat": ["essentials", "medical"], "province": "cm", "slug": "boots-482773004", "rank": 2}}, {"type": "Feature", "geometry": {"type": "Point", "coordinates": [98.98665, 18.78822]}, "properties": {"id": "cm-osm-node-6303088885", "name": "C&R", "nameTh": null, "nameEn": "Natural Herb", "cat": ["essentials", "medical"], "province": "cm", "slug": "natural-herb-6303088885", "rank": 1}}, {"type": "Feature", "geometry": {"type": "Point", "coordinates": [98.95742, 18.79196]}, "properties": {"id": "cm-osm-node-6519106998", "name": "Fairy", "nameTh": null, "nameEn": "Fairy", "cat": ["medical"], "province": "cm", "slug": "fairy-6519106998", "rank": 1}}, {"type": "Feature", "geometry": {"type": "Point", "coordinates": [98.96647, 18.798]}, "properties": {"id": "cm-osm-node-1074593976", "name": "Quality Drug", "nameTh": null, "nameEn": "Quality Drug", "cat": ["essentials", "medical"], "province": "cm", "slug": "quality-drug-1074593976", "rank": 1}}, {"type": "Feature", "geometry": {"type": "Point", "coordinates": [98.95683, 18.79217]}, "properties": {"id": "cm-osm-node-4018140121", "name": "7-Eleven", "nameTh": null, "nameEn": "7-Eleven", "cat": ["essentials"], "province": "cm", "slug": "7-eleven-4018140121", "rank": 2}}, {"type": "Feature", "geometry": {"type": "Point", "coordinates": [98.99036, 18.78433]}, "properties": {"id": "cm-osm-node-6117383885", "name": "7-Eleven", "nameTh": null, "nameEn": "7-Eleven", "cat": ["essentials"], "province": "cm", "slug": "7-eleven-6117383885", "rank": 1}}, {"type": "Feature", "geometry": {"type": "Point", "coordinates": [98.98943, 18.79067]}, "properties": {"id": "cm-osm-node-1619218793", "name": "CP Fresh Mart", "nameTh": null, "nameEn": "CP Fresh Mart", "cat": ["essentials"], "province": "cm", "slug": "cp-fresh-mart-1619218793", "rank": 2}}, {"type": "Feature", "geometry": {"type": "Point", "coordinates": [98.99308, 18.78839]}, "properties": {"id": "cm-osm-node-5686754821", "name": "DHL", "nameTh": null, "nameEn": "DHL", "cat": ["essentials"], "province": "cm", "slug": "dhl-5686754821", "rank": 1}}, {"type": "Feature", "geometry": {"type": "Point", "coordinates": [98.97702, 18.79679]}, "properties": {"id": "cm-osm-way-246778881", "name": "Goverment Savings Bank", "nameTh": null, "nameEn": "Goverment Savings Bank", "cat": ["essentials"], "province": "cm", "slug": "goverment-savings-bank-246778881", "rank": 3}}, {"type": "Feature", "geometry": {"type": "Point", "coordinates": [98.98775, 18.79078]}, "properties": {"id": "cm-osm-node-4597779096", "name": "Si Phum Thailand Post Office", "nameTh": null, "nameEn": "Si Phum Thailand Post Office", "cat": ["essentials"], "province": "cm", "slug": "si-phum-thailand-post-office-4597779096", "rank": 3}}, {"type": "Feature", "geometry": {"type": "Point", "coordinates": [98.99068, 18.78792]}, "properties": {"id": "cm-osm-node-5783761753", "name": "flea market Friday", "nameTh": null, "nameEn": "flea market Friday", "cat": ["essentials"], "province": "cm", "slug": "flea-market-friday-5783761753", "rank": 1}}, {"type": "Feature", "geometry": {"type": "Point", "coordinates": [98.95762, 18.79085]}, "properties": {"id": "cm-osm-node-1518736558", "name": "ธนาคารทหารไทย", "nameTh": "ธนาคารทหารไทย", "nameEn": "TMBThanachart Bank", "cat": ["essentials"], "province": "cm", "slug": "tmbthanachart-bank-1518736558", "rank": 2}}, {"type": "Feature", "geometry": {"type": "Point", "coordinates": [98.9877, 18.79091]}, "properties": {"id": "cm-osm-node-4336683611", "name": "ไปรษณีย์ ศรีภูมิ", "nameTh": "ไปรษณีย์ ศรีภูมิ", "nameEn": "Si Phum Post Office", "cat": ["essentials"], "province": "cm", "slug": "si-phum-post-office-4336683611", "rank": 2}}, {"type": "Feature", "geometry": {"type": "Point", "coordinates": [98.9914, 18.78762]}, "properties": {"id": "cm-osm-node-7203451785", "name": "Aksara Heritage", "nameTh": null, "nameEn": "Aksara Heritage", "cat": ["hotel"], "province": "cm", "slug": "aksara-heritage-7203451785", "rank": 1}}, {"type": "Feature", "geometry": {"type": "Point", "coordinates": [98.99057, 18.78452]}, "properties": {"id": "cm-osm-node-12327786309", "name": "Bodhi Serene", "nameTh": null, "nameEn": "Bodhi Serene", "cat": ["hotel"], "province": "cm", "slug": "bodhi-serene-12327786309", "rank": 1}}, {"type": "Feature", "geometry": {"type": "Point", "coordinates": [98.98298, 18.7887]}, "properties": {"id": "cm-osm-node-1619445255", "name": "Buri Gallery House", "nameTh": null, "nameEn": "Buri Gallery House", "cat": ["hotel"], "province": "cm", "slug": "buri-gallery-house-1619445255", "rank": 1}}, {"type": "Feature", "geometry": {"type": "Point", "coordinates": [98.9831, 18.7898]}, "properties": {"id": "cm-osm-way-408595881", "name": "De Lanna Hotel", "nameTh": null, "nameEn": "De Lanna Hotel", "cat": ["hotel"], "province": "cm", "slug": "de-lanna-hotel-408595881", "rank": 3}}, {"type": "Feature", "geometry": {"type": "Point", "coordinates": [99.00626, 18.7849]}, "properties": {"id": "cm-osm-way-511631903", "name": "ELOSIA Building B", "nameTh": null, "nameEn": "ELOSIA Building B", "cat": ["hotel"], "province": "cm", "slug": "elosia-building-b-511631903", "rank": 1}}, {"type": "Feature", "geometry": {"type": "Point", "coordinates": [98.9862, 18.7893]}, "properties": {"id": "cm-osm-node-7005700272", "name": "Estia", "nameTh": null, "nameEn": "Estia", "cat": ["hotel"], "province": "cm", "slug": "estia-7005700272", "rank": 1}}, {"type": "Feature", "geometry": {"type": "Point", "coordinates": [98.99301, 18.78894]}, "properties": {"id": "cm-osm-node-6057865685", "name": "Floral Hotel", "nameTh": null, "nameEn": "Floral Hotel", "cat": ["hotel"], "province": "cm", "slug": "floral-hotel-6057865685", "rank": 1}}, {"type": "Feature", "geometry": {"type": "Point", "coordinates": [99.00601, 18.78901]}, "properties": {"id": "cm-osm-node-6622141185", "name": "Gategaa Village", "nameTh": null, "nameEn": "Gategaa Village", "cat": ["hotel"], "province": "cm", "slug": "gategaa-village-6622141185", "rank": 4}}, {"type": "Feature", "geometry": {"type": "Point", "coordinates": [98.99324, 18.7901]}, "properties": {"id": "cm-osm-node-6251431185", "name": "Iris hostel", "nameTh": null, "nameEn": "Iris hostel", "cat": ["hotel"], "province": "cm", "slug": "iris-hostel-6251431185", "rank": 1}}, {"type": "Feature", "geometry": {"type": "Point", "coordinates": [98.99992, 18.78451]}, "properties": {"id": "cm-osm-way-475897562", "name": "Le Méridien", "nameTh": null, "nameEn": "Meridien", "cat": ["hotel"], "province": "cm", "slug": "meridien-475897562", "rank": 2}}, {"type": "Feature", "geometry": {"type": "Point", "coordinates": [98.99093, 18.77876]}, "properties": {"id": "cm-osm-node-11699781425", "name": "Le Ville Lanna Boutique Hotel", "nameTh": null, "nameEn": "Le Ville Lanna Boutique Hotel", "cat": ["hotel"], "province": "cm", "slug": "le-ville-lanna-boutique-hotel-11699781425", "rank": 2}}, {"type": "Feature", "geometry": {"type": "Point", "coordinates": [99.00074, 18.77837]}, "properties": {"id": "cm-osm-way-440038015", "name": "Shangri-La Hotel Chiang Mai", "nameTh": null, "nameEn": "Shangri-La Hotel Chiang Mai", "cat": ["hotel"], "province": "cm", "slug": "shangri-la-hotel-chiang-mai-440038015", "rank": 2}}, {"type": "Feature", "geometry": {"type": "Point", "coordinates": [98.98207, 18.79362]}, "properties": {"id": "cm-osm-way-102825210", "name": "The Common Hostel", "nameTh": null, "nameEn": "The Common Hostel", "cat": ["hotel"], "province": "cm", "slug": "the-common-hostel-102825210", "rank": 2}}, {"type": "Feature", "geometry": {"type": "Point", "coordinates": [98.96807, 18.80073]}, "properties": {"id": "cm-osm-way-266121332", "name": "U Nimman Chiang Mai", "nameTh": null, "nameEn": "U Nimman Chiang Mai", "cat": ["hotel"], "province": "cm", "slug": "u-nimman-chiang-mai-266121332", "rank": 1}}, {"type": "Feature", "geometry": {"type": "Point", "coordinates": [98.98741, 18.78736]}, "properties": {"id": "cm-osm-node-6611332086", "name": "Mahamakut Buddhist University", "nameTh": null, "nameEn": "Mahamakut Buddhist University", "cat": ["school"], "province": "cm", "slug": "mahamakut-buddhist-university-6611332086", "rank": 1}}, {"type": "Feature", "geometry": {"type": "Point", "coordinates": [98.95294, 18.80097]}, "properties": {"id": "cm-osm-node-6012344207", "name": "คณะวิทยาศาสตร์", "nameTh": "คณะวิทยาศาสตร์", "nameEn": "Faculty of Science", "cat": ["school"], "province": "cm", "slug": "faculty-of-science-6012344207", "rank": 2}}, {"type": "Feature", "geometry": {"type": "Point", "coordinates": [99.00053, 18.79022]}, "properties": {"id": "cm-osm-way-89039067", "name": "ตลาดวโรรส", "nameTh": "ตลาดวโรรส", "nameEn": "Warorot Market", "cat": ["market"], "province": "cm", "slug": "warorot-market-89039067", "rank": 3}}, {"type": "Feature", "geometry": {"type": "Point", "coordinates": [98.96685, 19.37612]}, "properties": {"id": "cm-osm-way-272549351", "name": "Chiang Dao Bus Station", "nameTh": null, "nameEn": "Chiang Dao Bus Station", "cat": ["transport"], "province": "cm", "slug": "chiang-dao-bus-station-272549351", "rank": 1}}, {"type": "Feature", "geometry": {"type": "Point", "coordinates": [98.94837, 18.81065]}, "properties": {"id": "cm-osm-node-2639527925", "name": "Doi Suthep red bus station", "nameTh": null, "nameEn": "Doi Suthep red bus station", "cat": ["transport"], "province": "cm", "slug": "doi-suthep-red-bus-station-2639527925", "rank": 1}}, {"type": "Feature", "geometry": {"type": "Point", "coordinates": [99.01682, 18.78352]}, "properties": {"id": "cm-osm-node-8797855637", "name": "เชียงใหม่", "nameTh": "เชียงใหม่", "nameEn": "Chiang Mai", "cat": ["transport"], "province": "cm", "slug": "chiang-mai-8797855637", "rank": 3}}, {"type": "Feature", "geometry": {"type": "Point", "coordinates": [98.99306, 18.78989]}, "properties": {"id": "cm-osm-node-5328427821", "name": "Barber by DON'S", "nameTh": null, "nameEn": "Barber by DON'S", "cat": ["beauty"], "province": "cm", "slug": "barber-by-don-s-5328427821", "rank": 3}}, {"type": "Feature", "geometry": {"type": "Point", "coordinates": [98.97124, 18.79875]}, "properties": {"id": "cm-osm-node-11612597268", "name": "Nine Kim", "nameTh": null, "nameEn": "Nine Kim", "cat": ["beauty"], "province": "cm", "slug": "nine-kim-11612597268", "rank": 2}}, {"type": "Feature", "geometry": {"type": "Point", "coordinates": [98.99092, 18.79048]}, "properties": {"id": "cm-osm-node-4708268594", "name": "Dejavu Tattoo", "nameTh": null, "nameEn": "Dejavu Tattoo", "cat": ["tattoo"], "province": "cm", "slug": "dejavu-tattoo-4708268594", "rank": 1}}]}