{"type": "FeatureCollection", "features": [{"type": "Feature", "geometry": {"type": "Point", "coordinates": [98.99563, 18.75405]}, "properties": {"id": "cm-osm-node-2508210840", "name": "Chedi Liam Temple", "nameTh": null, "nameEn": "Chedi Liam Temple", "cat": ["wat"], "province": "cm", "slug": "chedi-liam-temple-2508210840", "rank": 2}}, {"type": "Feature", "geometry": {"type": "Point", "coordinates": [98.98686, 18.78697]}, "properties": {"id": "cm-osm-way-243018795", "name": "Wat Chedi Luang", "nameTh": "วัดเจดีย์หลวงวรวิหาร", "nameEn": "Wat Chedi Luang", "cat": ["wat"], "province": "cm", "slug": "wat-chedi-luang-243018795", "rank": 3}}, {"type": "Feature", "geometry": {"type": "Point", "coordinates": [98.98939, 18.79379]}, "properties": {"id": "cm-osm-way-98070869", "name": "Wat Chiang Man", "nameTh": "วัดเชียงมั่น", "nameEn": "Wat Chiang Man", "cat": ["wat"], "province": "cm", "slug": "wat-chiang-man-98070869", "rank": 3}}, {"type": "Feature", "geometry": {"type": "Point", "coordinates": [99.02187, 18.83116]}, "properties": {"id": "cm-osm-way-1458584415", "name": "Wat Nang Liao", "nameTh": null, "nameEn": "Wat Nang Liao", "cat": ["wat"], "province": "cm", "slug": "wat-nang-liao-1458584415", "rank": 2}}, {"type": "Feature", "geometry": {"type": "Point", "coordinates": [98.98745, 18.78769]}, "properties": {"id": "cm-osm-way-243018378", "name": "Wat Phan Tao", "nameTh": "วัดพันเตา", "nameEn": "Wat Phan Tao", "cat": ["wat"], "province": "cm", "slug": "wat-phan-tao-243018378", "rank": 3}}, {"type": "Feature", "geometry": {"type": "Point", "coordinates": [98.98864, 18.80257]}, "properties": {"id": "cm-osm-way-665826690", "name": "วัดกู่เต้า", "nameTh": "วัดกู่เต้า", "nameEn": "Wat Ku Tao", "cat": ["wat"], "province": "cm", "slug": "wat-ku-tao-665826690", "rank": 3}}, {"type": "Feature", "geometry": {"type": "Point", "coordinates": [99.00204, 18.74788]}, "properties": {"id": "cm-osm-way-356063726", "name": "วัดช้างค้ำ", "nameTh": "วัดช้างค้ำ", "nameEn": "Wat Chang Kham", "cat": ["wat"], "province": "cm", "slug": "wat-chang-kham-356063726", "rank": 3}}, {"type": "Feature", "geometry": {"type": "Point", "coordinates": [98.9885, 18.78949]}, "properties": {"id": "cm-osm-way-261339003", "name": "วัดดวงดี", "nameTh": "วัดดวงดี", "nameEn": "Wat Duang Di", "cat": ["wat"], "province": "cm", "slug": "wat-duang-di-261339003", "rank": 3}}, {"type": "Feature", "geometry": {"type": "Point", "coordinates": [98.92534, 18.72285]}, "properties": {"id": "cm-osm-node-624114779", "name": "วัดต้นเกว๋น", "nameTh": "วัดต้นเกว๋น", "nameEn": "Wat Ton Kwen", "cat": ["wat"], "province": "cm", "slug": "wat-ton-kwen-624114779", "rank": 3}}, {"type": "Feature", "geometry": {"type": "Point", "coordinates": [98.91983, 18.68244]}, "properties": {"id": "cm-osm-node-2685558600", "name": "วัดทรายมูล", "nameTh": "วัดทรายมูล", "nameEn": "Wat Sai Mun", "cat": ["wat"], "province": "cm", "slug": "wat-sai-mun-2685558600", "rank": 3}}, {"type": "Feature", "geometry": {"type": "Point", "coordinates": [99.03818, 18.77955]}, "properties": {"id": "cm-osm-way-370423801", "name": "วัดบวกครกหลวง", "nameTh": "วัดบวกครกหลวง", "nameEn": "Wat Buak Khrok Luang", "cat": ["wat"], "province": "cm", "slug": "wat-buak-khrok-luang-370423801", "rank": 3}}, {"type": "Feature", "geometry": {"type": "Point", "coordinates": [98.99816, 18.78791]}, "properties": {"id": "cm-osm-way-261336735", "name": "วัดบุพพาราม", "nameTh": "วัดบุพพาราม", "nameEn": "Wat Bupparam", "cat": ["wat"], "province": "cm", "slug": "wat-bupparam-261336735", "rank": 3}}, {"type": "Feature", "geometry": {"type": "Point", "coordinates": [98.98102, 18.78981]}, "properties": {"id": "cm-osm-way-378271848", "name": "วัดปราสาท", "nameTh": "วัดปราสาท", "nameEn": "Wat Prasat", "cat": ["wat"], "province": "cm", "slug": "wat-prasat-378271848", "rank": 3}}, {"type": "Feature", "geometry": {"type": "Point", "coordinates": [98.9221, 18.80492]}, "properties": {"id": "cm-osm-way-114651040", "name": "วัดพระธาตุดอยสุเทพ", "nameTh": "วัดพระธาตุดอยสุเทพ", "nameEn": "wat Phrathat Doi Suthep Racha Worawihan", "cat": ["wat"], "province": "cm", "slug": "wat-phrathat-doi-suthep-racha-worawihan-114651040", "rank": 3}}, {"type": "Feature", "geometry": {"type": "Point", "coordinates": [98.97782, 18.84533]}, "properties": {"id": "cm-osm-way-1015398858", "name": "วัดพระนอนขอนม่วง", "nameTh": "วัดพระนอนขอนม่วง", "nameEn": "Wat Phra Non Khon Muang", "cat": ["wat"], "province": "cm", "slug": "wat-phra-non-khon-muang-1015398858", "rank": 3}}, {"type": "Feature", "geometry": {"type": "Point", "coordinates": [98.98094, 18.78302]}, "properties": {"id": "cm-osm-relation-8201931", "name": "วัดพวกหงษ์", "nameTh": "วัดพวกหงษ์", "nameEn": "Wat Phuak Hong", "cat": ["wat"], "province": "cm", "slug": "wat-phuak-hong-8201931", "rank": 3}}, {"type": "Feature", "geometry": {"type": "Point", "coordinates": [98.98908, 18.77581]}, "properties": {"id": "cm-osm-way-668806316", "name": "วัดยางกวง", "nameTh": "วัดยางกวง", "nameEn": "Wat Yang Kuang", "cat": ["wat"], "province": "cm", "slug": "wat-yang-kuang-668806316", "rank": 3}}, {"type": "Feature", "geometry": {"type": "Point", "coordinates": [98.94858, 18.77487]}, "properties": {"id": "cm-osm-way-563172842", "name": "วัดร่ำเปิง (ตโปทาราม)", "nameTh": "วัดร่ำเปิง (ตโปทาราม)", "nameEn": "Wat Ram Poeng (Tapotaram)", "cat": ["wat"], "province": "cm", "slug": "wat-ram-poeng-tapotaram-563172842", "rank": 3}}, {"type": "Feature", "geometry": {"type": "Point", "coordinates": [98.99957, 18.75349]}, "properties": {"id": "cm-osm-way-390377255", "name": "วัดศรีบุญเรือง", "nameTh": "วัดศรีบุญเรือง", "nameEn": "Wat Si Bun Rueang", "cat": ["wat"], "province": "cm", "slug": "wat-si-bun-rueang-390377255", "rank": 2}}, {"type": "Feature", "geometry": {"type": "Point", "coordinates": [98.96778, 18.78816]}, "properties": {"id": "cm-osm-way-322604682", "name": "วัดสวนดอก", "nameTh": "วัดสวนดอก", "nameEn": "Wat Suan Dok Monk Chat", "cat": ["wat"], "province": "cm", "slug": "wat-suan-dok-monk-chat-322604682", "rank": 3}}, {"type": "Feature", "geometry": {"type": "Point", "coordinates": [98.98989, 18.78946]}, "properties": {"id": "cm-osm-way-383205231", "name": "วัดอุโมงค์มหาเถรจันทร์", "nameTh": "วัดอุโมงค์มหาเถรจันทร์", "nameEn": "Wat Umong Maha Therachan", "cat": ["wat"], "province": "cm", "slug": "wat-umong-maha-therachan-383205231", "rank": 3}}, {"type": "Feature", "geometry": {"type": "Point", "coordinates": [99.0027, 18.79247]}, "properties": {"id": "cm-osm-way-528019093", "name": "วัดเกตการาม", "nameTh": "วัดเกตการาม", "nameEn": "Wat Ket Karam", "cat": ["wat"], "province": "cm", "slug": "wat-ket-karam-528019093", "rank": 3}}, {"type": "Feature", "geometry": {"type": "Point", "coordinates": [98.97217, 18.80906]}, "properties": {"id": "cm-osm-way-314697470", "name": "วัดเจ็ดยอด", "nameTh": "วัดเจ็ดยอด", "nameEn": "Wat Jed Yod", "cat": ["wat"], "province": "cm", "slug": "wat-jed-yod-314697470", "rank": 3}}, {"type": "Feature", "geometry": {"type": "Point", "coordinates": [98.98878, 18.79632]}, "properties": {"id": "cm-osm-node-1445519685", "name": "วัดเชียงยืน", "nameTh": "วัดเชียงยืน", "nameEn": "Wat Chiang Yuen", "cat": ["wat"], "province": "cm", "slug": "wat-chiang-yuen-1445519685", "rank": 3}}, {"type": "Feature", "geometry": {"type": "Point", "coordinates": [98.98636, 18.79401]}, "properties": {"id": "cm-osm-way-251437025", "name": "วัดแสนเมืองมาหลวง", "nameTh": "วัดแสนเมืองมาหลวง", "nameEn": "Wat Saen Mueang Ma Luang", "cat": ["wat"], "province": "cm", "slug": "wat-saen-mueang-ma-luang-251437025", "rank": 3}}, {"type": "Feature", "geometry": {"type": "Point", "coordinates": [98.98257, 18.79642]}, "properties": {"id": "cm-osm-way-692137164", "name": "วัดโลกโมฬี", "nameTh": "วัดโลกโมฬี", "nameEn": "Wat Lok Molee", "cat": ["wat"], "province": "cm", "slug": "wat-lok-molee-692137164", "rank": 3}}]}