{"type": "FeatureCollection", "features": [{"type": "Feature", "geometry": {"type": "Point", "coordinates": [99.00012, 18.78381]}, "properties": {"id": "cm-osm-node-1101288715", "name": "Starbucks", "nameTh": "สตาร์บัคส์", "nameEn": "Starbucks Coffee", "cat": ["food"], "province": "cm", "slug": "starbucks-coffee-1101288715", "rank": 4}}, {"type": "Feature", "geometry": {"type": "Point", "coordinates": [98.96673, 18.7976]}, "properties": {"id": "cm-osm-node-1127593959", "name": "Starbucks", "nameTh": "สตาร์บัคส์", "nameEn": "Starbucks Coffee", "cat": ["food"], "province": "cm", "slug": "starbucks-coffee-1127593959", "rank": 3}}, {"type": "Feature", "geometry": {"type": "Point", "coordinates": [99.01766, 18.80649]}, "properties": {"id": "cm-osm-node-3116053111", "name": "Starbucks", "nameTh": "สตาร์บัคส์", "nameEn": "Starbucks Coffee", "cat": ["food"], "province": "cm", "slug": "starbucks-coffee-3116053111", "rank": 3}}, {"type": "Feature", "geometry": {"type": "Point", "coordinates": [98.96782, 18.76955]}, "properties": {"id": "cm-osm-node-3281905420", "name": "Starbucks", "nameTh": null, "nameEn": "Starbucks", "cat": ["food"], "province": "cm", "slug": "starbucks-3281905420", "rank": 1}}, {"type": "Feature", "geometry": {"type": "Point", "coordinates": [98.96778, 18.80236]}, "properties": {"id": "cm-osm-node-3287356498", "name": "Starbucks", "nameTh": "สตาร์บัคส์", "nameEn": "Starbucks Coffee", "cat": ["food"], "province": "cm", "slug": "starbucks-coffee-3287356498", "rank": 3}}, {"type": "Feature", "geometry": {"type": "Point", "coordinates": [98.97521, 18.76978]}, "properties": {"id": "cm-osm-node-3347633205", "name": "Starbucks", "nameTh": null, "nameEn": "Starbucks", "cat": ["food"], "province": "cm", "slug": "starbucks-3347633205", "rank": 2}}, {"type": "Feature", "geometry": {"type": "Point", "coordinates": [98.99366, 18.78802]}, "properties": {"id": "cm-osm-node-336237972", "name": "Starbucks", "nameTh": "สตาร์บัคส์", "nameEn": "Starbucks Coffee", "cat": ["food"], "province": "cm", "slug": "starbucks-coffee-336237972", "rank": 3}}, {"type": "Feature", "geometry": {"type": "Point", "coordinates": [99.01175, 18.82441]}, "properties": {"id": "cm-osm-node-773476915", "name": "Starbucks", "nameTh": null, "nameEn": "Starbucks", "cat": ["food"], "province": "cm", "slug": "starbucks-773476915", "rank": 1}}, {"type": "Feature", "geometry": {"type": "Point", "coordinates": [98.93171, 18.70149]}, "properties": {"id": "cm-osm-way-340406770", "name": "Starbucks", "nameTh": "สตาร์บัคส์", "nameEn": "Starbucks Coffee", "cat": ["food"], "province": "cm", "slug": "starbucks-coffee-340406770", "rank": 3}}, {"type": "Feature", "geometry": {"type": "Point", "coordinates": [98.97786, 18.79313]}, "properties": {"id": "cm-osm-way-461273739", "name": "Starbucks Coffee", "nameTh": null, "nameEn": "Starbucks Coffee", "cat": ["food"], "province": "cm", "slug": "starbucks-coffee-461273739", "rank": 1}}]}