{"type": "FeatureCollection", "features": [{"type": "Feature", "geometry": {"type": "Point", "coordinates": [98.99726, 18.78412]}, "properties": {"id": "cm-osm-node-3416948044", "name": "Alice's Restaurant", "nameTh": null, "nameEn": "Alice's Restaurant", "cat": ["food"], "province": "cm", "slug": "alice-s-restaurant-3416948044", "rank": 2}}, {"type": "Feature", "geometry": {"type": "Point", "coordinates": [98.98017, 18.7928]}, "properties": {"id": "cm-osm-way-623146118", "name": "Bird's Nest Cafe", "nameTh": null, "nameEn": "Bird's Nest Cafe", "cat": ["food"], "province": "cm", "slug": "bird-s-nest-cafe-623146118", "rank": 3}}, {"type": "Feature", "geometry": {"type": "Point", "coordinates": [98.98717, 18.78921]}, "properties": {"id": "cm-osm-way-1300133896", "name": "Glyn Chiangmai Cuisine", "nameTh": null, "nameEn": "Glyn Chiangmai Cuisine", "cat": ["food"], "province": "cm", "slug": "glyn-chiangmai-cuisine-1300133896", "rank": 2}}, {"type": "Feature", "geometry": {"type": "Point", "coordinates": [98.98533, 18.78359]}, "properties": {"id": "cm-osm-way-1300133894", "name": "Gord Chiangmai Kitchen", "nameTh": null, "nameEn": "Gord Chiangmai Kitchen", "cat": ["food"], "province": "cm", "slug": "gord-chiangmai-kitchen-1300133894", "rank": 3}}, {"type": "Feature", "geometry": {"type": "Point", "coordinates": [99.10949, 18.73002]}, "properties": {"id": "cm-osm-node-4694698200", "name": "More Fresh", "nameTh": null, "nameEn": "More Fresh", "cat": ["food"], "province": "cm", "slug": "more-fresh-4694698200", "rank": 1}}, {"type": "Feature", "geometry": {"type": "Point", "coordinates": [99.00522, 18.83505]}, "properties": {"id": "cm-osm-node-13266867245", "name": "PLUTO", "nameTh": null, "nameEn": "PLUTO", "cat": ["food"], "province": "cm", "slug": "pluto-13266867245", "rank": 3}}, {"type": "Feature", "geometry": {"type": "Point", "coordinates": [98.96631, 18.7968]}, "properties": {"id": "cm-osm-node-1797053421", "name": "The Salad Concept", "nameTh": null, "nameEn": "The Salad Concept", "cat": ["food"], "province": "cm", "slug": "the-salad-concept-1797053421", "rank": 3}}, {"type": "Feature", "geometry": {"type": "Point", "coordinates": [98.97852, 18.79178]}, "properties": {"id": "cm-osm-node-11478245226", "name": "Veggie First Cafe", "nameTh": null, "nameEn": "Veggie First Cafe", "cat": ["food"], "province": "cm", "slug": "veggie-first-cafe-11478245226", "rank": 2}}, {"type": "Feature", "geometry": {"type": "Point", "coordinates": [98.9602, 18.80721]}, "properties": {"id": "cm-osm-way-239034094", "name": "ฝายหิน", "nameTh": "ฝายหิน", "nameEn": null, "cat": ["food"], "province": "cm", "slug": "239034094", "rank": 1}}, {"type": "Feature", "geometry": {"type": "Point", "coordinates": [98.9782, 18.77244]}, "properties": {"id": "cm-osm-node-3207247635", "name": "สวนผัก โอ้กะจู๋", "nameTh": "สวนผัก โอ้กะจู๋", "nameEn": "Ohkajhu", "cat": ["food"], "province": "cm", "slug": "ohkajhu-3207247635", "rank": 5}}, {"type": "Feature", "geometry": {"type": "Point", "coordinates": [99.038, 18.61283]}, "properties": {"id": "cm-osm-node-7085519908", "name": "โตวันไฮโดรฟาร์ม", "nameTh": "โตวันไฮโดรฟาร์ม", "nameEn": null, "cat": ["food"], "province": "cm", "slug": "7085519908", "rank": 1}}, {"type": "Feature", "geometry": {"type": "Point", "coordinates": [99.02455, 18.8407]}, "properties": {"id": "cm-osm-way-322391432", "name": "ใหญ่ไซส์บิ๊ก โอ้กะจุ๋", "nameTh": "ใหญ่ไซส์บิ๊ก โอ้กะจุ๋", "nameEn": "Ohkajhu Organic Farm Restaurant", "cat": ["food"], "province": "cm", "slug": "ohkajhu-organic-farm-restaurant-322391432", "rank": 5}}]}