{"type": "FeatureCollection", "features": [{"type": "Feature", "geometry": {"type": "Point", "coordinates": [98.96704, 18.80222]}, "properties": {"id": "cm-osm-node-13533539045", "name": "Boots", "nameTh": null, "nameEn": "Boots", "cat": ["essentials", "medical"], "province": "cm", "slug": "boots-13533539045", "rank": 1}}, {"type": "Feature", "geometry": {"type": "Point", "coordinates": [99.01849, 18.80006]}, "properties": {"id": "cm-osm-node-2666702743", "name": "Boots", "nameTh": null, "nameEn": "Boots", "cat": ["essentials", "medical"], "province": "cm", "slug": "boots-2666702743", "rank": 1}}, {"type": "Feature", "geometry": {"type": "Point", "coordinates": [98.96698, 18.80217]}, "properties": {"id": "cm-osm-node-3287356489", "name": "Boots", "nameTh": null, "nameEn": "Boots", "cat": ["essentials", "medical"], "province": "cm", "slug": "boots-3287356489", "rank": 2}}, {"type": "Feature", "geometry": {"type": "Point", "coordinates": [98.9754, 18.76961]}, "properties": {"id": "cm-osm-node-3347631780", "name": "Boots", "nameTh": null, "nameEn": "Boots", "cat": ["essentials", "medical"], "province": "cm", "slug": "boots-3347631780", "rank": 2}}, {"type": "Feature", "geometry": {"type": "Point", "coordinates": [99.00058, 18.78615]}, "properties": {"id": "cm-osm-node-3417307151", "name": "Boots", "nameTh": null, "nameEn": "Boots", "cat": ["essentials", "medical"], "province": "cm", "slug": "boots-3417307151", "rank": 1}}, {"type": "Feature", "geometry": {"type": "Point", "coordinates": [99.00849, 18.7538]}, "properties": {"id": "cm-osm-node-5201216299", "name": "Boots", "nameTh": null, "nameEn": "Boots", "cat": ["essentials", "medical"], "province": "cm", "slug": "boots-5201216299", "rank": 1}}, {"type": "Feature", "geometry": {"type": "Point", "coordinates": [98.99233, 18.78773]}, "properties": {"id": "cm-osm-node-5307478089", "name": "Boots", "nameTh": null, "nameEn": "Boots", "cat": ["essentials", "medical"], "province": "cm", "slug": "boots-5307478089", "rank": 1}}, {"type": "Feature", "geometry": {"type": "Point", "coordinates": [98.9829, 18.78869]}, "properties": {"id": "cm-osm-node-7023398691", "name": "Boots", "nameTh": null, "nameEn": "Boots", "cat": ["essentials", "medical"], "province": "cm", "slug": "boots-7023398691", "rank": 1}}, {"type": "Feature", "geometry": {"type": "Point", "coordinates": [98.96162, 18.74313]}, "properties": {"id": "cm-osm-node-907784581", "name": "Boots", "nameTh": null, "nameEn": "Boots", "cat": ["essentials", "medical"], "province": "cm", "slug": "boots-907784581", "rank": 1}}, {"type": "Feature", "geometry": {"type": "Point", "coordinates": [98.99397, 18.78803]}, "properties": {"id": "cm-osm-way-482773004", "name": "Boots", "nameTh": null, "nameEn": "Boots", "cat": ["essentials", "medical"], "province": "cm", "slug": "boots-482773004", "rank": 2}}]}