{"type": "FeatureCollection", "features": [{"type": "Feature", "geometry": {"type": "Point", "coordinates": [99.01334, 18.83684]}, "properties": {"id": "cm-osm-way-317524261", "name": "World Gas", "nameTh": null, "nameEn": "World Gas", "cat": ["transport"], "province": "cm", "slug": "world-gas-317524261", "rank": 1}}, {"type": "Feature", "geometry": {"type": "Point", "coordinates": [98.94204, 18.71657]}, "properties": {"id": "cm-osm-node-11896264076", "name": "เวิลด์แก๊ส", "nameTh": "เวิลด์แก๊ส", "nameEn": "World Gas", "cat": ["transport"], "province": "cm", "slug": "world-gas-11896264076", "rank": 2}}, {"type": "Feature", "geometry": {"type": "Point", "coordinates": [98.86672, 18.61746]}, "properties": {"id": "cm-osm-node-3382898054", "name": "เวิลด์แก๊ส", "nameTh": "เวิลด์แก๊ส", "nameEn": "World Gas", "cat": ["transport"], "province": "cm", "slug": "world-gas-3382898054", "rank": 2}}, {"type": "Feature", "geometry": {"type": "Point", "coordinates": [99.01684, 18.73524]}, "properties": {"id": "cm-osm-way-282191454", "name": "เวิลด์แก๊ส", "nameTh": "เวิลด์แก๊ส", "nameEn": "World Gas", "cat": ["transport"], "province": "cm", "slug": "world-gas-282191454", "rank": 2}}, {"type": "Feature", "geometry": {"type": "Point", "coordinates": [98.94793, 18.90672]}, "properties": {"id": "cm-osm-way-315330202", "name": "เวิลด์แก๊ส", "nameTh": "เวิลด์แก๊ส", "nameEn": "World Gas", "cat": ["transport"], "province": "cm", "slug": "world-gas-315330202", "rank": 2}}, {"type": "Feature", "geometry": {"type": "Point", "coordinates": [99.01408, 18.85679]}, "properties": {"id": "cm-osm-way-317526397", "name": "เวิลด์แก๊ส", "nameTh": "เวิลด์แก๊ส", "nameEn": "World Gas", "cat": ["transport"], "province": "cm", "slug": "world-gas-317526397", "rank": 2}}, {"type": "Feature", "geometry": {"type": "Point", "coordinates": [98.96352, 18.87203]}, "properties": {"id": "cm-osm-way-525731410", "name": "เวิลด์แก๊ส", "nameTh": "เวิลด์แก๊ส", "nameEn": "World Gas", "cat": ["transport"], "province": "cm", "slug": "world-gas-525731410", "rank": 3}}, {"type": "Feature", "geometry": {"type": "Point", "coordinates": [98.94461, 18.95938]}, "properties": {"id": "cm-osm-way-657814195", "name": "เวิลด์แก๊ส", "nameTh": "เวิลด์แก๊ส", "nameEn": "World Gas", "cat": ["transport"], "province": "cm", "slug": "world-gas-657814195", "rank": 2}}, {"type": "Feature", "geometry": {"type": "Point", "coordinates": [99.01597, 18.8711]}, "properties": {"id": "cm-osm-way-702913875", "name": "เวิลด์แก๊ส", "nameTh": "เวิลด์แก๊ส", "nameEn": "World Gas", "cat": ["transport"], "province": "cm", "slug": "world-gas-702913875", "rank": 2}}, {"type": "Feature", "geometry": {"type": "Point", "coordinates": [98.96882, 18.75716]}, "properties": {"id": "cm-osm-way-714693121", "name": "เวิลด์แก๊ส", "nameTh": "เวิลด์แก๊ส", "nameEn": "World Gas", "cat": ["transport"], "province": "cm", "slug": "world-gas-714693121", "rank": 2}}, {"type": "Feature", "geometry": {"type": "Point", "coordinates": [99.0621, 18.83591]}, "properties": {"id": "cm-osm-way-382365425", "name": "แก๊สรถยนต์ รักชูก้า", "nameTh": "แก๊สรถยนต์ รักชูก้า", "nameEn": "Ratsugar LPG Station", "cat": ["transport"], "province": "cm", "slug": "ratsugar-lpg-station-382365425", "rank": 3}}]}