{"type": "FeatureCollection", "features": [{"type": "Feature", "geometry": {"type": "Point", "coordinates": [98.99917, 18.7778]}, "properties": {"id": "cm-osm-node-1030318048", "name": "กรุงศรี", "nameTh": "กรุงศรี", "nameEn": "Krungsri", "cat": ["essentials"], "province": "cm", "slug": "krungsri-1030318048", "rank": 2}}, {"type": "Feature", "geometry": {"type": "Point", "coordinates": [98.97322, 18.76379]}, "properties": {"id": "cm-osm-node-1791584104", "name": "กรุงศรี", "nameTh": "กรุงศรี", "nameEn": "Bank of Ayudhya", "cat": ["essentials"], "province": "cm", "slug": "bank-of-ayudhya-1791584104", "rank": 2}}, {"type": "Feature", "geometry": {"type": "Point", "coordinates": [98.97497, 18.76981]}, "properties": {"id": "cm-osm-node-3347664215", "name": "กรุงศรี", "nameTh": "กรุงศรี", "nameEn": "Bank of Ayudhya", "cat": ["essentials"], "province": "cm", "slug": "bank-of-ayudhya-3347664215", "rank": 3}}, {"type": "Feature", "geometry": {"type": "Point", "coordinates": [98.97545, 18.76936]}, "properties": {"id": "cm-osm-node-9533893225", "name": "กรุงศรี", "nameTh": "กรุงศรี", "nameEn": "Bank of Ayudhya", "cat": ["essentials"], "province": "cm", "slug": "bank-of-ayudhya-9533893225", "rank": 2}}, {"type": "Feature", "geometry": {"type": "Point", "coordinates": [98.99819, 18.78861]}, "properties": {"id": "cm-osm-way-334692201", "name": "กรุงศรี", "nameTh": "กรุงศรี", "nameEn": "Krungsri", "cat": ["essentials"], "province": "cm", "slug": "krungsri-334692201", "rank": 2}}, {"type": "Feature", "geometry": {"type": "Point", "coordinates": [98.94489, 18.91617]}, "properties": {"id": "cm-osm-way-387748593", "name": "กรุงศรี", "nameTh": "กรุงศรี", "nameEn": "Krungsri", "cat": ["essentials"], "province": "cm", "slug": "krungsri-387748593", "rank": 2}}, {"type": "Feature", "geometry": {"type": "Point", "coordinates": [99.12076, 18.7438]}, "properties": {"id": "cm-osm-way-473935808", "name": "กรุงศรี", "nameTh": "กรุงศรี", "nameEn": "Krungsri", "cat": ["essentials"], "province": "cm", "slug": "krungsri-473935808", "rank": 2}}, {"type": "Feature", "geometry": {"type": "Point", "coordinates": [99.01788, 18.80631]}, "properties": {"id": "cm-osm-node-3249111055", "name": "ธนาคารกรุงศรีอยุธยา", "nameTh": "ธนาคารกรุงศรีอยุธยา", "nameEn": "Bank of Ayudhya", "cat": ["essentials"], "province": "cm", "slug": "bank-of-ayudhya-3249111055", "rank": 2}}, {"type": "Feature", "geometry": {"type": "Point", "coordinates": [98.96731, 18.80208]}, "properties": {"id": "cm-osm-node-3287356488", "name": "ธนาคารกรุงศรีอยุธยา", "nameTh": "ธนาคารกรุงศรีอยุธยา", "nameEn": "Bank of Ayudhya", "cat": ["essentials"], "province": "cm", "slug": "bank-of-ayudhya-3287356488", "rank": 2}}, {"type": "Feature", "geometry": {"type": "Point", "coordinates": [98.98644, 18.79886]}, "properties": {"id": "cm-osm-way-323015495", "name": "ธนาคารกรุงศรีอยุธยา", "nameTh": "ธนาคารกรุงศรีอยุธยา", "nameEn": "Bank of Ayudhya", "cat": ["essentials"], "province": "cm", "slug": "bank-of-ayudhya-323015495", "rank": 3}}]}