{"type": "FeatureCollection", "features": [{"type": "Feature", "geometry": {"type": "Point", "coordinates": [99.01945, 18.74746]}, "properties": {"id": "cm-osm-way-1029578476", "name": "PTT", "nameTh": "ปตท", "nameEn": "PTT", "cat": ["transport"], "province": "cm", "slug": "ptt-1029578476", "rank": 2}}, {"type": "Feature", "geometry": {"type": "Point", "coordinates": [99.01516, 18.87529]}, "properties": {"id": "cm-osm-way-317526383", "name": "PTT", "nameTh": "ปตท", "nameEn": "PTT", "cat": ["transport"], "province": "cm", "slug": "ptt-317526383", "rank": 3}}, {"type": "Feature", "geometry": {"type": "Point", "coordinates": [98.98349, 18.76804]}, "properties": {"id": "cm-osm-way-669263147", "name": "PTT", "nameTh": "ปตท", "nameEn": "PTT", "cat": ["transport"], "province": "cm", "slug": "ptt-669263147", "rank": 3}}, {"type": "Feature", "geometry": {"type": "Point", "coordinates": [99.03749, 18.72173]}, "properties": {"id": "cm-osm-way-871612269", "name": "PTT", "nameTh": "ปตท", "nameEn": "PTT", "cat": ["transport"], "province": "cm", "slug": "ptt-871612269", "rank": 2}}, {"type": "Feature", "geometry": {"type": "Point", "coordinates": [99.13353, 18.87327]}, "properties": {"id": "cm-osm-node-907694080", "name": "บางจาก", "nameTh": "บางจาก", "nameEn": "Bangchak", "cat": ["transport"], "province": "cm", "slug": "bangchak-907694080", "rank": 4}}, {"type": "Feature", "geometry": {"type": "Point", "coordinates": [99.01873, 18.74802]}, "properties": {"id": "cm-osm-way-1097483294", "name": "บางจาก", "nameTh": "บางจาก", "nameEn": "Bangchak", "cat": ["transport"], "province": "cm", "slug": "bangchak-1097483294", "rank": 2}}, {"type": "Feature", "geometry": {"type": "Point", "coordinates": [98.94271, 18.75843]}, "properties": {"id": "cm-osm-way-1109991532", "name": "บางจาก", "nameTh": "บางจาก", "nameEn": "Bangchak", "cat": ["transport"], "province": "cm", "slug": "bangchak-1109991532", "rank": 2}}, {"type": "Feature", "geometry": {"type": "Point", "coordinates": [98.97649, 18.77701]}, "properties": {"id": "cm-osm-way-208674913", "name": "บางจาก", "nameTh": "บางจาก", "nameEn": "Bangchak", "cat": ["transport"], "province": "cm", "slug": "bangchak-208674913", "rank": 4}}, {"type": "Feature", "geometry": {"type": "Point", "coordinates": [98.96032, 18.80182]}, "properties": {"id": "cm-osm-way-285999611", "name": "บางจาก", "nameTh": "บางจาก", "nameEn": "Bangchak", "cat": ["transport"], "province": "cm", "slug": "bangchak-285999611", "rank": 4}}, {"type": "Feature", "geometry": {"type": "Point", "coordinates": [98.95015, 18.90108]}, "properties": {"id": "cm-osm-way-315328671", "name": "บางจาก", "nameTh": "บางจาก", "nameEn": "Bangchak", "cat": ["transport"], "province": "cm", "slug": "bangchak-315328671", "rank": 4}}, {"type": "Feature", "geometry": {"type": "Point", "coordinates": [99.11195, 18.74936]}, "properties": {"id": "cm-osm-way-742199494", "name": "บางจาก", "nameTh": "บางจาก", "nameEn": "Bangchak", "cat": ["transport"], "province": "cm", "slug": "bangchak-742199494", "rank": 4}}, {"type": "Feature", "geometry": {"type": "Point", "coordinates": [98.97214, 18.77203]}, "properties": {"id": "cm-osm-way-676260814", "name": "ปตท", "nameTh": "ปตท", "nameEn": "PTT", "cat": ["transport"], "province": "cm", "slug": "ptt-676260814", "rank": 2}}]}