{"type": "FeatureCollection", "features": [{"type": "Feature", "geometry": {"type": "Point", "coordinates": [98.97523, 18.80541]}, "properties": {"id": "cm-osm-node-8891760799", "name": "29 Coffties", "nameTh": null, "nameEn": "29 Coffties", "cat": ["food"], "province": "cm", "slug": "29-coffties-8891760799", "rank": 3}}, {"type": "Feature", "geometry": {"type": "Point", "coordinates": [98.96838, 18.79768]}, "properties": {"id": "cm-osm-node-3287854761", "name": "Chuen", "nameTh": null, "nameEn": "Chuen", "cat": ["food"], "province": "cm", "slug": "chuen-3287854761", "rank": 1}}, {"type": "Feature", "geometry": {"type": "Point", "coordinates": [99.00567, 18.78349]}, "properties": {"id": "cm-osm-node-4796690555", "name": "Fresher Juice Bar", "nameTh": null, "nameEn": "Fresher Juice Bar", "cat": ["food"], "province": "cm", "slug": "fresher-juice-bar-4796690555", "rank": 1}}, {"type": "Feature", "geometry": {"type": "Point", "coordinates": [98.99268, 18.78792]}, "properties": {"id": "cm-osm-node-4748011323", "name": "Fruiturday", "nameTh": null, "nameEn": "Fruiturday", "cat": ["food"], "province": "cm", "slug": "fruiturday-4748011323", "rank": 1}}, {"type": "Feature", "geometry": {"type": "Point", "coordinates": [98.98533, 18.78359]}, "properties": {"id": "cm-osm-way-1300133894", "name": "Gord Chiangmai Kitchen", "nameTh": null, "nameEn": "Gord Chiangmai Kitchen", "cat": ["food"], "province": "cm", "slug": "gord-chiangmai-kitchen-1300133894", "rank": 3}}, {"type": "Feature", "geometry": {"type": "Point", "coordinates": [98.96898, 18.80006]}, "properties": {"id": "cm-osm-node-11699384629", "name": "Jack Coconut", "nameTh": null, "nameEn": "Jack Coconut", "cat": ["food"], "province": "cm", "slug": "jack-coconut-11699384629", "rank": 1}}, {"type": "Feature", "geometry": {"type": "Point", "coordinates": [98.99802, 18.78113]}, "properties": {"id": "cm-osm-node-12434969890", "name": "Joost", "nameTh": null, "nameEn": "Joost", "cat": ["food"], "province": "cm", "slug": "joost-12434969890", "rank": 1}}, {"type": "Feature", "geometry": {"type": "Point", "coordinates": [98.9677, 18.79828]}, "properties": {"id": "cm-osm-node-9983193648", "name": "Juice's Me by Waasu", "nameTh": null, "nameEn": "Juice's Me by Waasu", "cat": ["food"], "province": "cm", "slug": "juice-s-me-by-waasu-9983193648", "rank": 2}}, {"type": "Feature", "geometry": {"type": "Point", "coordinates": [98.96991, 18.72011]}, "properties": {"id": "cm-osm-way-1160804966", "name": "Panmai Coffee Botanic Bistro", "nameTh": null, "nameEn": "Panmai Coffee Botanic Bistro", "cat": ["food"], "province": "cm", "slug": "panmai-coffee-botanic-bistro-1160804966", "rank": 3}}, {"type": "Feature", "geometry": {"type": "Point", "coordinates": [99.01786, 18.80839]}, "properties": {"id": "cm-osm-node-12864717489", "name": "Yuzu House Central Chiangmai", "nameTh": null, "nameEn": "Yuzu House Central Chiangmai", "cat": ["food"], "province": "cm", "slug": "yuzu-house-central-chiangmai-12864717489", "rank": 4}}, {"type": "Feature", "geometry": {"type": "Point", "coordinates": [98.94838, 18.77631]}, "properties": {"id": "cm-osm-node-11806648855", "name": "hello cocoo", "nameTh": null, "nameEn": "hello cocoo", "cat": ["food"], "province": "cm", "slug": "hello-cocoo-11806648855", "rank": 1}}]}