{"type": "FeatureCollection", "features": [{"type": "Feature", "geometry": {"type": "Point", "coordinates": [98.96735, 18.79513]}, "properties": {"id": "cm-osm-node-2523233803", "name": "Beppu", "nameTh": null, "nameEn": "Beppu", "cat": ["food"], "province": "cm", "slug": "beppu-2523233803", "rank": 2}}, {"type": "Feature", "geometry": {"type": "Point", "coordinates": [98.95091, 18.79156]}, "properties": {"id": "cm-osm-node-7140789085", "name": "Dadam K Bistro Café", "nameTh": null, "nameEn": "Dadam K Bistro Café", "cat": ["food"], "province": "cm", "slug": "dadam-k-bistro-caf-7140789085", "rank": 2}}, {"type": "Feature", "geometry": {"type": "Point", "coordinates": [98.96833, 18.79658]}, "properties": {"id": "cm-osm-node-3421308391", "name": "Dakgalbi House", "nameTh": null, "nameEn": "Dakgalbi House", "cat": ["food"], "province": "cm", "slug": "dakgalbi-house-3421308391", "rank": 1}}, {"type": "Feature", "geometry": {"type": "Point", "coordinates": [98.96321, 18.79]}, "properties": {"id": "cm-osm-node-6108955485", "name": "Doai Ji", "nameTh": null, "nameEn": "Doai Ji", "cat": ["food"], "province": "cm", "slug": "doai-ji-6108955485", "rank": 1}}, {"type": "Feature", "geometry": {"type": "Point", "coordinates": [98.94271, 18.91629]}, "properties": {"id": "cm-osm-node-3341012239", "name": "In Sa Dong", "nameTh": null, "nameEn": "In Sa Dong", "cat": ["food"], "province": "cm", "slug": "in-sa-dong-3341012239", "rank": 1}}, {"type": "Feature", "geometry": {"type": "Point", "coordinates": [98.95333, 18.7909]}, "properties": {"id": "cm-osm-node-10203798306", "name": "Jeong Atmosphere", "nameTh": null, "nameEn": "Jeong Atmosphere", "cat": ["food"], "province": "cm", "slug": "jeong-atmosphere-10203798306", "rank": 1}}, {"type": "Feature", "geometry": {"type": "Point", "coordinates": [98.99878, 18.7708]}, "properties": {"id": "cm-osm-node-5667883121", "name": "Jinmi Korean Restaurant", "nameTh": null, "nameEn": "Jinmi Korean Restaurant", "cat": ["food"], "province": "cm", "slug": "jinmi-korean-restaurant-5667883121", "rank": 1}}, {"type": "Feature", "geometry": {"type": "Point", "coordinates": [98.95589, 18.8081]}, "properties": {"id": "cm-osm-node-4413153092", "name": "K.Pop Tteokbokki", "nameTh": null, "nameEn": "K.Pop Tteokbokki", "cat": ["food"], "province": "cm", "slug": "k-pop-tteokbokki-4413153092", "rank": 1}}, {"type": "Feature", "geometry": {"type": "Point", "coordinates": [99.01432, 18.82443]}, "properties": {"id": "cm-osm-node-2517081510", "name": "Kimdu", "nameTh": null, "nameEn": "Kimdu", "cat": ["food"], "province": "cm", "slug": "kimdu-2517081510", "rank": 1}}, {"type": "Feature", "geometry": {"type": "Point", "coordinates": [98.96975, 18.79671]}, "properties": {"id": "cm-osm-node-1797039540", "name": "Korean Restaurant", "nameTh": null, "nameEn": "Korean Restaurant", "cat": ["food"], "province": "cm", "slug": "korean-restaurant-1797039540", "rank": 1}}, {"type": "Feature", "geometry": {"type": "Point", "coordinates": [98.96622, 18.79722]}, "properties": {"id": "cm-osm-node-13202528903", "name": "Little Seoul", "nameTh": null, "nameEn": "Little Seoul", "cat": ["food"], "province": "cm", "slug": "little-seoul-13202528903", "rank": 1}}, {"type": "Feature", "geometry": {"type": "Point", "coordinates": [98.93212, 18.70234]}, "properties": {"id": "cm-osm-node-11976912954", "name": "Madang", "nameTh": null, "nameEn": "Madang", "cat": ["food"], "province": "cm", "slug": "madang-11976912954", "rank": 1}}, {"type": "Feature", "geometry": {"type": "Point", "coordinates": [99.0188, 18.80028]}, "properties": {"id": "cm-osm-node-2823849501", "name": "Mashitta", "nameTh": null, "nameEn": "Mashitta", "cat": ["food"], "province": "cm", "slug": "mashitta-2823849501", "rank": 1}}, {"type": "Feature", "geometry": {"type": "Point", "coordinates": [99.01774, 18.80635]}, "properties": {"id": "cm-osm-node-2865805201", "name": "Mashitta", "nameTh": null, "nameEn": "Mashitta", "cat": ["food"], "province": "cm", "slug": "mashitta-2865805201", "rank": 1}}, {"type": "Feature", "geometry": {"type": "Point", "coordinates": [98.96732, 18.8013]}, "properties": {"id": "cm-osm-way-653534073", "name": "Misae", "nameTh": null, "nameEn": "Misae", "cat": ["food"], "province": "cm", "slug": "misae-653534073", "rank": 1}}, {"type": "Feature", "geometry": {"type": "Point", "coordinates": [98.97957, 18.79137]}, "properties": {"id": "cm-osm-node-13850510801", "name": "Pa Rang Cafe & Art Stay", "nameTh": null, "nameEn": "Pa Rang Cafe & Art Stay", "cat": ["food"], "province": "cm", "slug": "pa-rang-cafe-art-stay-13850510801", "rank": 1}}, {"type": "Feature", "geometry": {"type": "Point", "coordinates": [98.9594, 18.78808]}, "properties": {"id": "cm-osm-node-3419897068", "name": "Seoul Garden", "nameTh": null, "nameEn": "Seoul Garden", "cat": ["food"], "province": "cm", "slug": "seoul-garden-3419897068", "rank": 1}}, {"type": "Feature", "geometry": {"type": "Point", "coordinates": [99.0189, 18.7999]}, "properties": {"id": "cm-osm-node-2425083108", "name": "Silk Road", "nameTh": null, "nameEn": "Silk Road", "cat": ["food"], "province": "cm", "slug": "silk-road-2425083108", "rank": 1}}, {"type": "Feature", "geometry": {"type": "Point", "coordinates": [98.98039, 18.7996]}, "properties": {"id": "cm-osm-node-11941177869", "name": "Sowin", "nameTh": null, "nameEn": "Sowin", "cat": ["food"], "province": "cm", "slug": "sowin-11941177869", "rank": 2}}, {"type": "Feature", "geometry": {"type": "Point", "coordinates": [99.02959, 18.80483]}, "properties": {"id": "cm-osm-node-2600091527", "name": "ร้านอาหารเกาหลี บีวอน", "nameTh": "ร้านอาหารเกาหลี บีวอน", "nameEn": "Korea Restaurants", "cat": ["food"], "province": "cm", "slug": "korea-restaurants-2600091527", "rank": 2}}, {"type": "Feature", "geometry": {"type": "Point", "coordinates": [99.00306, 18.78543]}, "properties": {"id": "cm-osm-node-3417164651", "name": "ร้านอาหารเกาหลี มาโป", "nameTh": "ร้านอาหารเกาหลี มาโป", "nameEn": null, "cat": ["food"], "province": "cm", "slug": "3417164651", "rank": 1}}, {"type": "Feature", "geometry": {"type": "Point", "coordinates": [98.96009, 18.74215]}, "properties": {"id": "cm-osm-node-3008622637", "name": "ล้ำลำ", "nameTh": "ล้ำลำ", "nameEn": "Lum Lum", "cat": ["food"], "province": "cm", "slug": "lum-lum-3008622637", "rank": 3}}, {"type": "Feature", "geometry": {"type": "Point", "coordinates": [99.01155, 18.82422]}, "properties": {"id": "cm-osm-node-3541512049", "name": "ล้ำลำ", "nameTh": "ล้ำลำ", "nameEn": "Lum Lum", "cat": ["food"], "province": "cm", "slug": "lum-lum-3541512049", "rank": 4}}, {"type": "Feature", "geometry": {"type": "Point", "coordinates": [98.997, 18.76768]}, "properties": {"id": "cm-osm-node-4064637986", "name": "อารีรัง", "nameTh": "อารีรัง", "nameEn": "Aurirang Korean Restaurant", "cat": ["food"], "province": "cm", "slug": "aurirang-korean-restaurant-4064637986", "rank": 2}}, {"type": "Feature", "geometry": {"type": "Point", "coordinates": [98.97375, 18.81044]}, "properties": {"id": "cm-osm-node-12712285265", "name": "เทสตี้ 24", "nameTh": "เทสตี้ 24", "nameEn": "Tasty24", "cat": ["food"], "province": "cm", "slug": "tasty24-12712285265", "rank": 4}}, {"type": "Feature", "geometry": {"type": "Point", "coordinates": [99.00043, 18.7701]}, "properties": {"id": "cm-osm-node-3907871476", "name": "โกกี", "nameTh": "โกกี", "nameEn": "Kogi Korea BBQ & Sashima", "cat": ["food"], "province": "cm", "slug": "kogi-korea-bbq-sashima-3907871476", "rank": 2}}, {"type": "Feature", "geometry": {"type": "Point", "coordinates": [98.99291, 18.75457]}, "properties": {"id": "cm-osm-way-404671204", "name": "โกดำ", "nameTh": "โกดำ", "nameEn": "The Godam Korean Restaurant", "cat": ["food"], "province": "cm", "slug": "the-godam-korean-restaurant-404671204", "rank": 2}}]}