{"type": "FeatureCollection", "features": [{"type": "Feature", "geometry": {"type": "Point", "coordinates": [99.0188, 18.80015]}, "properties": {"id": "cm-osm-node-2425083045", "name": "Subway", "nameTh": "ซับเวย์", "nameEn": "Subway", "cat": ["food"], "province": "cm", "slug": "subway-2425083045", "rank": 4}}, {"type": "Feature", "geometry": {"type": "Point", "coordinates": [98.99257, 18.78801]}, "properties": {"id": "cm-osm-node-3926723679", "name": "Subway", "nameTh": null, "nameEn": "Subway", "cat": ["food"], "province": "cm", "slug": "subway-3926723679", "rank": 3}}, {"type": "Feature", "geometry": {"type": "Point", "coordinates": [98.96578, 18.7964]}, "properties": {"id": "cm-osm-node-4285584689", "name": "Subway", "nameTh": null, "nameEn": "Subway", "cat": ["food"], "province": "cm", "slug": "subway-4285584689", "rank": 3}}, {"type": "Feature", "geometry": {"type": "Point", "coordinates": [98.94772, 18.72505]}, "properties": {"id": "cm-osm-node-6584084768", "name": "Subway", "nameTh": null, "nameEn": "Subway", "cat": ["food"], "province": "cm", "slug": "subway-6584084768", "rank": 3}}, {"type": "Feature", "geometry": {"type": "Point", "coordinates": [98.96815, 18.76849]}, "properties": {"id": "cm-osm-node-7026348701", "name": "Subway", "nameTh": null, "nameEn": "Subway", "cat": ["food"], "province": "cm", "slug": "subway-7026348701", "rank": 3}}, {"type": "Feature", "geometry": {"type": "Point", "coordinates": [99.00051, 18.78352]}, "properties": {"id": "cm-osm-node-915413355", "name": "Subway", "nameTh": null, "nameEn": "Subway", "cat": ["food"], "province": "cm", "slug": "subway-915413355", "rank": 3}}]}