{"type": "FeatureCollection", "features": [{"type": "Feature", "geometry": {"type": "Point", "coordinates": [99.00086, 18.83186]}, "properties": {"id": "cm-osm-node-12801978151", "name": "1678 Cafe", "nameTh": null, "nameEn": "1678 Cafe", "cat": ["food"], "province": "cm", "slug": "1678-cafe-12801978151", "rank": 3}}, {"type": "Feature", "geometry": {"type": "Point", "coordinates": [98.97953, 18.81057]}, "properties": {"id": "cm-osm-node-3384275334", "name": "74 Coffee", "nameTh": null, "nameEn": "74 Coffee", "cat": ["food"], "province": "cm", "slug": "74-coffee-3384275334", "rank": 1}}, {"type": "Feature", "geometry": {"type": "Point", "coordinates": [98.99607, 18.77682]}, "properties": {"id": "cm-osm-node-5941633292", "name": "A Day In Chiang Mai", "nameTh": null, "nameEn": "A Day In Chiang Mai", "cat": ["food"], "province": "cm", "slug": "a-day-in-chiang-mai-5941633292", "rank": 1}}, {"type": "Feature", "geometry": {"type": "Point", "coordinates": [98.97682, 18.79637]}, "properties": {"id": "cm-osm-node-5915461228", "name": "A.B.C.D.", "nameTh": null, "nameEn": "A.B.C.D.", "cat": ["food"], "province": "cm", "slug": "a-b-c-d-5915461228", "rank": 2}}, {"type": "Feature", "geometry": {"type": "Point", "coordinates": [98.98365, 18.79531]}, "properties": {"id": "cm-osm-node-12513656179", "name": "ASMR Cafe & Wellness", "nameTh": null, "nameEn": "ASMR Cafe & Wellness", "cat": ["food"], "province": "cm", "slug": "asmr-cafe-wellness-12513656179", "rank": 2}}, {"type": "Feature", "geometry": {"type": "Point", "coordinates": [98.98002, 18.80323]}, "properties": {"id": "cm-osm-node-2527662833", "name": "Akha Ama", "nameTh": "กาแฟอาข่าอามา", "nameEn": "Akha Ama", "cat": ["food"], "province": "cm", "slug": "akha-ama-2527662833", "rank": 4}}, {"type": "Feature", "geometry": {"type": "Point", "coordinates": [98.98322, 18.78843]}, "properties": {"id": "cm-osm-node-2404044286", "name": "Akha Ama Phrasingh", "nameTh": "กาแฟอาข่าอามา (สาขา 2)", "nameEn": "Akha Ama Phrasingh", "cat": ["food"], "province": "cm", "slug": "akha-ama-phrasingh-2404044286", "rank": 4}}, {"type": "Feature", "geometry": {"type": "Point", "coordinates": [98.99187, 18.78993]}, "properties": {"id": "cm-osm-node-2411251055", "name": "Angel's Secrets", "nameTh": null, "nameEn": "Angel's Secrets", "cat": ["food"], "province": "cm", "slug": "angel-s-secrets-2411251055", "rank": 3}}, {"type": "Feature", "geometry": {"type": "Point", "coordinates": [98.98203, 18.7758]}, "properties": {"id": "cm-osm-node-5933370533", "name": "Artisan", "nameTh": null, "nameEn": "Artisan", "cat": ["food"], "province": "cm", "slug": "artisan-5933370533", "rank": 1}}, {"type": "Feature", "geometry": {"type": "Point", "coordinates": [98.96451, 18.8068]}, "properties": {"id": "cm-osm-way-442372049", "name": "Atelier 36", "nameTh": null, "nameEn": "Atelier 36", "cat": ["food"], "province": "cm", "slug": "atelier-36-442372049", "rank": 1}}, {"type": "Feature", "geometry": {"type": "Point", "coordinates": [98.95351, 18.8035]}, "properties": {"id": "cm-osm-node-10618376817", "name": "Au Choix Coffee", "nameTh": null, "nameEn": "Au Choix Coffee", "cat": ["food"], "province": "cm", "slug": "au-choix-coffee-10618376817", "rank": 2}}, {"type": "Feature", "geometry": {"type": "Point", "coordinates": [98.97593, 18.80218]}, "properties": {"id": "cm-osm-node-11915089170", "name": "Bannom", "nameTh": null, "nameEn": "Bannom", "cat": ["food"], "province": "cm", "slug": "bannom-11915089170", "rank": 2}}, {"type": "Feature", "geometry": {"type": "Point", "coordinates": [98.99526, 18.76659]}, "properties": {"id": "cm-osm-node-4064637987", "name": "Bee Healthy", "nameTh": null, "nameEn": "Fora Bee Healthy Shop", "cat": ["food"], "province": "cm", "slug": "fora-bee-healthy-shop-4064637987", "rank": 1}}, {"type": "Feature", "geometry": {"type": "Point", "coordinates": [98.99795, 18.78655]}, "properties": {"id": "cm-osm-node-2597978364", "name": "Billy's Restaurant", "nameTh": null, "nameEn": "Billy's Restaurant", "cat": ["food"], "province": "cm", "slug": "billy-s-restaurant-2597978364", "rank": 2}}, {"type": "Feature", "geometry": {"type": "Point", "coordinates": [98.99106, 18.78916]}, "properties": {"id": "cm-osm-node-4925330150", "name": "Bodhi Tree Cafe", "nameTh": null, "nameEn": "Bodhi Tree Cafe", "cat": ["food"], "province": "cm", "slug": "bodhi-tree-cafe-4925330150", "rank": 1}}, {"type": "Feature", "geometry": {"type": "Point", "coordinates": [98.9793, 18.74789]}, "properties": {"id": "cm-osm-node-3901216868", "name": "Cafe Caliente", "nameTh": null, "nameEn": "Cafe Caliente", "cat": ["food"], "province": "cm", "slug": "cafe-caliente-3901216868", "rank": 2}}, {"type": "Feature", "geometry": {"type": "Point", "coordinates": [99.00068, 18.78105]}, "properties": {"id": "cm-osm-node-1101287698", "name": "Cafe de L'Amour", "nameTh": null, "nameEn": "Cafe de L'Amour", "cat": ["food"], "province": "cm", "slug": "cafe-de-l-amour-1101287698", "rank": 2}}, {"type": "Feature", "geometry": {"type": "Point", "coordinates": [98.95951, 18.8247]}, "properties": {"id": "cm-osm-way-333203173", "name": "Cafe de Oasis", "nameTh": null, "nameEn": "Cafe de Oasis", "cat": ["food"], "province": "cm", "slug": "cafe-de-oasis-333203173", "rank": 4}}, {"type": "Feature", "geometry": {"type": "Point", "coordinates": [99.05483, 18.77727]}, "properties": {"id": "cm-osm-node-3376408641", "name": "Caffeine", "nameTh": null, "nameEn": "Caffeine", "cat": ["food"], "province": "cm", "slug": "caffeine-3376408641", "rank": 1}}, {"type": "Feature", "geometry": {"type": "Point", "coordinates": [98.97252, 18.77216]}, "properties": {"id": "cm-osm-node-3810861066", "name": "Café Amazon", "nameTh": "คาเฟ่ อเมซอน", "nameEn": "Café Amazon", "cat": ["food"], "province": "cm", "slug": "caf-amazon-3810861066", "rank": 2}}, {"type": "Feature", "geometry": {"type": "Point", "coordinates": [99.02976, 18.76942]}, "properties": {"id": "cm-osm-way-365937068", "name": "Café Amazon", "nameTh": "คาเฟ่ อเมซอน", "nameEn": "Café Amazon", "cat": ["food"], "province": "cm", "slug": "caf-amazon-365937068", "rank": 2}}, {"type": "Feature", "geometry": {"type": "Point", "coordinates": [98.98333, 18.88815]}, "properties": {"id": "cm-osm-node-4419748789", "name": "Chanctonbury Tea & Garden", "nameTh": null, "nameEn": "Chanctonbury Tea & Garden", "cat": ["food"], "province": "cm", "slug": "chanctonbury-tea-garden-4419748789", "rank": 1}}, {"type": "Feature", "geometry": {"type": "Point", "coordinates": [98.97454, 18.79739]}, "properties": {"id": "cm-osm-node-10677606512", "name": "Chapter One", "nameTh": null, "nameEn": "Chapter One", "cat": ["food"], "province": "cm", "slug": "chapter-one-10677606512", "rank": 3}}, {"type": "Feature", "geometry": {"type": "Point", "coordinates": [99.00346, 18.79064]}, "properties": {"id": "cm-osm-node-2648382121", "name": "Chez 15", "nameTh": null, "nameEn": "Chez 15", "cat": ["food"], "province": "cm", "slug": "chez-15-2648382121", "rank": 3}}, {"type": "Feature", "geometry": {"type": "Point", "coordinates": [99.00012, 18.7085]}, "properties": {"id": "cm-osm-node-4079924526", "name": "Chuen-Jit Coffee", "nameTh": null, "nameEn": "Chuen-Jit Coffee", "cat": ["food"], "province": "cm", "slug": "chuen-jit-coffee-4079924526", "rank": 1}}, {"type": "Feature", "geometry": {"type": "Point", "coordinates": [98.95606, 18.78992]}, "properties": {"id": "cm-osm-node-2650709899", "name": "Club Diva", "nameTh": null, "nameEn": "Club Diva", "cat": ["food"], "province": "cm", "slug": "club-diva-2650709899", "rank": 1}}, {"type": "Feature", "geometry": {"type": "Point", "coordinates": [99.00272, 18.78591]}, "properties": {"id": "cm-osm-node-3417167515", "name": "Coffee Bug", "nameTh": null, "nameEn": "Coffee Bug", "cat": ["food"], "province": "cm", "slug": "coffee-bug-3417167515", "rank": 1}}, {"type": "Feature", "geometry": {"type": "Point", "coordinates": [98.98032, 18.80337]}, "properties": {"id": "cm-osm-node-3298008463", "name": "Coffee Champ", "nameTh": null, "nameEn": "Coffee Champ", "cat": ["food"], "province": "cm", "slug": "coffee-champ-3298008463", "rank": 1}}, {"type": "Feature", "geometry": {"type": "Point", "coordinates": [99.00611, 18.61421]}, "properties": {"id": "cm-osm-node-5229243000", "name": "Coffee Fangun", "nameTh": null, "nameEn": "Coffee Fangun", "cat": ["food"], "province": "cm", "slug": "coffee-fangun-5229243000", "rank": 1}}, {"type": "Feature", "geometry": {"type": "Point", "coordinates": [98.98316, 18.78566]}, "properties": {"id": "cm-osm-node-3384100280", "name": "Coffee Lovers", "nameTh": null, "nameEn": "Coffee Lovers", "cat": ["food"], "province": "cm", "slug": "coffee-lovers-3384100280", "rank": 2}}, {"type": "Feature", "geometry": {"type": "Point", "coordinates": [98.97157, 18.79333]}, "properties": {"id": "cm-osm-node-3421245743", "name": "Coffeebooz", "nameTh": null, "nameEn": "Coffeebooz", "cat": ["food"], "province": "cm", "slug": "coffeebooz-3421245743", "rank": 2}}, {"type": "Feature", "geometry": {"type": "Point", "coordinates": [98.99312, 18.78845]}, "properties": {"id": "cm-osm-node-5758046621", "name": "CoolMuang", "nameTh": null, "nameEn": "CoolMuang", "cat": ["food"], "province": "cm", "slug": "coolmuang-5758046621", "rank": 2}}, {"type": "Feature", "geometry": {"type": "Point", "coordinates": [98.97359, 18.79525]}, "properties": {"id": "cm-osm-node-12620112808", "name": "Creativitea", "nameTh": null, "nameEn": "Creativitea", "cat": ["food"], "province": "cm", "slug": "creativitea-12620112808", "rank": 3}}, {"type": "Feature", "geometry": {"type": "Point", "coordinates": [98.99146, 18.78327]}, "properties": {"id": "cm-osm-node-3385473024", "name": "Dash", "nameTh": null, "nameEn": "Dash", "cat": ["food"], "province": "cm", "slug": "dash-3385473024", "rank": 3}}, {"type": "Feature", "geometry": {"type": "Point", "coordinates": [98.98727, 18.77743]}, "properties": {"id": "cm-osm-node-2658260600", "name": "De Cassowary", "nameTh": null, "nameEn": "De Cassowary", "cat": ["food"], "province": "cm", "slug": "de-cassowary-2658260600", "rank": 2}}, {"type": "Feature", "geometry": {"type": "Point", "coordinates": [99.01427, 18.74013]}, "properties": {"id": "cm-osm-node-3409866635", "name": "Deco Coffee & Tea", "nameTh": null, "nameEn": "Deco Coffee & Tea", "cat": ["food"], "province": "cm", "slug": "deco-coffee-tea-3409866635", "rank": 1}}, {"type": "Feature", "geometry": {"type": "Point", "coordinates": [98.97642, 18.77126]}, "properties": {"id": "cm-osm-node-1903665319", "name": "Doi Chaang Coffee", "nameTh": null, "nameEn": "Doi Chaang Coffee", "cat": ["food"], "province": "cm", "slug": "doi-chaang-coffee-1903665319", "rank": 2}}, {"type": "Feature", "geometry": {"type": "Point", "coordinates": [98.98831, 18.77912]}, "properties": {"id": "cm-osm-node-1388374491", "name": "Doo Dee Pub & Restaurant", "nameTh": null, "nameEn": "Doo Dee Pub & Restaurant", "cat": ["food"], "province": "cm", "slug": "doo-dee-pub-restaurant-1388374491", "rank": 1}}, {"type": "Feature", "geometry": {"type": "Point", "coordinates": [99.00859, 18.75473]}, "properties": {"id": "cm-osm-node-5201216548", "name": "Fieow Coffee Room", "nameTh": null, "nameEn": "Fieow Coffee Room", "cat": ["food"], "province": "cm", "slug": "fieow-coffee-room-5201216548", "rank": 2}}, {"type": "Feature", "geometry": {"type": "Point", "coordinates": [98.9671, 18.81223]}, "properties": {"id": "cm-osm-node-7072049862", "name": "Fleur de Mai", "nameTh": null, "nameEn": "Fleur de Mai", "cat": ["food"], "province": "cm", "slug": "fleur-de-mai-7072049862", "rank": 2}}, {"type": "Feature", "geometry": {"type": "Point", "coordinates": [98.98413, 18.74519]}, "properties": {"id": "cm-osm-node-4049736452", "name": "Ganesha Kaffee", "nameTh": null, "nameEn": "Ganesha Kaffee", "cat": ["food"], "province": "cm", "slug": "ganesha-kaffee-4049736452", "rank": 1}}, {"type": "Feature", "geometry": {"type": "Point", "coordinates": [98.99609, 18.78828]}, "properties": {"id": "cm-osm-node-5933370534", "name": "Gateway", "nameTh": null, "nameEn": "Gateway", "cat": ["food"], "province": "cm", "slug": "gateway-5933370534", "rank": 1}}, {"type": "Feature", "geometry": {"type": "Point", "coordinates": [98.98878, 18.78319]}, "properties": {"id": "cm-osm-node-4483086589", "name": "Grill Of India", "nameTh": null, "nameEn": "Grill Of India", "cat": ["food"], "province": "cm", "slug": "grill-of-india-4483086589", "rank": 1}}, {"type": "Feature", "geometry": {"type": "Point", "coordinates": [98.96896, 18.78747]}, "properties": {"id": "cm-osm-node-4539213080", "name": "Hana Zono", "nameTh": null, "nameEn": "Hana Zono", "cat": ["food"], "province": "cm", "slug": "hana-zono-4539213080", "rank": 1}}, {"type": "Feature", "geometry": {"type": "Point", "coordinates": [98.99035, 18.74217]}, "properties": {"id": "cm-osm-node-3860472979", "name": "Have a Nice Cup", "nameTh": null, "nameEn": "Have a Nice Cup", "cat": ["food"], "province": "cm", "slug": "have-a-nice-cup-3860472979", "rank": 2}}, {"type": "Feature", "geometry": {"type": "Point", "coordinates": [98.88539, 18.75575]}, "properties": {"id": "cm-osm-node-3419871303", "name": "Hern Lhin", "nameTh": null, "nameEn": "Hern Lhin", "cat": ["food"], "province": "cm", "slug": "hern-lhin-3419871303", "rank": 1}}, {"type": "Feature", "geometry": {"type": "Point", "coordinates": [99.11125, 18.72004]}, "properties": {"id": "cm-osm-node-7399161957", "name": "Home@29", "nameTh": null, "nameEn": "Home@29", "cat": ["food"], "province": "cm", "slug": "home-29-7399161957", "rank": 2}}, {"type": "Feature", "geometry": {"type": "Point", "coordinates": [98.87134, 18.65877]}, "properties": {"id": "cm-osm-node-13542339943", "name": "Homemade Corner Bake and Slowbar", "nameTh": null, "nameEn": "Homemade Corner Bake and Slowbar", "cat": ["food"], "province": "cm", "slug": "homemade-corner-bake-and-slowbar-13542339943", "rank": 3}}, {"type": "Feature", "geometry": {"type": "Point", "coordinates": [99.02758, 18.77286]}, "properties": {"id": "cm-osm-node-13413161152", "name": "Honey Bee Coffee & Meal", "nameTh": null, "nameEn": "Honey Bee Coffee & Meal", "cat": ["food"], "province": "cm", "slug": "honey-bee-coffee-meal-13413161152", "rank": 3}}, {"type": "Feature", "geometry": {"type": "Point", "coordinates": [98.98471, 18.78907]}, "properties": {"id": "cm-osm-node-3804433409", "name": "Hong Kong Lucky Restaurant", "nameTh": null, "nameEn": "Hong Kong Lucky Restaurant", "cat": ["food"], "province": "cm", "slug": "hong-kong-lucky-restaurant-3804433409", "rank": 1}}, {"type": "Feature", "geometry": {"type": "Point", "coordinates": [98.99477, 18.78467]}, "properties": {"id": "cm-osm-node-3415499421", "name": "I'm Shy Bar", "nameTh": null, "nameEn": "I'm Shy Bar", "cat": ["food"], "province": "cm", "slug": "i-m-shy-bar-3415499421", "rank": 1}}, {"type": "Feature", "geometry": {"type": "Point", "coordinates": [98.97664, 18.77712]}, "properties": {"id": "cm-osm-node-3877442977", "name": "Inthanin Coffee", "nameTh": null, "nameEn": "Inthanin Coffee", "cat": ["food"], "province": "cm", "slug": "inthanin-coffee-3877442977", "rank": 2}}, {"type": "Feature", "geometry": {"type": "Point", "coordinates": [99.01107, 18.78914]}, "properties": {"id": "cm-osm-node-5950919672", "name": "Johoney", "nameTh": null, "nameEn": "Johoney", "cat": ["food"], "province": "cm", "slug": "johoney-5950919672", "rank": 1}}, {"type": "Feature", "geometry": {"type": "Point", "coordinates": [99.00527, 18.78621]}, "properties": {"id": "cm-osm-way-582865691", "name": "Khagee", "nameTh": null, "nameEn": "Khagee", "cat": ["food"], "province": "cm", "slug": "khagee-582865691", "rank": 1}}, {"type": "Feature", "geometry": {"type": "Point", "coordinates": [99.13512, 18.90601]}, "properties": {"id": "cm-osm-node-2531723595", "name": "Le Cafe Doisaket", "nameTh": null, "nameEn": "Le Cafe Doisaket", "cat": ["food"], "province": "cm", "slug": "le-cafe-doisaket-2531723595", "rank": 2}}, {"type": "Feature", "geometry": {"type": "Point", "coordinates": [98.93892, 18.73321]}, "properties": {"id": "cm-osm-node-8972417444", "name": "Lee Cafe Chiangmai", "nameTh": null, "nameEn": "Lee Cafe Chiangmai", "cat": ["food"], "province": "cm", "slug": "lee-cafe-chiangmai-8972417444", "rank": 2}}, {"type": "Feature", "geometry": {"type": "Point", "coordinates": [98.97424, 18.79809]}, "properties": {"id": "cm-osm-node-3304369803", "name": "Lemontree", "nameTh": "ร้านเลม่อนทรี", "nameEn": "Lemontree", "cat": ["food"], "province": "cm", "slug": "lemontree-3304369803", "rank": 4}}, {"type": "Feature", "geometry": {"type": "Point", "coordinates": [98.96882, 18.79846]}, "properties": {"id": "cm-osm-node-3168260766", "name": "Librarista", "nameTh": "Yellow", "nameEn": null, "cat": ["food"], "province": "cm", "slug": "yellow-3168260766", "rank": 2}}, {"type": "Feature", "geometry": {"type": "Point", "coordinates": [99.00319, 18.78146]}, "properties": {"id": "cm-osm-node-3326560610", "name": "L‘Opéra", "nameTh": null, "nameEn": "L'Opera French Bakery", "cat": ["food"], "province": "cm", "slug": "l-opera-french-bakery-3326560610", "rank": 2}}, {"type": "Feature", "geometry": {"type": "Point", "coordinates": [99.04159, 18.77382]}, "properties": {"id": "cm-osm-node-1314781606", "name": "Ma Che're", "nameTh": null, "nameEn": "Ma Che're", "cat": ["food"], "province": "cm", "slug": "ma-che-re-1314781606", "rank": 1}}, {"type": "Feature", "geometry": {"type": "Point", "coordinates": [98.99413, 18.78117]}, "properties": {"id": "cm-osm-node-4586796889", "name": "Ma-Chill", "nameTh": null, "nameEn": "Ma-Chill", "cat": ["food"], "province": "cm", "slug": "ma-chill-4586796889", "rank": 3}}, {"type": "Feature", "geometry": {"type": "Point", "coordinates": [99.00831, 18.75556]}, "properties": {"id": "cm-osm-way-314677553", "name": "Mad? Cafe", "nameTh": null, "nameEn": "Mad? Cafe", "cat": ["food"], "province": "cm", "slug": "mad-cafe-314677553", "rank": 1}}, {"type": "Feature", "geometry": {"type": "Point", "coordinates": [99.00146, 18.7944]}, "properties": {"id": "cm-osm-node-5933370535", "name": "Marocchino", "nameTh": null, "nameEn": "Marocchino", "cat": ["food"], "province": "cm", "slug": "marocchino-5933370535", "rank": 1}}, {"type": "Feature", "geometry": {"type": "Point", "coordinates": [98.9959, 18.7843]}, "properties": {"id": "cm-osm-node-3414272480", "name": "Mike Pizza", "nameTh": null, "nameEn": "Mike Pizza", "cat": ["food"], "province": "cm", "slug": "mike-pizza-3414272480", "rank": 1}}, {"type": "Feature", "geometry": {"type": "Point", "coordinates": [98.95037, 18.79116]}, "properties": {"id": "cm-osm-node-9084096823", "name": "Milk on the rock", "nameTh": null, "nameEn": "Milk on the rock", "cat": ["food"], "province": "cm", "slug": "milk-on-the-rock-9084096823", "rank": 2}}, {"type": "Feature", "geometry": {"type": "Point", "coordinates": [98.97901, 18.78194]}, "properties": {"id": "cm-osm-way-318784039", "name": "Minimal Coffee Maker", "nameTh": null, "nameEn": "Minimal Coffee Maker", "cat": ["food"], "province": "cm", "slug": "minimal-coffee-maker-318784039", "rank": 2}}, {"type": "Feature", "geometry": {"type": "Point", "coordinates": [98.99487, 18.7879]}, "properties": {"id": "cm-osm-node-13518858073", "name": "Mo Restaurant & Bar", "nameTh": null, "nameEn": "Mo Restaurant & Bar", "cat": ["food"], "province": "cm", "slug": "mo-restaurant-bar-13518858073", "rank": 1}}, {"type": "Feature", "geometry": {"type": "Point", "coordinates": [99.07455, 18.72045]}, "properties": {"id": "cm-osm-node-5307634591", "name": "Monfai's Cafe", "nameTh": null, "nameEn": "Monfai's Cafe", "cat": ["food"], "province": "cm", "slug": "monfai-s-cafe-5307634591", "rank": 1}}, {"type": "Feature", "geometry": {"type": "Point", "coordinates": [98.94589, 18.77228]}, "properties": {"id": "cm-osm-node-12658068482", "name": "More Craft", "nameTh": null, "nameEn": "More Craft", "cat": ["food"], "province": "cm", "slug": "more-craft-12658068482", "rank": 3}}, {"type": "Feature", "geometry": {"type": "Point", "coordinates": [98.94593, 18.68986]}, "properties": {"id": "cm-osm-node-11032795792", "name": "NK Cafe", "nameTh": "เอ็น เค คาเฟ่", "nameEn": "NK Cafe", "cat": ["food"], "province": "cm", "slug": "nk-cafe-11032795792", "rank": 4}}, {"type": "Feature", "geometry": {"type": "Point", "coordinates": [98.99145, 18.79232]}, "properties": {"id": "cm-osm-way-492846698", "name": "NOWHERE COFFEE BREWERS", "nameTh": null, "nameEn": "NOWHERE COFFEE BREWERS", "cat": ["food"], "province": "cm", "slug": "nowhere-coffee-brewers-492846698", "rank": 3}}, {"type": "Feature", "geometry": {"type": "Point", "coordinates": [98.97105, 18.78595]}, "properties": {"id": "cm-osm-node-13808725177", "name": "Neno Coffee", "nameTh": null, "nameEn": "Neno Coffee", "cat": ["food"], "province": "cm", "slug": "neno-coffee-13808725177", "rank": 3}}, {"type": "Feature", "geometry": {"type": "Point", "coordinates": [98.95671, 18.72899]}, "properties": {"id": "cm-osm-node-12224034589", "name": "Num Sha", "nameTh": null, "nameEn": "Num Sha", "cat": ["food"], "province": "cm", "slug": "num-sha-12224034589", "rank": 2}}, {"type": "Feature", "geometry": {"type": "Point", "coordinates": [99.00239, 18.79727]}, "properties": {"id": "cm-osm-node-3207247636", "name": "Oldies", "nameTh": null, "nameEn": "Oldies", "cat": ["food"], "province": "cm", "slug": "oldies-3207247636", "rank": 1}}, {"type": "Feature", "geometry": {"type": "Point", "coordinates": [98.97379, 18.81367]}, "properties": {"id": "cm-osm-node-4265502391", "name": "Omnia", "nameTh": null, "nameEn": "Omnia", "cat": ["food"], "province": "cm", "slug": "omnia-4265502391", "rank": 2}}, {"type": "Feature", "geometry": {"type": "Point", "coordinates": [99.00522, 18.83505]}, "properties": {"id": "cm-osm-node-13266867245", "name": "PLUTO", "nameTh": null, "nameEn": "PLUTO", "cat": ["food"], "province": "cm", "slug": "pluto-13266867245", "rank": 3}}, {"type": "Feature", "geometry": {"type": "Point", "coordinates": [98.98666, 18.78835]}, "properties": {"id": "cm-osm-node-2442812998", "name": "Pacamara", "nameTh": "พาคามารา", "nameEn": "Pacamara", "cat": ["food"], "province": "cm", "slug": "pacamara-2442812998", "rank": 2}}, {"type": "Feature", "geometry": {"type": "Point", "coordinates": [99.14309, 18.88076]}, "properties": {"id": "cm-osm-node-12313548512", "name": "Padthai @Doisaket", "nameTh": null, "nameEn": "Padthai @Doisaket", "cat": ["food"], "province": "cm", "slug": "padthai-doisaket-12313548512", "rank": 3}}, {"type": "Feature", "geometry": {"type": "Point", "coordinates": [98.99279, 18.78792]}, "properties": {"id": "cm-osm-node-3277470021", "name": "Pai Doi Coffee", "nameTh": null, "nameEn": "Pai Doi Coffee", "cat": ["food"], "province": "cm", "slug": "pai-doi-coffee-3277470021", "rank": 1}}, {"type": "Feature", "geometry": {"type": "Point", "coordinates": [99.00165, 18.75869]}, "properties": {"id": "cm-osm-node-3784397399", "name": "Pangkhon Coffee", "nameTh": null, "nameEn": "Pangkhon Coffee", "cat": ["food"], "province": "cm", "slug": "pangkhon-coffee-3784397399", "rank": 1}}, {"type": "Feature", "geometry": {"type": "Point", "coordinates": [98.98593, 18.78106]}, "properties": {"id": "cm-osm-node-6017634609", "name": "Pangkhon Coffee", "nameTh": null, "nameEn": "Pangkhon Coffee", "cat": ["food"], "province": "cm", "slug": "pangkhon-coffee-6017634609", "rank": 2}}, {"type": "Feature", "geometry": {"type": "Point", "coordinates": [98.95143, 18.74733]}, "properties": {"id": "cm-osm-node-3424651193", "name": "Pankled Coffee", "nameTh": null, "nameEn": "Pankled Coffee", "cat": ["food"], "province": "cm", "slug": "pankled-coffee-3424651193", "rank": 2}}, {"type": "Feature", "geometry": {"type": "Point", "coordinates": [98.97121, 18.80504]}, "properties": {"id": "cm-osm-node-10750980255", "name": "Paper Plane CNX", "nameTh": null, "nameEn": "Paper Plane CNX", "cat": ["food"], "province": "cm", "slug": "paper-plane-cnx-10750980255", "rank": 3}}, {"type": "Feature", "geometry": {"type": "Point", "coordinates": [98.9918, 18.78296]}, "properties": {"id": "cm-osm-node-3385473033", "name": "Pee Yai", "nameTh": null, "nameEn": "Pee Yai", "cat": ["food"], "province": "cm", "slug": "pee-yai-3385473033", "rank": 3}}, {"type": "Feature", "geometry": {"type": "Point", "coordinates": [99.00136, 18.78102]}, "properties": {"id": "cm-osm-node-3326560611", "name": "Phoon Coffee", "nameTh": null, "nameEn": "Phoon Coffee", "cat": ["food"], "province": "cm", "slug": "phoon-coffee-3326560611", "rank": 1}}, {"type": "Feature", "geometry": {"type": "Point", "coordinates": [98.97409, 18.80568]}, "properties": {"id": "cm-osm-node-3897763601", "name": "Point Cafe", "nameTh": null, "nameEn": "Point Cafe", "cat": ["food"], "province": "cm", "slug": "point-cafe-3897763601", "rank": 2}}, {"type": "Feature", "geometry": {"type": "Point", "coordinates": [98.96494, 18.79478]}, "properties": {"id": "cm-osm-node-5917955982", "name": "Posrest", "nameTh": null, "nameEn": "Posrest", "cat": ["food"], "province": "cm", "slug": "posrest-5917955982", "rank": 2}}, {"type": "Feature", "geometry": {"type": "Point", "coordinates": [99.1342, 18.87232]}, "properties": {"id": "cm-osm-node-13604911531", "name": "Punthai", "nameTh": null, "nameEn": "Punthai", "cat": ["food"], "province": "cm", "slug": "punthai-13604911531", "rank": 2}}, {"type": "Feature", "geometry": {"type": "Point", "coordinates": [99.1146, 18.74752]}, "properties": {"id": "cm-osm-node-5307634562", "name": "Rabika Coffee", "nameTh": null, "nameEn": "Rabika Coffee", "cat": ["food"], "province": "cm", "slug": "rabika-coffee-5307634562", "rank": 1}}, {"type": "Feature", "geometry": {"type": "Point", "coordinates": [98.98424, 18.79067]}, "properties": {"id": "cm-osm-node-4655307491", "name": "Rakuda", "nameTh": "Ponganes Coffee Roasters", "nameEn": null, "cat": ["food"], "province": "cm", "slug": "ponganes-coffee-roasters-4655307491", "rank": 3}}, {"type": "Feature", "geometry": {"type": "Point", "coordinates": [98.96638, 18.74232]}, "properties": {"id": "cm-osm-way-1524800620", "name": "Rally Smoothie & Coffee Bar", "nameTh": null, "nameEn": "Rally Smoothie & Coffee Bar", "cat": ["food"], "province": "cm", "slug": "rally-smoothie-coffee-bar-1524800620", "rank": 3}}, {"type": "Feature", "geometry": {"type": "Point", "coordinates": [98.96753, 18.79506]}, "properties": {"id": "cm-osm-node-5978043352", "name": "Roxpresso", "nameTh": null, "nameEn": "Roxpresso", "cat": ["food"], "province": "cm", "slug": "roxpresso-5978043352", "rank": 2}}, {"type": "Feature", "geometry": {"type": "Point", "coordinates": [98.98049, 18.81614]}, "properties": {"id": "cm-osm-node-5009187333", "name": "Rx Cafe", "nameTh": null, "nameEn": "Rx Cafe", "cat": ["food"], "province": "cm", "slug": "rx-cafe-5009187333", "rank": 2}}, {"type": "Feature", "geometry": {"type": "Point", "coordinates": [99.08306, 18.91461]}, "properties": {"id": "cm-osm-node-3453468996", "name": "Sanguan", "nameTh": null, "nameEn": "Sanguan", "cat": ["food"], "province": "cm", "slug": "sanguan-3453468996", "rank": 1}}, {"type": "Feature", "geometry": {"type": "Point", "coordinates": [98.95394, 18.82704]}, "properties": {"id": "cm-osm-node-5643026621", "name": "Santi Bar & Bistro", "nameTh": null, "nameEn": "Santi Bar & Bistro", "cat": ["food"], "province": "cm", "slug": "santi-bar-bistro-5643026621", "rank": 2}}, {"type": "Feature", "geometry": {"type": "Point", "coordinates": [98.9852, 18.7932]}, "properties": {"id": "cm-osm-node-6094446495", "name": "Simply Happy", "nameTh": null, "nameEn": "Simply Happy", "cat": ["food"], "province": "cm", "slug": "simply-happy-6094446495", "rank": 2}}, {"type": "Feature", "geometry": {"type": "Point", "coordinates": [98.97512, 18.79762]}, "properties": {"id": "cm-osm-node-2982245930", "name": "Soho", "nameTh": null, "nameEn": "Soho", "cat": ["food"], "province": "cm", "slug": "soho-2982245930", "rank": 1}}, {"type": "Feature", "geometry": {"type": "Point", "coordinates": [98.97808, 18.80049]}, "properties": {"id": "cm-osm-node-3285280608", "name": "Soi Cafe", "nameTh": null, "nameEn": "Soi Cafe", "cat": ["food"], "province": "cm", "slug": "soi-cafe-3285280608", "rank": 2}}, {"type": "Feature", "geometry": {"type": "Point", "coordinates": [99.02864, 18.72931]}, "properties": {"id": "cm-osm-way-1414188117", "name": "Steaké", "nameTh": null, "nameEn": "Steaké", "cat": ["food"], "province": "cm", "slug": "steak-1414188117", "rank": 3}}, {"type": "Feature", "geometry": {"type": "Point", "coordinates": [99.00079, 18.78789]}, "properties": {"id": "cm-osm-node-3008119561", "name": "Street Pizza & The Wine House", "nameTh": null, "nameEn": "Street Pizza & The Wine House", "cat": ["food"], "province": "cm", "slug": "street-pizza-the-wine-house-3008119561", "rank": 2}}, {"type": "Feature", "geometry": {"type": "Point", "coordinates": [98.97907, 18.79814]}, "properties": {"id": "cm-osm-node-3285318965", "name": "Sweet Tree", "nameTh": null, "nameEn": "Sweet Tree", "cat": ["food"], "province": "cm", "slug": "sweet-tree-3285318965", "rank": 3}}, {"type": "Feature", "geometry": {"type": "Point", "coordinates": [99.02149, 18.76467]}, "properties": {"id": "cm-osm-node-3888816846", "name": "T & TT Coffee Corner", "nameTh": null, "nameEn": "T & TT Coffee Corner", "cat": ["food"], "province": "cm", "slug": "t-tt-coffee-corner-3888816846", "rank": 1}}, {"type": "Feature", "geometry": {"type": "Point", "coordinates": [98.97293, 18.7941]}, "properties": {"id": "cm-osm-node-3380623726", "name": "T@31 Coffee", "nameTh": null, "nameEn": "T@31 Coffee", "cat": ["food"], "province": "cm", "slug": "t-31-coffee-3380623726", "rank": 2}}, {"type": "Feature", "geometry": {"type": "Point", "coordinates": [98.96309, 18.79517]}, "properties": {"id": "cm-osm-node-5202076922", "name": "Taste Cafe", "nameTh": null, "nameEn": "Taste Cafe", "cat": ["food"], "province": "cm", "slug": "taste-cafe-5202076922", "rank": 2}}, {"type": "Feature", "geometry": {"type": "Point", "coordinates": [98.99009, 18.78296]}, "properties": {"id": "cm-osm-node-6342563399", "name": "Thank God It‘s Fry Day", "nameTh": null, "nameEn": "Thank God It‘s Fry Day", "cat": ["food"], "province": "cm", "slug": "thank-god-it-s-fry-day-6342563399", "rank": 2}}, {"type": "Feature", "geometry": {"type": "Point", "coordinates": [98.99494, 18.80786]}, "properties": {"id": "cm-osm-node-3195504333", "name": "The Baristro", "nameTh": null, "nameEn": "The Baristro", "cat": ["food"], "province": "cm", "slug": "the-baristro-3195504333", "rank": 1}}, {"type": "Feature", "geometry": {"type": "Point", "coordinates": [98.97595, 18.74984]}, "properties": {"id": "cm-osm-node-3901216869", "name": "The Coffee House", "nameTh": null, "nameEn": "The Coffee House", "cat": ["food"], "province": "cm", "slug": "the-coffee-house-3901216869", "rank": 1}}, {"type": "Feature", "geometry": {"type": "Point", "coordinates": [98.99378, 18.79015]}, "properties": {"id": "cm-osm-way-650706594", "name": "The Swan Burmese Cuisine", "nameTh": null, "nameEn": "The Swan Burmese Cuisine", "cat": ["food"], "province": "cm", "slug": "the-swan-burmese-cuisine-650706594", "rank": 3}}, {"type": "Feature", "geometry": {"type": "Point", "coordinates": [98.97949, 18.77235]}, "properties": {"id": "cm-osm-node-5033621774", "name": "The XYM Cafe", "nameTh": null, "nameEn": "The XYM Cafe", "cat": ["food"], "province": "cm", "slug": "the-xym-cafe-5033621774", "rank": 1}}, {"type": "Feature", "geometry": {"type": "Point", "coordinates": [98.93791, 18.73465]}, "properties": {"id": "cm-osm-node-3342127912", "name": "The café", "nameTh": "เดอะคาเฟ่", "nameEn": "The Café", "cat": ["food"], "province": "cm", "slug": "the-caf-3342127912", "rank": 2}}, {"type": "Feature", "geometry": {"type": "Point", "coordinates": [99.13587, 18.8731]}, "properties": {"id": "cm-osm-node-3341090055", "name": "Tip Tom Café", "nameTh": null, "nameEn": "Tip Tom Café", "cat": ["food"], "province": "cm", "slug": "tip-tom-caf-3341090055", "rank": 1}}, {"type": "Feature", "geometry": {"type": "Point", "coordinates": [98.9743, 18.73264]}, "properties": {"id": "cm-osm-node-4052303895", "name": "Wangtan Cafe", "nameTh": "วังตาลคาเฟ่", "nameEn": "Wangtan Cafe", "cat": ["food"], "province": "cm", "slug": "wangtan-cafe-4052303895", "rank": 3}}, {"type": "Feature", "geometry": {"type": "Point", "coordinates": [98.99485, 18.78461]}, "properties": {"id": "cm-osm-node-820820897", "name": "Wild Boar", "nameTh": null, "nameEn": "Wild Boar", "cat": ["food"], "province": "cm", "slug": "wild-boar-820820897", "rank": 2}}, {"type": "Feature", "geometry": {"type": "Point", "coordinates": [98.99041, 18.79346]}, "properties": {"id": "cm-osm-node-5919670289", "name": "ZMOY", "nameTh": "ศรีมอยคาเฟ่", "nameEn": "ZMOY", "cat": ["food"], "province": "cm", "slug": "zmoy-5919670289", "rank": 3}}, {"type": "Feature", "geometry": {"type": "Point", "coordinates": [98.99815, 18.77411]}, "properties": {"id": "cm-osm-node-4064638197", "name": "iCoffee Studio", "nameTh": null, "nameEn": "iCoffee Studio", "cat": ["food"], "province": "cm", "slug": "icoffee-studio-4064638197", "rank": 1}}, {"type": "Feature", "geometry": {"type": "Point", "coordinates": [98.96856, 18.78909]}, "properties": {"id": "cm-osm-way-1019374833", "name": "กาแฟหน้าวัดสวนดอก", "nameTh": "กาแฟหน้าวัดสวนดอก", "nameEn": null, "cat": ["food"], "province": "cm", "slug": "1019374833", "rank": 1}}, {"type": "Feature", "geometry": {"type": "Point", "coordinates": [98.9388, 18.92218]}, "properties": {"id": "cm-osm-way-1338800615", "name": "กาแฟอุดมสุข แม่ริม", "nameTh": "กาแฟอุดมสุข แม่ริม", "nameEn": "Udomsuk Coffee", "cat": ["food"], "province": "cm", "slug": "udomsuk-coffee-1338800615", "rank": 4}}, {"type": "Feature", "geometry": {"type": "Point", "coordinates": [98.9853, 18.7834]}, "properties": {"id": "cm-osm-node-1618868154", "name": "กูดมอนิ่งเชียงใหม่", "nameTh": "กูดมอนิ่งเชียงใหม่", "nameEn": "Good Morning Chiangmai", "cat": ["food"], "province": "cm", "slug": "good-morning-chiangmai-1618868154", "rank": 2}}, {"type": "Feature", "geometry": {"type": "Point", "coordinates": [98.94325, 18.91918]}, "properties": {"id": "cm-osm-node-3924966402", "name": "คาเฟ่ อเมซอน", "nameTh": "คาเฟ่ อเมซอน", "nameEn": "Café Amazon", "cat": ["food"], "province": "cm", "slug": "caf-amazon-3924966402", "rank": 3}}, {"type": "Feature", "geometry": {"type": "Point", "coordinates": [98.95068, 18.74728]}, "properties": {"id": "cm-osm-node-2706762731", "name": "ตลาดสดทะเลทอง", "nameTh": "ตลาดสดทะเลทอง", "nameEn": "Talay Thong", "cat": ["food"], "province": "cm", "slug": "talay-thong-2706762731", "rank": 2}}, {"type": "Feature", "geometry": {"type": "Point", "coordinates": [99.13625, 18.8748]}, "properties": {"id": "cm-osm-node-3063226177", "name": "ที่นี่ ลีลาวดี", "nameTh": "ที่นี่ ลีลาวดี", "nameEn": "Leelawadee Coffee", "cat": ["food"], "province": "cm", "slug": "leelawadee-coffee-3063226177", "rank": 2}}, {"type": "Feature", "geometry": {"type": "Point", "coordinates": [99.01283, 18.82832]}, "properties": {"id": "cm-osm-node-3979200913", "name": "นายหมู บะกุ๊ดเต๋", "nameTh": "นายหมู บะกุ๊ดเต๋", "nameEn": "Nai Moo Bakutteh", "cat": ["food"], "province": "cm", "slug": "nai-moo-bakutteh-3979200913", "rank": 2}}, {"type": "Feature", "geometry": {"type": "Point", "coordinates": [99.00417, 18.6918]}, "properties": {"id": "cm-osm-way-670620390", "name": "บ้านขนม", "nameTh": "บ้านขนม", "nameEn": "Baan Khanom", "cat": ["food"], "province": "cm", "slug": "baan-khanom-670620390", "rank": 2}}, {"type": "Feature", "geometry": {"type": "Point", "coordinates": [99.12585, 18.8712]}, "properties": {"id": "cm-osm-node-3851468855", "name": "บ้านเชียงรุ้ง", "nameTh": "บ้านเชียงรุ้ง", "nameEn": "Ban Chiang Rung Cafe", "cat": ["food"], "province": "cm", "slug": "ban-chiang-rung-cafe-3851468855", "rank": 3}}, {"type": "Feature", "geometry": {"type": "Point", "coordinates": [98.98737, 18.79522]}, "properties": {"id": "cm-osm-node-3371232076", "name": "มิ่งมิตร", "nameTh": "มิ่งมิตร", "nameEn": "Mingmitr", "cat": ["food"], "province": "cm", "slug": "mingmitr-3371232076", "rank": 3}}, {"type": "Feature", "geometry": {"type": "Point", "coordinates": [99.038, 18.61283]}, "properties": {"id": "cm-osm-node-7085519908", "name": "โตวันไฮโดรฟาร์ม", "nameTh": "โตวันไฮโดรฟาร์ม", "nameEn": null, "cat": ["food"], "province": "cm", "slug": "7085519908", "rank": 1}}, {"type": "Feature", "geometry": {"type": "Point", "coordinates": [99.03591, 18.79727]}, "properties": {"id": "cm-osm-node-2817848201", "name": "ใบชาหมูกะทะ", "nameTh": "ใบชาหมูกะทะ", "nameEn": "Bai Cha Mookata", "cat": ["food"], "province": "cm", "slug": "bai-cha-mookata-2817848201", "rank": 2}}, {"type": "Feature", "geometry": {"type": "Point", "coordinates": [98.94307, 18.93916]}, "properties": {"id": "cm-osm-node-2611231828", "name": "ไม้เฮือน 60", "nameTh": "ไม้เฮือน 60", "nameEn": "Mai Kuen 60", "cat": ["food"], "province": "cm", "slug": "mai-kuen-60-2611231828", "rank": 3}}, {"type": "Feature", "geometry": {"type": "Point", "coordinates": [99.00127, 18.78833]}, "properties": {"id": "cm-osm-node-9982674527", "name": "High Queen CNX", "nameTh": null, "nameEn": "High Queen CNX", "cat": ["cannabis"], "province": "cm", "slug": "high-queen-cnx-9982674527", "rank": 1}}, {"type": "Feature", "geometry": {"type": "Point", "coordinates": [98.99233, 18.78913]}, "properties": {"id": "cm-osm-node-9982674526", "name": "Mavoix Coffee & Weed", "nameTh": null, "nameEn": "Mavoix Coffee & Weed", "cat": ["cannabis"], "province": "cm", "slug": "mavoix-coffee-weed-9982674526", "rank": 2}}, {"type": "Feature", "geometry": {"type": "Point", "coordinates": [98.92589, 18.74331]}, "properties": {"id": "cm-osm-node-11295824999", "name": "stuff cannabis dispensary", "nameTh": null, "nameEn": "stuff cannabis dispensary", "cat": ["cannabis"], "province": "cm", "slug": "stuff-cannabis-dispensary-11295824999", "rank": 4}}, {"type": "Feature", "geometry": {"type": "Point", "coordinates": [98.96496, 18.74066]}, "properties": {"id": "cm-osm-node-10777553750", "name": "Code Clean", "nameTh": null, "nameEn": "Code Clean", "cat": ["essentials"], "province": "cm", "slug": "code-clean-10777553750", "rank": 2}}, {"type": "Feature", "geometry": {"type": "Point", "coordinates": [98.99893, 18.75438]}, "properties": {"id": "cm-osm-node-11652195486", "name": "กันเอง", "nameTh": "กันเอง", "nameEn": "Friendly Laundry", "cat": ["essentials"], "province": "cm", "slug": "friendly-laundry-11652195486", "rank": 3}}, {"type": "Feature", "geometry": {"type": "Point", "coordinates": [98.98395, 18.79601]}, "properties": {"id": "cm-osm-node-5995145521", "name": "248 Street Hostel", "nameTh": null, "nameEn": "248 Street Hostel", "cat": ["hotel"], "province": "cm", "slug": "248-street-hostel-5995145521", "rank": 1}}, {"type": "Feature", "geometry": {"type": "Point", "coordinates": [98.99001, 18.78236]}, "properties": {"id": "cm-osm-node-2598509624", "name": "60 Blue", "nameTh": null, "nameEn": "60 Blue", "cat": ["hotel"], "province": "cm", "slug": "60-blue-2598509624", "rank": 3}}, {"type": "Feature", "geometry": {"type": "Point", "coordinates": [98.98304, 18.78943]}, "properties": {"id": "cm-osm-node-3804433413", "name": "99 Gallery Hotel", "nameTh": null, "nameEn": "99 Gallery Hotel", "cat": ["hotel"], "province": "cm", "slug": "99-gallery-hotel-3804433413", "rank": 2}}, {"type": "Feature", "geometry": {"type": "Point", "coordinates": [98.99125, 18.7808]}, "properties": {"id": "cm-osm-way-677271031", "name": "A Dude mini Hostel", "nameTh": null, "nameEn": "A Dude mini Hostel", "cat": ["hotel"], "province": "cm", "slug": "a-dude-mini-hostel-677271031", "rank": 2}}, {"type": "Feature", "geometry": {"type": "Point", "coordinates": [98.99247, 18.78939]}, "properties": {"id": "cm-osm-way-481924558", "name": "A.N. House", "nameTh": null, "nameEn": "A.N. House", "cat": ["hotel"], "province": "cm", "slug": "a-n-house-481924558", "rank": 2}}, {"type": "Feature", "geometry": {"type": "Point", "coordinates": [98.99489, 18.78643]}, "properties": {"id": "cm-osm-node-12642191034", "name": "Away Chiang Mai Thapae Resort", "nameTh": null, "nameEn": "Away Chiang Mai Thapae Resort", "cat": ["hotel"], "province": "cm", "slug": "away-chiang-mai-thapae-resort-12642191034", "rank": 3}}, {"type": "Feature", "geometry": {"type": "Point", "coordinates": [98.96381, 18.82051]}, "properties": {"id": "cm-osm-way-200686330", "name": "B2 Black - Business & Budget", "nameTh": null, "nameEn": "B2 Black - Business & Budget", "cat": ["hotel"], "province": "cm", "slug": "b2-black-business-budget-200686330", "rank": 3}}, {"type": "Feature", "geometry": {"type": "Point", "coordinates": [98.97609, 18.80015]}, "properties": {"id": "cm-osm-way-332230162", "name": "B2 Green", "nameTh": null, "nameEn": "B2 Green", "cat": ["hotel"], "province": "cm", "slug": "b2-green-332230162", "rank": 1}}, {"type": "Feature", "geometry": {"type": "Point", "coordinates": [99.00222, 18.79302]}, "properties": {"id": "cm-osm-node-3440864913", "name": "Baan Orapin", "nameTh": null, "nameEn": "Baan Orapin", "cat": ["hotel"], "province": "cm", "slug": "baan-orapin-3440864913", "rank": 1}}, {"type": "Feature", "geometry": {"type": "Point", "coordinates": [98.98464, 18.73351]}, "properties": {"id": "cm-osm-node-5154391794", "name": "Baan Vartika @ ping", "nameTh": null, "nameEn": "Baan Vartika @ ping", "cat": ["hotel"], "province": "cm", "slug": "baan-vartika-ping-5154391794", "rank": 1}}, {"type": "Feature", "geometry": {"type": "Point", "coordinates": [98.98461, 18.77596]}, "properties": {"id": "cm-osm-node-6862246249", "name": "Baan Yai Phun", "nameTh": null, "nameEn": "Baan Yai Phun", "cat": ["hotel"], "province": "cm", "slug": "baan-yai-phun-6862246249", "rank": 1}}, {"type": "Feature", "geometry": {"type": "Point", "coordinates": [98.94817, 18.76457]}, "properties": {"id": "cm-osm-way-448935886", "name": "Baansureepan", "nameTh": null, "nameEn": "Baansureepan", "cat": ["hotel"], "province": "cm", "slug": "baansureepan-448935886", "rank": 1}}, {"type": "Feature", "geometry": {"type": "Point", "coordinates": [98.96562, 18.79625]}, "properties": {"id": "cm-osm-way-276724649", "name": "Baiyoke Ciao Hotel", "nameTh": null, "nameEn": "Baiyoke Ciao Hotel", "cat": ["hotel"], "province": "cm", "slug": "baiyoke-ciao-hotel-276724649", "rank": 2}}, {"type": "Feature", "geometry": {"type": "Point", "coordinates": [99.00423, 18.78633]}, "properties": {"id": "cm-osm-way-1346303185", "name": "Ban Narai River Guesthouse", "nameTh": null, "nameEn": "Ban Narai River Guesthouse", "cat": ["hotel"], "province": "cm", "slug": "ban-narai-river-guesthouse-1346303185", "rank": 1}}, {"type": "Feature", "geometry": {"type": "Point", "coordinates": [98.98576, 18.781]}, "properties": {"id": "cm-osm-node-2598540243", "name": "Bed Stop Hotel", "nameTh": null, "nameEn": "Bed Stop Hotel", "cat": ["hotel"], "province": "cm", "slug": "bed-stop-hotel-2598540243", "rank": 2}}, {"type": "Feature", "geometry": {"type": "Point", "coordinates": [98.99057, 18.78452]}, "properties": {"id": "cm-osm-node-12327786309", "name": "Bodhi Serene", "nameTh": null, "nameEn": "Bodhi Serene", "cat": ["hotel"], "province": "cm", "slug": "bodhi-serene-12327786309", "rank": 1}}, {"type": "Feature", "geometry": {"type": "Point", "coordinates": [98.98789, 18.78316]}, "properties": {"id": "cm-osm-node-1618868153", "name": "Bupatara", "nameTh": null, "nameEn": "Bupatara", "cat": ["hotel"], "province": "cm", "slug": "bupatara-1618868153", "rank": 2}}, {"type": "Feature", "geometry": {"type": "Point", "coordinates": [98.97268, 18.81874]}, "properties": {"id": "cm-osm-way-320013705", "name": "Burapa Boutique", "nameTh": null, "nameEn": "Burapa Boutique", "cat": ["hotel"], "province": "cm", "slug": "burapa-boutique-320013705", "rank": 2}}, {"type": "Feature", "geometry": {"type": "Point", "coordinates": [98.96877, 18.79951]}, "properties": {"id": "cm-osm-way-372055248", "name": "Casa 2511", "nameTh": null, "nameEn": "Casa 2511", "cat": ["hotel"], "province": "cm", "slug": "casa-2511-372055248", "rank": 2}}, {"type": "Feature", "geometry": {"type": "Point", "coordinates": [98.9824, 18.78294]}, "properties": {"id": "cm-osm-way-318784042", "name": "Chanaplace", "nameTh": null, "nameEn": "Chanaplace", "cat": ["hotel"], "province": "cm", "slug": "chanaplace-318784042", "rank": 2}}, {"type": "Feature", "geometry": {"type": "Point", "coordinates": [98.92557, 18.74299]}, "properties": {"id": "cm-osm-node-11295829592", "name": "Chandra Residence", "nameTh": null, "nameEn": "Chandra Residence", "cat": ["hotel"], "province": "cm", "slug": "chandra-residence-11295829592", "rank": 3}}, {"type": "Feature", "geometry": {"type": "Point", "coordinates": [98.95165, 18.76451]}, "properties": {"id": "cm-osm-way-448935889", "name": "Chiang Mai Lakeland Homestay", "nameTh": null, "nameEn": "Chiang Mai Lakeland Homestay", "cat": ["hotel"], "province": "cm", "slug": "chiang-mai-lakeland-homestay-448935889", "rank": 1}}, {"type": "Feature", "geometry": {"type": "Point", "coordinates": [98.97529, 18.79909]}, "properties": {"id": "cm-osm-way-406558219", "name": "Chiang Mai Rose House", "nameTh": null, "nameEn": "Chiang Mai Rose House", "cat": ["hotel"], "province": "cm", "slug": "chiang-mai-rose-house-406558219", "rank": 2}}, {"type": "Feature", "geometry": {"type": "Point", "coordinates": [98.97424, 18.79931]}, "properties": {"id": "cm-osm-way-321801551", "name": "Common Living", "nameTh": null, "nameEn": "Common Living", "cat": ["hotel"], "province": "cm", "slug": "common-living-321801551", "rank": 3}}, {"type": "Feature", "geometry": {"type": "Point", "coordinates": [98.98953, 18.78715]}, "properties": {"id": "cm-osm-node-9281344619", "name": "Cozy by Funwahn", "nameTh": null, "nameEn": "Cozy by Funwahn", "cat": ["hotel"], "province": "cm", "slug": "cozy-by-funwahn-9281344619", "rank": 1}}, {"type": "Feature", "geometry": {"type": "Point", "coordinates": [99.01194, 18.77128]}, "properties": {"id": "cm-osm-way-387353742", "name": "De Kriya Chiang Mai", "nameTh": null, "nameEn": "De Kriya Chiang Mai", "cat": ["hotel"], "province": "cm", "slug": "de-kriya-chiang-mai-387353742", "rank": 2}}, {"type": "Feature", "geometry": {"type": "Point", "coordinates": [98.9956, 18.78329]}, "properties": {"id": "cm-osm-node-3416932285", "name": "Dengba Hostel", "nameTh": null, "nameEn": "Dengba Hostel", "cat": ["hotel"], "province": "cm", "slug": "dengba-hostel-3416932285", "rank": 2}}, {"type": "Feature", "geometry": {"type": "Point", "coordinates": [99.00626, 18.7849]}, "properties": {"id": "cm-osm-way-511631903", "name": "ELOSIA Building B", "nameTh": null, "nameEn": "ELOSIA Building B", "cat": ["hotel"], "province": "cm", "slug": "elosia-building-b-511631903", "rank": 1}}, {"type": "Feature", "geometry": {"type": "Point", "coordinates": [99.02067, 18.7836]}, "properties": {"id": "cm-osm-way-774947284", "name": "Eden Garden Resort", "nameTh": null, "nameEn": "Eden Garden Resort", "cat": ["hotel"], "province": "cm", "slug": "eden-garden-resort-774947284", "rank": 1}}, {"type": "Feature", "geometry": {"type": "Point", "coordinates": [98.99263, 18.79237]}, "properties": {"id": "cm-osm-way-361037259", "name": "Eurana Boutique", "nameTh": null, "nameEn": "Eurana Boutique", "cat": ["hotel"], "province": "cm", "slug": "eurana-boutique-361037259", "rank": 3}}, {"type": "Feature", "geometry": {"type": "Point", "coordinates": [98.98867, 18.79392]}, "properties": {"id": "cm-osm-node-1133628152", "name": "Frangipani Serviced Residences", "nameTh": null, "nameEn": "Frangipani Serviced Residences", "cat": ["hotel"], "province": "cm", "slug": "frangipani-serviced-residences-1133628152", "rank": 3}}, {"type": "Feature", "geometry": {"type": "Point", "coordinates": [98.99, 18.78214]}, "properties": {"id": "cm-osm-node-7366072736", "name": "Giant Guesthouse", "nameTh": null, "nameEn": "Giant Guesthouse", "cat": ["hotel"], "province": "cm", "slug": "giant-guesthouse-7366072736", "rank": 1}}, {"type": "Feature", "geometry": {"type": "Point", "coordinates": [98.99032, 18.7831]}, "properties": {"id": "cm-osm-node-1618868157", "name": "Giant Hostel 2", "nameTh": null, "nameEn": "Giant Hostel 2", "cat": ["hotel"], "province": "cm", "slug": "giant-hostel-2-1618868157", "rank": 1}}, {"type": "Feature", "geometry": {"type": "Point", "coordinates": [98.98529, 18.78349]}, "properties": {"id": "cm-osm-way-590950946", "name": "Gord Chiangmai Hotel", "nameTh": null, "nameEn": "Gord Chiangmai Hotel", "cat": ["hotel"], "province": "cm", "slug": "gord-chiangmai-hotel-590950946", "rank": 4}}, {"type": "Feature", "geometry": {"type": "Point", "coordinates": [98.88527, 18.75569]}, "properties": {"id": "cm-osm-way-570658772", "name": "Hern Lhin", "nameTh": null, "nameEn": "Hern Lhin", "cat": ["hotel"], "province": "cm", "slug": "hern-lhin-570658772", "rank": 1}}, {"type": "Feature", "geometry": {"type": "Point", "coordinates": [99.1341, 18.87457]}, "properties": {"id": "cm-osm-way-295766078", "name": "Him Doi House", "nameTh": null, "nameEn": "Him Doi House", "cat": ["hotel"], "province": "cm", "slug": "him-doi-house-295766078", "rank": 2}}, {"type": "Feature", "geometry": {"type": "Point", "coordinates": [98.99209, 18.77843]}, "properties": {"id": "cm-osm-node-2652877323", "name": "Holiday Garden View", "nameTh": null, "nameEn": "Holiday Garden View", "cat": ["hotel"], "province": "cm", "slug": "holiday-garden-view-2652877323", "rank": 2}}, {"type": "Feature", "geometry": {"type": "Point", "coordinates": [98.9928, 18.79172]}, "properties": {"id": "cm-osm-node-3419009695", "name": "House No. 11", "nameTh": null, "nameEn": "House No. 11", "cat": ["hotel"], "province": "cm", "slug": "house-no-11-3419009695", "rank": 2}}, {"type": "Feature", "geometry": {"type": "Point", "coordinates": [98.98243, 18.80062]}, "properties": {"id": "cm-osm-way-668372298", "name": "ISTY Hotel", "nameTh": null, "nameEn": "ISTY Hotel", "cat": ["hotel"], "province": "cm", "slug": "isty-hotel-668372298", "rank": 2}}, {"type": "Feature", "geometry": {"type": "Point", "coordinates": [98.98452, 18.78471]}, "properties": {"id": "cm-osm-way-793145641", "name": "Intentstable", "nameTh": null, "nameEn": "Intentstable", "cat": ["hotel"], "province": "cm", "slug": "intentstable-793145641", "rank": 1}}, {"type": "Feature", "geometry": {"type": "Point", "coordinates": [98.99252, 18.79205]}, "properties": {"id": "cm-osm-node-3419009696", "name": "La-Mer Hostel", "nameTh": null, "nameEn": "La-Mer Hostel", "cat": ["hotel"], "province": "cm", "slug": "la-mer-hostel-3419009696", "rank": 1}}, {"type": "Feature", "geometry": {"type": "Point", "coordinates": [98.99013, 18.79236]}, "properties": {"id": "cm-osm-node-5538968134", "name": "Lanna Tree Boutique Hotel", "nameTh": null, "nameEn": "Lanna Tree Boutique Hotel", "cat": ["hotel"], "province": "cm", "slug": "lanna-tree-boutique-hotel-5538968134", "rank": 1}}, {"type": "Feature", "geometry": {"type": "Point", "coordinates": [98.99047, 18.79231]}, "properties": {"id": "cm-osm-node-5538993663", "name": "Lanna Tree Boutique Hotel", "nameTh": null, "nameEn": "Lanna Tree Boutique Hotel", "cat": ["hotel"], "province": "cm", "slug": "lanna-tree-boutique-hotel-5538993663", "rank": 1}}, {"type": "Feature", "geometry": {"type": "Point", "coordinates": [99.11083, 18.87186]}, "properties": {"id": "cm-osm-node-1629161343", "name": "Lha's Place Homestay holiday homes", "nameTh": null, "nameEn": "Lha's Place Homestay holiday homes", "cat": ["hotel"], "province": "cm", "slug": "lha-s-place-homestay-holiday-homes-1629161343", "rank": 1}}, {"type": "Feature", "geometry": {"type": "Point", "coordinates": [98.90944, 18.92595]}, "properties": {"id": "cm-osm-node-3751056345", "name": "Monoceros Resort", "nameTh": null, "nameEn": "Monoceros Resort", "cat": ["hotel"], "province": "cm", "slug": "monoceros-resort-3751056345", "rank": 3}}, {"type": "Feature", "geometry": {"type": "Point", "coordinates": [98.99051, 18.78642]}, "properties": {"id": "cm-osm-node-988562302", "name": "Na Inn", "nameTh": null, "nameEn": "Na Inn", "cat": ["hotel"], "province": "cm", "slug": "na-inn-988562302", "rank": 1}}, {"type": "Feature", "geometry": {"type": "Point", "coordinates": [98.98163, 18.79216]}, "properties": {"id": "cm-osm-node-6204649738", "name": "Neat Hostel", "nameTh": null, "nameEn": "Neat Hostel", "cat": ["hotel"], "province": "cm", "slug": "neat-hostel-6204649738", "rank": 2}}, {"type": "Feature", "geometry": {"type": "Point", "coordinates": [98.98826, 18.77919]}, "properties": {"id": "cm-osm-node-2656777412", "name": "Nonni Guesthouse", "nameTh": null, "nameEn": "Nonni Guesthouse", "cat": ["hotel"], "province": "cm", "slug": "nonni-guesthouse-2656777412", "rank": 2}}, {"type": "Feature", "geometry": {"type": "Point", "coordinates": [98.9675, 18.79663]}, "properties": {"id": "cm-osm-node-12573495524", "name": "October Hostel", "nameTh": null, "nameEn": "October Hostel", "cat": ["hotel"], "province": "cm", "slug": "october-hostel-12573495524", "rank": 2}}, {"type": "Feature", "geometry": {"type": "Point", "coordinates": [98.9876, 18.7936]}, "properties": {"id": "cm-osm-node-4059564674", "name": "PM Guesthouse", "nameTh": null, "nameEn": "PM Guesthouse", "cat": ["hotel"], "province": "cm", "slug": "pm-guesthouse-4059564674", "rank": 3}}, {"type": "Feature", "geometry": {"type": "Point", "coordinates": [98.99315, 18.79326]}, "properties": {"id": "cm-osm-way-377819743", "name": "Papick Lodge", "nameTh": null, "nameEn": "Papick Lodge", "cat": ["hotel"], "province": "cm", "slug": "papick-lodge-377819743", "rank": 1}}, {"type": "Feature", "geometry": {"type": "Point", "coordinates": [99.00241, 18.78176]}, "properties": {"id": "cm-osm-way-406558110", "name": "People Place 2", "nameTh": null, "nameEn": "People Place 2", "cat": ["hotel"], "province": "cm", "slug": "people-place-2-406558110", "rank": 1}}, {"type": "Feature", "geometry": {"type": "Point", "coordinates": [99.0046, 18.77961]}, "properties": {"id": "cm-osm-way-387494489", "name": "Ping Nakara", "nameTh": null, "nameEn": "Ping Nakara", "cat": ["hotel"], "province": "cm", "slug": "ping-nakara-387494489", "rank": 4}}, {"type": "Feature", "geometry": {"type": "Point", "coordinates": [98.99264, 18.78455]}, "properties": {"id": "cm-osm-node-11590565197", "name": "Revolution Chiang Mai - Old Town", "nameTh": null, "nameEn": "Revolution Chiang Mai - Old Town", "cat": ["hotel"], "province": "cm", "slug": "revolution-chiang-mai-old-town-11590565197", "rank": 2}}, {"type": "Feature", "geometry": {"type": "Point", "coordinates": [98.97988, 18.79331]}, "properties": {"id": "cm-osm-way-753589983", "name": "Rimwiang Hotel", "nameTh": "โรงแรมริมเวียง", "nameEn": "Rimwiang Hotel", "cat": ["hotel"], "province": "cm", "slug": "rimwiang-hotel-753589983", "rank": 4}}, {"type": "Feature", "geometry": {"type": "Point", "coordinates": [98.99432, 18.79825]}, "properties": {"id": "cm-osm-way-102999878", "name": "Royal Peninsula", "nameTh": null, "nameEn": "Royal Peninsula", "cat": ["hotel"], "province": "cm", "slug": "royal-peninsula-102999878", "rank": 2}}, {"type": "Feature", "geometry": {"type": "Point", "coordinates": [98.95531, 18.74511]}, "properties": {"id": "cm-osm-node-2489198445", "name": "San Pareni", "nameTh": null, "nameEn": "San Pareni", "cat": ["hotel"], "province": "cm", "slug": "san-pareni-2489198445", "rank": 2}}, {"type": "Feature", "geometry": {"type": "Point", "coordinates": [99.0053, 18.80193]}, "properties": {"id": "cm-osm-node-11553901065", "name": "Sannot Riverside Boutique Hotel", "nameTh": null, "nameEn": "Sannot Riverside Boutique Hotel", "cat": ["hotel"], "province": "cm", "slug": "sannot-riverside-boutique-hotel-11553901065", "rank": 1}}, {"type": "Feature", "geometry": {"type": "Point", "coordinates": [99.09743, 18.7811]}, "properties": {"id": "cm-osm-way-314940925", "name": "Secret Garden", "nameTh": "ซิเคร์ท การร์เด้นท์", "nameEn": "Secret Garden", "cat": ["hotel"], "province": "cm", "slug": "secret-garden-314940925", "rank": 4}}, {"type": "Feature", "geometry": {"type": "Point", "coordinates": [99.00364, 18.78627]}, "properties": {"id": "cm-osm-node-3417181189", "name": "Siriya House", "nameTh": null, "nameEn": "Siriya House", "cat": ["hotel"], "province": "cm", "slug": "siriya-house-3417181189", "rank": 2}}, {"type": "Feature", "geometry": {"type": "Point", "coordinates": [98.99675, 18.80054]}, "properties": {"id": "cm-osm-way-319812106", "name": "Sleepbox", "nameTh": null, "nameEn": "Sleepbox", "cat": ["hotel"], "province": "cm", "slug": "sleepbox-319812106", "rank": 2}}, {"type": "Feature", "geometry": {"type": "Point", "coordinates": [98.99664, 18.784]}, "properties": {"id": "cm-osm-node-820315995", "name": "Soi Sabai", "nameTh": null, "nameEn": "Soi Sabai", "cat": ["hotel"], "province": "cm", "slug": "soi-sabai-820315995", "rank": 2}}, {"type": "Feature", "geometry": {"type": "Point", "coordinates": [98.98027, 18.79848]}, "properties": {"id": "cm-osm-way-301482928", "name": "Spicythai Backpackers", "nameTh": null, "nameEn": "Spicythai Backpackers", "cat": ["hotel"], "province": "cm", "slug": "spicythai-backpackers-301482928", "rank": 1}}, {"type": "Feature", "geometry": {"type": "Point", "coordinates": [98.99251, 18.78641]}, "properties": {"id": "cm-osm-way-482772357", "name": "Taicoon House", "nameTh": null, "nameEn": "Taicoon House", "cat": ["hotel"], "province": "cm", "slug": "taicoon-house-482772357", "rank": 1}}, {"type": "Feature", "geometry": {"type": "Point", "coordinates": [98.98972, 18.78859]}, "properties": {"id": "cm-osm-node-3410834689", "name": "Tamarind Village", "nameTh": null, "nameEn": "Tamarind Village", "cat": ["hotel"], "province": "cm", "slug": "tamarind-village-3410834689", "rank": 3}}, {"type": "Feature", "geometry": {"type": "Point", "coordinates": [99.00184, 18.79319]}, "properties": {"id": "cm-osm-node-2638475286", "name": "Tanita", "nameTh": null, "nameEn": "Tanita", "cat": ["hotel"], "province": "cm", "slug": "tanita-2638475286", "rank": 4}}, {"type": "Feature", "geometry": {"type": "Point", "coordinates": [98.99502, 18.78714]}, "properties": {"id": "cm-osm-node-1001600108", "name": "Thapae Boutique House", "nameTh": null, "nameEn": "Thapae Boutique House", "cat": ["hotel"], "province": "cm", "slug": "thapae-boutique-house-1001600108", "rank": 2}}, {"type": "Feature", "geometry": {"type": "Point", "coordinates": [98.99154, 18.79127]}, "properties": {"id": "cm-osm-way-578853343", "name": "The Eight Ratvithi House", "nameTh": null, "nameEn": "The Eight Ratvithi House", "cat": ["hotel"], "province": "cm", "slug": "the-eight-ratvithi-house-578853343", "rank": 1}}, {"type": "Feature", "geometry": {"type": "Point", "coordinates": [98.99534, 18.79152]}, "properties": {"id": "cm-osm-node-4189480789", "name": "The Guest Chang Moi Hotel", "nameTh": null, "nameEn": "The Guest Chang Moi Hotel", "cat": ["hotel"], "province": "cm", "slug": "the-guest-chang-moi-hotel-4189480789", "rank": 2}}, {"type": "Feature", "geometry": {"type": "Point", "coordinates": [98.97118, 18.79729]}, "properties": {"id": "cm-osm-node-5788744252", "name": "The Mirror", "nameTh": null, "nameEn": "The Mirror", "cat": ["hotel"], "province": "cm", "slug": "the-mirror-5788744252", "rank": 1}}, {"type": "Feature", "geometry": {"type": "Point", "coordinates": [98.96927, 18.79517]}, "properties": {"id": "cm-osm-way-276725541", "name": "The Nimman Hotel", "nameTh": null, "nameEn": "The Nimman Hotel", "cat": ["hotel"], "province": "cm", "slug": "the-nimman-hotel-276725541", "rank": 3}}, {"type": "Feature", "geometry": {"type": "Point", "coordinates": [98.99332, 18.7959]}, "properties": {"id": "cm-osm-node-4535975018", "name": "The Nook Hotel", "nameTh": null, "nameEn": "The Nook Hotel", "cat": ["hotel"], "province": "cm", "slug": "the-nook-hotel-4535975018", "rank": 2}}, {"type": "Feature", "geometry": {"type": "Point", "coordinates": [98.97855, 18.78669]}, "properties": {"id": "cm-osm-way-238830184", "name": "The Rim Resort", "nameTh": null, "nameEn": "The Rim Resort", "cat": ["hotel"], "province": "cm", "slug": "the-rim-resort-238830184", "rank": 3}}, {"type": "Feature", "geometry": {"type": "Point", "coordinates": [98.99143, 18.79083]}, "properties": {"id": "cm-osm-node-13238146963", "name": "The Shire Guesthouse", "nameTh": null, "nameEn": "The Shire Guesthouse", "cat": ["hotel"], "province": "cm", "slug": "the-shire-guesthouse-13238146963", "rank": 1}}, {"type": "Feature", "geometry": {"type": "Point", "coordinates": [98.99211, 18.83261]}, "properties": {"id": "cm-osm-node-13076053766", "name": "Tonnam Homestay", "nameTh": "ต้นน้ำโฮมสเตย์", "nameEn": "Tonnam Homestay", "cat": ["hotel"], "province": "cm", "slug": "tonnam-homestay-13076053766", "rank": 4}}, {"type": "Feature", "geometry": {"type": "Point", "coordinates": [99.01855, 18.73378]}, "properties": {"id": "cm-osm-node-4087646232", "name": "Tree Space Resort", "nameTh": null, "nameEn": "Tree Space Resort", "cat": ["hotel"], "province": "cm", "slug": "tree-space-resort-4087646232", "rank": 1}}, {"type": "Feature", "geometry": {"type": "Point", "coordinates": [98.97521, 18.79892]}, "properties": {"id": "cm-osm-way-255518402", "name": "Varada Place", "nameTh": null, "nameEn": "Varada Place", "cat": ["hotel"], "province": "cm", "slug": "varada-place-255518402", "rank": 2}}, {"type": "Feature", "geometry": {"type": "Point", "coordinates": [98.98795, 18.79378]}, "properties": {"id": "cm-osm-way-251437111", "name": "Vista Hotel", "nameTh": null, "nameEn": "Vista Hotel", "cat": ["hotel"], "province": "cm", "slug": "vista-hotel-251437111", "rank": 2}}, {"type": "Feature", "geometry": {"type": "Point", "coordinates": [98.98528, 18.79462]}, "properties": {"id": "cm-osm-node-2367852958", "name": "Western House Hotel", "nameTh": null, "nameEn": "Western House Hotel", "cat": ["hotel"], "province": "cm", "slug": "western-house-hotel-2367852958", "rank": 2}}, {"type": "Feature", "geometry": {"type": "Point", "coordinates": [98.97869, 18.79363]}, "properties": {"id": "cm-osm-way-623150699", "name": "White Chalet", "nameTh": null, "nameEn": "White Chalet", "cat": ["hotel"], "province": "cm", "slug": "white-chalet-623150699", "rank": 2}}, {"type": "Feature", "geometry": {"type": "Point", "coordinates": [99.00867, 18.75524]}, "properties": {"id": "cm-osm-way-314677557", "name": "Woodfield Resort Chiang Mai", "nameTh": null, "nameEn": "Woodfield Resort Chiang Mai", "cat": ["hotel"], "province": "cm", "slug": "woodfield-resort-chiang-mai-314677557", "rank": 3}}, {"type": "Feature", "geometry": {"type": "Point", "coordinates": [98.95999, 18.80615]}, "properties": {"id": "cm-osm-way-285999615", "name": "ibis Styles", "nameTh": null, "nameEn": "ibis Styles", "cat": ["hotel"], "province": "cm", "slug": "ibis-styles-285999615", "rank": 3}}, {"type": "Feature", "geometry": {"type": "Point", "coordinates": [99.01055, 18.78645]}, "properties": {"id": "cm-osm-node-2595949603", "name": "ชีวี วนา สวีท รีสอร์ท", "nameTh": "ชีวี วนา สวีท รีสอร์ท", "nameEn": "Shewe Wana Suite Resort", "cat": ["hotel"], "province": "cm", "slug": "shewe-wana-suite-resort-2595949603", "rank": 4}}, {"type": "Feature", "geometry": {"type": "Point", "coordinates": [98.99382, 18.79139]}, "properties": {"id": "cm-osm-node-1491363959", "name": "บ้านกลางเวียง", "nameTh": "บ้านกลางเวียง", "nameEn": "Baan Klang Vieng", "cat": ["hotel"], "province": "cm", "slug": "baan-klang-vieng-1491363959", "rank": 2}}, {"type": "Feature", "geometry": {"type": "Point", "coordinates": [98.9948, 18.7838]}, "properties": {"id": "cm-osm-node-820812757", "name": "บ้านนานาชาติ เซนเตอร์เพลส", "nameTh": "บ้านนานาชาติ เซนเตอร์เพลส", "nameEn": "Centerplace", "cat": ["hotel"], "province": "cm", "slug": "centerplace-820812757", "rank": 3}}, {"type": "Feature", "geometry": {"type": "Point", "coordinates": [99.04594, 18.74023]}, "properties": {"id": "cm-osm-node-2654840206", "name": "บ้านพวงเพชร", "nameTh": "บ้านพวงเพชร", "nameEn": "Baan Puang Petch", "cat": ["hotel"], "province": "cm", "slug": "baan-puang-petch-2654840206", "rank": 2}}, {"type": "Feature", "geometry": {"type": "Point", "coordinates": [98.97185, 18.80553]}, "properties": {"id": "cm-osm-way-314669822", "name": "ปางสะหวันเพลส", "nameTh": "ปางสะหวันเพลส", "nameEn": "Pangsawan Place", "cat": ["hotel"], "province": "cm", "slug": "pangsawan-place-314669822", "rank": 3}}, {"type": "Feature", "geometry": {"type": "Point", "coordinates": [98.81613, 18.95677]}, "properties": {"id": "cm-osm-way-240082625", "name": "ม้งฮิลล์ไทรบ์ลอดจ์", "nameTh": "ม้งฮิลล์ไทรบ์ลอดจ์", "nameEn": "Hmong Hilltribe Lodge", "cat": ["hotel"], "province": "cm", "slug": "hmong-hilltribe-lodge-240082625", "rank": 5}}, {"type": "Feature", "geometry": {"type": "Point", "coordinates": [98.9866, 18.77632]}, "properties": {"id": "cm-osm-way-1214460611", "name": "วัวลายสบายดี", "nameTh": "วัวลายสบายดี", "nameEn": "Wualai Sabaidee Boutique Hotel", "cat": ["hotel"], "province": "cm", "slug": "wualai-sabaidee-boutique-hotel-1214460611", "rank": 2}}, {"type": "Feature", "geometry": {"type": "Point", "coordinates": [98.98078, 18.80253]}, "properties": {"id": "cm-osm-way-204079088", "name": "วิลล่า กอบุญกลิ่นบัว", "nameTh": "วิลล่า กอบุญกลิ่นบัว", "nameEn": "Villa Korbhun Khinbua", "cat": ["hotel"], "province": "cm", "slug": "villa-korbhun-khinbua-204079088", "rank": 3}}, {"type": "Feature", "geometry": {"type": "Point", "coordinates": [98.92209, 18.91073]}, "properties": {"id": "cm-osm-node-5327328687", "name": "สาลาแม่ริม", "nameTh": "สาลาแม่ริม", "nameEn": "Sala Maerim", "cat": ["hotel"], "province": "cm", "slug": "sala-maerim-5327328687", "rank": 2}}, {"type": "Feature", "geometry": {"type": "Point", "coordinates": [98.99606, 18.78542]}, "properties": {"id": "cm-osm-way-361099900", "name": "แมนดาลาเฮาส์", "nameTh": "แมนดาลาเฮาส์", "nameEn": "Mandala House", "cat": ["hotel"], "province": "cm", "slug": "mandala-house-361099900", "rank": 3}}, {"type": "Feature", "geometry": {"type": "Point", "coordinates": [98.98963, 18.78513]}, "properties": {"id": "cm-osm-way-97801638", "name": "โรงแรมอโนดาต", "nameTh": "โรงแรมอโนดาต", "nameEn": "Anodard Hotel", "cat": ["hotel"], "province": "cm", "slug": "anodard-hotel-97801638", "rank": 3}}, {"type": "Feature", "geometry": {"type": "Point", "coordinates": [99.00184, 18.78457]}, "properties": {"id": "cm-osm-way-334798677", "name": "โรงแรมไนซ์บาซ่าร์ อินน์", "nameTh": "โรงแรมไนซ์บาซ่าร์ อินน์", "nameEn": "Night Bazaar Inn", "cat": ["hotel"], "province": "cm", "slug": "night-bazaar-inn-334798677", "rank": 3}}, {"type": "Feature", "geometry": {"type": "Point", "coordinates": [99.00333, 18.78149]}, "properties": {"id": "cm-osm-node-3326560612", "name": "Pum Thai Restaurant & Cooking School", "nameTh": null, "nameEn": "Pum Thai Restaurant & Cooking School", "cat": ["cooking", "school"], "province": "cm", "slug": "pum-thai-restaurant-cooking-school-3326560612", "rank": 1}}, {"type": "Feature", "geometry": {"type": "Point", "coordinates": [98.9267, 19.02102]}, "properties": {"id": "cm-osm-node-10593235382", "name": "ภาควิชาคหกรรมศาสตร์ (อาคาร SCI11)", "nameTh": "ภาควิชาคหกรรมศาสตร์ (อาคาร SCI11)", "nameEn": null, "cat": ["school"], "province": "cm", "slug": "sci11-10593235382", "rank": 2}}, {"type": "Feature", "geometry": {"type": "Point", "coordinates": [98.92612, 19.02158]}, "properties": {"id": "cm-osm-node-10593235384", "name": "ภาควิชาคอมพิวเตอร์ / ภาควิชาคณิตศาสตร์และสถิติ (SCI9)", "nameTh": "ภาควิชาคอมพิวเตอร์ / ภาควิชาคณิตศาสตร์และสถิติ (SCI9)", "nameEn": null, "cat": ["school"], "province": "cm", "slug": "sci9-10593235384", "rank": 2}}, {"type": "Feature", "geometry": {"type": "Point", "coordinates": [98.92597, 19.02117]}, "properties": {"id": "cm-osm-node-10593235381", "name": "ภาควิชาชีววิทยา (อาคาร SCI8)", "nameTh": "ภาควิชาชีววิทยา (อาคาร SCI8)", "nameEn": null, "cat": ["school"], "province": "cm", "slug": "sci8-10593235381", "rank": 2}}, {"type": "Feature", "geometry": {"type": "Point", "coordinates": [98.92551, 19.02135]}, "properties": {"id": "cm-osm-node-10593235385", "name": "ภาควิชาฟิสิกส์และวิทยาศาสตร์ทั่วไป (อาคาร SCI7)", "nameTh": "ภาควิชาฟิสิกส์และวิทยาศาสตร์ทั่วไป (อาคาร SCI7)", "nameEn": null, "cat": ["school"], "province": "cm", "slug": "sci7-10593235385", "rank": 2}}, {"type": "Feature", "geometry": {"type": "Point", "coordinates": [98.92694, 19.02136]}, "properties": {"id": "cm-osm-node-10593235383", "name": "ภาควิชาสาธารณสุขศาสตร์/ภาควิชาวิทยาศาสตร์สิ่งแวดล้อม (อาคาร SCI10)", "nameTh": "ภาควิชาสาธารณสุขศาสตร์/ภาควิชาวิทยาศาสตร์สิ่งแวดล้อม (อาคาร SCI10)", "nameEn": null, "cat": ["school"], "province": "cm", "slug": "sci10-10593235383", "rank": 2}}, {"type": "Feature", "geometry": {"type": "Point", "coordinates": [98.92538, 19.02075]}, "properties": {"id": "cm-osm-node-10593235380", "name": "ภาควิชาเคมี (อาคาร SCI6)", "nameTh": "ภาควิชาเคมี (อาคาร SCI6)", "nameEn": null, "cat": ["school"], "province": "cm", "slug": "sci6-10593235380", "rank": 2}}, {"type": "Feature", "geometry": {"type": "Point", "coordinates": [98.92298, 19.02205]}, "properties": {"id": "cm-osm-node-10593235387", "name": "สำนักงานคณะครุศาสตร์", "nameTh": "สำนักงานคณะครุศาสตร์", "nameEn": null, "cat": ["school"], "province": "cm", "slug": "10593235387", "rank": 1}}, {"type": "Feature", "geometry": {"type": "Point", "coordinates": [98.92399, 19.02152]}, "properties": {"id": "cm-osm-node-10593235376", "name": "สำนักงานคณะวิทยาศาสตร์และเทคโนโลยี", "nameTh": "สำนักงานคณะวิทยาศาสตร์และเทคโนโลยี", "nameEn": null, "cat": ["school"], "province": "cm", "slug": "10593235376", "rank": 2}}, {"type": "Feature", "geometry": {"type": "Point", "coordinates": [98.92333, 19.02432]}, "properties": {"id": "cm-osm-node-10593235393", "name": "สำนักดิจิทัลเพื่อการศึกษา / สำนักหอสมุด", "nameTh": "สำนักดิจิทัลเพื่อการศึกษา / สำนักหอสมุด", "nameEn": null, "cat": ["school"], "province": "cm", "slug": "10593235393", "rank": 1}}, {"type": "Feature", "geometry": {"type": "Point", "coordinates": [98.92183, 19.02323]}, "properties": {"id": "cm-osm-node-10593235388", "name": "หอประชุมคณะครุศาสตร์", "nameTh": "หอประชุมคณะครุศาสตร์", "nameEn": null, "cat": ["school"], "province": "cm", "slug": "10593235388", "rank": 1}}, {"type": "Feature", "geometry": {"type": "Point", "coordinates": [98.92265, 19.02056]}, "properties": {"id": "cm-osm-node-10593235391", "name": "หอพักนักศึกษาคณะครุศาสตร์", "nameTh": "หอพักนักศึกษาคณะครุศาสตร์", "nameEn": null, "cat": ["school"], "province": "cm", "slug": "10593235391", "rank": 1}}, {"type": "Feature", "geometry": {"type": "Point", "coordinates": [98.9244, 19.02181]}, "properties": {"id": "cm-osm-node-10593235375", "name": "ห้องพักอาจารย์คณะวิทยาศาสตร์และเทคโนโลยี", "nameTh": "ห้องพักอาจารย์คณะวิทยาศาสตร์และเทคโนโลยี", "nameEn": null, "cat": ["school"], "province": "cm", "slug": "10593235375", "rank": 2}}, {"type": "Feature", "geometry": {"type": "Point", "coordinates": [98.9215, 19.02274]}, "properties": {"id": "cm-osm-node-10593235392", "name": "อาคาร C", "nameTh": "อาคาร C", "nameEn": null, "cat": ["school"], "province": "cm", "slug": "c-10593235392", "rank": 1}}, {"type": "Feature", "geometry": {"type": "Point", "coordinates": [98.92269, 19.0228]}, "properties": {"id": "cm-osm-node-10593235389", "name": "อาคารพวงคราม 1", "nameTh": "อาคารพวงคราม 1", "nameEn": null, "cat": ["school"], "province": "cm", "slug": "1-10593235389", "rank": 1}}, {"type": "Feature", "geometry": {"type": "Point", "coordinates": [98.922, 19.02236]}, "properties": {"id": "cm-osm-node-10593235390", "name": "อาคารพวงคราม 2", "nameTh": "อาคารพวงคราม 2", "nameEn": null, "cat": ["school"], "province": "cm", "slug": "2-10593235390", "rank": 1}}, {"type": "Feature", "geometry": {"type": "Point", "coordinates": [98.92557, 19.01804]}, "properties": {"id": "cm-osm-node-10593235395", "name": "อาคารวิศวกรรมและก่อสร้าง", "nameTh": "อาคารวิศวกรรมและก่อสร้าง", "nameEn": null, "cat": ["school"], "province": "cm", "slug": "10593235395", "rank": 1}}, {"type": "Feature", "geometry": {"type": "Point", "coordinates": [98.92613, 19.01894]}, "properties": {"id": "cm-osm-node-10593235394", "name": "อาคารเทคโนโลยีเซรามิค", "nameTh": "อาคารเทคโนโลยีเซรามิค", "nameEn": null, "cat": ["school"], "province": "cm", "slug": "10593235394", "rank": 1}}, {"type": "Feature", "geometry": {"type": "Point", "coordinates": [98.92455, 19.02067]}, "properties": {"id": "cm-osm-node-10593235379", "name": "อาคารเรียนรวม C (SCI5)", "nameTh": "อาคารเรียนรวม C (SCI5)", "nameEn": null, "cat": ["school"], "province": "cm", "slug": "c-sci5-10593235379", "rank": 2}}, {"type": "Feature", "geometry": {"type": "Point", "coordinates": [98.92439, 19.02111]}, "properties": {"id": "cm-osm-node-10593235378", "name": "อาคารเรียนรวมและหอประชุมคณะวิทยาศาสตร์และเทคโนโลยี(SCI4)", "nameTh": "อาคารเรียนรวมและหอประชุมคณะวิทยาศาสตร์และเทคโนโลยี(SCI4)", "nameEn": null, "cat": ["school"], "province": "cm", "slug": "sci4-10593235378", "rank": 2}}, {"type": "Feature", "geometry": {"type": "Point", "coordinates": [98.92268, 19.02158]}, "properties": {"id": "cm-osm-node-10593235386", "name": "โรงอาหารคณะครุศาสตร์", "nameTh": "โรงอาหารคณะครุศาสตร์", "nameEn": null, "cat": ["school"], "province": "cm", "slug": "10593235386", "rank": 1}}, {"type": "Feature", "geometry": {"type": "Point", "coordinates": [98.92407, 19.02231]}, "properties": {"id": "cm-osm-node-10593235377", "name": "โรงอาหารและสโมสรนักศึกษาคณะวิทยาศาสตร์และเทคโนโลยี (SCI3)", "nameTh": "โรงอาหารและสโมสรนักศึกษาคณะวิทยาศาสตร์และเทคโนโลยี (SCI3)", "nameEn": null, "cat": ["school"], "province": "cm", "slug": "sci3-10593235377", "rank": 2}}, {"type": "Feature", "geometry": {"type": "Point", "coordinates": [98.98024, 18.80458]}, "properties": {"id": "cm-osm-node-2530379596", "name": "เอ็มแอนด์ดี แมนชั่น", "nameTh": "เอ็มแอนด์ดี แมนชั่น", "nameEn": "M&D Mansion", "cat": ["realestate"], "province": "cm", "slug": "m-d-mansion-2530379596", "rank": 3}}]}