{"type": "FeatureCollection", "features": [{"type": "Feature", "geometry": {"type": "Point", "coordinates": [98.96731, 18.80021]}, "properties": {"id": "cm-osm-node-3276155577", "name": "ธนาคารอาคารสงเคราะห์", "nameTh": "ธนาคารอาคารสงเคราะห์", "nameEn": "Government Housing Bank", "cat": ["essentials"], "province": "cm", "slug": "government-housing-bank-3276155577", "rank": 2}}, {"type": "Feature", "geometry": {"type": "Point", "coordinates": [99.01124, 18.89204]}, "properties": {"id": "cm-osm-node-3339981119", "name": "ธนาคารอาคารสงเคราะห์", "nameTh": "ธนาคารอาคารสงเคราะห์", "nameEn": "Government Housing Bank", "cat": ["essentials"], "province": "cm", "slug": "government-housing-bank-3339981119", "rank": 2}}, {"type": "Feature", "geometry": {"type": "Point", "coordinates": [98.9752, 18.76973]}, "properties": {"id": "cm-osm-node-3347631786", "name": "ธนาคารอาคารสงเคราะห์", "nameTh": "ธนาคารอาคารสงเคราะห์", "nameEn": "Government Housing Bank", "cat": ["essentials"], "province": "cm", "slug": "government-housing-bank-3347631786", "rank": 3}}, {"type": "Feature", "geometry": {"type": "Point", "coordinates": [99.12188, 18.74307]}, "properties": {"id": "cm-osm-node-4679695827", "name": "ธนาคารอาคารสงเคราะห์", "nameTh": "ธนาคารอาคารสงเคราะห์", "nameEn": "Government Housing Bank", "cat": ["essentials"], "province": "cm", "slug": "government-housing-bank-4679695827", "rank": 2}}, {"type": "Feature", "geometry": {"type": "Point", "coordinates": [98.95931, 18.78615]}, "properties": {"id": "cm-osm-node-8892109841", "name": "ธนาคารอาคารสงเคราะห์", "nameTh": "ธนาคารอาคารสงเคราะห์", "nameEn": "Government Housing Bank", "cat": ["essentials"], "province": "cm", "slug": "government-housing-bank-8892109841", "rank": 2}}, {"type": "Feature", "geometry": {"type": "Point", "coordinates": [99.01882, 18.80094]}, "properties": {"id": "cm-osm-way-323078815", "name": "ธนาคารอาคารสงเคราะห์", "nameTh": "ธนาคารอาคารสงเคราะห์", "nameEn": "Government Housing Bank", "cat": ["essentials"], "province": "cm", "slug": "government-housing-bank-323078815", "rank": 2}}]}