{"type": "FeatureCollection", "features": [{"type": "Feature", "geometry": {"type": "Point", "coordinates": [98.96129, 18.80217]}, "properties": {"id": "cm-curated-chiangmai-holistic", "name": "Chiang Mai Holistic", "nameTh": null, "nameEn": "Chiang Mai Holistic", "cat": ["medical"], "province": "cm", "slug": "chiang-mai-holistic-cmcuratedchiangmaiholistic", "rank": 4}}, {"type": "Feature", "geometry": {"type": "Point", "coordinates": [98.96129, 18.80217]}, "properties": {"id": "cm-curated-counselling-thailand", "name": "Counselling Thailand", "nameTh": null, "nameEn": "Counselling Thailand — Chiang Mai", "cat": ["medical"], "province": "cm", "slug": "counselling-thailand-chiang-mai-cmcuratedcounsellingthailand", "rank": 5}}, {"type": "Feature", "geometry": {"type": "Point", "coordinates": [98.97979, 18.78896]}, "properties": {"id": "cm-osm-node-3385521309", "name": "คลินิกนายแพทย์ จำลอง ดิษยวณิช", "nameTh": "คลินิกนายแพทย์ จำลอง ดิษยวณิช", "nameEn": "Psychiatric Clinic", "cat": ["medical"], "province": "cm", "slug": "psychiatric-clinic-3385521309", "rank": 3}}, {"type": "Feature", "geometry": {"type": "Point", "coordinates": [98.98155, 18.78271]}, "properties": {"id": "cm-osm-node-3388717543", "name": "คลินิกหมอกิตติวรรณ", "nameTh": "คลินิกหมอกิตติวรรณ", "nameEn": "Dr. Kittiwan Psychiatric Clinic", "cat": ["medical"], "province": "cm", "slug": "dr-kittiwan-psychiatric-clinic-3388717543", "rank": 3}}, {"type": "Feature", "geometry": {"type": "Point", "coordinates": [98.97915, 18.77941]}, "properties": {"id": "cm-osm-way-1212478397", "name": "โรงพยาบาลสวนปรุง", "nameTh": "โรงพยาบาลสวนปรุง", "nameEn": "Suan Prung Psychiatric Hospital", "cat": ["medical"], "province": "cm", "slug": "suan-prung-psychiatric-hospital-1212478397", "rank": 2}}]}