{"type": "FeatureCollection", "features": [{"type": "Feature", "geometry": {"type": "Point", "coordinates": [99.01285, 18.82884]}, "properties": {"id": "cm-osm-node-3979200909", "name": "Doi Cafe & Roasting", "nameTh": null, "nameEn": "Doi Cafe & Roasting", "cat": ["food"], "province": "cm", "slug": "doi-cafe-roasting-3979200909", "rank": 1}}, {"type": "Feature", "geometry": {"type": "Point", "coordinates": [98.98997, 18.78238]}, "properties": {"id": "cm-osm-node-1618868156", "name": "Doi Chaang", "nameTh": null, "nameEn": "Doi Chaang", "cat": ["food"], "province": "cm", "slug": "doi-chaang-1618868156", "rank": 1}}, {"type": "Feature", "geometry": {"type": "Point", "coordinates": [99.00329, 18.74224]}, "properties": {"id": "cm-osm-node-1819897327", "name": "Doi Chaang", "nameTh": null, "nameEn": "Doi Chaang", "cat": ["food"], "province": "cm", "slug": "doi-chaang-1819897327", "rank": 1}}, {"type": "Feature", "geometry": {"type": "Point", "coordinates": [99.01203, 18.8282]}, "properties": {"id": "cm-osm-node-2450538522", "name": "Doi Chaang", "nameTh": null, "nameEn": "Doi Chaang", "cat": ["food"], "province": "cm", "slug": "doi-chaang-2450538522", "rank": 1}}, {"type": "Feature", "geometry": {"type": "Point", "coordinates": [98.96557, 18.79464]}, "properties": {"id": "cm-osm-node-2660438580", "name": "Doi Chaang", "nameTh": null, "nameEn": "Doi Chaang", "cat": ["food"], "province": "cm", "slug": "doi-chaang-2660438580", "rank": 1}}, {"type": "Feature", "geometry": {"type": "Point", "coordinates": [98.95735, 18.8074]}, "properties": {"id": "cm-osm-node-3242548890", "name": "Doi Chaang", "nameTh": null, "nameEn": "Doi Chaang", "cat": ["food"], "province": "cm", "slug": "doi-chaang-3242548890", "rank": 1}}, {"type": "Feature", "geometry": {"type": "Point", "coordinates": [98.89025, 18.74881]}, "properties": {"id": "cm-osm-node-3256172105", "name": "Doi Chaang", "nameTh": null, "nameEn": "Doi Chaang", "cat": ["food"], "province": "cm", "slug": "doi-chaang-3256172105", "rank": 1}}, {"type": "Feature", "geometry": {"type": "Point", "coordinates": [98.95379, 18.7768]}, "properties": {"id": "cm-osm-node-3341093652", "name": "Doi Chaang", "nameTh": null, "nameEn": "Doi Chaang", "cat": ["food"], "province": "cm", "slug": "doi-chaang-3341093652", "rank": 1}}, {"type": "Feature", "geometry": {"type": "Point", "coordinates": [98.96845, 18.79976]}, "properties": {"id": "cm-osm-node-3927203445", "name": "Doi Chaang", "nameTh": null, "nameEn": "Doi Chaang", "cat": ["food"], "province": "cm", "slug": "doi-chaang-3927203445", "rank": 1}}, {"type": "Feature", "geometry": {"type": "Point", "coordinates": [99.02914, 18.78257]}, "properties": {"id": "cm-osm-node-5149373628", "name": "Doi Chaang", "nameTh": null, "nameEn": "Doi Chaang", "cat": ["food"], "province": "cm", "slug": "doi-chaang-5149373628", "rank": 1}}, {"type": "Feature", "geometry": {"type": "Point", "coordinates": [98.94307, 18.93916]}, "properties": {"id": "cm-osm-node-2611231828", "name": "ไม้เฮือน 60", "nameTh": "ไม้เฮือน 60", "nameEn": "Mai Kuen 60", "cat": ["food"], "province": "cm", "slug": "mai-kuen-60-2611231828", "rank": 3}}]}