{"type": "FeatureCollection", "features": [{"type": "Feature", "geometry": {"type": "Point", "coordinates": [98.3618, 18.50087]}, "properties": {"id": "cm-obec-1050130335", "name": "โรงเรียนชุมชนบ้านช่างเคิ่ง", "nameTh": "โรงเรียนชุมชนบ้านช่างเคิ่ง", "nameEn": null, "cat": ["school"], "province": "cm", "slug": "1050130335", "rank": 3}}, {"type": "Feature", "geometry": {"type": "Point", "coordinates": [98.7324, 18.83726]}, "properties": {"id": "cm-obec-1050130520", "name": "โรงเรียนทรายทองราษฎร์อุทิศ", "nameTh": "โรงเรียนทรายทองราษฎร์อุทิศ", "nameEn": null, "cat": ["school"], "province": "cm", "slug": "1050130520", "rank": 3}}, {"type": "Feature", "geometry": {"type": "Point", "coordinates": [99.05169, 19.92585]}, "properties": {"id": "cm-obec-1050130199", "name": "โรงเรียนบ้านขอบด้ง", "nameTh": "โรงเรียนบ้านขอบด้ง", "nameEn": null, "cat": ["school"], "province": "cm", "slug": "1050130199", "rank": 3}}, {"type": "Feature", "geometry": {"type": "Point", "coordinates": [99.53132, 20.09586]}, "properties": {"id": "cm-obec-1050130475", "name": "โรงเรียนบ้านสุขฤทัย", "nameTh": "โรงเรียนบ้านสุขฤทัย", "nameEn": null, "cat": ["school"], "province": "cm", "slug": "1050130475", "rank": 2}}, {"type": "Feature", "geometry": {"type": "Point", "coordinates": [99.13841, 19.80641]}, "properties": {"id": "cm-obec-1050130196", "name": "โรงเรียนบ้านหนองขวาง", "nameTh": "โรงเรียนบ้านหนองขวาง", "nameEn": null, "cat": ["school"], "province": "cm", "slug": "1050130196", "rank": 3}}, {"type": "Feature", "geometry": {"type": "Point", "coordinates": [98.95339, 19.715]}, "properties": {"id": "cm-obec-1050130130", "name": "โรงเรียนบ้านหนองเขียว", "nameTh": "โรงเรียนบ้านหนองเขียว", "nameEn": null, "cat": ["school"], "province": "cm", "slug": "1050130130", "rank": 2}}, {"type": "Feature", "geometry": {"type": "Point", "coordinates": [99.13641, 19.92359]}, "properties": {"id": "cm-obec-1050130207", "name": "โรงเรียนบ้านหัวนา", "nameTh": "โรงเรียนบ้านหัวนา", "nameEn": null, "cat": ["school"], "province": "cm", "slug": "1050130207", "rank": 3}}, {"type": "Feature", "geometry": {"type": "Point", "coordinates": [99.15379, 19.92094]}, "properties": {"id": "cm-obec-1050130202", "name": "โรงเรียนบ้านหัวฝาย", "nameTh": "โรงเรียนบ้านหัวฝาย", "nameEn": null, "cat": ["school"], "province": "cm", "slug": "1050130202", "rank": 3}}, {"type": "Feature", "geometry": {"type": "Point", "coordinates": [99.1295, 19.81183]}, "properties": {"id": "cm-obec-1050130195", "name": "โรงเรียนบ้านห้วยห้อม", "nameTh": "โรงเรียนบ้านห้วยห้อม", "nameEn": null, "cat": ["school"], "province": "cm", "slug": "1050130195", "rank": 3}}, {"type": "Feature", "geometry": {"type": "Point", "coordinates": [98.36758, 18.50267]}, "properties": {"id": "cm-obec-1050130339", "name": "โรงเรียนบ้านเนินวิทยา", "nameTh": "โรงเรียนบ้านเนินวิทยา", "nameEn": null, "cat": ["school"], "province": "cm", "slug": "1050130339", "rank": 3}}, {"type": "Feature", "geometry": {"type": "Point", "coordinates": [98.82028, 18.88453]}, "properties": {"id": "cm-obec-1050130421", "name": "โรงเรียนบ้านโป่งแยงใน", "nameTh": "โรงเรียนบ้านโป่งแยงใน", "nameEn": null, "cat": ["school"], "province": "cm", "slug": "1050130421", "rank": 3}}, {"type": "Feature", "geometry": {"type": "Point", "coordinates": [98.67358, 19.01358]}, "properties": {"id": "cm-obec-1050130541", "name": "โรงเรียนวัดปางเติมสาขาบ้านขุนสาบ", "nameTh": "โรงเรียนวัดปางเติมสาขาบ้านขุนสาบ", "nameEn": null, "cat": ["school"], "province": "cm", "slug": "1050130541", "rank": 2}}, {"type": "Feature", "geometry": {"type": "Point", "coordinates": [98.90552, 18.841]}, "properties": {"id": "cm-obec-1050130016", "name": "โรงเรียนศรีเนห์รู", "nameTh": "โรงเรียนศรีเนห์รู", "nameEn": null, "cat": ["school"], "province": "cm", "slug": "1050130016", "rank": 3}}, {"type": "Feature", "geometry": {"type": "Point", "coordinates": [98.36427, 18.30903]}, "properties": {"id": "cm-obec-1050130289", "name": "โรงเรียนออป.13", "nameTh": "โรงเรียนออป.13", "nameEn": null, "cat": ["school"], "province": "cm", "slug": "13-1050130289", "rank": 3}}, {"type": "Feature", "geometry": {"type": "Point", "coordinates": [98.78621, 19.67706]}, "properties": {"id": "cm-obec-1050130129", "name": "โรงเรียนแกน้อยศึกษา", "nameTh": "โรงเรียนแกน้อยศึกษา", "nameEn": null, "cat": ["school"], "province": "cm", "slug": "1050130129", "rank": 3}}]}