{"type": "FeatureCollection", "features": [{"type": "Feature", "geometry": {"type": "Point", "coordinates": [99.06724, 18.79541]}, "properties": {"id": "cm-osm-node-10182430165", "name": "KFC", "nameTh": null, "nameEn": "KFC", "cat": ["food"], "province": "cm", "slug": "kfc-10182430165", "rank": 1}}, {"type": "Feature", "geometry": {"type": "Point", "coordinates": [98.91447, 18.66728]}, "properties": {"id": "cm-osm-node-1058624594", "name": "KFC", "nameTh": "เค เอฟ ซี", "nameEn": "KFC", "cat": ["food"], "province": "cm", "slug": "kfc-1058624594", "rank": 3}}, {"type": "Feature", "geometry": {"type": "Point", "coordinates": [98.94979, 18.90188]}, "properties": {"id": "cm-osm-node-13733928801", "name": "KFC", "nameTh": null, "nameEn": "KFC", "cat": ["food"], "province": "cm", "slug": "kfc-13733928801", "rank": 1}}, {"type": "Feature", "geometry": {"type": "Point", "coordinates": [98.99721, 18.80869]}, "properties": {"id": "cm-osm-node-1616141787", "name": "KFC", "nameTh": "เค เอฟ ซี", "nameEn": "KFC", "cat": ["food"], "province": "cm", "slug": "kfc-1616141787", "rank": 3}}, {"type": "Feature", "geometry": {"type": "Point", "coordinates": [99.03291, 18.7691]}, "properties": {"id": "cm-osm-node-2117270440", "name": "KFC", "nameTh": "เค เอฟ ซี", "nameEn": "KFC", "cat": ["food"], "province": "cm", "slug": "kfc-2117270440", "rank": 3}}, {"type": "Feature", "geometry": {"type": "Point", "coordinates": [99.01416, 18.82441]}, "properties": {"id": "cm-osm-node-2517081501", "name": "KFC", "nameTh": "เค เอฟ ซี", "nameEn": "KFC", "cat": ["food"], "province": "cm", "slug": "kfc-2517081501", "rank": 3}}, {"type": "Feature", "geometry": {"type": "Point", "coordinates": [99.0228, 18.79884]}, "properties": {"id": "cm-osm-node-2610782958", "name": "KFC", "nameTh": "เค เอฟ ซี", "nameEn": "KFC", "cat": ["food"], "province": "cm", "slug": "kfc-2610782958", "rank": 3}}, {"type": "Feature", "geometry": {"type": "Point", "coordinates": [98.99898, 18.77229]}, "properties": {"id": "cm-osm-node-2822158501", "name": "KFC", "nameTh": null, "nameEn": "KFC", "cat": ["food"], "province": "cm", "slug": "kfc-2822158501", "rank": 1}}, {"type": "Feature", "geometry": {"type": "Point", "coordinates": [99.0184, 18.80588]}, "properties": {"id": "cm-osm-node-3249111059", "name": "KFC", "nameTh": "เค เอฟ ซี", "nameEn": "KFC", "cat": ["food"], "province": "cm", "slug": "kfc-3249111059", "rank": 3}}, {"type": "Feature", "geometry": {"type": "Point", "coordinates": [98.96701, 18.80251]}, "properties": {"id": "cm-osm-node-3287356494", "name": "KFC", "nameTh": "เค เอฟ ซี", "nameEn": "KFC", "cat": ["food"], "province": "cm", "slug": "kfc-3287356494", "rank": 3}}, {"type": "Feature", "geometry": {"type": "Point", "coordinates": [99.00056, 18.75684]}, "properties": {"id": "cm-osm-node-3331582463", "name": "KFC", "nameTh": "เค เอฟ ซี", "nameEn": "KFC", "cat": ["food"], "province": "cm", "slug": "kfc-3331582463", "rank": 2}}, {"type": "Feature", "geometry": {"type": "Point", "coordinates": [98.97494, 18.76879]}, "properties": {"id": "cm-osm-node-3347633193", "name": "KFC", "nameTh": "เค เอฟ ซี", "nameEn": "KFC", "cat": ["food"], "province": "cm", "slug": "kfc-3347633193", "rank": 4}}, {"type": "Feature", "geometry": {"type": "Point", "coordinates": [98.96201, 18.74351]}, "properties": {"id": "cm-osm-node-3404774971", "name": "KFC", "nameTh": "เค เอฟ ซี", "nameEn": "KFC", "cat": ["food"], "province": "cm", "slug": "kfc-3404774971", "rank": 3}}, {"type": "Feature", "geometry": {"type": "Point", "coordinates": [98.97218, 18.75849]}, "properties": {"id": "cm-osm-node-3419871304", "name": "KFC", "nameTh": "เค เอฟ ซี", "nameEn": "KFC", "cat": ["food"], "province": "cm", "slug": "kfc-3419871304", "rank": 3}}, {"type": "Feature", "geometry": {"type": "Point", "coordinates": [99.01173, 18.82472]}, "properties": {"id": "cm-osm-node-4213690015", "name": "KFC", "nameTh": "เค เอฟ ซี", "nameEn": "KFC", "cat": ["food"], "province": "cm", "slug": "kfc-4213690015", "rank": 3}}, {"type": "Feature", "geometry": {"type": "Point", "coordinates": [98.98161, 18.79615]}, "properties": {"id": "cm-osm-node-5117303021", "name": "KFC", "nameTh": null, "nameEn": "KFC", "cat": ["food"], "province": "cm", "slug": "kfc-5117303021", "rank": 1}}, {"type": "Feature", "geometry": {"type": "Point", "coordinates": [98.97284, 18.76349]}, "properties": {"id": "cm-osm-node-9288145417", "name": "KFC", "nameTh": null, "nameEn": "KFC", "cat": ["food"], "province": "cm", "slug": "kfc-9288145417", "rank": 2}}, {"type": "Feature", "geometry": {"type": "Point", "coordinates": [99.05623, 18.75436]}, "properties": {"id": "cm-osm-node-9859786817", "name": "KFC", "nameTh": null, "nameEn": "KFC", "cat": ["food"], "province": "cm", "slug": "kfc-9859786817", "rank": 1}}, {"type": "Feature", "geometry": {"type": "Point", "coordinates": [98.93531, 18.73997]}, "properties": {"id": "cm-osm-way-1160626861", "name": "KFC", "nameTh": null, "nameEn": "KFC", "cat": ["food"], "province": "cm", "slug": "kfc-1160626861", "rank": 1}}, {"type": "Feature", "geometry": {"type": "Point", "coordinates": [99.02141, 18.80657]}, "properties": {"id": "cm-osm-way-1361355842", "name": "KFC", "nameTh": null, "nameEn": "KFC", "cat": ["food"], "province": "cm", "slug": "kfc-1361355842", "rank": 1}}, {"type": "Feature", "geometry": {"type": "Point", "coordinates": [98.93198, 18.70216]}, "properties": {"id": "cm-osm-way-340390113", "name": "KFC", "nameTh": null, "nameEn": "KFC", "cat": ["food"], "province": "cm", "slug": "kfc-340390113", "rank": 1}}, {"type": "Feature", "geometry": {"type": "Point", "coordinates": [98.94008, 18.92233]}, "properties": {"id": "cm-osm-way-741830424", "name": "KFC", "nameTh": null, "nameEn": "KFC", "cat": ["food"], "province": "cm", "slug": "kfc-741830424", "rank": 1}}]}