{"type": "FeatureCollection", "features": [{"type": "Feature", "geometry": {"type": "Point", "coordinates": [98.96758, 18.79816]}, "properties": {"id": "cm-osm-node-6003759985", "name": "9 ส", "nameTh": "9 ส", "nameEn": "9 Gao Cafe", "cat": ["food"], "province": "cm", "slug": "9-gao-cafe-6003759985", "rank": 2}}, {"type": "Feature", "geometry": {"type": "Point", "coordinates": [98.97867, 18.79289]}, "properties": {"id": "cm-osm-node-5190374623", "name": "Anila Gelato", "nameTh": null, "nameEn": "Anila Gelato", "cat": ["food"], "province": "cm", "slug": "anila-gelato-5190374623", "rank": 1}}, {"type": "Feature", "geometry": {"type": "Point", "coordinates": [98.99537, 18.78919]}, "properties": {"id": "cm-osm-node-13908740201", "name": "Aob-Sook", "nameTh": null, "nameEn": "Aob-Sook", "cat": ["food"], "province": "cm", "slug": "aob-sook-13908740201", "rank": 2}}, {"type": "Feature", "geometry": {"type": "Point", "coordinates": [99.02449, 18.79882]}, "properties": {"id": "cm-osm-node-4427268751", "name": "Blue Cafe", "nameTh": null, "nameEn": "Blue Cafe", "cat": ["food"], "province": "cm", "slug": "blue-cafe-4427268751", "rank": 3}}, {"type": "Feature", "geometry": {"type": "Point", "coordinates": [98.957, 18.73398]}, "properties": {"id": "cm-osm-node-4963189664", "name": "Bon Bon Cafe", "nameTh": null, "nameEn": "Bon Bon Cafe", "cat": ["food"], "province": "cm", "slug": "bon-bon-cafe-4963189664", "rank": 3}}, {"type": "Feature", "geometry": {"type": "Point", "coordinates": [98.95951, 18.8247]}, "properties": {"id": "cm-osm-way-333203173", "name": "Cafe de Oasis", "nameTh": null, "nameEn": "Cafe de Oasis", "cat": ["food"], "province": "cm", "slug": "cafe-de-oasis-333203173", "rank": 4}}, {"type": "Feature", "geometry": {"type": "Point", "coordinates": [98.98109, 18.80412]}, "properties": {"id": "cm-osm-node-9404139417", "name": "Cafe de Sot", "nameTh": null, "nameEn": "Cafe de Sot", "cat": ["food"], "province": "cm", "slug": "cafe-de-sot-9404139417", "rank": 3}}, {"type": "Feature", "geometry": {"type": "Point", "coordinates": [98.98095, 18.76837]}, "properties": {"id": "cm-osm-node-9354595439", "name": "Caramellow", "nameTh": null, "nameEn": "Caramellow", "cat": ["food"], "province": "cm", "slug": "caramellow-9354595439", "rank": 3}}, {"type": "Feature", "geometry": {"type": "Point", "coordinates": [98.99462, 18.79247]}, "properties": {"id": "cm-osm-node-4430796190", "name": "Cat House", "nameTh": null, "nameEn": "Cat house", "cat": ["food"], "province": "cm", "slug": "cat-house-4430796190", "rank": 1}}, {"type": "Feature", "geometry": {"type": "Point", "coordinates": [98.95791, 18.80635]}, "properties": {"id": "cm-osm-node-3819711686", "name": "Catmosphere Cat Café", "nameTh": "แคทโมสเฟียร์ แคท คาเฟ่", "nameEn": "Catmosphere Cat Café", "cat": ["food"], "province": "cm", "slug": "catmosphere-cat-caf-3819711686", "rank": 3}}, {"type": "Feature", "geometry": {"type": "Point", "coordinates": [98.97956, 18.80663]}, "properties": {"id": "cm-osm-node-4353876797", "name": "Coffee Love", "nameTh": null, "nameEn": "Coffee Love", "cat": ["food"], "province": "cm", "slug": "coffee-love-4353876797", "rank": 2}}, {"type": "Feature", "geometry": {"type": "Point", "coordinates": [98.95123, 18.82027]}, "properties": {"id": "cm-osm-node-4889011525", "name": "Coffee or Me", "nameTh": "Coffee or Me", "nameEn": null, "cat": ["food"], "province": "cm", "slug": "coffee-or-me-4889011525", "rank": 3}}, {"type": "Feature", "geometry": {"type": "Point", "coordinates": [98.95379, 18.78384]}, "properties": {"id": "cm-osm-node-6089830785", "name": "Corner Coff", "nameTh": null, "nameEn": "Corner Coff", "cat": ["food"], "province": "cm", "slug": "corner-coff-6089830785", "rank": 2}}, {"type": "Feature", "geometry": {"type": "Point", "coordinates": [98.97359, 18.79525]}, "properties": {"id": "cm-osm-node-12620112808", "name": "Creativitea", "nameTh": null, "nameEn": "Creativitea", "cat": ["food"], "province": "cm", "slug": "creativitea-12620112808", "rank": 3}}, {"type": "Feature", "geometry": {"type": "Point", "coordinates": [99.02043, 18.8002]}, "properties": {"id": "cm-osm-node-9430021019", "name": "DECATHLON CHIANGMAI", "nameTh": null, "nameEn": "Eplus Bspase (EB)", "cat": ["food"], "province": "cm", "slug": "eplus-bspase-eb-9430021019", "rank": 2}}, {"type": "Feature", "geometry": {"type": "Point", "coordinates": [98.98773, 18.79074]}, "properties": {"id": "cm-osm-node-4358697789", "name": "Doi Chang", "nameTh": null, "nameEn": "Doi Chang", "cat": ["food"], "province": "cm", "slug": "doi-chang-4358697789", "rank": 2}}, {"type": "Feature", "geometry": {"type": "Point", "coordinates": [99.00998, 18.80086]}, "properties": {"id": "cm-osm-node-9326497622", "name": "ENTHEOS Coffee House", "nameTh": null, "nameEn": "ENTHEOS Coffee House", "cat": ["food"], "province": "cm", "slug": "entheos-coffee-house-9326497622", "rank": 3}}, {"type": "Feature", "geometry": {"type": "Point", "coordinates": [98.99093, 18.78868]}, "properties": {"id": "cm-osm-node-4352166790", "name": "Farm Story House Room & Restaurant", "nameTh": null, "nameEn": "Farm Story House Room & Restaurant", "cat": ["food"], "province": "cm", "slug": "farm-story-house-room-restaurant-4352166790", "rank": 1}}, {"type": "Feature", "geometry": {"type": "Point", "coordinates": [98.90676, 18.90692]}, "properties": {"id": "cm-osm-node-9483003735", "name": "Fleur Cafe and Eatery", "nameTh": null, "nameEn": "Fleur Cafe and Eatery", "cat": ["food"], "province": "cm", "slug": "fleur-cafe-and-eatery-9483003735", "rank": 3}}, {"type": "Feature", "geometry": {"type": "Point", "coordinates": [98.98619, 18.78157]}, "properties": {"id": "cm-osm-node-13347292501", "name": "Friend Coffee", "nameTh": null, "nameEn": "Friend Coffee", "cat": ["food"], "province": "cm", "slug": "friend-coffee-13347292501", "rank": 2}}, {"type": "Feature", "geometry": {"type": "Point", "coordinates": [99.00302, 18.78359]}, "properties": {"id": "cm-osm-node-10250166809", "name": "Going up", "nameTh": null, "nameEn": "Going up", "cat": ["food"], "province": "cm", "slug": "going-up-10250166809", "rank": 2}}, {"type": "Feature", "geometry": {"type": "Point", "coordinates": [98.93655, 18.76434]}, "properties": {"id": "cm-osm-node-7056149471", "name": "Homglai", "nameTh": null, "nameEn": "Homglai", "cat": ["food"], "province": "cm", "slug": "homglai-7056149471", "rank": 5}}, {"type": "Feature", "geometry": {"type": "Point", "coordinates": [98.9686, 18.79666]}, "properties": {"id": "cm-osm-way-481787811", "name": "Impresso", "nameTh": "อิมเพรสโซ เอสเพรสโซ บาร์", "nameEn": "Impresso Espresso Bar", "cat": ["food"], "province": "cm", "slug": "impresso-espresso-bar-481787811", "rank": 4}}, {"type": "Feature", "geometry": {"type": "Point", "coordinates": [99.13903, 18.87598]}, "properties": {"id": "cm-osm-node-12345599501", "name": "Inthanin", "nameTh": null, "nameEn": "Inthanin", "cat": ["food"], "province": "cm", "slug": "inthanin-12345599501", "rank": 2}}, {"type": "Feature", "geometry": {"type": "Point", "coordinates": [99.03947, 18.78083]}, "properties": {"id": "cm-osm-node-5561163722", "name": "Lamdee Cafe", "nameTh": null, "nameEn": "Lamdee Cafe", "cat": ["food"], "province": "cm", "slug": "lamdee-cafe-5561163722", "rank": 3}}, {"type": "Feature", "geometry": {"type": "Point", "coordinates": [99.00909, 18.78569]}, "properties": {"id": "cm-osm-node-10227768517", "name": "Lamoon Dee Coffe expresso bar", "nameTh": null, "nameEn": "Lamoon Dee Coffe expresso bar", "cat": ["food"], "province": "cm", "slug": "lamoon-dee-coffe-expresso-bar-10227768517", "rank": 1}}, {"type": "Feature", "geometry": {"type": "Point", "coordinates": [98.98409, 18.83666]}, "properties": {"id": "cm-osm-node-9317017217", "name": "Lee Cafe", "nameTh": null, "nameEn": "Lee Cafe", "cat": ["food"], "province": "cm", "slug": "lee-cafe-9317017217", "rank": 3}}, {"type": "Feature", "geometry": {"type": "Point", "coordinates": [98.98376, 18.79678]}, "properties": {"id": "cm-osm-node-3317919569", "name": "Little Cook Cafe", "nameTh": "ลิตเติ้ลคุ๊กคาเฟ่", "nameEn": "Little Cook Cafe", "cat": ["food"], "province": "cm", "slug": "little-cook-cafe-3317919569", "rank": 3}}, {"type": "Feature", "geometry": {"type": "Point", "coordinates": [98.99427, 18.76579]}, "properties": {"id": "cm-osm-node-9351789417", "name": "Mingmitr Coffee", "nameTh": null, "nameEn": "Mingmitr Coffee", "cat": ["food"], "province": "cm", "slug": "mingmitr-coffee-9351789417", "rank": 3}}, {"type": "Feature", "geometry": {"type": "Point", "coordinates": [98.94589, 18.77228]}, "properties": {"id": "cm-osm-node-12658068482", "name": "More Craft", "nameTh": null, "nameEn": "More Craft", "cat": ["food"], "province": "cm", "slug": "more-craft-12658068482", "rank": 3}}, {"type": "Feature", "geometry": {"type": "Point", "coordinates": [98.9863, 18.79509]}, "properties": {"id": "cm-osm-node-4333699923", "name": "Mountain view garden restaurant", "nameTh": null, "nameEn": "Mountain view garden restaurant", "cat": ["food"], "province": "cm", "slug": "mountain-view-garden-restaurant-4333699923", "rank": 4}}, {"type": "Feature", "geometry": {"type": "Point", "coordinates": [98.93393, 18.75289]}, "properties": {"id": "cm-osm-node-13994098801", "name": "Munchies Café", "nameTh": null, "nameEn": "Munchies Café", "cat": ["food"], "province": "cm", "slug": "munchies-caf-13994098801", "rank": 2}}, {"type": "Feature", "geometry": {"type": "Point", "coordinates": [98.95671, 18.72899]}, "properties": {"id": "cm-osm-node-12224034589", "name": "Num Sha", "nameTh": null, "nameEn": "Num Sha", "cat": ["food"], "province": "cm", "slug": "num-sha-12224034589", "rank": 2}}, {"type": "Feature", "geometry": {"type": "Point", "coordinates": [98.95526, 18.7919]}, "properties": {"id": "cm-osm-node-7227016085", "name": "Phuping Coffee", "nameTh": null, "nameEn": "Phuping Coffee", "cat": ["food"], "province": "cm", "slug": "phuping-coffee-7227016085", "rank": 2}}, {"type": "Feature", "geometry": {"type": "Point", "coordinates": [98.98867, 18.78635]}, "properties": {"id": "cm-osm-node-9323112824", "name": "Rice Barn Bar", "nameTh": null, "nameEn": "Rice Barn Bar", "cat": ["food"], "province": "cm", "slug": "rice-barn-bar-9323112824", "rank": 1}}, {"type": "Feature", "geometry": {"type": "Point", "coordinates": [98.96721, 18.79921]}, "properties": {"id": "cm-osm-node-4564569789", "name": "Rogu Roti", "nameTh": null, "nameEn": "Rogu Roti", "cat": ["food"], "province": "cm", "slug": "rogu-roti-4564569789", "rank": 2}}, {"type": "Feature", "geometry": {"type": "Point", "coordinates": [98.98497, 18.78428]}, "properties": {"id": "cm-osm-node-9322682017", "name": "Soi 7 Espresso", "nameTh": null, "nameEn": "Soi 7 Espresso", "cat": ["food"], "province": "cm", "slug": "soi-7-espresso-9322682017", "rank": 2}}, {"type": "Feature", "geometry": {"type": "Point", "coordinates": [98.96445, 18.80842]}, "properties": {"id": "cm-osm-way-668015250", "name": "Something Like Cat & Daughters Bag", "nameTh": null, "nameEn": "Something Like Cat & Daughters Bag", "cat": ["food"], "province": "cm", "slug": "something-like-cat-daughters-bag-668015250", "rank": 3}}, {"type": "Feature", "geometry": {"type": "Point", "coordinates": [98.92867, 18.94153]}, "properties": {"id": "cm-osm-node-7183624485", "name": "Ta Ta Ta - Café de Flure", "nameTh": null, "nameEn": "Ta Ta Ta - Café de Flure", "cat": ["food"], "province": "cm", "slug": "ta-ta-ta-caf-de-flure-7183624485", "rank": 2}}, {"type": "Feature", "geometry": {"type": "Point", "coordinates": [98.98253, 18.78755]}, "properties": {"id": "cm-osm-node-4440847089", "name": "Taa Peng Cat", "nameTh": null, "nameEn": "Taa Peng Cat", "cat": ["food"], "province": "cm", "slug": "taa-peng-cat-4440847089", "rank": 2}}, {"type": "Feature", "geometry": {"type": "Point", "coordinates": [99.01987, 18.80782]}, "properties": {"id": "cm-osm-node-5215769221", "name": "The Arrow Rest", "nameTh": null, "nameEn": "The Arrow Rest", "cat": ["food"], "province": "cm", "slug": "the-arrow-rest-5215769221", "rank": 1}}, {"type": "Feature", "geometry": {"type": "Point", "coordinates": [98.98859, 18.77849]}, "properties": {"id": "cm-osm-node-5311551425", "name": "This is", "nameTh": null, "nameEn": "This is", "cat": ["food"], "province": "cm", "slug": "this-is-5311551425", "rank": 2}}, {"type": "Feature", "geometry": {"type": "Point", "coordinates": [98.98332, 18.81212]}, "properties": {"id": "cm-osm-node-6911971685", "name": "Toey richness", "nameTh": "โทอี้ ริชเนส", "nameEn": "Toey richness", "cat": ["food"], "province": "cm", "slug": "toey-richness-6911971685", "rank": 3}}, {"type": "Feature", "geometry": {"type": "Point", "coordinates": [99.01883, 18.8002]}, "properties": {"id": "cm-osm-node-4586086268", "name": "Tom N Toms", "nameTh": null, "nameEn": "Tom N Toms", "cat": ["food"], "province": "cm", "slug": "tom-n-toms-4586086268", "rank": 2}}, {"type": "Feature", "geometry": {"type": "Point", "coordinates": [99.12395, 18.98395]}, "properties": {"id": "cm-osm-node-9444123418", "name": "Treehouse", "nameTh": null, "nameEn": "Treehouse", "cat": ["food"], "province": "cm", "slug": "treehouse-9444123418", "rank": 1}}, {"type": "Feature", "geometry": {"type": "Point", "coordinates": [98.81758, 18.81246]}, "properties": {"id": "cm-osm-node-4403836128", "name": "Tung Luang Royal Project Rose Garden Cafe", "nameTh": null, "nameEn": "Tung Luang Royal Project Rose Garden Cafe", "cat": ["food"], "province": "cm", "slug": "tung-luang-royal-project-rose-garden-cafe-4403836128", "rank": 1}}, {"type": "Feature", "geometry": {"type": "Point", "coordinates": [98.94784, 18.76434]}, "properties": {"id": "cm-osm-node-9435653718", "name": "Valentan", "nameTh": "Valentan café", "nameEn": null, "cat": ["food"], "province": "cm", "slug": "valentan-caf-9435653718", "rank": 3}}, {"type": "Feature", "geometry": {"type": "Point", "coordinates": [98.87702, 18.75538]}, "properties": {"id": "cm-osm-node-9482831717", "name": "Valley Coffee Lanna Resort", "nameTh": null, "nameEn": "Valley Coffee Lanna Resort", "cat": ["food"], "province": "cm", "slug": "valley-coffee-lanna-resort-9482831717", "rank": 3}}, {"type": "Feature", "geometry": {"type": "Point", "coordinates": [98.97926, 18.80097]}, "properties": {"id": "cm-osm-node-11936097569", "name": "WEDRINK", "nameTh": null, "nameEn": "WEDRINK", "cat": ["food"], "province": "cm", "slug": "wedrink-11936097569", "rank": 2}}, {"type": "Feature", "geometry": {"type": "Point", "coordinates": [98.95722, 18.80731]}, "properties": {"id": "cm-osm-node-5558883026", "name": "Wake Up Coffee", "nameTh": null, "nameEn": "WakeUp24Hrs", "cat": ["food"], "province": "cm", "slug": "wakeup24hrs-5558883026", "rank": 3}}, {"type": "Feature", "geometry": {"type": "Point", "coordinates": [98.96448, 18.7893]}, "properties": {"id": "cm-osm-node-4893144721", "name": "Yellow Crafts", "nameTh": null, "nameEn": "Yellow Crafts", "cat": ["food"], "province": "cm", "slug": "yellow-crafts-4893144721", "rank": 3}}, {"type": "Feature", "geometry": {"type": "Point", "coordinates": [99.01786, 18.80839]}, "properties": {"id": "cm-osm-node-12864717489", "name": "Yuzu House Central Chiangmai", "nameTh": null, "nameEn": "Yuzu House Central Chiangmai", "cat": ["food"], "province": "cm", "slug": "yuzu-house-central-chiangmai-12864717489", "rank": 4}}, {"type": "Feature", "geometry": {"type": "Point", "coordinates": [98.94878, 18.8105]}, "properties": {"id": "cm-osm-node-5426264832", "name": "กาเเพลด ดอยหลาง", "nameTh": "กาเเพลด ดอยหลาง", "nameEn": "Doiluang Coffee", "cat": ["food"], "province": "cm", "slug": "doiluang-coffee-5426264832", "rank": 2}}, {"type": "Feature", "geometry": {"type": "Point", "coordinates": [98.90575, 18.8422]}, "properties": {"id": "cm-osm-node-9404324017", "name": "กาแฟขุนช่างเคี่ยน", "nameTh": "กาแฟขุนช่างเคี่ยน", "nameEn": "Formula Hmong coffee", "cat": ["food"], "province": "cm", "slug": "formula-hmong-coffee-9404324017", "rank": 4}}, {"type": "Feature", "geometry": {"type": "Point", "coordinates": [98.99628, 18.78124]}, "properties": {"id": "cm-osm-node-1477507166", "name": "กาแฟรสนิยม", "nameTh": "กาแฟรสนิยม", "nameEn": "Roastniyom", "cat": ["food"], "province": "cm", "slug": "roastniyom-1477507166", "rank": 3}}, {"type": "Feature", "geometry": {"type": "Point", "coordinates": [98.95901, 18.78003]}, "properties": {"id": "cm-osm-node-9432835217", "name": "ข่วงม่วน เชียงใหม่ คาเฟ่", "nameTh": "ข่วงม่วน เชียงใหม่ คาเฟ่", "nameEn": "Khuang Muan Chiangmai Cafè", "cat": ["food"], "province": "cm", "slug": "khuang-muan-chiangmai-caf-9432835217", "rank": 3}}, {"type": "Feature", "geometry": {"type": "Point", "coordinates": [98.94153, 18.91394]}, "properties": {"id": "cm-osm-node-5137777427", "name": "ครัวป้าแต๋ว", "nameTh": "ครัวป้าแต๋ว", "nameEn": "Pa Taeo Kitchen", "cat": ["food"], "province": "cm", "slug": "pa-taeo-kitchen-5137777427", "rank": 4}}, {"type": "Feature", "geometry": {"type": "Point", "coordinates": [98.93913, 18.92139]}, "properties": {"id": "cm-osm-way-741830434", "name": "ครัวป้าแต๋ว", "nameTh": "ครัวป้าแต๋ว", "nameEn": "Tal  restaurant", "cat": ["food"], "province": "cm", "slug": "tal-restaurant-741830434", "rank": 4}}, {"type": "Feature", "geometry": {"type": "Point", "coordinates": [98.9517, 18.82681]}, "properties": {"id": "cm-osm-node-9480398518", "name": "คิดเองกาแฟสด", "nameTh": "คิดเองกาแฟสด", "nameEn": "KA Coffee", "cat": ["food"], "province": "cm", "slug": "ka-coffee-9480398518", "rank": 4}}, {"type": "Feature", "geometry": {"type": "Point", "coordinates": [99.00042, 18.79092]}, "properties": {"id": "cm-osm-node-6972562985", "name": "ชาตรามือ สาขาตลาดวโรรส", "nameTh": "ชาตรามือ สาขาตลาดวโรรส", "nameEn": "Cha Tra Mue", "cat": ["food"], "province": "cm", "slug": "cha-tra-mue-6972562985", "rank": 6}}, {"type": "Feature", "geometry": {"type": "Point", "coordinates": [98.97719, 18.78131]}, "properties": {"id": "cm-osm-node-13870668983", "name": "ถิงถิง Ting Ting บิงซูน้ำขิง เชียงใหม่", "nameTh": "ถิงถิง Ting Ting บิงซูน้ำขิง เชียงใหม่", "nameEn": null, "cat": ["food"], "province": "cm", "slug": "ting-ting-13870668983", "rank": 3}}, {"type": "Feature", "geometry": {"type": "Point", "coordinates": [98.92007, 18.91063]}, "properties": {"id": "cm-osm-node-4111432291", "name": "ทุ่งห้าโบทานิค", "nameTh": "ทุ่งห้าโบทานิค", "nameEn": null, "cat": ["food"], "province": "cm", "slug": "4111432291", "rank": 3}}, {"type": "Feature", "geometry": {"type": "Point", "coordinates": [99.01266, 18.82943]}, "properties": {"id": "cm-osm-node-4627695092", "name": "มิ่งมิตร", "nameTh": "มิ่งมิตร", "nameEn": "Mingmitr Coffee", "cat": ["food"], "province": "cm", "slug": "mingmitr-coffee-4627695092", "rank": 3}}, {"type": "Feature", "geometry": {"type": "Point", "coordinates": [98.81865, 18.93614]}, "properties": {"id": "cm-osm-node-9314302717", "name": "ม่อนอิงดาวคาเฟ่", "nameTh": "ม่อนอิงดาวคาเฟ่", "nameEn": "Mon Ing Dao Cafe", "cat": ["food"], "province": "cm", "slug": "mon-ing-dao-cafe-9314302717", "rank": 4}}, {"type": "Feature", "geometry": {"type": "Point", "coordinates": [98.9746, 18.76342]}, "properties": {"id": "cm-osm-node-9328870117", "name": "รสนิยม คาเฟ่", "nameTh": "รสนิยม คาเฟ่", "nameEn": "Roastniyom Cafe", "cat": ["food"], "province": "cm", "slug": "roastniyom-cafe-9328870117", "rank": 4}}, {"type": "Feature", "geometry": {"type": "Point", "coordinates": [98.98078, 18.78467]}, "properties": {"id": "cm-osm-way-579076681", "name": "สถานีแมว", "nameTh": "สถานีแมว", "nameEn": "Cats Station Coffee and Food", "cat": ["food"], "province": "cm", "slug": "cats-station-coffee-and-food-579076681", "rank": 4}}, {"type": "Feature", "geometry": {"type": "Point", "coordinates": [98.99935, 18.76831]}, "properties": {"id": "cm-osm-node-4879591522", "name": "สภากาแฟ(เจ้าเก่า)", "nameTh": "สภากาแฟ(เจ้าเก่า)", "nameEn": null, "cat": ["food"], "province": "cm", "slug": "4879591522", "rank": 3}}, {"type": "Feature", "geometry": {"type": "Point", "coordinates": [98.96919, 18.81863]}, "properties": {"id": "cm-osm-node-4180090391", "name": "ฮอห์ม คาเฟ่", "nameTh": "ฮอห์ม คาเฟ่", "nameEn": "Hohm cafe", "cat": ["food"], "province": "cm", "slug": "hohm-cafe-4180090391", "rank": 4}}, {"type": "Feature", "geometry": {"type": "Point", "coordinates": [98.93315, 18.72367]}, "properties": {"id": "cm-osm-node-5447299922", "name": "เมล ซาเ้ลง ฮอทดอก", "nameTh": "เมล ซาเ้ลง ฮอทดอก", "nameEn": "Mel's Saleng Hotdogs", "cat": ["food"], "province": "cm", "slug": "mel-s-saleng-hotdogs-5447299922", "rank": 4}}, {"type": "Feature", "geometry": {"type": "Point", "coordinates": [98.97323, 18.80509]}, "properties": {"id": "cm-osm-node-3897763600", "name": "Huang Fu Long Chinese Antique Gallery and Tea House", "nameTh": null, "nameEn": "Huang Fu Long Chinese Antique Gallery and Tea House", "cat": ["museums-galleries"], "province": "cm", "slug": "huang-fu-long-chinese-antique-gallery-and-tea-house-3897763600", "rank": 1}}]}