{"type": "FeatureCollection", "features": [{"type": "Feature", "geometry": {"type": "Point", "coordinates": [99.00779, 18.75759]}, "properties": {"id": "cm-osm-node-1361121066", "name": "Krungthai Bank", "nameTh": null, "nameEn": "Krungthai Bank", "cat": ["essentials"], "province": "cm", "slug": "krungthai-bank-1361121066", "rank": 1}}, {"type": "Feature", "geometry": {"type": "Point", "coordinates": [98.98663, 18.78096]}, "properties": {"id": "cm-osm-node-11231325093", "name": "ธนาคารกรุงไทย", "nameTh": "ธนาคารกรุงไทย", "nameEn": "Krung Thai Bank", "cat": ["essentials"], "province": "cm", "slug": "krung-thai-bank-11231325093", "rank": 2}}, {"type": "Feature", "geometry": {"type": "Point", "coordinates": [98.96607, 18.78935]}, "properties": {"id": "cm-osm-node-1474256576", "name": "ธนาคารกรุงไทย", "nameTh": "ธนาคารกรุงไทย", "nameEn": "Krungthai Bank", "cat": ["essentials"], "province": "cm", "slug": "krungthai-bank-1474256576", "rank": 2}}, {"type": "Feature", "geometry": {"type": "Point", "coordinates": [99.12201, 18.74287]}, "properties": {"id": "cm-osm-node-1508539566", "name": "ธนาคารกรุงไทย", "nameTh": "ธนาคารกรุงไทย", "nameEn": "Krungthai Bank", "cat": ["essentials"], "province": "cm", "slug": "krungthai-bank-1508539566", "rank": 2}}, {"type": "Feature", "geometry": {"type": "Point", "coordinates": [98.98319, 18.78842]}, "properties": {"id": "cm-osm-node-1619445280", "name": "ธนาคารกรุงไทย", "nameTh": "ธนาคารกรุงไทย", "nameEn": "Krungthai Bank", "cat": ["essentials"], "province": "cm", "slug": "krungthai-bank-1619445280", "rank": 2}}, {"type": "Feature", "geometry": {"type": "Point", "coordinates": [98.95067, 18.80191]}, "properties": {"id": "cm-osm-node-2434758530", "name": "ธนาคารกรุงไทย", "nameTh": "ธนาคารกรุงไทย", "nameEn": "Krungthai Bank", "cat": ["essentials"], "province": "cm", "slug": "krungthai-bank-2434758530", "rank": 3}}, {"type": "Feature", "geometry": {"type": "Point", "coordinates": [98.99941, 18.77928]}, "properties": {"id": "cm-osm-node-2610123168", "name": "ธนาคารกรุงไทย", "nameTh": "ธนาคารกรุงไทย", "nameEn": "Krungthai Bank", "cat": ["essentials"], "province": "cm", "slug": "krungthai-bank-2610123168", "rank": 2}}, {"type": "Feature", "geometry": {"type": "Point", "coordinates": [99.08071, 18.76468]}, "properties": {"id": "cm-osm-node-2637312729", "name": "ธนาคารกรุงไทย", "nameTh": "ธนาคารกรุงไทย", "nameEn": "Krung Thai Bank", "cat": ["essentials"], "province": "cm", "slug": "krung-thai-bank-2637312729", "rank": 2}}, {"type": "Feature", "geometry": {"type": "Point", "coordinates": [99.018, 18.80622]}, "properties": {"id": "cm-osm-node-3249112261", "name": "ธนาคารกรุงไทย", "nameTh": "ธนาคารกรุงไทย", "nameEn": "Krungthai Bank", "cat": ["essentials"], "province": "cm", "slug": "krungthai-bank-3249112261", "rank": 2}}, {"type": "Feature", "geometry": {"type": "Point", "coordinates": [98.89645, 18.62055]}, "properties": {"id": "cm-osm-node-3322301002", "name": "ธนาคารกรุงไทย", "nameTh": "ธนาคารกรุงไทย", "nameEn": "Krungthai Bank", "cat": ["essentials"], "province": "cm", "slug": "krungthai-bank-3322301002", "rank": 2}}, {"type": "Feature", "geometry": {"type": "Point", "coordinates": [98.97561, 18.76921]}, "properties": {"id": "cm-osm-node-3347664217", "name": "ธนาคารกรุงไทย", "nameTh": "ธนาคารกรุงไทย", "nameEn": "Krung Thai Bank", "cat": ["essentials"], "province": "cm", "slug": "krung-thai-bank-3347664217", "rank": 3}}, {"type": "Feature", "geometry": {"type": "Point", "coordinates": [98.92217, 18.68993]}, "properties": {"id": "cm-osm-node-3379252965", "name": "ธนาคารกรุงไทย", "nameTh": "ธนาคารกรุงไทย", "nameEn": "Krungthai Bank", "cat": ["essentials"], "province": "cm", "slug": "krungthai-bank-3379252965", "rank": 2}}, {"type": "Feature", "geometry": {"type": "Point", "coordinates": [98.97643, 18.77132]}, "properties": {"id": "cm-osm-node-3401323393", "name": "ธนาคารกรุงไทย", "nameTh": "ธนาคารกรุงไทย", "nameEn": "Krung Thai Bank", "cat": ["essentials"], "province": "cm", "slug": "krung-thai-bank-3401323393", "rank": 2}}, {"type": "Feature", "geometry": {"type": "Point", "coordinates": [99.13415, 18.87198]}, "properties": {"id": "cm-osm-node-3409869443", "name": "ธนาคารกรุงไทย", "nameTh": "ธนาคารกรุงไทย", "nameEn": "Krungthai Bank", "cat": ["essentials"], "province": "cm", "slug": "krungthai-bank-3409869443", "rank": 2}}, {"type": "Feature", "geometry": {"type": "Point", "coordinates": [99.00074, 18.78546]}, "properties": {"id": "cm-osm-node-3417307154", "name": "ธนาคารกรุงไทย", "nameTh": "ธนาคารกรุงไทย", "nameEn": "Krung Thai Bank", "cat": ["essentials"], "province": "cm", "slug": "krung-thai-bank-3417307154", "rank": 3}}, {"type": "Feature", "geometry": {"type": "Point", "coordinates": [99.00025, 18.79098]}, "properties": {"id": "cm-osm-node-3419811897", "name": "ธนาคารกรุงไทย", "nameTh": "ธนาคารกรุงไทย", "nameEn": "Krungthai Bank", "cat": ["essentials"], "province": "cm", "slug": "krungthai-bank-3419811897", "rank": 2}}, {"type": "Feature", "geometry": {"type": "Point", "coordinates": [98.97243, 18.75844]}, "properties": {"id": "cm-osm-node-3419871306", "name": "ธนาคารกรุงไทย", "nameTh": "ธนาคารกรุงไทย", "nameEn": "Krung Thai Bank", "cat": ["essentials"], "province": "cm", "slug": "krung-thai-bank-3419871306", "rank": 2}}, {"type": "Feature", "geometry": {"type": "Point", "coordinates": [98.99637, 18.78844]}, "properties": {"id": "cm-osm-way-148630591", "name": "ธนาคารกรุงไทย", "nameTh": "ธนาคารกรุงไทย", "nameEn": "Krung Thai Bank", "cat": ["essentials"], "province": "cm", "slug": "krung-thai-bank-148630591", "rank": 2}}, {"type": "Feature", "geometry": {"type": "Point", "coordinates": [98.98286, 18.81615]}, "properties": {"id": "cm-osm-way-274986066", "name": "ธนาคารกรุงไทย", "nameTh": "ธนาคารกรุงไทย", "nameEn": "Krung Thai Bank", "cat": ["essentials"], "province": "cm", "slug": "krung-thai-bank-274986066", "rank": 2}}, {"type": "Feature", "geometry": {"type": "Point", "coordinates": [98.98564, 18.80184]}, "properties": {"id": "cm-osm-way-275284872", "name": "ธนาคารกรุงไทย", "nameTh": "ธนาคารกรุงไทย", "nameEn": "Krungthai Bank", "cat": ["essentials"], "province": "cm", "slug": "krungthai-bank-275284872", "rank": 2}}, {"type": "Feature", "geometry": {"type": "Point", "coordinates": [99.00759, 18.8972]}, "properties": {"id": "cm-osm-way-280173390", "name": "ธนาคารกรุงไทย", "nameTh": "ธนาคารกรุงไทย", "nameEn": "Krungthai Bank", "cat": ["essentials"], "province": "cm", "slug": "krungthai-bank-280173390", "rank": 2}}, {"type": "Feature", "geometry": {"type": "Point", "coordinates": [98.94608, 18.91145]}, "properties": {"id": "cm-osm-way-327272890", "name": "ธนาคารกรุงไทย", "nameTh": "ธนาคารกรุงไทย", "nameEn": "Krung Thai Bank", "cat": ["essentials"], "province": "cm", "slug": "krung-thai-bank-327272890", "rank": 2}}, {"type": "Feature", "geometry": {"type": "Point", "coordinates": [99.00814, 18.758]}, "properties": {"id": "cm-osm-way-397604435", "name": "ธนาคารกรุงไทย", "nameTh": "ธนาคารกรุงไทย", "nameEn": "Krungthai Bank", "cat": ["essentials"], "province": "cm", "slug": "krungthai-bank-397604435", "rank": 2}}, {"type": "Feature", "geometry": {"type": "Point", "coordinates": [99.00854, 18.78675]}, "properties": {"id": "cm-osm-way-521762463", "name": "ธนาคารกรุงไทย", "nameTh": "ธนาคารกรุงไทย", "nameEn": "Krungthai Bank", "cat": ["essentials"], "province": "cm", "slug": "krungthai-bank-521762463", "rank": 3}}, {"type": "Feature", "geometry": {"type": "Point", "coordinates": [98.95951, 18.80556]}, "properties": {"id": "cm-osm-way-554756555", "name": "ธนาคารกรุงไทย", "nameTh": "ธนาคารกรุงไทย", "nameEn": "Krungthai Bank", "cat": ["essentials"], "province": "cm", "slug": "krungthai-bank-554756555", "rank": 2}}]}