{"type": "FeatureCollection", "features": [{"type": "Feature", "geometry": {"type": "Point", "coordinates": [98.96513, 18.78898]}, "properties": {"id": "cm-osm-node-4359739852", "name": "100 Flavors: Chiang Mai Craft Ice Cream", "nameTh": null, "nameEn": "100 Flavors: Chiang Mai Craft Ice Cream", "cat": ["food"], "province": "cm", "slug": "100-flavors-chiang-mai-craft-ice-cream-4359739852", "rank": 3}}, {"type": "Feature", "geometry": {"type": "Point", "coordinates": [98.97867, 18.79289]}, "properties": {"id": "cm-osm-node-5190374623", "name": "Anila Gelato", "nameTh": null, "nameEn": "Anila Gelato", "cat": ["food"], "province": "cm", "slug": "anila-gelato-5190374623", "rank": 1}}, {"type": "Feature", "geometry": {"type": "Point", "coordinates": [98.98503, 18.81014]}, "properties": {"id": "cm-osm-node-6700467244", "name": "By'N", "nameTh": null, "nameEn": "By'N", "cat": ["food"], "province": "cm", "slug": "by-n-6700467244", "rank": 1}}, {"type": "Feature", "geometry": {"type": "Point", "coordinates": [98.95606, 18.78992]}, "properties": {"id": "cm-osm-node-2650709899", "name": "Club Diva", "nameTh": null, "nameEn": "Club Diva", "cat": ["food"], "province": "cm", "slug": "club-diva-2650709899", "rank": 1}}, {"type": "Feature", "geometry": {"type": "Point", "coordinates": [99.00886, 18.75245]}, "properties": {"id": "cm-osm-node-11343226670", "name": "Dairy Queen", "nameTh": null, "nameEn": "Dairy Queen", "cat": ["food"], "province": "cm", "slug": "dairy-queen-11343226670", "rank": 1}}, {"type": "Feature", "geometry": {"type": "Point", "coordinates": [98.96832, 18.76998]}, "properties": {"id": "cm-osm-node-1474872538", "name": "Dairy Queen", "nameTh": null, "nameEn": "Dairy Queen", "cat": ["food"], "province": "cm", "slug": "dairy-queen-1474872538", "rank": 2}}, {"type": "Feature", "geometry": {"type": "Point", "coordinates": [98.97241, 18.75883]}, "properties": {"id": "cm-osm-node-7882686661", "name": "Dairy Queen", "nameTh": null, "nameEn": "Dairy Queen", "cat": ["food"], "province": "cm", "slug": "dairy-queen-7882686661", "rank": 1}}, {"type": "Feature", "geometry": {"type": "Point", "coordinates": [98.96949, 18.79813]}, "properties": {"id": "cm-osm-node-3287791861", "name": "Gelabar", "nameTh": null, "nameEn": "Gelabar", "cat": ["food"], "province": "cm", "slug": "gelabar-3287791861", "rank": 1}}, {"type": "Feature", "geometry": {"type": "Point", "coordinates": [98.98533, 18.78359]}, "properties": {"id": "cm-osm-way-1300133894", "name": "Gord Chiangmai Kitchen", "nameTh": null, "nameEn": "Gord Chiangmai Kitchen", "cat": ["food"], "province": "cm", "slug": "gord-chiangmai-kitchen-1300133894", "rank": 3}}, {"type": "Feature", "geometry": {"type": "Point", "coordinates": [98.95435, 18.79284]}, "properties": {"id": "cm-osm-node-3400272248", "name": "I Like Ice-cream", "nameTh": null, "nameEn": "I Like Ice-cream", "cat": ["food"], "province": "cm", "slug": "i-like-ice-cream-3400272248", "rank": 1}}, {"type": "Feature", "geometry": {"type": "Point", "coordinates": [98.97835, 18.80188]}, "properties": {"id": "cm-osm-node-3283940818", "name": "Ice Manias", "nameTh": null, "nameEn": "Ice Manias", "cat": ["food"], "province": "cm", "slug": "ice-manias-3283940818", "rank": 2}}, {"type": "Feature", "geometry": {"type": "Point", "coordinates": [98.95592, 18.79236]}, "properties": {"id": "cm-osm-node-10620278581", "name": "Ice Skate’s Crepe - เครปไอติมหลัง มช.", "nameTh": "Ice Skate’s Crepe - เครปไอติมหลัง มช.", "nameEn": null, "cat": ["food"], "province": "cm", "slug": "ice-skate-s-crepe-10620278581", "rank": 3}}, {"type": "Feature", "geometry": {"type": "Point", "coordinates": [98.96864, 18.79867]}, "properties": {"id": "cm-osm-node-3426400071", "name": "Janie Scoop", "nameTh": null, "nameEn": "Janie Scoop", "cat": ["food"], "province": "cm", "slug": "janie-scoop-3426400071", "rank": 1}}, {"type": "Feature", "geometry": {"type": "Point", "coordinates": [99.01107, 18.78914]}, "properties": {"id": "cm-osm-node-5950919672", "name": "Johoney", "nameTh": null, "nameEn": "Johoney", "cat": ["food"], "province": "cm", "slug": "johoney-5950919672", "rank": 1}}, {"type": "Feature", "geometry": {"type": "Point", "coordinates": [98.96852, 18.79637]}, "properties": {"id": "cm-osm-node-3421308693", "name": "Mango Tango", "nameTh": null, "nameEn": "Mango Tango", "cat": ["food"], "province": "cm", "slug": "mango-tango-3421308693", "rank": 3}}, {"type": "Feature", "geometry": {"type": "Point", "coordinates": [98.95037, 18.79116]}, "properties": {"id": "cm-osm-node-9084096823", "name": "Milk on the rock", "nameTh": null, "nameEn": "Milk on the rock", "cat": ["food"], "province": "cm", "slug": "milk-on-the-rock-9084096823", "rank": 2}}, {"type": "Feature", "geometry": {"type": "Point", "coordinates": [98.95286, 18.79267]}, "properties": {"id": "cm-osm-node-13658267212", "name": "Mixue", "nameTh": null, "nameEn": "Mixue", "cat": ["food"], "province": "cm", "slug": "mixue-13658267212", "rank": 1}}, {"type": "Feature", "geometry": {"type": "Point", "coordinates": [98.9863, 18.79509]}, "properties": {"id": "cm-osm-node-4333699923", "name": "Mountain view garden restaurant", "nameTh": null, "nameEn": "Mountain view garden restaurant", "cat": ["food"], "province": "cm", "slug": "mountain-view-garden-restaurant-4333699923", "rank": 4}}, {"type": "Feature", "geometry": {"type": "Point", "coordinates": [98.95143, 18.74733]}, "properties": {"id": "cm-osm-node-3424651193", "name": "Pankled Coffee", "nameTh": null, "nameEn": "Pankled Coffee", "cat": ["food"], "province": "cm", "slug": "pankled-coffee-3424651193", "rank": 2}}, {"type": "Feature", "geometry": {"type": "Point", "coordinates": [98.95394, 18.82704]}, "properties": {"id": "cm-osm-node-5643026621", "name": "Santi Bar & Bistro", "nameTh": null, "nameEn": "Santi Bar & Bistro", "cat": ["food"], "province": "cm", "slug": "santi-bar-bistro-5643026621", "rank": 2}}, {"type": "Feature", "geometry": {"type": "Point", "coordinates": [98.97526, 18.7998]}, "properties": {"id": "cm-osm-node-6717751395", "name": "Seasons Ice Cream", "nameTh": null, "nameEn": "Seasons Ice Cream", "cat": ["food"], "province": "cm", "slug": "seasons-ice-cream-6717751395", "rank": 2}}, {"type": "Feature", "geometry": {"type": "Point", "coordinates": [98.97471, 18.76934]}, "properties": {"id": "cm-osm-node-3347633206", "name": "Swensen's", "nameTh": null, "nameEn": "Swensen's", "cat": ["food"], "province": "cm", "slug": "swensen-s-3347633206", "rank": 2}}, {"type": "Feature", "geometry": {"type": "Point", "coordinates": [98.97514, 18.76956]}, "properties": {"id": "cm-osm-node-3347664219", "name": "Swensen's", "nameTh": null, "nameEn": "Swensen's", "cat": ["food"], "province": "cm", "slug": "swensen-s-3347664219", "rank": 2}}, {"type": "Feature", "geometry": {"type": "Point", "coordinates": [99.02236, 18.79831]}, "properties": {"id": "cm-osm-node-3490771193", "name": "Swensen's", "nameTh": null, "nameEn": "Swensen's", "cat": ["food"], "province": "cm", "slug": "swensen-s-3490771193", "rank": 1}}, {"type": "Feature", "geometry": {"type": "Point", "coordinates": [98.96222, 18.74305]}, "properties": {"id": "cm-osm-node-907784572", "name": "Swensen's", "nameTh": null, "nameEn": "Swensen's", "cat": ["food"], "province": "cm", "slug": "swensen-s-907784572", "rank": 2}}, {"type": "Feature", "geometry": {"type": "Point", "coordinates": [99.00889, 18.75228]}, "properties": {"id": "cm-osm-way-1420390641", "name": "Swenson's", "nameTh": null, "nameEn": "Swenson's", "cat": ["food"], "province": "cm", "slug": "swenson-s-1420390641", "rank": 1}}, {"type": "Feature", "geometry": {"type": "Point", "coordinates": [98.97926, 18.80097]}, "properties": {"id": "cm-osm-node-11936097569", "name": "WEDRINK", "nameTh": null, "nameEn": "WEDRINK", "cat": ["food"], "province": "cm", "slug": "wedrink-11936097569", "rank": 2}}, {"type": "Feature", "geometry": {"type": "Point", "coordinates": [98.98163, 18.79607]}, "properties": {"id": "cm-osm-node-5558856823", "name": "Wake Up Coffee", "nameTh": null, "nameEn": "WakeUp24Hrs", "cat": ["food"], "province": "cm", "slug": "wakeup24hrs-5558856823", "rank": 3}}, {"type": "Feature", "geometry": {"type": "Point", "coordinates": [98.95722, 18.80731]}, "properties": {"id": "cm-osm-node-5558883026", "name": "Wake Up Coffee", "nameTh": null, "nameEn": "WakeUp24Hrs", "cat": ["food"], "province": "cm", "slug": "wakeup24hrs-5558883026", "rank": 3}}, {"type": "Feature", "geometry": {"type": "Point", "coordinates": [98.95938, 18.78799]}, "properties": {"id": "cm-osm-node-6557999484", "name": "XOXO Cafe", "nameTh": null, "nameEn": "XOXO Cafe", "cat": ["food"], "province": "cm", "slug": "xoxo-cafe-6557999484", "rank": 1}}, {"type": "Feature", "geometry": {"type": "Point", "coordinates": [98.94878, 18.8105]}, "properties": {"id": "cm-osm-node-5426264832", "name": "กาเเพลด ดอยหลาง", "nameTh": "กาเเพลด ดอยหลาง", "nameEn": "Doiluang Coffee", "cat": ["food"], "province": "cm", "slug": "doiluang-coffee-5426264832", "rank": 2}}, {"type": "Feature", "geometry": {"type": "Point", "coordinates": [98.92448, 18.74273]}, "properties": {"id": "cm-osm-node-5276808922", "name": "สหภาพกระต่าย", "nameTh": "สหภาพกระต่าย", "nameEn": "The Rabbit Union", "cat": ["food"], "province": "cm", "slug": "the-rabbit-union-5276808922", "rank": 3}}, {"type": "Feature", "geometry": {"type": "Point", "coordinates": [98.96919, 18.81863]}, "properties": {"id": "cm-osm-node-4180090391", "name": "ฮอห์ม คาเฟ่", "nameTh": "ฮอห์ม คาเฟ่", "nameEn": "Hohm cafe", "cat": ["food"], "province": "cm", "slug": "hohm-cafe-4180090391", "rank": 4}}, {"type": "Feature", "geometry": {"type": "Point", "coordinates": [99.06098, 18.87914]}, "properties": {"id": "cm-osm-node-2590253491", "name": "เกียว ไอศครีมกะทิ", "nameTh": "เกียว ไอศครีมกะทิ", "nameEn": null, "cat": ["food"], "province": "cm", "slug": "2590253491", "rank": 1}}, {"type": "Feature", "geometry": {"type": "Point", "coordinates": [98.93315, 18.72367]}, "properties": {"id": "cm-osm-node-5447299922", "name": "เมล ซาเ้ลง ฮอทดอก", "nameTh": "เมล ซาเ้ลง ฮอทดอก", "nameEn": "Mel's Saleng Hotdogs", "cat": ["food"], "province": "cm", "slug": "mel-s-saleng-hotdogs-5447299922", "rank": 4}}, {"type": "Feature", "geometry": {"type": "Point", "coordinates": [98.89576, 18.62714]}, "properties": {"id": "cm-osm-node-3322909006", "name": "ไอศกรีมป่าตัน", "nameTh": "ไอศกรีมป่าตัน", "nameEn": null, "cat": ["food"], "province": "cm", "slug": "3322909006", "rank": 1}}, {"type": "Feature", "geometry": {"type": "Point", "coordinates": [98.96893, 18.79425]}, "properties": {"id": "cm-osm-node-2505598106", "name": "ไอเบอร์รี่", "nameTh": "ไอเบอร์รี่", "nameEn": "i-Berry", "cat": ["food"], "province": "cm", "slug": "i-berry-2505598106", "rank": 3}}]}