{"type": "FeatureCollection", "features": [{"type": "Feature", "geometry": {"type": "Point", "coordinates": [98.95762, 18.79085]}, "properties": {"id": "cm-osm-node-1518736558", "name": "ธนาคารทหารไทย", "nameTh": "ธนาคารทหารไทย", "nameEn": "TMBThanachart Bank", "cat": ["essentials"], "province": "cm", "slug": "tmbthanachart-bank-1518736558", "rank": 2}}, {"type": "Feature", "geometry": {"type": "Point", "coordinates": [98.9994, 18.77918]}, "properties": {"id": "cm-osm-node-2610123159", "name": "ธนาคารทหารไทย", "nameTh": "ธนาคารทหารไทย", "nameEn": "TTB", "cat": ["essentials"], "province": "cm", "slug": "ttb-2610123159", "rank": 2}}, {"type": "Feature", "geometry": {"type": "Point", "coordinates": [98.98549, 18.80266]}, "properties": {"id": "cm-osm-node-2682524177", "name": "ธนาคารทหารไทย", "nameTh": "ธนาคารทหารไทย", "nameEn": "TMB", "cat": ["essentials"], "province": "cm", "slug": "tmb-2682524177", "rank": 2}}, {"type": "Feature", "geometry": {"type": "Point", "coordinates": [99.01792, 18.80628]}, "properties": {"id": "cm-osm-node-3249112265", "name": "ธนาคารทหารไทย", "nameTh": "ธนาคารทหารไทย", "nameEn": "TMB", "cat": ["essentials"], "province": "cm", "slug": "tmb-3249112265", "rank": 2}}, {"type": "Feature", "geometry": {"type": "Point", "coordinates": [98.96693, 18.80247]}, "properties": {"id": "cm-osm-node-3287356499", "name": "ธนาคารทหารไทย", "nameTh": "ธนาคารทหารไทย", "nameEn": "TMBThanachart Bank", "cat": ["essentials"], "province": "cm", "slug": "tmbthanachart-bank-3287356499", "rank": 3}}, {"type": "Feature", "geometry": {"type": "Point", "coordinates": [98.97519, 18.76961]}, "properties": {"id": "cm-osm-node-3347664220", "name": "ธนาคารทหารไทย", "nameTh": "ธนาคารทหารไทย", "nameEn": "TMBThanachart Bank", "cat": ["essentials"], "province": "cm", "slug": "tmbthanachart-bank-3347664220", "rank": 3}}, {"type": "Feature", "geometry": {"type": "Point", "coordinates": [98.97361, 18.78886]}, "properties": {"id": "cm-osm-node-4559256795", "name": "ธนาคารทหารไทย", "nameTh": "ธนาคารทหารไทย", "nameEn": "TMB", "cat": ["essentials"], "province": "cm", "slug": "tmb-4559256795", "rank": 2}}, {"type": "Feature", "geometry": {"type": "Point", "coordinates": [98.96689, 18.79826]}, "properties": {"id": "cm-osm-node-5342686021", "name": "ธนาคารทหารไทย", "nameTh": "ธนาคารทหารไทย", "nameEn": "TMBThanachart Bank", "cat": ["essentials"], "province": "cm", "slug": "tmbthanachart-bank-5342686021", "rank": 2}}, {"type": "Feature", "geometry": {"type": "Point", "coordinates": [98.99593, 18.78958]}, "properties": {"id": "cm-osm-way-258866777", "name": "ธนาคารทหารไทย", "nameTh": "ธนาคารทหารไทย", "nameEn": "TMB", "cat": ["essentials"], "province": "cm", "slug": "tmb-258866777", "rank": 2}}, {"type": "Feature", "geometry": {"type": "Point", "coordinates": [99.00704, 18.78712]}, "properties": {"id": "cm-osm-way-528013069", "name": "ธนาคารทหารไทย", "nameTh": "ธนาคารทหารไทย", "nameEn": "TMB", "cat": ["essentials"], "province": "cm", "slug": "tmb-528013069", "rank": 2}}]}