{"type": "FeatureCollection", "features": [{"type": "Feature", "geometry": {"type": "Point", "coordinates": [98.96599, 18.79591]}, "properties": {"id": "cm-osm-node-12976981412", "name": "Artisan Ink Tattoo", "nameTh": null, "nameEn": "Artisan Ink Tattoo", "cat": ["tattoo"], "province": "cm", "slug": "artisan-ink-tattoo-12976981412", "rank": 4}}, {"type": "Feature", "geometry": {"type": "Point", "coordinates": [98.99029, 18.78901]}, "properties": {"id": "cm-osm-node-4841595725", "name": "Bambi tattoo", "nameTh": null, "nameEn": "Bambi tattoo", "cat": ["tattoo"], "province": "cm", "slug": "bambi-tattoo-4841595725", "rank": 1}}, {"type": "Feature", "geometry": {"type": "Point", "coordinates": [98.99468, 18.78488]}, "properties": {"id": "cm-osm-node-820826924", "name": "Bloodline Tattoo", "nameTh": null, "nameEn": "Bloodline Tattoo", "cat": ["tattoo"], "province": "cm", "slug": "bloodline-tattoo-820826924", "rank": 1}}, {"type": "Feature", "geometry": {"type": "Point", "coordinates": [98.99248, 18.788]}, "properties": {"id": "cm-osm-node-4903800926", "name": "Bnana tattoo", "nameTh": null, "nameEn": "Bnana tattoo", "cat": ["tattoo"], "province": "cm", "slug": "bnana-tattoo-4903800926", "rank": 1}}, {"type": "Feature", "geometry": {"type": "Point", "coordinates": [98.99276, 18.78325]}, "properties": {"id": "cm-osm-node-13333145066", "name": "CNX INK", "nameTh": null, "nameEn": "CNX INK", "cat": ["tattoo"], "province": "cm", "slug": "cnx-ink-13333145066", "rank": 1}}, {"type": "Feature", "geometry": {"type": "Point", "coordinates": [98.99593, 18.78434]}, "properties": {"id": "cm-osm-node-5535316272", "name": "Celebrity Ink™ Tattoo Studio Chiang Mai", "nameTh": null, "nameEn": "Celebrity Ink™ Tattoo Studio Chiang Mai", "cat": ["tattoo"], "province": "cm", "slug": "celebrity-ink-tattoo-studio-chiang-mai-5535316272", "rank": 3}}, {"type": "Feature", "geometry": {"type": "Point", "coordinates": [98.99092, 18.79048]}, "properties": {"id": "cm-osm-node-4708268594", "name": "Dejavu Tattoo", "nameTh": null, "nameEn": "Dejavu Tattoo", "cat": ["tattoo"], "province": "cm", "slug": "dejavu-tattoo-4708268594", "rank": 1}}, {"type": "Feature", "geometry": {"type": "Point", "coordinates": [98.99173, 18.79038]}, "properties": {"id": "cm-osm-node-3309392804", "name": "Forever", "nameTh": null, "nameEn": "Forever", "cat": ["tattoo"], "province": "cm", "slug": "forever-3309392804", "rank": 1}}, {"type": "Feature", "geometry": {"type": "Point", "coordinates": [98.99042, 18.78375]}, "properties": {"id": "cm-osm-node-7125409185", "name": "Ganesha", "nameTh": null, "nameEn": "Ganesha", "cat": ["tattoo"], "province": "cm", "slug": "ganesha-7125409185", "rank": 2}}, {"type": "Feature", "geometry": {"type": "Point", "coordinates": [98.99326, 18.7909]}, "properties": {"id": "cm-osm-node-5419964023", "name": "Gao Yord Tattoo", "nameTh": null, "nameEn": "Gao Yord Tattoo", "cat": ["tattoo"], "province": "cm", "slug": "gao-yord-tattoo-5419964023", "rank": 2}}, {"type": "Feature", "geometry": {"type": "Point", "coordinates": [98.99254, 18.79403]}, "properties": {"id": "cm-osm-node-9788234773", "name": "JS Tattoo", "nameTh": null, "nameEn": "JS Tattoo", "cat": ["tattoo"], "province": "cm", "slug": "js-tattoo-9788234773", "rank": 1}}, {"type": "Feature", "geometry": {"type": "Point", "coordinates": [98.99271, 18.78468]}, "properties": {"id": "cm-osm-node-3266576204", "name": "Jin Bamboo Tattoo", "nameTh": null, "nameEn": "Jin Bamboo Tattoo", "cat": ["tattoo"], "province": "cm", "slug": "jin-bamboo-tattoo-3266576204", "rank": 1}}, {"type": "Feature", "geometry": {"type": "Point", "coordinates": [98.98385, 18.80684]}, "properties": {"id": "cm-osm-node-10243796209", "name": "Leo on Ink", "nameTh": null, "nameEn": "Leo on Ink", "cat": ["tattoo"], "province": "cm", "slug": "leo-on-ink-10243796209", "rank": 2}}, {"type": "Feature", "geometry": {"type": "Point", "coordinates": [98.99467, 18.7847]}, "properties": {"id": "cm-osm-node-3652873200", "name": "Line Point Bamboo Tattoo", "nameTh": null, "nameEn": "Line Point Bamboo Tattoo", "cat": ["tattoo"], "province": "cm", "slug": "line-point-bamboo-tattoo-3652873200", "rank": 1}}, {"type": "Feature", "geometry": {"type": "Point", "coordinates": [98.99267, 18.78354]}, "properties": {"id": "cm-osm-node-3266546702", "name": "MeingPing Ink", "nameTh": null, "nameEn": "MeingPing Ink", "cat": ["tattoo"], "province": "cm", "slug": "meingping-ink-3266546702", "rank": 1}}, {"type": "Feature", "geometry": {"type": "Point", "coordinates": [98.99258, 18.78523]}, "properties": {"id": "cm-osm-node-4789224122", "name": "Mornzter Tattoo Studio", "nameTh": null, "nameEn": "Mornzter Tattoo Studio", "cat": ["tattoo"], "province": "cm", "slug": "mornzter-tattoo-studio-4789224122", "rank": 1}}, {"type": "Feature", "geometry": {"type": "Point", "coordinates": [98.98183, 18.78307]}, "properties": {"id": "cm-osm-node-5608475321", "name": "Panumart Tattoo", "nameTh": null, "nameEn": "Panumart Tattoo", "cat": ["tattoo"], "province": "cm", "slug": "panumart-tattoo-5608475321", "rank": 2}}, {"type": "Feature", "geometry": {"type": "Point", "coordinates": [98.97853, 18.79182]}, "properties": {"id": "cm-osm-node-5703615419", "name": "Sak Yant Chiang Mai", "nameTh": null, "nameEn": "Sak Yant Chiang Mai", "cat": ["tattoo"], "province": "cm", "slug": "sak-yant-chiang-mai-5703615419", "rank": 5}}, {"type": "Feature", "geometry": {"type": "Point", "coordinates": [98.99495, 18.78452]}, "properties": {"id": "cm-osm-node-820801562", "name": "Sideroad Tattoo", "nameTh": null, "nameEn": "Sideroad Tattoo", "cat": ["tattoo"], "province": "cm", "slug": "sideroad-tattoo-820801562", "rank": 1}}, {"type": "Feature", "geometry": {"type": "Point", "coordinates": [98.99594, 18.78407]}, "properties": {"id": "cm-osm-node-1477740788", "name": "Skill Tattoo Studio", "nameTh": null, "nameEn": "Skill Tattoo Studio", "cat": ["tattoo"], "province": "cm", "slug": "skill-tattoo-studio-1477740788", "rank": 1}}, {"type": "Feature", "geometry": {"type": "Point", "coordinates": [98.95025, 18.7913]}, "properties": {"id": "cm-osm-node-7140788987", "name": "Solitary", "nameTh": null, "nameEn": "Solitary", "cat": ["tattoo"], "province": "cm", "slug": "solitary-7140788987", "rank": 1}}, {"type": "Feature", "geometry": {"type": "Point", "coordinates": [98.9948, 18.78484]}, "properties": {"id": "cm-osm-node-10548655602", "name": "TTT Tattoo cafe", "nameTh": null, "nameEn": "TTT Tattoo cafe", "cat": ["tattoo"], "province": "cm", "slug": "ttt-tattoo-cafe-10548655602", "rank": 1}}, {"type": "Feature", "geometry": {"type": "Point", "coordinates": [98.99136, 18.79285]}, "properties": {"id": "cm-osm-node-6579572171", "name": "Tattoo", "nameTh": null, "nameEn": "Tattoo", "cat": ["tattoo"], "province": "cm", "slug": "tattoo-6579572171", "rank": 1}}, {"type": "Feature", "geometry": {"type": "Point", "coordinates": [98.99051, 18.79122]}, "properties": {"id": "cm-osm-node-1491288331", "name": "Tattoo Studio", "nameTh": null, "nameEn": "Tattoo Studio", "cat": ["tattoo"], "province": "cm", "slug": "tattoo-studio-1491288331", "rank": 1}}, {"type": "Feature", "geometry": {"type": "Point", "coordinates": [98.99354, 18.78115]}, "properties": {"id": "cm-osm-node-5845556885", "name": "The 29 Tattoo Studio", "nameTh": null, "nameEn": "The 29 Tattoo Studio", "cat": ["tattoo"], "province": "cm", "slug": "the-29-tattoo-studio-5845556885", "rank": 1}}, {"type": "Feature", "geometry": {"type": "Point", "coordinates": [98.99171, 18.79039]}, "properties": {"id": "cm-osm-node-7142253885", "name": "The Best Tattoo", "nameTh": null, "nameEn": "The Best Tattoo", "cat": ["tattoo"], "province": "cm", "slug": "the-best-tattoo-7142253885", "rank": 3}}, {"type": "Feature", "geometry": {"type": "Point", "coordinates": [98.99056, 18.78545]}, "properties": {"id": "cm-osm-node-5175695423", "name": "The Master Tattoo", "nameTh": null, "nameEn": "The Master Tattoo", "cat": ["tattoo"], "province": "cm", "slug": "the-master-tattoo-5175695423", "rank": 2}}, {"type": "Feature", "geometry": {"type": "Point", "coordinates": [98.98217, 18.79243]}, "properties": {"id": "cm-osm-node-11515426705", "name": "Warp Tattoo", "nameTh": null, "nameEn": "Warp Tattoo", "cat": ["tattoo"], "province": "cm", "slug": "warp-tattoo-11515426705", "rank": 3}}, {"type": "Feature", "geometry": {"type": "Point", "coordinates": [98.97713, 18.7834]}, "properties": {"id": "cm-osm-node-12467082184", "name": "Xavier Ink.cnx", "nameTh": null, "nameEn": "Xavier Ink.cnx", "cat": ["tattoo"], "province": "cm", "slug": "xavier-ink-cnx-12467082184", "rank": 3}}]}