{"type": "FeatureCollection", "features": [{"type": "Feature", "geometry": {"type": "Point", "coordinates": [98.97535, 18.83694]}, "properties": {"id": "cm-osm-way-103270783", "name": "Bangchak", "nameTh": null, "nameEn": "Bangchak", "cat": ["transport"], "province": "cm", "slug": "bangchak-103270783", "rank": 1}}, {"type": "Feature", "geometry": {"type": "Point", "coordinates": [98.9754, 18.8349]}, "properties": {"id": "cm-osm-way-103270786", "name": "Bangchak", "nameTh": null, "nameEn": "Bangchak", "cat": ["transport"], "province": "cm", "slug": "bangchak-103270786", "rank": 1}}, {"type": "Feature", "geometry": {"type": "Point", "coordinates": [99.03255, 18.81366]}, "properties": {"id": "cm-osm-way-103280179", "name": "Bangchak", "nameTh": "บางจาก", "nameEn": "Bangchak", "cat": ["transport"], "province": "cm", "slug": "bangchak-103280179", "rank": 2}}, {"type": "Feature", "geometry": {"type": "Point", "coordinates": [98.99778, 18.79246]}, "properties": {"id": "cm-osm-way-103819730", "name": "Bangchak", "nameTh": null, "nameEn": "Bangchak", "cat": ["transport"], "province": "cm", "slug": "bangchak-103819730", "rank": 1}}, {"type": "Feature", "geometry": {"type": "Point", "coordinates": [98.96844, 18.75697]}, "properties": {"id": "cm-osm-way-106083750", "name": "Bangchak", "nameTh": "บางจาก", "nameEn": "Bangchak", "cat": ["transport"], "province": "cm", "slug": "bangchak-106083750", "rank": 2}}, {"type": "Feature", "geometry": {"type": "Point", "coordinates": [98.92591, 18.71332]}, "properties": {"id": "cm-osm-way-1111043560", "name": "Bangchak", "nameTh": null, "nameEn": "Bangchak", "cat": ["transport"], "province": "cm", "slug": "bangchak-1111043560", "rank": 1}}, {"type": "Feature", "geometry": {"type": "Point", "coordinates": [99.02965, 18.81736]}, "properties": {"id": "cm-osm-way-1113305917", "name": "Bangchak", "nameTh": null, "nameEn": "Bangchak", "cat": ["transport"], "province": "cm", "slug": "bangchak-1113305917", "rank": 1}}, {"type": "Feature", "geometry": {"type": "Point", "coordinates": [99.01158, 18.78614]}, "properties": {"id": "cm-osm-way-127720972", "name": "Bangchak", "nameTh": "บางจาก", "nameEn": "Bangchak", "cat": ["transport"], "province": "cm", "slug": "bangchak-127720972", "rank": 2}}, {"type": "Feature", "geometry": {"type": "Point", "coordinates": [98.97557, 18.81028]}, "properties": {"id": "cm-osm-way-232968575", "name": "Bangchak", "nameTh": "บางจาก", "nameEn": "Bangchak", "cat": ["transport"], "province": "cm", "slug": "bangchak-232968575", "rank": 2}}, {"type": "Feature", "geometry": {"type": "Point", "coordinates": [99.01465, 18.865]}, "properties": {"id": "cm-osm-way-244657363", "name": "Bangchak", "nameTh": "บางจาก", "nameEn": "Bangchak", "cat": ["transport"], "province": "cm", "slug": "bangchak-244657363", "rank": 2}}, {"type": "Feature", "geometry": {"type": "Point", "coordinates": [98.95027, 18.9024]}, "properties": {"id": "cm-osm-way-315328683", "name": "Bangchak", "nameTh": "บางจาก", "nameEn": "Bangchak", "cat": ["transport"], "province": "cm", "slug": "bangchak-315328683", "rank": 2}}, {"type": "Feature", "geometry": {"type": "Point", "coordinates": [98.99354, 18.78391]}, "properties": {"id": "cm-osm-way-317391576", "name": "Bangchak", "nameTh": null, "nameEn": "Bangchak", "cat": ["transport"], "province": "cm", "slug": "bangchak-317391576", "rank": 1}}, {"type": "Feature", "geometry": {"type": "Point", "coordinates": [99.04909, 18.62988]}, "properties": {"id": "cm-osm-way-318787172", "name": "Bangchak", "nameTh": "บางจาก", "nameEn": "Bangchak", "cat": ["transport"], "province": "cm", "slug": "bangchak-318787172", "rank": 2}}, {"type": "Feature", "geometry": {"type": "Point", "coordinates": [98.98629, 18.76731]}, "properties": {"id": "cm-osm-way-334115625", "name": "Bangchak", "nameTh": "บางจาก", "nameEn": "Bangchak", "cat": ["transport"], "province": "cm", "slug": "bangchak-334115625", "rank": 2}}, {"type": "Feature", "geometry": {"type": "Point", "coordinates": [99.02311, 18.60403]}, "properties": {"id": "cm-osm-way-335200668", "name": "Bangchak", "nameTh": "บางจาก", "nameEn": "Bangchak", "cat": ["transport"], "province": "cm", "slug": "bangchak-335200668", "rank": 2}}, {"type": "Feature", "geometry": {"type": "Point", "coordinates": [99.03114, 18.81353]}, "properties": {"id": "cm-osm-way-382215551", "name": "Bangchak", "nameTh": "บางจาก", "nameEn": "Bangchak", "cat": ["transport"], "province": "cm", "slug": "bangchak-382215551", "rank": 2}}, {"type": "Feature", "geometry": {"type": "Point", "coordinates": [98.92442, 18.69355]}, "properties": {"id": "cm-osm-way-387362905", "name": "Bangchak", "nameTh": null, "nameEn": "Bangchak", "cat": ["transport"], "province": "cm", "slug": "bangchak-387362905", "rank": 1}}, {"type": "Feature", "geometry": {"type": "Point", "coordinates": [99.04543, 18.71141]}, "properties": {"id": "cm-osm-way-418321502", "name": "Bangchak", "nameTh": "บางจาก", "nameEn": "Bangchak", "cat": ["transport"], "province": "cm", "slug": "bangchak-418321502", "rank": 2}}, {"type": "Feature", "geometry": {"type": "Point", "coordinates": [99.02497, 18.80907]}, "properties": {"id": "cm-osm-way-543611583", "name": "Bangchak", "nameTh": null, "nameEn": "Bangchak", "cat": ["transport"], "province": "cm", "slug": "bangchak-543611583", "rank": 1}}, {"type": "Feature", "geometry": {"type": "Point", "coordinates": [98.97395, 18.76342]}, "properties": {"id": "cm-osm-way-693400690", "name": "Bangchak", "nameTh": "บางจาก", "nameEn": "Bangchak", "cat": ["transport"], "province": "cm", "slug": "bangchak-693400690", "rank": 3}}, {"type": "Feature", "geometry": {"type": "Point", "coordinates": [99.00615, 18.7685]}, "properties": {"id": "cm-osm-way-693413137", "name": "Bangchak", "nameTh": null, "nameEn": "Bangchak", "cat": ["transport"], "province": "cm", "slug": "bangchak-693413137", "rank": 1}}, {"type": "Feature", "geometry": {"type": "Point", "coordinates": [98.86556, 18.65799]}, "properties": {"id": "cm-osm-way-734829734", "name": "Bangchak", "nameTh": "บางจาก", "nameEn": "Bangchak", "cat": ["transport"], "province": "cm", "slug": "bangchak-734829734", "rank": 2}}, {"type": "Feature", "geometry": {"type": "Point", "coordinates": [99.11481, 18.74729]}, "properties": {"id": "cm-osm-way-97838360", "name": "Bangchak", "nameTh": "บางจาก", "nameEn": "Bangchak", "cat": ["transport"], "province": "cm", "slug": "bangchak-97838360", "rank": 2}}, {"type": "Feature", "geometry": {"type": "Point", "coordinates": [99.13902, 18.87636]}, "properties": {"id": "cm-osm-node-907694081", "name": "Inthanin", "nameTh": "บางจาก", "nameEn": "Bangchak", "cat": ["transport"], "province": "cm", "slug": "bangchak-907694081", "rank": 2}}, {"type": "Feature", "geometry": {"type": "Point", "coordinates": [99.01885, 18.8038]}, "properties": {"id": "cm-osm-way-560600832", "name": "LPG Station", "nameTh": null, "nameEn": "LPG Station", "cat": ["transport"], "province": "cm", "slug": "lpg-station-560600832", "rank": 1}}, {"type": "Feature", "geometry": {"type": "Point", "coordinates": [98.99683, 18.62875]}, "properties": {"id": "cm-osm-node-5245297876", "name": "บางจาก", "nameTh": "บางจาก", "nameEn": "Bangchak", "cat": ["transport"], "province": "cm", "slug": "bangchak-5245297876", "rank": 2}}, {"type": "Feature", "geometry": {"type": "Point", "coordinates": [99.13353, 18.87327]}, "properties": {"id": "cm-osm-node-907694080", "name": "บางจาก", "nameTh": "บางจาก", "nameEn": "Bangchak", "cat": ["transport"], "province": "cm", "slug": "bangchak-907694080", "rank": 4}}, {"type": "Feature", "geometry": {"type": "Point", "coordinates": [98.97106, 18.80703]}, "properties": {"id": "cm-osm-way-101345618", "name": "บางจาก", "nameTh": "บางจาก", "nameEn": "Bangchak", "cat": ["transport"], "province": "cm", "slug": "bangchak-101345618", "rank": 4}}, {"type": "Feature", "geometry": {"type": "Point", "coordinates": [99.01873, 18.74802]}, "properties": {"id": "cm-osm-way-1097483294", "name": "บางจาก", "nameTh": "บางจาก", "nameEn": "Bangchak", "cat": ["transport"], "province": "cm", "slug": "bangchak-1097483294", "rank": 2}}, {"type": "Feature", "geometry": {"type": "Point", "coordinates": [98.94271, 18.75843]}, "properties": {"id": "cm-osm-way-1109991532", "name": "บางจาก", "nameTh": "บางจาก", "nameEn": "Bangchak", "cat": ["transport"], "province": "cm", "slug": "bangchak-1109991532", "rank": 2}}, {"type": "Feature", "geometry": {"type": "Point", "coordinates": [98.96388, 18.81375]}, "properties": {"id": "cm-osm-way-1135588788", "name": "บางจาก", "nameTh": "บางจาก", "nameEn": "Bangchak", "cat": ["transport"], "province": "cm", "slug": "bangchak-1135588788", "rank": 2}}, {"type": "Feature", "geometry": {"type": "Point", "coordinates": [98.96525, 18.74068]}, "properties": {"id": "cm-osm-way-1158935338", "name": "บางจาก", "nameTh": "บางจาก", "nameEn": "Bangchak", "cat": ["transport"], "province": "cm", "slug": "bangchak-1158935338", "rank": 2}}, {"type": "Feature", "geometry": {"type": "Point", "coordinates": [98.97822, 18.98945]}, "properties": {"id": "cm-osm-way-1234506354", "name": "บางจาก", "nameTh": "บางจาก", "nameEn": "Bangchak", "cat": ["transport"], "province": "cm", "slug": "bangchak-1234506354", "rank": 4}}, {"type": "Feature", "geometry": {"type": "Point", "coordinates": [99.06248, 18.75906]}, "properties": {"id": "cm-osm-way-1298019677", "name": "บางจาก", "nameTh": "บางจาก", "nameEn": "Bangchak", "cat": ["transport"], "province": "cm", "slug": "bangchak-1298019677", "rank": 2}}, {"type": "Feature", "geometry": {"type": "Point", "coordinates": [98.90241, 18.64481]}, "properties": {"id": "cm-osm-way-1348626448", "name": "บางจาก", "nameTh": "บางจาก", "nameEn": "Bangchak", "cat": ["transport"], "province": "cm", "slug": "bangchak-1348626448", "rank": 2}}, {"type": "Feature", "geometry": {"type": "Point", "coordinates": [98.97448, 18.80862]}, "properties": {"id": "cm-osm-way-1348836651", "name": "บางจาก", "nameTh": "บางจาก", "nameEn": "Bangchak", "cat": ["transport"], "province": "cm", "slug": "bangchak-1348836651", "rank": 2}}, {"type": "Feature", "geometry": {"type": "Point", "coordinates": [99.0315, 18.8025]}, "properties": {"id": "cm-osm-way-1356063538", "name": "บางจาก", "nameTh": "บางจาก", "nameEn": "Bangchak", "cat": ["transport"], "province": "cm", "slug": "bangchak-1356063538", "rank": 2}}, {"type": "Feature", "geometry": {"type": "Point", "coordinates": [98.91789, 18.68071]}, "properties": {"id": "cm-osm-way-1482535787", "name": "บางจาก", "nameTh": "บางจาก", "nameEn": "Bangchak", "cat": ["transport"], "province": "cm", "slug": "bangchak-1482535787", "rank": 2}}, {"type": "Feature", "geometry": {"type": "Point", "coordinates": [98.97649, 18.77701]}, "properties": {"id": "cm-osm-way-208674913", "name": "บางจาก", "nameTh": "บางจาก", "nameEn": "Bangchak", "cat": ["transport"], "province": "cm", "slug": "bangchak-208674913", "rank": 4}}, {"type": "Feature", "geometry": {"type": "Point", "coordinates": [98.96032, 18.80182]}, "properties": {"id": "cm-osm-way-285999611", "name": "บางจาก", "nameTh": "บางจาก", "nameEn": "Bangchak", "cat": ["transport"], "province": "cm", "slug": "bangchak-285999611", "rank": 4}}, {"type": "Feature", "geometry": {"type": "Point", "coordinates": [98.94426, 18.9526]}, "properties": {"id": "cm-osm-way-305979003", "name": "บางจาก", "nameTh": "บางจาก", "nameEn": "Bangchak", "cat": ["transport"], "province": "cm", "slug": "bangchak-305979003", "rank": 5}}, {"type": "Feature", "geometry": {"type": "Point", "coordinates": [98.95015, 18.90108]}, "properties": {"id": "cm-osm-way-315328671", "name": "บางจาก", "nameTh": "บางจาก", "nameEn": "Bangchak", "cat": ["transport"], "province": "cm", "slug": "bangchak-315328671", "rank": 4}}, {"type": "Feature", "geometry": {"type": "Point", "coordinates": [98.99251, 18.92466]}, "properties": {"id": "cm-osm-way-315330206", "name": "บางจาก", "nameTh": "บางจาก", "nameEn": "Bangchak", "cat": ["transport"], "province": "cm", "slug": "bangchak-315330206", "rank": 4}}, {"type": "Feature", "geometry": {"type": "Point", "coordinates": [99.01412, 18.88435]}, "properties": {"id": "cm-osm-way-333372941", "name": "บางจาก", "nameTh": "บางจาก", "nameEn": "Bangchak", "cat": ["transport"], "province": "cm", "slug": "bangchak-333372941", "rank": 2}}, {"type": "Feature", "geometry": {"type": "Point", "coordinates": [99.0184, 18.78541]}, "properties": {"id": "cm-osm-way-339329947", "name": "บางจาก", "nameTh": "บางจาก", "nameEn": "Bangchak", "cat": ["transport"], "province": "cm", "slug": "bangchak-339329947", "rank": 4}}, {"type": "Feature", "geometry": {"type": "Point", "coordinates": [98.99228, 18.78082]}, "properties": {"id": "cm-osm-way-356620508", "name": "บางจาก", "nameTh": "บางจาก", "nameEn": "Bangchak", "cat": ["transport"], "province": "cm", "slug": "bangchak-356620508", "rank": 4}}, {"type": "Feature", "geometry": {"type": "Point", "coordinates": [99.02269, 18.76178]}, "properties": {"id": "cm-osm-way-537852249", "name": "บางจาก", "nameTh": "บางจาก", "nameEn": "Bangchak", "cat": ["transport"], "province": "cm", "slug": "bangchak-537852249", "rank": 2}}, {"type": "Feature", "geometry": {"type": "Point", "coordinates": [99.04982, 18.63249]}, "properties": {"id": "cm-osm-way-560751207", "name": "บางจาก", "nameTh": "บางจาก", "nameEn": "Bangchak", "cat": ["transport"], "province": "cm", "slug": "bangchak-560751207", "rank": 3}}, {"type": "Feature", "geometry": {"type": "Point", "coordinates": [98.89579, 18.62097]}, "properties": {"id": "cm-osm-way-650593623", "name": "บางจาก", "nameTh": "บางจาก", "nameEn": "Bangchak", "cat": ["transport"], "province": "cm", "slug": "bangchak-650593623", "rank": 4}}, {"type": "Feature", "geometry": {"type": "Point", "coordinates": [99.11195, 18.74936]}, "properties": {"id": "cm-osm-way-742199494", "name": "บางจาก", "nameTh": "บางจาก", "nameEn": "Bangchak", "cat": ["transport"], "province": "cm", "slug": "bangchak-742199494", "rank": 4}}, {"type": "Feature", "geometry": {"type": "Point", "coordinates": [99.02423, 18.79165]}, "properties": {"id": "cm-osm-way-96964501", "name": "บางจาก", "nameTh": "บางจาก", "nameEn": "Bangchak", "cat": ["transport"], "province": "cm", "slug": "bangchak-96964501", "rank": 4}}, {"type": "Feature", "geometry": {"type": "Point", "coordinates": [99.04584, 18.71003]}, "properties": {"id": "cm-osm-way-98400177", "name": "บางจาก", "nameTh": "บางจาก", "nameEn": "Bangchak", "cat": ["transport"], "province": "cm", "slug": "bangchak-98400177", "rank": 2}}]}