{"type": "FeatureCollection", "features": [{"type": "Feature", "geometry": {"type": "Point", "coordinates": [99.06249, 18.75137]}, "properties": {"id": "cm-osm-node-10049041151", "name": "Shell", "nameTh": "เซลล์", "nameEn": "Shell", "cat": ["transport"], "province": "cm", "slug": "shell-10049041151", "rank": 2}}, {"type": "Feature", "geometry": {"type": "Point", "coordinates": [98.92635, 18.69566]}, "properties": {"id": "cm-osm-node-1583822791", "name": "Shell", "nameTh": "เซลล์", "nameEn": "Shell", "cat": ["transport"], "province": "cm", "slug": "shell-1583822791", "rank": 3}}, {"type": "Feature", "geometry": {"type": "Point", "coordinates": [98.93577, 18.74024]}, "properties": {"id": "cm-osm-way-1160626860", "name": "Shell", "nameTh": "เซลล์", "nameEn": "Shell", "cat": ["transport"], "province": "cm", "slug": "shell-1160626860", "rank": 2}}, {"type": "Feature", "geometry": {"type": "Point", "coordinates": [98.95097, 18.89844]}, "properties": {"id": "cm-osm-way-1356384846", "name": "Shell", "nameTh": "เชลล์", "nameEn": "Shell", "cat": ["transport"], "province": "cm", "slug": "shell-1356384846", "rank": 2}}, {"type": "Feature", "geometry": {"type": "Point", "coordinates": [99.0235, 18.76292]}, "properties": {"id": "cm-osm-way-298139711", "name": "Shell", "nameTh": "เซลล์", "nameEn": "Shell", "cat": ["transport"], "province": "cm", "slug": "shell-298139711", "rank": 2}}, {"type": "Feature", "geometry": {"type": "Point", "coordinates": [99.03559, 18.74396]}, "properties": {"id": "cm-osm-way-341958009", "name": "Shell", "nameTh": null, "nameEn": "Shell", "cat": ["transport"], "province": "cm", "slug": "shell-341958009", "rank": 1}}, {"type": "Feature", "geometry": {"type": "Point", "coordinates": [99.03685, 18.81797]}, "properties": {"id": "cm-osm-way-702543843", "name": "Shell", "nameTh": "เซลล์", "nameEn": "Shell", "cat": ["transport"], "province": "cm", "slug": "shell-702543843", "rank": 4}}, {"type": "Feature", "geometry": {"type": "Point", "coordinates": [99.04244, 18.60056]}, "properties": {"id": "cm-osm-way-823933131", "name": "Shell", "nameTh": "เชลล์", "nameEn": "Shell", "cat": ["transport"], "province": "cm", "slug": "shell-823933131", "rank": 3}}, {"type": "Feature", "geometry": {"type": "Point", "coordinates": [98.97394, 18.79785]}, "properties": {"id": "cm-osm-node-1489645350", "name": "Shell ทองธนพล สาขาห้วยแก้ว", "nameTh": "Shell ทองธนพล สาขาห้วยแก้ว", "nameEn": "Shell Thongthanaphon - Huay Kaew", "cat": ["transport"], "province": "cm", "slug": "shell-thongthanaphon-huay-kaew-1489645350", "rank": 2}}, {"type": "Feature", "geometry": {"type": "Point", "coordinates": [99.01409, 18.78566]}, "properties": {"id": "cm-osm-way-150351596", "name": "Shell ทองธนพล สาขาเจริญเมือง", "nameTh": "Shell ทองธนพล สาขาเจริญเมือง", "nameEn": "Shell Thongthanaphon - Charoen Muang", "cat": ["transport"], "province": "cm", "slug": "shell-thongthanaphon-charoen-muang-150351596", "rank": 3}}, {"type": "Feature", "geometry": {"type": "Point", "coordinates": [98.9608, 18.74578]}, "properties": {"id": "cm-osm-way-1371591736", "name": "เชลล์", "nameTh": "เชลล์", "nameEn": "Shell", "cat": ["transport"], "province": "cm", "slug": "shell-1371591736", "rank": 2}}, {"type": "Feature", "geometry": {"type": "Point", "coordinates": [99.04818, 18.62264]}, "properties": {"id": "cm-osm-way-244421616", "name": "เชลล์", "nameTh": "เชลล์", "nameEn": "Shell", "cat": ["transport"], "province": "cm", "slug": "shell-244421616", "rank": 3}}, {"type": "Feature", "geometry": {"type": "Point", "coordinates": [98.96635, 18.7525]}, "properties": {"id": "cm-osm-way-241405188", "name": "เชลล์ ทองธนพล สาขาสนามบิน", "nameTh": "Shell ทองธนพล สาขาสนามบิน", "nameEn": "Shell Thongthanaphon - Airport", "cat": ["transport"], "province": "cm", "slug": "shell-thongthanaphon-airport-241405188", "rank": 2}}]}