{"type": "FeatureCollection", "features": [{"type": "Feature", "geometry": {"type": "Point", "coordinates": [98.99565, 18.8445]}, "properties": {"id": "cm-osm-node-10073144199", "name": "Kerry Express", "nameTh": null, "nameEn": "Kerry Express", "cat": ["essentials"], "province": "cm", "slug": "kerry-express-10073144199", "rank": 1}}, {"type": "Feature", "geometry": {"type": "Point", "coordinates": [99.00806, 18.7552]}, "properties": {"id": "cm-osm-node-10102580262", "name": "Kerry Express", "nameTh": null, "nameEn": "Kerry Express", "cat": ["essentials"], "province": "cm", "slug": "kerry-express-10102580262", "rank": 1}}, {"type": "Feature", "geometry": {"type": "Point", "coordinates": [98.97071, 18.79604]}, "properties": {"id": "cm-osm-node-10102582820", "name": "Kerry Express", "nameTh": null, "nameEn": "Kerry Express", "cat": ["essentials"], "province": "cm", "slug": "kerry-express-10102582820", "rank": 1}}, {"type": "Feature", "geometry": {"type": "Point", "coordinates": [99.02413, 18.84227]}, "properties": {"id": "cm-osm-node-11693439048", "name": "Kerry Express", "nameTh": null, "nameEn": "Kerry Express", "cat": ["essentials"], "province": "cm", "slug": "kerry-express-11693439048", "rank": 1}}, {"type": "Feature", "geometry": {"type": "Point", "coordinates": [98.98585, 18.7816]}, "properties": {"id": "cm-osm-node-4437354117", "name": "Kerry Express", "nameTh": null, "nameEn": "Kerry Express", "cat": ["essentials"], "province": "cm", "slug": "kerry-express-4437354117", "rank": 1}}, {"type": "Feature", "geometry": {"type": "Point", "coordinates": [98.96052, 18.74114]}, "properties": {"id": "cm-osm-node-5510722799", "name": "Kerry Express", "nameTh": null, "nameEn": "Kerry Express", "cat": ["essentials"], "province": "cm", "slug": "kerry-express-5510722799", "rank": 2}}, {"type": "Feature", "geometry": {"type": "Point", "coordinates": [98.96321, 18.78852]}, "properties": {"id": "cm-osm-node-6065596594", "name": "Kerry Express", "nameTh": null, "nameEn": "Kerry Express", "cat": ["essentials"], "province": "cm", "slug": "kerry-express-6065596594", "rank": 2}}, {"type": "Feature", "geometry": {"type": "Point", "coordinates": [99.01463, 18.87533]}, "properties": {"id": "cm-osm-node-6369674085", "name": "Kerry Express", "nameTh": null, "nameEn": "Kerry Express", "cat": ["essentials"], "province": "cm", "slug": "kerry-express-6369674085", "rank": 1}}, {"type": "Feature", "geometry": {"type": "Point", "coordinates": [98.95996, 18.80291]}, "properties": {"id": "cm-osm-node-6961550688", "name": "Kerry Express", "nameTh": null, "nameEn": "Kerry Express", "cat": ["essentials"], "province": "cm", "slug": "kerry-express-6961550688", "rank": 1}}, {"type": "Feature", "geometry": {"type": "Point", "coordinates": [98.97679, 18.77517]}, "properties": {"id": "cm-osm-node-6992284790", "name": "Kerry Express", "nameTh": null, "nameEn": "Kerry Express", "cat": ["essentials"], "province": "cm", "slug": "kerry-express-6992284790", "rank": 3}}, {"type": "Feature", "geometry": {"type": "Point", "coordinates": [98.97737, 18.80753]}, "properties": {"id": "cm-osm-node-8491502424", "name": "Kerry Express", "nameTh": null, "nameEn": "Kerry Express", "cat": ["essentials"], "province": "cm", "slug": "kerry-express-8491502424", "rank": 1}}, {"type": "Feature", "geometry": {"type": "Point", "coordinates": [98.8255, 18.60247]}, "properties": {"id": "cm-osm-way-841775952", "name": "Kerry Express", "nameTh": null, "nameEn": "Kerry Express", "cat": ["essentials"], "province": "cm", "slug": "kerry-express-841775952", "rank": 1}}]}