{"type": "FeatureCollection", "features": [{"type": "Feature", "geometry": {"type": "Point", "coordinates": [98.98219, 18.79238]}, "properties": {"id": "cm-osm-node-11369869429", "name": "Air's Kitchen and Cafe", "nameTh": null, "nameEn": "Air's Kitchen and Cafe", "cat": ["food"], "province": "cm", "slug": "air-s-kitchen-and-cafe-11369869429", "rank": 2}}, {"type": "Feature", "geometry": {"type": "Point", "coordinates": [98.97593, 18.80218]}, "properties": {"id": "cm-osm-node-11915089170", "name": "Bannom", "nameTh": null, "nameEn": "Bannom", "cat": ["food"], "province": "cm", "slug": "bannom-11915089170", "rank": 2}}, {"type": "Feature", "geometry": {"type": "Point", "coordinates": [98.99142, 18.7939]}, "properties": {"id": "cm-osm-way-259707860", "name": "Blue Diamond The Breakfast Club", "nameTh": null, "nameEn": "Blue Diamond The Breakfast Club", "cat": ["food"], "province": "cm", "slug": "blue-diamond-the-breakfast-club-259707860", "rank": 3}}, {"type": "Feature", "geometry": {"type": "Point", "coordinates": [98.98072, 18.78176]}, "properties": {"id": "cm-osm-node-11386909636", "name": "Bowls & Breads", "nameTh": null, "nameEn": "Bowls & Breads", "cat": ["food"], "province": "cm", "slug": "bowls-breads-11386909636", "rank": 2}}, {"type": "Feature", "geometry": {"type": "Point", "coordinates": [98.97034, 18.79833]}, "properties": {"id": "cm-osm-node-11425558688", "name": "Coffee INC. Nicohub", "nameTh": null, "nameEn": "Coffee INC. Nicohub", "cat": ["food"], "province": "cm", "slug": "coffee-inc-nicohub-11425558688", "rank": 3}}, {"type": "Feature", "geometry": {"type": "Point", "coordinates": [98.96928, 18.78869]}, "properties": {"id": "cm-osm-node-4539213082", "name": "Everest 8848", "nameTh": null, "nameEn": "Everest 8848", "cat": ["food"], "province": "cm", "slug": "everest-8848-4539213082", "rank": 1}}, {"type": "Feature", "geometry": {"type": "Point", "coordinates": [98.98187, 18.78493]}, "properties": {"id": "cm-osm-node-11409266290", "name": "Falafel and Salad", "nameTh": null, "nameEn": "Falafel and Salad", "cat": ["food"], "province": "cm", "slug": "falafel-and-salad-11409266290", "rank": 2}}, {"type": "Feature", "geometry": {"type": "Point", "coordinates": [98.98987, 18.77873]}, "properties": {"id": "cm-osm-node-11699795495", "name": "Haiya Ta-bur Experience Space", "nameTh": null, "nameEn": "Haiya Ta-bur Experience Space", "cat": ["food"], "province": "cm", "slug": "haiya-ta-bur-experience-space-11699795495", "rank": 2}}, {"type": "Feature", "geometry": {"type": "Point", "coordinates": [98.98235, 18.79008]}, "properties": {"id": "cm-osm-node-7027943486", "name": "Hug Smoothie", "nameTh": null, "nameEn": "Hug Smoothie", "cat": ["food"], "province": "cm", "slug": "hug-smoothie-7027943486", "rank": 1}}, {"type": "Feature", "geometry": {"type": "Point", "coordinates": [98.97206, 18.79596]}, "properties": {"id": "cm-osm-node-11471926667", "name": "Rosemary", "nameTh": null, "nameEn": "Rosemary", "cat": ["food"], "province": "cm", "slug": "rosemary-11471926667", "rank": 3}}, {"type": "Feature", "geometry": {"type": "Point", "coordinates": [98.9824, 18.78369]}, "properties": {"id": "cm-osm-node-10791281005", "name": "Vegan society", "nameTh": null, "nameEn": "Vegan society", "cat": ["food"], "province": "cm", "slug": "vegan-society-10791281005", "rank": 1}}, {"type": "Feature", "geometry": {"type": "Point", "coordinates": [98.98427, 18.78587]}, "properties": {"id": "cm-osm-node-6540348415", "name": "ร้านแม่บุปผา", "nameTh": "ร้านแม่บุปผา", "nameEn": null, "cat": ["food"], "province": "cm", "slug": "6540348415", "rank": 1}}]}