{"type": "FeatureCollection", "features": [{"type": "Feature", "geometry": {"type": "Point", "coordinates": [99.00631, 18.76845]}, "properties": {"id": "cm-osm-node-1173899449", "name": "TESCO Lotus Express", "nameTh": null, "nameEn": "TESCO Lotus Express", "cat": ["essentials"], "province": "cm", "slug": "tesco-lotus-express-1173899449", "rank": 1}}, {"type": "Feature", "geometry": {"type": "Point", "coordinates": [98.97832, 18.8036]}, "properties": {"id": "cm-osm-node-2530393021", "name": "TESCO Lotus Express", "nameTh": null, "nameEn": "TESCO Lotus Express", "cat": ["essentials"], "province": "cm", "slug": "tesco-lotus-express-2530393021", "rank": 2}}, {"type": "Feature", "geometry": {"type": "Point", "coordinates": [99.07453, 18.84431]}, "properties": {"id": "cm-osm-node-2650807937", "name": "TESCO Lotus Express", "nameTh": null, "nameEn": "TESCO Lotus Express", "cat": ["essentials"], "province": "cm", "slug": "tesco-lotus-express-2650807937", "rank": 2}}, {"type": "Feature", "geometry": {"type": "Point", "coordinates": [98.8954, 18.62581]}, "properties": {"id": "cm-osm-node-2684213282", "name": "TESCO Lotus Express", "nameTh": null, "nameEn": "TESCO Lotus Express", "cat": ["essentials"], "province": "cm", "slug": "tesco-lotus-express-2684213282", "rank": 2}}, {"type": "Feature", "geometry": {"type": "Point", "coordinates": [98.99323, 18.79119]}, "properties": {"id": "cm-osm-node-3298818262", "name": "TESCO Lotus Express", "nameTh": null, "nameEn": "TESCO Lotus Express", "cat": ["essentials"], "province": "cm", "slug": "tesco-lotus-express-3298818262", "rank": 2}}, {"type": "Feature", "geometry": {"type": "Point", "coordinates": [98.97158, 18.84591]}, "properties": {"id": "cm-osm-node-4480923766", "name": "TESCO Lotus Express", "nameTh": null, "nameEn": "TESCO Lotus Express", "cat": ["essentials"], "province": "cm", "slug": "tesco-lotus-express-4480923766", "rank": 2}}, {"type": "Feature", "geometry": {"type": "Point", "coordinates": [99.03353, 18.71551]}, "properties": {"id": "cm-osm-node-4509361879", "name": "TESCO Lotus Express", "nameTh": null, "nameEn": "TESCO Lotus Express", "cat": ["essentials"], "province": "cm", "slug": "tesco-lotus-express-4509361879", "rank": 2}}]}