{"type": "FeatureCollection", "features": [{"type": "Feature", "geometry": {"type": "Point", "coordinates": [99.02076, 18.72842]}, "properties": {"id": "cm-osm-node-5664436709", "name": "102/1 อาหารตามสั่ง", "nameTh": "102/1 อาหารตามสั่ง", "nameEn": null, "cat": ["food"], "province": "cm", "slug": "102-1-5664436709", "rank": 2}}, {"type": "Feature", "geometry": {"type": "Point", "coordinates": [98.97593, 18.80218]}, "properties": {"id": "cm-osm-node-11915089170", "name": "Bannom", "nameTh": null, "nameEn": "Bannom", "cat": ["food"], "province": "cm", "slug": "bannom-11915089170", "rank": 2}}, {"type": "Feature", "geometry": {"type": "Point", "coordinates": [98.99795, 18.78655]}, "properties": {"id": "cm-osm-node-2597978364", "name": "Billy's Restaurant", "nameTh": null, "nameEn": "Billy's Restaurant", "cat": ["food"], "province": "cm", "slug": "billy-s-restaurant-2597978364", "rank": 2}}, {"type": "Feature", "geometry": {"type": "Point", "coordinates": [98.97534, 18.76941]}, "properties": {"id": "cm-osm-node-3347631779", "name": "Black Canyon", "nameTh": null, "nameEn": "Black Canyon", "cat": ["food"], "province": "cm", "slug": "black-canyon-3347631779", "rank": 2}}, {"type": "Feature", "geometry": {"type": "Point", "coordinates": [98.96446, 18.79754]}, "properties": {"id": "cm-osm-node-3388756294", "name": "Blessed Food", "nameTh": null, "nameEn": "Blessed Food", "cat": ["food"], "province": "cm", "slug": "blessed-food-3388756294", "rank": 3}}, {"type": "Feature", "geometry": {"type": "Point", "coordinates": [98.96827, 18.76877]}, "properties": {"id": "cm-osm-node-1474876241", "name": "Burger King", "nameTh": null, "nameEn": "Burger King", "cat": ["food"], "province": "cm", "slug": "burger-king-1474876241", "rank": 2}}, {"type": "Feature", "geometry": {"type": "Point", "coordinates": [98.99305, 18.78798]}, "properties": {"id": "cm-osm-node-3123387493", "name": "Burger King", "nameTh": null, "nameEn": "Burger King", "cat": ["food"], "province": "cm", "slug": "burger-king-3123387493", "rank": 2}}, {"type": "Feature", "geometry": {"type": "Point", "coordinates": [99.02305, 18.76281]}, "properties": {"id": "cm-osm-node-4572686702", "name": "Burger King", "nameTh": null, "nameEn": "Burger King", "cat": ["food"], "province": "cm", "slug": "burger-king-4572686702", "rank": 1}}, {"type": "Feature", "geometry": {"type": "Point", "coordinates": [99.00047, 18.78409]}, "properties": {"id": "cm-osm-node-907621996", "name": "Burger King", "nameTh": null, "nameEn": "Burger King", "cat": ["food"], "province": "cm", "slug": "burger-king-907621996", "rank": 2}}, {"type": "Feature", "geometry": {"type": "Point", "coordinates": [98.94003, 18.92157]}, "properties": {"id": "cm-osm-node-9312199019", "name": "Burger King", "nameTh": null, "nameEn": "Burger King", "cat": ["food"], "province": "cm", "slug": "burger-king-9312199019", "rank": 1}}, {"type": "Feature", "geometry": {"type": "Point", "coordinates": [98.97426, 18.76326]}, "properties": {"id": "cm-osm-node-9328871817", "name": "Burger King", "nameTh": null, "nameEn": "Burger King", "cat": ["food"], "province": "cm", "slug": "burger-king-9328871817", "rank": 2}}, {"type": "Feature", "geometry": {"type": "Point", "coordinates": [98.99976, 18.78039]}, "properties": {"id": "cm-osm-node-2641740599", "name": "Butter is Better", "nameTh": null, "nameEn": "Butter is Better", "cat": ["food"], "province": "cm", "slug": "butter-is-better-2641740599", "rank": 2}}, {"type": "Feature", "geometry": {"type": "Point", "coordinates": [98.99854, 18.784]}, "properties": {"id": "cm-osm-node-2655180134", "name": "Cafe' de Siam", "nameTh": null, "nameEn": "Cafe' de Siam", "cat": ["food"], "province": "cm", "slug": "cafe-de-siam-2655180134", "rank": 2}}, {"type": "Feature", "geometry": {"type": "Point", "coordinates": [98.96088, 18.79688]}, "properties": {"id": "cm-osm-node-12031519067", "name": "Café Amazon", "nameTh": null, "nameEn": "Café Amazon", "cat": ["food"], "province": "cm", "slug": "caf-amazon-12031519067", "rank": 2}}, {"type": "Feature", "geometry": {"type": "Point", "coordinates": [98.9672, 18.80253]}, "properties": {"id": "cm-osm-node-3287356490", "name": "Chester's", "nameTh": null, "nameEn": "Chester's", "cat": ["food"], "province": "cm", "slug": "chester-s-3287356490", "rank": 1}}, {"type": "Feature", "geometry": {"type": "Point", "coordinates": [98.99387, 18.79131]}, "properties": {"id": "cm-osm-node-5643365518", "name": "Chit Chai", "nameTh": null, "nameEn": "Chit Chai", "cat": ["food"], "province": "cm", "slug": "chit-chai-5643365518", "rank": 3}}, {"type": "Feature", "geometry": {"type": "Point", "coordinates": [98.97707, 18.79445]}, "properties": {"id": "cm-osm-node-12301174699", "name": "D Cafe Coffee", "nameTh": null, "nameEn": "D Cafe Coffee", "cat": ["food"], "province": "cm", "slug": "d-cafe-coffee-12301174699", "rank": 1}}, {"type": "Feature", "geometry": {"type": "Point", "coordinates": [98.96832, 18.76998]}, "properties": {"id": "cm-osm-node-1474872538", "name": "Dairy Queen", "nameTh": null, "nameEn": "Dairy Queen", "cat": ["food"], "province": "cm", "slug": "dairy-queen-1474872538", "rank": 2}}, {"type": "Feature", "geometry": {"type": "Point", "coordinates": [98.97241, 18.75883]}, "properties": {"id": "cm-osm-node-7882686661", "name": "Dairy Queen", "nameTh": null, "nameEn": "Dairy Queen", "cat": ["food"], "province": "cm", "slug": "dairy-queen-7882686661", "rank": 1}}, {"type": "Feature", "geometry": {"type": "Point", "coordinates": [98.97642, 18.77126]}, "properties": {"id": "cm-osm-node-1903665319", "name": "Doi Chaang Coffee", "nameTh": null, "nameEn": "Doi Chaang Coffee", "cat": ["food"], "province": "cm", "slug": "doi-chaang-coffee-1903665319", "rank": 2}}, {"type": "Feature", "geometry": {"type": "Point", "coordinates": [98.953, 18.80368]}, "properties": {"id": "cm-osm-node-2434785831", "name": "Double Click Cafe", "nameTh": null, "nameEn": "Double Click Cafe", "cat": ["food"], "province": "cm", "slug": "double-click-cafe-2434785831", "rank": 1}}, {"type": "Feature", "geometry": {"type": "Point", "coordinates": [98.93225, 18.70181]}, "properties": {"id": "cm-osm-node-3476127841", "name": "Dunkin'", "nameTh": null, "nameEn": "Dunkin'", "cat": ["food"], "province": "cm", "slug": "dunkin-3476127841", "rank": 1}}, {"type": "Feature", "geometry": {"type": "Point", "coordinates": [98.97253, 18.75875]}, "properties": {"id": "cm-osm-node-7882686659", "name": "Dunkin'", "nameTh": null, "nameEn": "Dunkin'", "cat": ["food"], "province": "cm", "slug": "dunkin-7882686659", "rank": 1}}, {"type": "Feature", "geometry": {"type": "Point", "coordinates": [98.98209, 18.79326]}, "properties": {"id": "cm-osm-way-623140246", "name": "Goodsouls Kitchen", "nameTh": null, "nameEn": "Goodsouls Kitchen", "cat": ["food"], "province": "cm", "slug": "goodsouls-kitchen-623140246", "rank": 3}}, {"type": "Feature", "geometry": {"type": "Point", "coordinates": [98.89576, 18.68227]}, "properties": {"id": "cm-osm-node-13533499755", "name": "Hangdong Family Minigolf  + German Rrestaurant", "nameTh": null, "nameEn": "Hangdong Family Minigolf  + German Rrestaurant", "cat": ["food"], "province": "cm", "slug": "hangdong-family-minigolf-german-rrestaurant-13533499755", "rank": 4}}, {"type": "Feature", "geometry": {"type": "Point", "coordinates": [98.99386, 18.79182]}, "properties": {"id": "cm-osm-node-4577538745", "name": "Hear Tong", "nameTh": null, "nameEn": "Hear Tong", "cat": ["food"], "province": "cm", "slug": "hear-tong-4577538745", "rank": 2}}, {"type": "Feature", "geometry": {"type": "Point", "coordinates": [98.95415, 18.80302]}, "properties": {"id": "cm-osm-node-2434777647", "name": "Him Tang", "nameTh": null, "nameEn": "Him Tang", "cat": ["food"], "province": "cm", "slug": "him-tang-2434777647", "rank": 1}}, {"type": "Feature", "geometry": {"type": "Point", "coordinates": [98.97875, 18.79276]}, "properties": {"id": "cm-osm-node-11383883701", "name": "House Kitchen", "nameTh": null, "nameEn": "House Kitchen", "cat": ["food"], "province": "cm", "slug": "house-kitchen-11383883701", "rank": 3}}, {"type": "Feature", "geometry": {"type": "Point", "coordinates": [98.99148, 18.78514]}, "properties": {"id": "cm-osm-way-243115903", "name": "I'P Burger", "nameTh": null, "nameEn": "I'P Burger", "cat": ["food"], "province": "cm", "slug": "i-p-burger-243115903", "rank": 1}}, {"type": "Feature", "geometry": {"type": "Point", "coordinates": [98.98312, 18.78843]}, "properties": {"id": "cm-osm-node-4295719291", "name": "It's Good Kitchen", "nameTh": null, "nameEn": "Its Good Kitchen", "cat": ["food"], "province": "cm", "slug": "its-good-kitchen-4295719291", "rank": 2}}, {"type": "Feature", "geometry": {"type": "Point", "coordinates": [99.06724, 18.79541]}, "properties": {"id": "cm-osm-node-10182430165", "name": "KFC", "nameTh": null, "nameEn": "KFC", "cat": ["food"], "province": "cm", "slug": "kfc-10182430165", "rank": 1}}, {"type": "Feature", "geometry": {"type": "Point", "coordinates": [98.91447, 18.66728]}, "properties": {"id": "cm-osm-node-1058624594", "name": "KFC", "nameTh": "เค เอฟ ซี", "nameEn": "KFC", "cat": ["food"], "province": "cm", "slug": "kfc-1058624594", "rank": 3}}, {"type": "Feature", "geometry": {"type": "Point", "coordinates": [98.99721, 18.80869]}, "properties": {"id": "cm-osm-node-1616141787", "name": "KFC", "nameTh": "เค เอฟ ซี", "nameEn": "KFC", "cat": ["food"], "province": "cm", "slug": "kfc-1616141787", "rank": 3}}, {"type": "Feature", "geometry": {"type": "Point", "coordinates": [99.03291, 18.7691]}, "properties": {"id": "cm-osm-node-2117270440", "name": "KFC", "nameTh": "เค เอฟ ซี", "nameEn": "KFC", "cat": ["food"], "province": "cm", "slug": "kfc-2117270440", "rank": 3}}, {"type": "Feature", "geometry": {"type": "Point", "coordinates": [99.01416, 18.82441]}, "properties": {"id": "cm-osm-node-2517081501", "name": "KFC", "nameTh": "เค เอฟ ซี", "nameEn": "KFC", "cat": ["food"], "province": "cm", "slug": "kfc-2517081501", "rank": 3}}, {"type": "Feature", "geometry": {"type": "Point", "coordinates": [99.0228, 18.79884]}, "properties": {"id": "cm-osm-node-2610782958", "name": "KFC", "nameTh": "เค เอฟ ซี", "nameEn": "KFC", "cat": ["food"], "province": "cm", "slug": "kfc-2610782958", "rank": 3}}, {"type": "Feature", "geometry": {"type": "Point", "coordinates": [98.99898, 18.77229]}, "properties": {"id": "cm-osm-node-2822158501", "name": "KFC", "nameTh": null, "nameEn": "KFC", "cat": ["food"], "province": "cm", "slug": "kfc-2822158501", "rank": 1}}, {"type": "Feature", "geometry": {"type": "Point", "coordinates": [99.0184, 18.80588]}, "properties": {"id": "cm-osm-node-3249111059", "name": "KFC", "nameTh": "เค เอฟ ซี", "nameEn": "KFC", "cat": ["food"], "province": "cm", "slug": "kfc-3249111059", "rank": 3}}, {"type": "Feature", "geometry": {"type": "Point", "coordinates": [98.96701, 18.80251]}, "properties": {"id": "cm-osm-node-3287356494", "name": "KFC", "nameTh": "เค เอฟ ซี", "nameEn": "KFC", "cat": ["food"], "province": "cm", "slug": "kfc-3287356494", "rank": 3}}, {"type": "Feature", "geometry": {"type": "Point", "coordinates": [99.00056, 18.75684]}, "properties": {"id": "cm-osm-node-3331582463", "name": "KFC", "nameTh": "เค เอฟ ซี", "nameEn": "KFC", "cat": ["food"], "province": "cm", "slug": "kfc-3331582463", "rank": 2}}, {"type": "Feature", "geometry": {"type": "Point", "coordinates": [98.97494, 18.76879]}, "properties": {"id": "cm-osm-node-3347633193", "name": "KFC", "nameTh": "เค เอฟ ซี", "nameEn": "KFC", "cat": ["food"], "province": "cm", "slug": "kfc-3347633193", "rank": 4}}, {"type": "Feature", "geometry": {"type": "Point", "coordinates": [98.96201, 18.74351]}, "properties": {"id": "cm-osm-node-3404774971", "name": "KFC", "nameTh": "เค เอฟ ซี", "nameEn": "KFC", "cat": ["food"], "province": "cm", "slug": "kfc-3404774971", "rank": 3}}, {"type": "Feature", "geometry": {"type": "Point", "coordinates": [98.97218, 18.75849]}, "properties": {"id": "cm-osm-node-3419871304", "name": "KFC", "nameTh": "เค เอฟ ซี", "nameEn": "KFC", "cat": ["food"], "province": "cm", "slug": "kfc-3419871304", "rank": 3}}, {"type": "Feature", "geometry": {"type": "Point", "coordinates": [99.01173, 18.82472]}, "properties": {"id": "cm-osm-node-4213690015", "name": "KFC", "nameTh": "เค เอฟ ซี", "nameEn": "KFC", "cat": ["food"], "province": "cm", "slug": "kfc-4213690015", "rank": 3}}, {"type": "Feature", "geometry": {"type": "Point", "coordinates": [98.97284, 18.76349]}, "properties": {"id": "cm-osm-node-9288145417", "name": "KFC", "nameTh": null, "nameEn": "KFC", "cat": ["food"], "province": "cm", "slug": "kfc-9288145417", "rank": 2}}, {"type": "Feature", "geometry": {"type": "Point", "coordinates": [98.93531, 18.73997]}, "properties": {"id": "cm-osm-way-1160626861", "name": "KFC", "nameTh": null, "nameEn": "KFC", "cat": ["food"], "province": "cm", "slug": "kfc-1160626861", "rank": 1}}, {"type": "Feature", "geometry": {"type": "Point", "coordinates": [99.02141, 18.80657]}, "properties": {"id": "cm-osm-way-1361355842", "name": "KFC", "nameTh": null, "nameEn": "KFC", "cat": ["food"], "province": "cm", "slug": "kfc-1361355842", "rank": 1}}, {"type": "Feature", "geometry": {"type": "Point", "coordinates": [98.93198, 18.70216]}, "properties": {"id": "cm-osm-way-340390113", "name": "KFC", "nameTh": null, "nameEn": "KFC", "cat": ["food"], "province": "cm", "slug": "kfc-340390113", "rank": 1}}, {"type": "Feature", "geometry": {"type": "Point", "coordinates": [98.94008, 18.92233]}, "properties": {"id": "cm-osm-way-741830424", "name": "KFC", "nameTh": null, "nameEn": "KFC", "cat": ["food"], "province": "cm", "slug": "kfc-741830424", "rank": 1}}, {"type": "Feature", "geometry": {"type": "Point", "coordinates": [98.98112, 18.80305]}, "properties": {"id": "cm-osm-node-9872146918", "name": "Kinphak Cafe (Cmu vegan Food)", "nameTh": null, "nameEn": "Kinphak Cafe (Cmu vegan Food)", "cat": ["food"], "province": "cm", "slug": "kinphak-cafe-cmu-vegan-food-9872146918", "rank": 2}}, {"type": "Feature", "geometry": {"type": "Point", "coordinates": [98.95355, 18.80159]}, "properties": {"id": "cm-osm-node-2434791094", "name": "Kopi Gusto", "nameTh": null, "nameEn": "Kopi Gusto", "cat": ["food"], "province": "cm", "slug": "kopi-gusto-2434791094", "rank": 1}}, {"type": "Feature", "geometry": {"type": "Point", "coordinates": [98.99229, 18.79056]}, "properties": {"id": "cm-osm-node-12581980207", "name": "La Casita", "nameTh": null, "nameEn": "La Casita", "cat": ["food"], "province": "cm", "slug": "la-casita-12581980207", "rank": 1}}, {"type": "Feature", "geometry": {"type": "Point", "coordinates": [98.96235, 18.72034]}, "properties": {"id": "cm-osm-node-4879578088", "name": "Laab Khwan Wieng", "nameTh": null, "nameEn": "Laab Khwan Wieng", "cat": ["food"], "province": "cm", "slug": "laab-khwan-wieng-4879578088", "rank": 1}}, {"type": "Feature", "geometry": {"type": "Point", "coordinates": [99.01917, 18.80034]}, "properties": {"id": "cm-osm-node-1936295529", "name": "McDonald's", "nameTh": "แมคโดนัลด์", "nameEn": "McDonald's", "cat": ["food"], "province": "cm", "slug": "mcdonald-s-1936295529", "rank": 5}}, {"type": "Feature", "geometry": {"type": "Point", "coordinates": [98.99165, 18.76515]}, "properties": {"id": "cm-osm-node-2559859302", "name": "McDonald's", "nameTh": "แมคโดนัลด์", "nameEn": "McDonald's", "cat": ["food"], "province": "cm", "slug": "mcdonald-s-2559859302", "rank": 4}}, {"type": "Feature", "geometry": {"type": "Point", "coordinates": [99.02276, 18.79897]}, "properties": {"id": "cm-osm-node-2610782959", "name": "McDonald's", "nameTh": "แมคโดนัลด์", "nameEn": "McDonald's", "cat": ["food"], "province": "cm", "slug": "mcdonald-s-2610782959", "rank": 4}}, {"type": "Feature", "geometry": {"type": "Point", "coordinates": [98.97065, 18.7586]}, "properties": {"id": "cm-osm-node-3190138862", "name": "McDonald's", "nameTh": "แมคโดนัลด์", "nameEn": "McDonald's", "cat": ["food"], "province": "cm", "slug": "mcdonald-s-3190138862", "rank": 5}}, {"type": "Feature", "geometry": {"type": "Point", "coordinates": [98.97058, 18.78934]}, "properties": {"id": "cm-osm-node-3291712479", "name": "McDonald's", "nameTh": "แมคโดนัลด์", "nameEn": "McDonald's", "cat": ["food"], "province": "cm", "slug": "mcdonald-s-3291712479", "rank": 5}}, {"type": "Feature", "geometry": {"type": "Point", "coordinates": [98.93109, 18.70072]}, "properties": {"id": "cm-osm-node-3306841368", "name": "McDonald's", "nameTh": "แมคโดนัลด์", "nameEn": "McDonald's", "cat": ["food"], "province": "cm", "slug": "mcdonald-s-3306841368", "rank": 5}}, {"type": "Feature", "geometry": {"type": "Point", "coordinates": [98.97461, 18.76877]}, "properties": {"id": "cm-osm-node-3347677634", "name": "McDonald's", "nameTh": "แมคโดนัลด์", "nameEn": "McDonald's", "cat": ["food"], "province": "cm", "slug": "mcdonald-s-3347677634", "rank": 5}}, {"type": "Feature", "geometry": {"type": "Point", "coordinates": [98.96649, 18.79805]}, "properties": {"id": "cm-osm-node-4349789389", "name": "McDonald's", "nameTh": "Macdonald's", "nameEn": "McDonald's", "cat": ["food"], "province": "cm", "slug": "mcdonald-s-4349789389", "rank": 2}}, {"type": "Feature", "geometry": {"type": "Point", "coordinates": [98.96827, 18.76863]}, "properties": {"id": "cm-osm-node-7026355370", "name": "McDonald's", "nameTh": null, "nameEn": "McDonald's", "cat": ["food"], "province": "cm", "slug": "mcdonald-s-7026355370", "rank": 1}}, {"type": "Feature", "geometry": {"type": "Point", "coordinates": [99.00043, 18.78375]}, "properties": {"id": "cm-osm-node-725620521", "name": "McDonald's", "nameTh": "แมคโดนัลด์", "nameEn": "McDonald's", "cat": ["food"], "province": "cm", "slug": "mcdonald-s-725620521", "rank": 5}}, {"type": "Feature", "geometry": {"type": "Point", "coordinates": [98.99393, 18.7875]}, "properties": {"id": "cm-osm-node-964809008", "name": "McDonald's", "nameTh": "แมคโดนัลด์", "nameEn": "McDonald's", "cat": ["food"], "province": "cm", "slug": "mcdonald-s-964809008", "rank": 5}}, {"type": "Feature", "geometry": {"type": "Point", "coordinates": [99.01151, 18.82396]}, "properties": {"id": "cm-osm-way-347940513", "name": "McDonald's", "nameTh": "แมคโดนัลด์", "nameEn": "McDonald's", "cat": ["food"], "province": "cm", "slug": "mcdonald-s-347940513", "rank": 4}}, {"type": "Feature", "geometry": {"type": "Point", "coordinates": [98.97458, 18.76899]}, "properties": {"id": "cm-osm-node-3347677635", "name": "Mister Donut", "nameTh": null, "nameEn": "Mister Donut", "cat": ["food"], "province": "cm", "slug": "mister-donut-3347677635", "rank": 2}}, {"type": "Feature", "geometry": {"type": "Point", "coordinates": [98.95286, 18.79267]}, "properties": {"id": "cm-osm-node-13658267212", "name": "Mixue", "nameTh": null, "nameEn": "Mixue", "cat": ["food"], "province": "cm", "slug": "mixue-13658267212", "rank": 1}}, {"type": "Feature", "geometry": {"type": "Point", "coordinates": [99.00939, 18.74968]}, "properties": {"id": "cm-osm-node-4223831689", "name": "My Kitchen", "nameTh": null, "nameEn": "My Kitchen", "cat": ["food"], "province": "cm", "slug": "my-kitchen-4223831689", "rank": 3}}, {"type": "Feature", "geometry": {"type": "Point", "coordinates": [98.99743, 18.78412]}, "properties": {"id": "cm-osm-node-2300395636", "name": "My Place Lounge Chiang Mai - Sports Bar & Restaurant", "nameTh": null, "nameEn": "My Place Lounge Chiang Mai - Sports Bar & Restaurant", "cat": ["food"], "province": "cm", "slug": "my-place-lounge-chiang-mai-sports-bar-restaurant-2300395636", "rank": 5}}, {"type": "Feature", "geometry": {"type": "Point", "coordinates": [98.98498, 18.78957]}, "properties": {"id": "cm-osm-node-2466401386", "name": "NAP'S Coffee Roaster", "nameTh": null, "nameEn": "NAP'S Coffee Roaster", "cat": ["food"], "province": "cm", "slug": "nap-s-coffee-roaster-2466401386", "rank": 2}}, {"type": "Feature", "geometry": {"type": "Point", "coordinates": [98.94841, 18.7768]}, "properties": {"id": "cm-osm-node-6176059286", "name": "Obchoei Original Homemade", "nameTh": null, "nameEn": "Obchoei Original Homemade", "cat": ["food"], "province": "cm", "slug": "obchoei-original-homemade-6176059286", "rank": 2}}, {"type": "Feature", "geometry": {"type": "Point", "coordinates": [98.95232, 18.80389]}, "properties": {"id": "cm-osm-node-2434787311", "name": "PAK Cafe", "nameTh": null, "nameEn": "PAK Cafe", "cat": ["food"], "province": "cm", "slug": "pak-cafe-2434787311", "rank": 2}}, {"type": "Feature", "geometry": {"type": "Point", "coordinates": [99.03503, 18.82418]}, "properties": {"id": "cm-osm-node-5609574848", "name": "Pu Yong Meatball Noodle", "nameTh": null, "nameEn": "Pu Yong Meatball Noodle", "cat": ["food"], "province": "cm", "slug": "pu-yong-meatball-noodle-5609574848", "rank": 2}}, {"type": "Feature", "geometry": {"type": "Point", "coordinates": [99.1342, 18.87232]}, "properties": {"id": "cm-osm-node-13604911531", "name": "Punthai", "nameTh": null, "nameEn": "Punthai", "cat": ["food"], "province": "cm", "slug": "punthai-13604911531", "rank": 2}}, {"type": "Feature", "geometry": {"type": "Point", "coordinates": [98.97482, 18.76921]}, "properties": {"id": "cm-osm-node-3347633201", "name": "S&P", "nameTh": null, "nameEn": "S&P", "cat": ["food"], "province": "cm", "slug": "s-p-3347633201", "rank": 2}}, {"type": "Feature", "geometry": {"type": "Point", "coordinates": [98.97238, 18.75872]}, "properties": {"id": "cm-osm-node-7882686658", "name": "S&P", "nameTh": null, "nameEn": "S&P", "cat": ["food"], "province": "cm", "slug": "s-p-7882686658", "rank": 1}}, {"type": "Feature", "geometry": {"type": "Point", "coordinates": [98.98119, 18.78765]}, "properties": {"id": "cm-osm-node-3682837946", "name": "SP Chicken", "nameTh": "ไก่ย่าง เอสพี", "nameEn": "SP Chicken", "cat": ["food"], "province": "cm", "slug": "sp-chicken-3682837946", "rank": 3}}, {"type": "Feature", "geometry": {"type": "Point", "coordinates": [98.95394, 18.82704]}, "properties": {"id": "cm-osm-node-5643026621", "name": "Santi Bar & Bistro", "nameTh": null, "nameEn": "Santi Bar & Bistro", "cat": ["food"], "province": "cm", "slug": "santi-bar-bistro-5643026621", "rank": 2}}, {"type": "Feature", "geometry": {"type": "Point", "coordinates": [98.98228, 18.79047]}, "properties": {"id": "cm-osm-node-12301174700", "name": "Seven Slash Two", "nameTh": null, "nameEn": "Seven Slash Two", "cat": ["food"], "province": "cm", "slug": "seven-slash-two-12301174700", "rank": 2}}, {"type": "Feature", "geometry": {"type": "Point", "coordinates": [99.02525, 18.78395]}, "properties": {"id": "cm-osm-node-13851937467", "name": "Son Of A Brew", "nameTh": null, "nameEn": "Son Of A Brew", "cat": ["food"], "province": "cm", "slug": "son-of-a-brew-13851937467", "rank": 3}}, {"type": "Feature", "geometry": {"type": "Point", "coordinates": [99.00012, 18.78381]}, "properties": {"id": "cm-osm-node-1101288715", "name": "Starbucks", "nameTh": "สตาร์บัคส์", "nameEn": "Starbucks Coffee", "cat": ["food"], "province": "cm", "slug": "starbucks-coffee-1101288715", "rank": 4}}, {"type": "Feature", "geometry": {"type": "Point", "coordinates": [98.96673, 18.7976]}, "properties": {"id": "cm-osm-node-1127593959", "name": "Starbucks", "nameTh": "สตาร์บัคส์", "nameEn": "Starbucks Coffee", "cat": ["food"], "province": "cm", "slug": "starbucks-coffee-1127593959", "rank": 3}}, {"type": "Feature", "geometry": {"type": "Point", "coordinates": [99.01766, 18.80649]}, "properties": {"id": "cm-osm-node-3116053111", "name": "Starbucks", "nameTh": "สตาร์บัคส์", "nameEn": "Starbucks Coffee", "cat": ["food"], "province": "cm", "slug": "starbucks-coffee-3116053111", "rank": 3}}, {"type": "Feature", "geometry": {"type": "Point", "coordinates": [98.96782, 18.76955]}, "properties": {"id": "cm-osm-node-3281905420", "name": "Starbucks", "nameTh": null, "nameEn": "Starbucks", "cat": ["food"], "province": "cm", "slug": "starbucks-3281905420", "rank": 1}}, {"type": "Feature", "geometry": {"type": "Point", "coordinates": [98.96778, 18.80236]}, "properties": {"id": "cm-osm-node-3287356498", "name": "Starbucks", "nameTh": "สตาร์บัคส์", "nameEn": "Starbucks Coffee", "cat": ["food"], "province": "cm", "slug": "starbucks-coffee-3287356498", "rank": 3}}, {"type": "Feature", "geometry": {"type": "Point", "coordinates": [98.97521, 18.76978]}, "properties": {"id": "cm-osm-node-3347633205", "name": "Starbucks", "nameTh": null, "nameEn": "Starbucks", "cat": ["food"], "province": "cm", "slug": "starbucks-3347633205", "rank": 2}}, {"type": "Feature", "geometry": {"type": "Point", "coordinates": [98.99366, 18.78802]}, "properties": {"id": "cm-osm-node-336237972", "name": "Starbucks", "nameTh": "สตาร์บัคส์", "nameEn": "Starbucks Coffee", "cat": ["food"], "province": "cm", "slug": "starbucks-coffee-336237972", "rank": 3}}, {"type": "Feature", "geometry": {"type": "Point", "coordinates": [98.93171, 18.70149]}, "properties": {"id": "cm-osm-way-340406770", "name": "Starbucks", "nameTh": "สตาร์บัคส์", "nameEn": "Starbucks Coffee", "cat": ["food"], "province": "cm", "slug": "starbucks-coffee-340406770", "rank": 3}}, {"type": "Feature", "geometry": {"type": "Point", "coordinates": [98.99257, 18.78801]}, "properties": {"id": "cm-osm-node-3926723679", "name": "Subway", "nameTh": null, "nameEn": "Subway", "cat": ["food"], "province": "cm", "slug": "subway-3926723679", "rank": 3}}, {"type": "Feature", "geometry": {"type": "Point", "coordinates": [98.96578, 18.7964]}, "properties": {"id": "cm-osm-node-4285584689", "name": "Subway", "nameTh": null, "nameEn": "Subway", "cat": ["food"], "province": "cm", "slug": "subway-4285584689", "rank": 3}}, {"type": "Feature", "geometry": {"type": "Point", "coordinates": [98.96815, 18.76849]}, "properties": {"id": "cm-osm-node-7026348701", "name": "Subway", "nameTh": null, "nameEn": "Subway", "cat": ["food"], "province": "cm", "slug": "subway-7026348701", "rank": 3}}, {"type": "Feature", "geometry": {"type": "Point", "coordinates": [99.00051, 18.78352]}, "properties": {"id": "cm-osm-node-915413355", "name": "Subway", "nameTh": null, "nameEn": "Subway", "cat": ["food"], "province": "cm", "slug": "subway-915413355", "rank": 3}}, {"type": "Feature", "geometry": {"type": "Point", "coordinates": [99.04754, 18.74208]}, "properties": {"id": "cm-osm-node-11886014037", "name": "Sukhum Caffe' Saraphi", "nameTh": "สุขุม คาฟเฟ่ สารภี", "nameEn": "Sukhum Caffe' Saraphi", "cat": ["food"], "province": "cm", "slug": "sukhum-caffe-saraphi-11886014037", "rank": 4}}, {"type": "Feature", "geometry": {"type": "Point", "coordinates": [98.99294, 18.78791]}, "properties": {"id": "cm-osm-node-2716915567", "name": "The Coffee Club", "nameTh": null, "nameEn": "The Coffee Club", "cat": ["food"], "province": "cm", "slug": "the-coffee-club-2716915567", "rank": 1}}, {"type": "Feature", "geometry": {"type": "Point", "coordinates": [99.01181, 18.82524]}, "properties": {"id": "cm-osm-node-10067723211", "name": "The Pizza Company", "nameTh": null, "nameEn": "The Pizza Company", "cat": ["food"], "province": "cm", "slug": "the-pizza-company-10067723211", "rank": 1}}, {"type": "Feature", "geometry": {"type": "Point", "coordinates": [98.97455, 18.76903]}, "properties": {"id": "cm-osm-node-3347633209", "name": "The Pizza Company", "nameTh": "เดอะ พิซซ่า คอมปะนี", "nameEn": "The Pizza Company", "cat": ["food"], "province": "cm", "slug": "the-pizza-company-3347633209", "rank": 5}}, {"type": "Feature", "geometry": {"type": "Point", "coordinates": [98.9972, 18.80865]}, "properties": {"id": "cm-osm-node-4359152131", "name": "The Pizza Company", "nameTh": null, "nameEn": "The Pizza Company", "cat": ["food"], "province": "cm", "slug": "the-pizza-company-4359152131", "rank": 1}}, {"type": "Feature", "geometry": {"type": "Point", "coordinates": [98.9745, 18.76319]}, "properties": {"id": "cm-osm-node-9328874217", "name": "The Pizza Company", "nameTh": null, "nameEn": "The Pizza Company", "cat": ["food"], "province": "cm", "slug": "the-pizza-company-9328874217", "rank": 2}}, {"type": "Feature", "geometry": {"type": "Point", "coordinates": [98.93992, 18.92213]}, "properties": {"id": "cm-osm-way-741830428", "name": "The Pizza Company", "nameTh": null, "nameEn": "The Pizza Company", "cat": ["food"], "province": "cm", "slug": "the-pizza-company-741830428", "rank": 1}}, {"type": "Feature", "geometry": {"type": "Point", "coordinates": [98.99378, 18.79015]}, "properties": {"id": "cm-osm-way-650706594", "name": "The Swan Burmese Cuisine", "nameTh": null, "nameEn": "The Swan Burmese Cuisine", "cat": ["food"], "province": "cm", "slug": "the-swan-burmese-cuisine-650706594", "rank": 3}}, {"type": "Feature", "geometry": {"type": "Point", "coordinates": [99.01883, 18.8002]}, "properties": {"id": "cm-osm-node-4586086268", "name": "Tom N Toms", "nameTh": null, "nameEn": "Tom N Toms", "cat": ["food"], "province": "cm", "slug": "tom-n-toms-4586086268", "rank": 2}}, {"type": "Feature", "geometry": {"type": "Point", "coordinates": [98.98283, 18.78941]}, "properties": {"id": "cm-osm-node-3197689690", "name": "Tree Sis Coffee", "nameTh": "ทรีซิสคอฟฟี่", "nameEn": "Tree Sis Coffee", "cat": ["food"], "province": "cm", "slug": "tree-sis-coffee-3197689690", "rank": 3}}, {"type": "Feature", "geometry": {"type": "Point", "coordinates": [98.9842, 18.79922]}, "properties": {"id": "cm-osm-node-11726497304", "name": "Uncle Home", "nameTh": null, "nameEn": "Uncle Home", "cat": ["food"], "province": "cm", "slug": "uncle-home-11726497304", "rank": 3}}, {"type": "Feature", "geometry": {"type": "Point", "coordinates": [98.95535, 18.80401]}, "properties": {"id": "cm-osm-node-5591495441", "name": "University Office Canteen", "nameTh": null, "nameEn": "University Office Canteen", "cat": ["food"], "province": "cm", "slug": "university-office-canteen-5591495441", "rank": 2}}, {"type": "Feature", "geometry": {"type": "Point", "coordinates": [98.98053, 18.77766]}, "properties": {"id": "cm-osm-node-8862954017", "name": "Yummy India", "nameTh": null, "nameEn": "Yummy India", "cat": ["food"], "province": "cm", "slug": "yummy-india-8862954017", "rank": 3}}, {"type": "Feature", "geometry": {"type": "Point", "coordinates": [99.00204, 18.79277]}, "properties": {"id": "cm-osm-node-11806453091", "name": "khna coffee brewers", "nameTh": null, "nameEn": "khna coffee brewers", "cat": ["food"], "province": "cm", "slug": "khna-coffee-brewers-11806453091", "rank": 2}}, {"type": "Feature", "geometry": {"type": "Point", "coordinates": [98.95418, 18.80366]}, "properties": {"id": "cm-osm-node-2434783251", "name": "กาแฟรัฐศาสตร์", "nameTh": "กาแฟรัฐศาสตร์", "nameEn": null, "cat": ["food"], "province": "cm", "slug": "2434783251", "rank": 1}}, {"type": "Feature", "geometry": {"type": "Point", "coordinates": [99.08183, 18.86163]}, "properties": {"id": "cm-osm-node-5631826448", "name": "ก๋วยเตี๋ยว เย็นตาโฟ ข้าวซอย ลุงเทือง", "nameTh": "ก๋วยเตี๋ยว เย็นตาโฟ ข้าวซอย ลุงเทือง", "nameEn": null, "cat": ["food"], "province": "cm", "slug": "5631826448", "rank": 1}}, {"type": "Feature", "geometry": {"type": "Point", "coordinates": [99.01535, 18.87795]}, "properties": {"id": "cm-osm-node-4358577612", "name": "ก๋วยเตี๋ยวสอาด", "nameTh": "ก๋วยเตี๋ยวสอาด", "nameEn": null, "cat": ["food"], "province": "cm", "slug": "4358577612", "rank": 1}}, {"type": "Feature", "geometry": {"type": "Point", "coordinates": [98.98848, 18.84996]}, "properties": {"id": "cm-osm-node-11215147987", "name": "ของลุงสมหวัง", "nameTh": "ของลุงสมหวัง", "nameEn": "Homemade Hamburger", "cat": ["food"], "province": "cm", "slug": "homemade-hamburger-11215147987", "rank": 2}}, {"type": "Feature", "geometry": {"type": "Point", "coordinates": [98.99911, 18.77636]}, "properties": {"id": "cm-osm-node-4807780122", "name": "ข้าวกับแกง", "nameTh": "ข้าวกับแกง", "nameEn": "Kao Kab Kaeng", "cat": ["food"], "province": "cm", "slug": "kao-kab-kaeng-4807780122", "rank": 2}}, {"type": "Feature", "geometry": {"type": "Point", "coordinates": [99.12603, 18.7283]}, "properties": {"id": "cm-osm-node-13040779448", "name": "ข้าวขาหมู บ้านแม่ ออเดย์ ดอนปีน ป่าไผ่ สันกำแพง", "nameTh": "ข้าวขาหมู บ้านแม่ ออเดย์ ดอนปีน ป่าไผ่ สันกำแพง", "nameEn": "ฺBAN MAE ALL DAY Braised Pork Leg with Rice", "cat": ["food"], "province": "cm", "slug": "ban-mae-all-day-braised-pork-leg-with-rice-13040779448", "rank": 4}}, {"type": "Feature", "geometry": {"type": "Point", "coordinates": [98.98709, 18.81249]}, "properties": {"id": "cm-osm-node-11287853539", "name": "ข้าวซอยแม่มณี 2", "nameTh": "ข้าวซอยแม่มณี 2", "nameEn": "Khao Soi Mae Manee 2", "cat": ["food"], "province": "cm", "slug": "khao-soi-mae-manee-2-11287853539", "rank": 4}}, {"type": "Feature", "geometry": {"type": "Point", "coordinates": [98.95645, 18.78855]}, "properties": {"id": "cm-osm-node-4353673934", "name": "ครัวพริกหวาน", "nameTh": "ครัวพริกหวาน", "nameEn": null, "cat": ["food"], "province": "cm", "slug": "4353673934", "rank": 2}}, {"type": "Feature", "geometry": {"type": "Point", "coordinates": [99.01274, 18.8147]}, "properties": {"id": "cm-osm-node-12347384601", "name": "คาเฟ่ อเมซอน", "nameTh": "คาเฟ่ อเมซอน", "nameEn": "Café Amazon", "cat": ["food"], "province": "cm", "slug": "caf-amazon-12347384601", "rank": 3}}, {"type": "Feature", "geometry": {"type": "Point", "coordinates": [98.82963, 18.60422]}, "properties": {"id": "cm-osm-node-12528710125", "name": "คาเฟ่ อเมซอน", "nameTh": "คาเฟ่ อเมซอน", "nameEn": "Café Amazon", "cat": ["food"], "province": "cm", "slug": "caf-amazon-12528710125", "rank": 2}}, {"type": "Feature", "geometry": {"type": "Point", "coordinates": [99.02152, 18.80682]}, "properties": {"id": "cm-osm-node-12603110776", "name": "คาเฟ่ อเมซอน", "nameTh": "คาเฟ่ อเมซอน", "nameEn": "Café Amazon", "cat": ["food"], "province": "cm", "slug": "caf-amazon-12603110776", "rank": 2}}, {"type": "Feature", "geometry": {"type": "Point", "coordinates": [99.01479, 18.87559]}, "properties": {"id": "cm-osm-node-3340982844", "name": "คาเฟ่ อเมซอน", "nameTh": "คาเฟ่ อเมซอน", "nameEn": "Café Amazon", "cat": ["food"], "province": "cm", "slug": "caf-amazon-3340982844", "rank": 2}}, {"type": "Feature", "geometry": {"type": "Point", "coordinates": [98.9706, 18.78986]}, "properties": {"id": "cm-osm-node-3369589470", "name": "คาเฟ่ อเมซอน", "nameTh": "คาเฟ่ อเมซอน", "nameEn": "Café Amazon", "cat": ["food"], "province": "cm", "slug": "caf-amazon-3369589470", "rank": 3}}, {"type": "Feature", "geometry": {"type": "Point", "coordinates": [98.94325, 18.91918]}, "properties": {"id": "cm-osm-node-3924966402", "name": "คาเฟ่ อเมซอน", "nameTh": "คาเฟ่ อเมซอน", "nameEn": "Café Amazon", "cat": ["food"], "province": "cm", "slug": "caf-amazon-3924966402", "rank": 3}}, {"type": "Feature", "geometry": {"type": "Point", "coordinates": [98.92521, 18.7508]}, "properties": {"id": "cm-osm-node-3927203442", "name": "คาเฟ่ อเมซอน", "nameTh": "คาเฟ่ อเมซอน", "nameEn": "Café Amazon", "cat": ["food"], "province": "cm", "slug": "caf-amazon-3927203442", "rank": 2}}, {"type": "Feature", "geometry": {"type": "Point", "coordinates": [99.07922, 18.8462]}, "properties": {"id": "cm-osm-node-5338188740", "name": "คาเฟ่ อเมซอน", "nameTh": "คาเฟ่ อเมซอน", "nameEn": "Café Amazon", "cat": ["food"], "province": "cm", "slug": "caf-amazon-5338188740", "rank": 2}}, {"type": "Feature", "geometry": {"type": "Point", "coordinates": [98.98371, 18.76842]}, "properties": {"id": "cm-osm-node-5455786827", "name": "คาเฟ่ อเมซอน", "nameTh": "คาเฟ่ อเมซอน", "nameEn": "Café Amazon", "cat": ["food"], "province": "cm", "slug": "caf-amazon-5455786827", "rank": 2}}, {"type": "Feature", "geometry": {"type": "Point", "coordinates": [98.98285, 18.95755]}, "properties": {"id": "cm-osm-node-6189013981", "name": "คาเฟ่ อเมซอน", "nameTh": "คาเฟ่ อเมซอน", "nameEn": "Café Amazon", "cat": ["food"], "province": "cm", "slug": "caf-amazon-6189013981", "rank": 2}}, {"type": "Feature", "geometry": {"type": "Point", "coordinates": [98.95826, 18.79218]}, "properties": {"id": "cm-osm-node-7579280681", "name": "คาเฟ่ อเมซอน", "nameTh": "คาเฟ่ อเมซอน", "nameEn": "Café Amazon", "cat": ["food"], "province": "cm", "slug": "caf-amazon-7579280681", "rank": 3}}, {"type": "Feature", "geometry": {"type": "Point", "coordinates": [98.97257, 18.7595]}, "properties": {"id": "cm-osm-node-7882686681", "name": "คาเฟ่ อเมซอน", "nameTh": "คาเฟ่ อเมซอน", "nameEn": "Café Amazon", "cat": ["food"], "province": "cm", "slug": "caf-amazon-7882686681", "rank": 2}}, {"type": "Feature", "geometry": {"type": "Point", "coordinates": [98.97291, 18.76354]}, "properties": {"id": "cm-osm-node-9288145517", "name": "คาเฟ่ อเมซอน", "nameTh": "คาเฟ่ อเมซอน", "nameEn": "Café Amazon", "cat": ["food"], "province": "cm", "slug": "caf-amazon-9288145517", "rank": 3}}, {"type": "Feature", "geometry": {"type": "Point", "coordinates": [98.97086, 18.84845]}, "properties": {"id": "cm-osm-node-9316918017", "name": "คาเฟ่ อเมซอน", "nameTh": "คาเฟ่ อเมซอน", "nameEn": "Café Amazon", "cat": ["food"], "province": "cm", "slug": "caf-amazon-9316918017", "rank": 3}}, {"type": "Feature", "geometry": {"type": "Point", "coordinates": [98.99145, 18.76394]}, "properties": {"id": "cm-osm-way-1037512548", "name": "คาเฟ่ อเมซอน", "nameTh": "คาเฟ่ อเมซอน", "nameEn": "Café Amazon", "cat": ["food"], "province": "cm", "slug": "caf-amazon-1037512548", "rank": 2}}, {"type": "Feature", "geometry": {"type": "Point", "coordinates": [99.01178, 18.82423]}, "properties": {"id": "cm-osm-way-1099750976", "name": "คาเฟ่ อเมซอน", "nameTh": "คาเฟ่ อเมซอน", "nameEn": "Café Amazon", "cat": ["food"], "province": "cm", "slug": "caf-amazon-1099750976", "rank": 2}}, {"type": "Feature", "geometry": {"type": "Point", "coordinates": [99.06749, 18.79608]}, "properties": {"id": "cm-osm-way-1112896522", "name": "คาเฟ่ อเมซอน", "nameTh": "คาเฟ่ อเมซอน", "nameEn": "Café Amazon", "cat": ["food"], "province": "cm", "slug": "caf-amazon-1112896522", "rank": 2}}, {"type": "Feature", "geometry": {"type": "Point", "coordinates": [99.05688, 18.83453]}, "properties": {"id": "cm-osm-way-1251033565", "name": "คาเฟ่ อเมซอน", "nameTh": "คาเฟ่ อเมซอน", "nameEn": "Café Amazon", "cat": ["food"], "province": "cm", "slug": "caf-amazon-1251033565", "rank": 2}}, {"type": "Feature", "geometry": {"type": "Point", "coordinates": [99.03468, 18.7477]}, "properties": {"id": "cm-osm-way-544243074", "name": "คาเฟ่ อเมซอน", "nameTh": "คาเฟ่ อเมซอน", "nameEn": "Café Amazon", "cat": ["food"], "province": "cm", "slug": "caf-amazon-544243074", "rank": 2}}, {"type": "Feature", "geometry": {"type": "Point", "coordinates": [99.05231, 18.66914]}, "properties": {"id": "cm-osm-way-663794597", "name": "คาเฟ่ อเมซอน", "nameTh": "คาเฟ่ อเมซอน", "nameEn": "Café Amazon", "cat": ["food"], "province": "cm", "slug": "caf-amazon-663794597", "rank": 2}}, {"type": "Feature", "geometry": {"type": "Point", "coordinates": [98.93984, 18.92177]}, "properties": {"id": "cm-osm-way-741830430", "name": "คาเฟ่ อเมซอน", "nameTh": "คาเฟ่ อเมซอน", "nameEn": "Café Amazon", "cat": ["food"], "province": "cm", "slug": "caf-amazon-741830430", "rank": 3}}, {"type": "Feature", "geometry": {"type": "Point", "coordinates": [98.97719, 18.78131]}, "properties": {"id": "cm-osm-node-13870668983", "name": "ถิงถิง Ting Ting บิงซูน้ำขิง เชียงใหม่", "nameTh": "ถิงถิง Ting Ting บิงซูน้ำขิง เชียงใหม่", "nameEn": null, "cat": ["food"], "province": "cm", "slug": "ting-ting-13870668983", "rank": 3}}, {"type": "Feature", "geometry": {"type": "Point", "coordinates": [99.04169, 18.76174]}, "properties": {"id": "cm-osm-node-1682788165", "name": "มาลี ก๋วยเตี๋ยวต้มยำสุโขทัย สูตรไทยโบราณ", "nameTh": "มาลี ก๋วยเตี๋ยวต้มยำสุโขทัย สูตรไทยโบราณ", "nameEn": "Mali Kuaitiao Tomyam Sukhothai Sut Thai Boran", "cat": ["food"], "province": "cm", "slug": "mali-kuaitiao-tomyam-sukhothai-sut-thai-boran-1682788165", "rank": 2}}, {"type": "Feature", "geometry": {"type": "Point", "coordinates": [98.98371, 18.78861]}, "properties": {"id": "cm-osm-way-1160323326", "name": "มิ่งขวัญ", "nameTh": "มิ่งขวัญ", "nameEn": "Ming Kwan", "cat": ["food"], "province": "cm", "slug": "ming-kwan-1160323326", "rank": 3}}, {"type": "Feature", "geometry": {"type": "Point", "coordinates": [98.97807, 18.78248]}, "properties": {"id": "cm-osm-node-4681467849", "name": "รสเสวย ก๋วยเตี๋ยวไก่ตุ๋นยาจีน", "nameTh": "รสเสวย ก๋วยเตี๋ยวไก่ตุ๋นยาจีน", "nameEn": null, "cat": ["food"], "province": "cm", "slug": "4681467849", "rank": 2}}, {"type": "Feature", "geometry": {"type": "Point", "coordinates": [98.95601, 18.79006]}, "properties": {"id": "cm-osm-node-4353683217", "name": "ร้านข้าวยำไก่", "nameTh": "ร้านข้าวยำไก่", "nameEn": null, "cat": ["food"], "province": "cm", "slug": "4353683217", "rank": 1}}, {"type": "Feature", "geometry": {"type": "Point", "coordinates": [98.95754, 18.7897]}, "properties": {"id": "cm-osm-node-4358599610", "name": "ร้านลุงเกษม", "nameTh": "ร้านลุงเกษม", "nameEn": null, "cat": ["food"], "province": "cm", "slug": "4358599610", "rank": 1}}, {"type": "Feature", "geometry": {"type": "Point", "coordinates": [98.94843, 18.79952]}, "properties": {"id": "cm-osm-node-4355117364", "name": "อาหารตามสั่ง", "nameTh": "อาหารตามสั่ง", "nameEn": null, "cat": ["food"], "province": "cm", "slug": "4355117364", "rank": 1}}, {"type": "Feature", "geometry": {"type": "Point", "coordinates": [98.99222, 18.79564]}, "properties": {"id": "cm-osm-node-8891761479", "name": "เจไม่จำเจ เชียงใหม่", "nameTh": "เจไม่จำเจ เชียงใหม่", "nameEn": "Jay Mai Jamjay", "cat": ["food"], "province": "cm", "slug": "jay-mai-jamjay-8891761479", "rank": 4}}, {"type": "Feature", "geometry": {"type": "Point", "coordinates": [99.13853, 18.65276]}, "properties": {"id": "cm-osm-node-6207735500", "name": "เฮือนข้าวเจ้าบ้านธิหละปูน", "nameTh": "เฮือนข้าวเจ้าบ้านธิหละปูน", "nameEn": "Ban Thi Rice House, Lamphun", "cat": ["food"], "province": "cm", "slug": "ban-thi-rice-house-lamphun-6207735500", "rank": 3}}, {"type": "Feature", "geometry": {"type": "Point", "coordinates": [98.96236, 18.79033]}, "properties": {"id": "cm-osm-node-4359730658", "name": "โจ๊กต้นพยอม", "nameTh": "โจ๊กต้นพยอม", "nameEn": null, "cat": ["food"], "province": "cm", "slug": "4359730658", "rank": 1}}, {"type": "Feature", "geometry": {"type": "Point", "coordinates": [98.94952, 18.8042]}, "properties": {"id": "cm-osm-way-438237420", "name": "โรงอาหารคณะมนุษยศาสตร์", "nameTh": "โรงอาหารคณะมนุษยศาสตร์", "nameEn": "Humanities Canteen", "cat": ["food"], "province": "cm", "slug": "humanities-canteen-438237420", "rank": 2}}, {"type": "Feature", "geometry": {"type": "Point", "coordinates": [99.01351, 18.74386]}, "properties": {"id": "cm-osm-node-13051829605", "name": "ไก่ย่างวิเชียรบุรี", "nameTh": "ไก่ย่างวิเชียรบุรี", "nameEn": "Wichianburi Grilled Chicken", "cat": ["food"], "province": "cm", "slug": "wichianburi-grilled-chicken-13051829605", "rank": 2}}, {"type": "Feature", "geometry": {"type": "Point", "coordinates": [99.06946, 18.88074]}, "properties": {"id": "cm-osm-way-961802207", "name": "Thai Secret Cooking School & Organic Garden Farm", "nameTh": null, "nameEn": "Thai Secret Cooking School & Organic Garden Farm", "cat": ["cooking", "school"], "province": "cm", "slug": "thai-secret-cooking-school-organic-garden-farm-961802207", "rank": 3}}]}