{"type": "FeatureCollection", "features": [{"type": "Feature", "geometry": {"type": "Point", "coordinates": [98.9835, 18.80213]}, "properties": {"id": "cm-osm-way-762611799", "name": "Chiang Mai Cabaret Theatre", "nameTh": null, "nameEn": "Chiang Mai Cabaret Theatre", "cat": ["whats-on"], "province": "cm", "slug": "chiang-mai-cabaret-theatre-762611799", "rank": 2}}, {"type": "Feature", "geometry": {"type": "Point", "coordinates": [98.89326, 18.69711]}, "properties": {"id": "cm-osm-node-11050519609", "name": "Donut Canyon", "nameTh": null, "nameEn": "Donut Canyon", "cat": ["whats-on"], "province": "cm", "slug": "donut-canyon-11050519609", "rank": 1}}, {"type": "Feature", "geometry": {"type": "Point", "coordinates": [98.93161, 18.92703]}, "properties": {"id": "cm-osm-way-390546828", "name": "Magic Land", "nameTh": null, "nameEn": "Magic Land", "cat": ["whats-on"], "province": "cm", "slug": "magic-land-390546828", "rank": 1}}, {"type": "Feature", "geometry": {"type": "Point", "coordinates": [99.01838, 18.80597]}, "properties": {"id": "cm-osm-node-2865865701", "name": "Major Cineplex", "nameTh": null, "nameEn": "Major Cineplex", "cat": ["whats-on"], "province": "cm", "slug": "major-cineplex-2865865701", "rank": 1}}, {"type": "Feature", "geometry": {"type": "Point", "coordinates": [98.97528, 18.76901]}, "properties": {"id": "cm-osm-node-3347633197", "name": "Major Cineplex", "nameTh": null, "nameEn": "Major Cineplex", "cat": ["whats-on"], "province": "cm", "slug": "major-cineplex-3347633197", "rank": 1}}, {"type": "Feature", "geometry": {"type": "Point", "coordinates": [98.98803, 18.72932]}, "properties": {"id": "cm-osm-way-402598216", "name": "McClanahan Memorial", "nameTh": null, "nameEn": "McClanahan Memorial", "cat": ["whats-on"], "province": "cm", "slug": "mcclanahan-memorial-402598216", "rank": 1}}, {"type": "Feature", "geometry": {"type": "Point", "coordinates": [98.96715, 18.80274]}, "properties": {"id": "cm-osm-node-2717002069", "name": "SFX Cinema Maya", "nameTh": null, "nameEn": "SFX Cinema Maya", "cat": ["whats-on"], "province": "cm", "slug": "sfx-cinema-maya-2717002069", "rank": 1}}, {"type": "Feature", "geometry": {"type": "Point", "coordinates": [98.99924, 18.78497]}, "properties": {"id": "cm-osm-node-2655211643", "name": "Siam Event & Exhibition", "nameTh": null, "nameEn": "Siam Event & Exhibition", "cat": ["whats-on"], "province": "cm", "slug": "siam-event-exhibition-2655211643", "rank": 1}}, {"type": "Feature", "geometry": {"type": "Point", "coordinates": [99.00582, 18.79651]}, "properties": {"id": "cm-osm-way-205595935", "name": "โรงละคร", "nameTh": "โรงละคร", "nameEn": "The '92 Auditorium", "cat": ["whats-on"], "province": "cm", "slug": "the-92-auditorium-205595935", "rank": 2}}]}