{"type": "FeatureCollection", "features": [{"type": "Feature", "geometry": {"type": "Point", "coordinates": [98.9333431, 18.7620916]}, "properties": {"id": "cm-osm-node-2940077887", "name": "Brother of Doi Kum", "cat": ["wat"], "province": "cm"}}, {"type": "Feature", "geometry": {"type": "Point", "coordinates": [98.9819826, 18.7916956]}, "properties": {"id": "cm-osm-node-6741683186", "name": "Buddhist temple", "cat": ["wat"], "province": "cm"}}, {"type": "Feature", "geometry": {"type": "Point", "coordinates": [98.995635, 18.7540471]}, "properties": {"id": "cm-osm-node-2508210840", "name": "Chedi Liam Temple", "cat": ["wat"], "province": "cm"}}, {"type": "Feature", "geometry": {"type": "Point", "coordinates": [99.0163191, 18.8014927]}, "properties": {"id": "cm-osm-node-6364376085", "name": "Ganesha Shrine", "cat": ["wat"], "province": "cm"}}, {"type": "Feature", "geometry": {"type": "Point", "coordinates": [98.9533041, 18.8058643]}, "properties": {"id": "cm-osm-node-5593688307", "name": "House of Spirit", "cat": ["wat"], "province": "cm"}}, {"type": "Feature", "geometry": {"type": "Point", "coordinates": [98.9820998, 18.813547]}, "properties": {"id": "cm-osm-node-13416126895", "name": "Khuong Singh", "cat": ["wat"], "province": "cm"}}, {"type": "Feature", "geometry": {"type": "Point", "coordinates": [98.9868572, 18.7869726]}, "properties": {"id": "cm-osm-way-243018795", "name": "Wat Chedi Luang", "cat": ["wat"], "province": "cm"}}, {"type": "Feature", "geometry": {"type": "Point", "coordinates": [98.9893928, 18.7937856]}, "properties": {"id": "cm-osm-way-98070869", "name": "Wat Chiang Man", "cat": ["wat"], "province": "cm"}}, {"type": "Feature", "geometry": {"type": "Point", "coordinates": [99.0654089, 18.8628732]}, "properties": {"id": "cm-osm-way-1437028933", "name": "Wat Huai Fai", "cat": ["wat"], "province": "cm"}}, {"type": "Feature", "geometry": {"type": "Point", "coordinates": [99.0571505, 18.8613049]}, "properties": {"id": "cm-osm-way-250527325", "name": "Wat Kaotanluang", "cat": ["wat"], "province": "cm"}}, {"type": "Feature", "geometry": {"type": "Point", "coordinates": [99.0612909, 18.8594192]}, "properties": {"id": "cm-osm-node-10307371816", "name": "Wat Khao Thaen Noi", "cat": ["wat"], "province": "cm"}}, {"type": "Feature", "geometry": {"type": "Point", "coordinates": [99.0062559, 18.8116017]}, "properties": {"id": "cm-osm-way-467489219", "name": "Wat Langka", "cat": ["wat"], "province": "cm"}}, {"type": "Feature", "geometry": {"type": "Point", "coordinates": [98.99745, 18.8731404]}, "properties": {"id": "cm-osm-node-10881109985", "name": "Wat Naboon Thammaram", "cat": ["wat"], "province": "cm"}}, {"type": "Feature", "geometry": {"type": "Point", "coordinates": [98.9978268, 18.8731988]}, "properties": {"id": "cm-osm-way-1170872081", "name": "Wat Naboon Thammaram", "cat": ["wat"], "province": "cm"}}, {"type": "Feature", "geometry": {"type": "Point", "coordinates": [99.0218724, 18.8311617]}, "properties": {"id": "cm-osm-way-1458584415", "name": "Wat Nang Liao", "cat": ["wat"], "province": "cm"}}, {"type": "Feature", "geometry": {"type": "Point", "coordinates": [98.9874529, 18.7876922]}, "properties": {"id": "cm-osm-way-243018378", "name": "Wat Phan Tao", "cat": ["wat"], "province": "cm"}}, {"type": "Feature", "geometry": {"type": "Point", "coordinates": [98.9813822, 18.7885848]}, "properties": {"id": "cm-osm-way-93414647", "name": "Wat Phra Singh", "cat": ["wat"], "province": "cm"}}, {"type": "Feature", "geometry": {"type": "Point", "coordinates": [98.9671115, 18.8551432]}, "properties": {"id": "cm-osm-way-250269281", "name": "Wat Piyaram", "cat": ["wat"], "province": "cm"}}, {"type": "Feature", "geometry": {"type": "Point", "coordinates": [98.9134173, 18.7090677]}, "properties": {"id": "cm-osm-node-3727983702", "name": "Wat Sala", "cat": ["wat"], "province": "cm"}}, {"type": "Feature", "geometry": {"type": "Point", "coordinates": [98.9738735, 18.8543965]}, "properties": {"id": "cm-osm-way-1458898755", "name": "Wat San Mueang Pracharam", "cat": ["wat"], "province": "cm"}}, {"type": "Feature", "geometry": {"type": "Point", "coordinates": [99.000651, 18.8268252]}, "properties": {"id": "cm-osm-node-3589306374", "name": "Wat San Sai Ton Kok", "cat": ["wat"], "province": "cm"}}, {"type": "Feature", "geometry": {"type": "Point", "coordinates": [98.9838812, 18.7880092]}, "properties": {"id": "cm-osm-way-242929545", "name": "Wat Si Koet", "cat": ["wat"], "province": "cm"}}, {"type": "Feature", "geometry": {"type": "Point", "coordinates": [99.0759513, 18.8169735]}, "properties": {"id": "cm-osm-node-2090554794", "name": "Wat Sri Sawat", "cat": ["wat"], "province": "cm"}}, {"type": "Feature", "geometry": {"type": "Point", "coordinates": [98.9518714, 18.8284385]}, "properties": {"id": "cm-osm-way-749320828", "name": "ที่พักสงฆ์พุทธรรมหนองฮ่อ", "cat": ["wat"], "province": "cm"}}, {"type": "Feature", "geometry": {"type": "Point", "coordinates": [99.0018548, 18.7872401]}, "properties": {"id": "cm-osm-way-96423038", "name": "พุทธสถานเชียงใหม่", "cat": ["wat"], "province": "cm"}}, {"type": "Feature", "geometry": {"type": "Point", "coordinates": [99.0070108, 18.8275965]}, "properties": {"id": "cm-osm-node-8586256830", "name": "มูลนิธิ อริยสถานธรรม แห่งปัญญา", "cat": ["wat"], "province": "cm"}}, {"type": "Feature", "geometry": {"type": "Point", "coordinates": [98.9205081, 18.7084165]}, "properties": {"id": "cm-osm-node-1579489369", "name": "วดโขงขาว", "cat": ["wat"], "province": "cm"}}, {"type": "Feature", "geometry": {"type": "Point", "coordinates": [99.0203092, 18.7299711]}, "properties": {"id": "cm-osm-way-594290245", "name": "วัดกองทราย", "cat": ["wat"], "province": "cm"}}, {"type": "Feature", "geometry": {"type": "Point", "coordinates": [98.9206235, 18.6875584]}, "properties": {"id": "cm-osm-way-675336774", "name": "วัดกำแพงงาม", "cat": ["wat"], "province": "cm"}}, {"type": "Feature", "geometry": {"type": "Point", "coordinates": [99.0251468, 18.7229851]}, "properties": {"id": "cm-osm-node-1618139934", "name": "วัดกูเสือ", "cat": ["wat"], "province": "cm"}}, {"type": "Feature", "geometry": {"type": "Point", "coordinates": [99.0178829, 18.7987414]}, "properties": {"id": "cm-osm-node-3152478761", "name": "วัดกู่คำ", "cat": ["wat"], "province": "cm"}}, {"type": "Feature", "geometry": {"type": "Point", "coordinates": [99.0685136, 18.7888988]}, "properties": {"id": "cm-osm-way-277181489", "name": "วัดกู่ม่านมงคลชัย", "cat": ["wat"], "province": "cm"}}, {"type": "Feature", "geometry": {"type": "Point", "coordinates": [98.9886363, 18.802565]}, "properties": {"id": "cm-osm-way-665826690", "name": "วัดกู่เต้า", "cat": ["wat"], "province": "cm"}}, {"type": "Feature", "geometry": {"type": "Point", "coordinates": [99.0111526, 18.6868166]}, "properties": {"id": "cm-osm-way-146187145", "name": "วัดกู่แดง", "cat": ["wat"], "province": "cm"}}, {"type": "Feature", "geometry": {"type": "Point", "coordinates": [98.9826058, 18.8128836]}, "properties": {"id": "cm-osm-way-421103611", "name": "วัดข่วงสิงห์", "cat": ["wat"], "province": "cm"}}, {"type": "Feature", "geometry": {"type": "Point", "coordinates": [98.9837098, 18.7951709]}, "properties": {"id": "cm-osm-way-578867504", "name": "วัดควรค่าม้า", "cat": ["wat"], "province": "cm"}}, {"type": "Feature", "geometry": {"type": "Point", "coordinates": [99.0607594, 18.8520493]}, "properties": {"id": "cm-osm-way-146853058", "name": "วัดคอกหมูป่า", "cat": ["wat"], "province": "cm"}}, {"type": "Feature", "geometry": {"type": "Point", "coordinates": [98.9662335, 18.6901564]}, "properties": {"id": "cm-osm-way-1243096176", "name": "วัดจอมทอง", "cat": ["wat"], "province": "cm"}}, {"type": "Feature", "geometry": {"type": "Point", "coordinates": [98.9620522, 18.705231]}, "properties": {"id": "cm-osm-node-1588175232", "name": "วัดฉิมพลีวัน", "cat": ["wat"], "province": "cm"}}, {"type": "Feature", "geometry": {"type": "Point", "coordinates": [98.9945503, 18.791206]}, "properties": {"id": "cm-osm-way-135952568", "name": "วัดชมพู", "cat": ["wat"], "province": "cm"}}, {"type": "Feature", "geometry": {"type": "Point", "coordinates": [98.9977033, 18.8812576]}, "properties": {"id": "cm-osm-way-147020654", "name": "วัดชมพูนุท (วังป้อง)", "cat": ["wat"], "province": "cm"}}, {"type": "Feature", "geometry": {"type": "Point", "coordinates": [98.9858907, 18.7887552]}, "properties": {"id": "cm-osm-way-242930163", "name": "วัดชัยพระเกียรติ", "cat": ["wat"], "province": "cm"}}, {"type": "Feature", "geometry": {"type": "Point", "coordinates": [99.0046244, 18.7806698]}, "properties": {"id": "cm-osm-way-406558246", "name": "วัดชัยมงคล", "cat": ["wat"], "province": "cm"}}, {"type": "Feature", "geometry": {"type": "Point", "coordinates": [98.9941587, 18.7943682]}, "properties": {"id": "cm-osm-way-377819719", "name": "วัดชัยศรีภูมิ", "cat": ["wat"], "province": "cm"}}, {"type": "Feature", "geometry": {"type": "Point", "coordinates": [99.079294, 18.8073257]}, "properties": {"id": "cm-osm-way-355642593", "name": "วัดชัยสถาน", "cat": ["wat"], "province": "cm"}}, {"type": "Feature", "geometry": {"type": "Point", "coordinates": [99.0726315, 18.8028446]}, "properties": {"id": "cm-osm-way-1268295626", "name": "วัดชัยสถิตย์ (ป่าเสร้าหลวง)", "cat": ["wat"], "province": "cm"}}, {"type": "Feature", "geometry": {"type": "Point", "coordinates": [98.9981178, 18.784957]}, "properties": {"id": "cm-osm-way-360854715", "name": "วัดช่างฆ้อง", "cat": ["wat"], "province": "cm"}}, {"type": "Feature", "geometry": {"type": "Point", "coordinates": [98.9587258, 18.7585014]}, "properties": {"id": "cm-osm-node-4459060106", "name": "วัดช่างทอง", "cat": ["wat"], "province": "cm"}}, {"type": "Feature", "geometry": {"type": "Point", "coordinates": [99.0413016, 18.6884116]}, "properties": {"id": "cm-osm-way-679357231", "name": "วัดช่างเคิ่ง", "cat": ["wat"], "province": "cm"}}, {"type": "Feature", "geometry": {"type": "Point", "coordinates": [98.9604404, 18.8083375]}, "properties": {"id": "cm-osm-way-576783182", "name": "วัดช่างเคี่ยน", "cat": ["wat"], "province": "cm"}}, {"type": "Feature", "geometry": {"type": "Point", "coordinates": [98.9880621, 18.7852002]}, "properties": {"id": "cm-osm-relation-8651541", "name": "วัดช่างแต้ม", "cat": ["wat"], "province": "cm"}}, {"type": "Feature", "geometry": {"type": "Point", "coordinates": [98.9332833, 18.6940745]}, "properties": {"id": "cm-osm-way-145401051", "name": "วัดช้างคำ", "cat": ["wat"], "province": "cm"}}, {"type": "Feature", "geometry": {"type": "Point", "coordinates": [99.0020397, 18.7478812]}, "properties": {"id": "cm-osm-way-356063726", "name": "วัดช้างค้ำ", "cat": ["wat"], "province": "cm"}}, {"type": "Feature", "geometry": {"type": "Point", "coordinates": [98.9884994, 18.7894877]}, "properties": {"id": "cm-osm-way-261339003", "name": "วัดดวงดี", "cat": ["wat"], "province": "cm"}}, {"type": "Feature", "geometry": {"type": "Point", "coordinates": [98.9929899, 18.7892477]}, "properties": {"id": "cm-osm-way-356588870", "name": "วัดดอกคำ", "cat": ["wat"], "province": "cm"}}, {"type": "Feature", "geometry": {"type": "Point", "coordinates": [98.992491, 18.7901747]}, "properties": {"id": "cm-osm-way-135952556", "name": "วัดดอกเอื้อง", "cat": ["wat"], "province": "cm"}}, {"type": "Feature", "geometry": {"type": "Point", "coordinates": [99.0325757, 18.760168]}, "properties": {"id": "cm-osm-way-97665874", "name": "วัดดอนจั่น", "cat": ["wat"], "province": "cm"}}, {"type": "Feature", "geometry": {"type": "Point", "coordinates": [99.0252176, 18.7352452]}, "properties": {"id": "cm-osm-way-383626877", "name": "วัดดอนจืน", "cat": ["wat"], "province": "cm"}}, {"type": "Feature", "geometry": {"type": "Point", "coordinates": [99.064424, 18.809585]}, "properties": {"id": "cm-osm-node-2090560314", "name": "วัดดอนชัย", "cat": ["wat"], "province": "cm"}}, {"type": "Feature", "geometry": {"type": "Point", "coordinates": [98.9803299, 18.7358184]}, "properties": {"id": "cm-osm-way-405079445", "name": "วัดดอนชัย", "cat": ["wat"], "province": "cm"}}, {"type": "Feature", "geometry": {"type": "Point", "coordinates": [98.9574534, 18.7349095]}, "properties": {"id": "cm-osm-way-370287903", "name": "วัดดอนปิน", "cat": ["wat"], "province": "cm"}}, {"type": "Feature", "geometry": {"type": "Point", "coordinates": [98.9975608, 18.691995]}, "properties": {"id": "cm-osm-node-4125127496", "name": "วัดดอนแก้ว", "cat": ["wat"], "province": "cm"}}, {"type": "Feature", "geometry": {"type": "Point", "coordinates": [98.9720167, 18.8798408]}, "properties": {"id": "cm-osm-way-1239081882", "name": "วัดดอนแก้ว", "cat": ["wat"], "province": "cm"}}, {"type": "Feature", "geometry": {"type": "Point", "coordinates": [98.9140156, 18.7320401]}, "properties": {"id": "cm-osm-way-1262057825", "name": "วัดดอยเปา", "cat": ["wat"], "province": "cm"}}, {"type": "Feature", "geometry": {"type": "Point", "coordinates": [98.9201973, 18.7404296]}, "properties": {"id": "cm-osm-way-250503384", "name": "วัดดอยแก้ว", "cat": ["wat"], "province": "cm"}}, {"type": "Feature", "geometry": {"type": "Point", "coordinates": [98.9814897, 18.7928275]}, "properties": {"id": "cm-osm-way-406992974", "name": "วัดดับภัย", "cat": ["wat"], "province": "cm"}}, {"type": "Feature", "geometry": {"type": "Point", "coordinates": [98.9914189, 18.7784731]}, "properties": {"id": "cm-osm-way-106083741", "name": "วัดดาวดึงส์", "cat": ["wat"], "province": "cm"}}, {"type": "Feature", "geometry": {"type": "Point", "coordinates": [98.9308927, 18.7376191]}, "properties": {"id": "cm-osm-way-185208208", "name": "วัดตองกาย", "cat": ["wat"], "province": "cm"}}, {"type": "Feature", "geometry": {"type": "Point", "coordinates": [98.9566955, 18.7479205]}, "properties": {"id": "cm-osm-way-297699422", "name": "วัดตำหนักสวนขวัญศิริมังคลาจารย์", "cat": ["wat"], "province": "cm"}}, {"type": "Feature", "geometry": {"type": "Point", "coordinates": [99.026604, 18.8464227]}, "properties": {"id": "cm-osm-way-1458594888", "name": "วัดต้นจันทน์", "cat": ["wat"], "province": "cm"}}, {"type": "Feature", "geometry": {"type": "Point", "coordinates": [99.0591498, 18.693097]}, "properties": {"id": "cm-osm-way-103408214", "name": "วัดต้นผึ้ง", "cat": ["wat"], "province": "cm"}}, {"type": "Feature", "geometry": {"type": "Point", "coordinates": [99.0478089, 18.7467511]}, "properties": {"id": "cm-osm-way-314808535", "name": "วัดต้นยางหวง", "cat": ["wat"], "province": "cm"}}, {"type": "Feature", "geometry": {"type": "Point", "coordinates": [98.9253401, 18.7228466]}, "properties": {"id": "cm-osm-node-624114779", "name": "วัดต้นเกว๋น", "cat": ["wat"], "province": "cm"}}, {"type": "Feature", "geometry": {"type": "Point", "coordinates": [99.0422499, 18.6979296]}, "properties": {"id": "cm-osm-node-4509503055", "name": "วัดต้นเหียว", "cat": ["wat"], "province": "cm"}}, {"type": "Feature", "geometry": {"type": "Point", "coordinates": [98.9531717, 18.6809555]}, "properties": {"id": "cm-osm-way-655352975", "name": "วัดต้นแก้ว", "cat": ["wat"], "province": "cm"}}, {"type": "Feature", "geometry": {"type": "Point", "coordinates": [99.0454572, 18.7276324]}, "properties": {"id": "cm-osm-way-140073543", "name": "วัดต้นโชคหลาง", "cat": ["wat"], "province": "cm"}}, {"type": "Feature", "geometry": {"type": "Point", "coordinates": [98.9546807, 18.719169]}, "properties": {"id": "cm-osm-way-147251210", "name": "วัดถาวรธรรม", "cat": ["wat"], "province": "cm"}}, {"type": "Feature", "geometry": {"type": "Point", "coordinates": [98.9198304, 18.6824396]}, "properties": {"id": "cm-osm-node-2685558600", "name": "วัดทรายมูล", "cat": ["wat"], "province": "cm"}}, {"type": "Feature", "geometry": {"type": "Point", "coordinates": [98.9912322, 18.7821615]}, "properties": {"id": "cm-osm-way-244650874", "name": "วัดทรายมูล (พม่า)", "cat": ["wat"], "province": "cm"}}, {"type": "Feature", "geometry": {"type": "Point", "coordinates": [98.9924314, 18.7826254]}, "properties": {"id": "cm-osm-way-244650927", "name": "วัดทรายมูลเมือง", "cat": ["wat"], "province": "cm"}}, {"type": "Feature", "geometry": {"type": "Point", "coordinates": [98.9841241, 18.7888022]}, "properties": {"id": "cm-osm-way-242929634", "name": "วัดทุงยู", "cat": ["wat"], "province": "cm"}}, {"type": "Feature", "geometry": {"type": "Point", "coordinates": [99.076426, 18.7031768]}, "properties": {"id": "cm-osm-node-4763900183", "name": "วัดทุ่งขี้เสือ", "cat": ["wat"], "province": "cm"}}, {"type": "Feature", "geometry": {"type": "Point", "coordinates": [99.0018529, 18.8789369]}, "properties": {"id": "cm-osm-way-385423319", "name": "วัดทุ่งป่าเก็ด", "cat": ["wat"], "province": "cm"}}, {"type": "Feature", "geometry": {"type": "Point", "coordinates": [98.9471344, 18.7430044]}, "properties": {"id": "cm-osm-way-366853177", "name": "วัดท่าข้าม", "cat": ["wat"], "province": "cm"}}, {"type": "Feature", "geometry": {"type": "Point", "coordinates": [99.0707489, 18.7202598]}, "properties": {"id": "cm-osm-way-95953233", "name": "วัดท่าต้นกวาว", "cat": ["wat"], "province": "cm"}}, {"type": "Feature", "geometry": {"type": "Point", "coordinates": [99.0530884, 18.7958586]}, "properties": {"id": "cm-osm-node-8618950003", "name": "วัดท่าทุ่ม", "cat": ["wat"], "province": "cm"}}, {"type": "Feature", "geometry": {"type": "Point", "coordinates": [99.0073795, 18.7826667]}, "properties": {"id": "cm-osm-way-352224619", "name": "วัดท่าสะต๋อย", "cat": ["wat"], "province": "cm"}}, {"type": "Feature", "geometry": {"type": "Point", "coordinates": [98.9961912, 18.8318242]}, "properties": {"id": "cm-osm-way-243551350", "name": "วัดท่าหลุก", "cat": ["wat"], "province": "cm"}}, {"type": "Feature", "geometry": {"type": "Point", "coordinates": [99.0210092, 18.8671315]}, "properties": {"id": "cm-osm-way-437531160", "name": "วัดท่าเกวียน", "cat": ["wat"], "province": "cm"}}, {"type": "Feature", "geometry": {"type": "Point", "coordinates": [98.9914337, 18.8422202]}, "properties": {"id": "cm-osm-way-103287822", "name": "วัดท่าเดื่อ", "cat": ["wat"], "province": "cm"}}, {"type": "Feature", "geometry": {"type": "Point", "coordinates": [98.9832741, 18.7210465]}, "properties": {"id": "cm-osm-way-243404616", "name": "วัดท่าใหม่อิ", "cat": ["wat"], "province": "cm"}}, {"type": "Feature", "geometry": {"type": "Point", "coordinates": [98.9354383, 18.7039389]}, "properties": {"id": "cm-osm-way-340406121", "name": "วัดท้าวบุญเรือง", "cat": ["wat"], "province": "cm"}}, {"type": "Feature", "geometry": {"type": "Point", "coordinates": [98.9637775, 18.6871231]}, "properties": {"id": "cm-osm-way-655352968", "name": "วัดธรรมประดิษฐ์สถาน", "cat": ["wat"], "province": "cm"}}, {"type": "Feature", "geometry": {"type": "Point", "coordinates": [98.9892326, 18.7767328]}, "properties": {"id": "cm-osm-way-256126140", "name": "วัดธาตุกลาง", "cat": ["wat"], "province": "cm"}}, {"type": "Feature", "geometry": {"type": "Point", "coordinates": [98.98861, 18.7775332]}, "properties": {"id": "cm-osm-way-256126141", "name": "วัดธาตุคำ", "cat": ["wat"], "province": "cm"}}, {"type": "Feature", "geometry": {"type": "Point", "coordinates": [99.0430774, 18.7420179]}, "properties": {"id": "cm-osm-node-2650399437", "name": "วัดนันทารา", "cat": ["wat"], "province": "cm"}}, {"type": "Feature", "geometry": {"type": "Point", "coordinates": [98.9863774, 18.7746766]}, "properties": {"id": "cm-osm-way-467444127", "name": "วัดนันทาราม", "cat": ["wat"], "province": "cm"}}, {"type": "Feature", "geometry": {"type": "Point", "coordinates": [98.9948751, 18.6873499]}, "properties": {"id": "cm-osm-way-145080211", "name": "วัดนำโจ้", "cat": ["wat"], "province": "cm"}}, {"type": "Feature", "geometry": {"type": "Point", "coordinates": [99.0338011, 18.7871963]}, "properties": {"id": "cm-osm-node-2597089405", "name": "วัดบวกครกน้อย", "cat": ["wat"], "province": "cm"}}, {"type": "Feature", "geometry": {"type": "Point", "coordinates": [99.0381824, 18.7795452]}, "properties": {"id": "cm-osm-way-370423801", "name": "วัดบวกครกหลวง", "cat": ["wat"], "province": "cm"}}, {"type": "Feature", "geometry": {"type": "Point", "coordinates": [99.0030156, 18.7173867]}, "properties": {"id": "cm-osm-node-3870527966", "name": "วัดบวกครกเหนือ", "cat": ["wat"], "province": "cm"}}, {"type": "Feature", "geometry": {"type": "Point", "coordinates": [99.0052196, 18.7088189]}, "properties": {"id": "cm-osm-node-4104051572", "name": "วัดบวกครกใต้", "cat": ["wat"], "province": "cm"}}, {"type": "Feature", "geometry": {"type": "Point", "coordinates": [99.0665777, 18.6967464]}, "properties": {"id": "cm-osm-way-102687803", "name": "วัดบุปผา", "cat": ["wat"], "province": "cm"}}, {"type": "Feature", "geometry": {"type": "Point", "coordinates": [98.998156, 18.7879069]}, "properties": {"id": "cm-osm-way-261336735", "name": "วัดบุพพาราม", "cat": ["wat"], "province": "cm"}}, {"type": "Feature", "geometry": {"type": "Point", "coordinates": [99.0016263, 18.7368048]}, "properties": {"id": "cm-osm-way-100291611", "name": "วัดบ้านกลาง", "cat": ["wat"], "province": "cm"}}, {"type": "Feature", "geometry": {"type": "Point", "coordinates": [99.0458567, 18.8458015]}, "properties": {"id": "cm-osm-way-144054116", "name": "วัดบ้านท่อ", "cat": ["wat"], "province": "cm"}}, {"type": "Feature", "geometry": {"type": "Point", "coordinates": [98.9886809, 18.8370998]}, "properties": {"id": "cm-osm-way-528423948", "name": "วัดบ้านท่อ", "cat": ["wat"], "province": "cm"}}, {"type": "Feature", "geometry": {"type": "Point", "coordinates": [99.0446941, 18.7956601]}, "properties": {"id": "cm-osm-node-2095750485", "name": "วัดบ้านมอญ", "cat": ["wat"], "province": "cm"}}, {"type": "Feature", "geometry": {"type": "Point", "coordinates": [98.9590811, 18.8008662]}, "properties": {"id": "cm-osm-node-2660452151", "name": "วัดประทานพร", "cat": ["wat"], "province": "cm"}}, {"type": "Feature", "geometry": {"type": "Point", "coordinates": [98.9165021, 18.6804262]}, "properties": {"id": "cm-osm-node-2000801870", "name": "วัดประสาทธรรม", "cat": ["wat"], "province": "cm"}}, {"type": "Feature", "geometry": {"type": "Point", "coordinates": [98.9810231, 18.7898096]}, "properties": {"id": "cm-osm-way-378271848", "name": "วัดปราสาท", "cat": ["wat"], "province": "cm"}}, {"type": "Feature", "geometry": {"type": "Point", "coordinates": [98.9776038, 18.7921812]}, "properties": {"id": "cm-osm-way-692140719", "name": "วัดปันเสา(พันเสา)", "cat": ["wat"], "province": "cm"}}, {"type": "Feature", "geometry": {"type": "Point", "coordinates": [98.9773908, 18.7921924]}, "properties": {"id": "cm-osm-way-692140717", "name": "วัดปันเส่า", "cat": ["wat"], "province": "cm"}}, {"type": "Feature", "geometry": {"type": "Point", "coordinates": [98.992519, 18.6812335]}, "properties": {"id": "cm-osm-way-392571428", "name": "วัดปากเหมือง", "cat": ["wat"], "province": "cm"}}, {"type": "Feature", "geometry": {"type": "Point", "coordinates": [99.0805836, 18.6960687]}, "properties": {"id": "cm-osm-way-106353156", "name": "วัดป่งช้างคด", "cat": ["wat"], "province": "cm"}}, {"type": "Feature", "geometry": {"type": "Point", "coordinates": [99.0691562, 18.8584087]}, "properties": {"id": "cm-osm-node-3877553742", "name": "วัดป่ากล้วย", "cat": ["wat"], "province": "cm"}}, {"type": "Feature", "geometry": {"type": "Point", "coordinates": [98.9870511, 18.8682371]}, "properties": {"id": "cm-osm-node-4418737569", "name": "วัดป่าข่อยเหนือ", "cat": ["wat"], "province": "cm"}}, {"type": "Feature", "geometry": {"type": "Point", "coordinates": [98.9841028, 18.8631812]}, "properties": {"id": "cm-osm-way-528426354", "name": "วัดป่าข่อยใต้", "cat": ["wat"], "province": "cm"}}, {"type": "Feature", "geometry": {"type": "Point", "coordinates": [98.9881852, 18.719352]}, "properties": {"id": "cm-osm-way-535164570", "name": "วัดป่างิ้ว (ครูบาทันใจ)", "cat": ["wat"], "province": "cm"}}, {"type": "Feature", "geometry": {"type": "Point", "coordinates": [98.9364153, 18.7456918]}, "properties": {"id": "cm-osm-way-992388613", "name": "วัดป่าจี้", "cat": ["wat"], "province": "cm"}}, {"type": "Feature", "geometry": {"type": "Point", "coordinates": [99.0009349, 18.8109105]}, "properties": {"id": "cm-osm-node-2660469646", "name": "วัดป่าตัน", "cat": ["wat"], "province": "cm"}}, {"type": "Feature", "geometry": {"type": "Point", "coordinates": [99.05407, 18.7401877]}, "properties": {"id": "cm-osm-way-146900640", "name": "วัดป่าบง", "cat": ["wat"], "province": "cm"}}, {"type": "Feature", "geometry": {"type": "Point", "coordinates": [98.9968979, 18.7630626]}, "properties": {"id": "cm-osm-way-692677756", "name": "วัดป่าพร้าวนอก", "cat": ["wat"], "province": "cm"}}, {"type": "Feature", "geometry": {"type": "Point", "coordinates": [98.9805979, 18.7932879]}, "properties": {"id": "cm-osm-way-406992814", "name": "วัดป่าพร้าวใน", "cat": ["wat"], "province": "cm"}}, {"type": "Feature", "geometry": {"type": "Point", "coordinates": [99.0560843, 18.8683521]}, "properties": {"id": "cm-osm-way-147532398", "name": "วัดป่าลาน", "cat": ["wat"], "province": "cm"}}, {"type": "Feature", "geometry": {"type": "Point", "coordinates": [98.9915902, 18.7492879]}, "properties": {"id": "cm-osm-way-261636204", "name": "วัดป่าเปอะ", "cat": ["wat"], "province": "cm"}}, {"type": "Feature", "geometry": {"type": "Point", "coordinates": [98.9923575, 18.7960039]}, "properties": {"id": "cm-osm-node-1445519696", "name": "วัดป่าเป้า", "cat": ["wat"], "province": "cm"}}, {"type": "Feature", "geometry": {"type": "Point", "coordinates": [99.0271965, 18.726802]}, "properties": {"id": "cm-osm-way-404528432", "name": "วัดป่าแคโยง", "cat": ["wat"], "province": "cm"}}, {"type": "Feature", "geometry": {"type": "Point", "coordinates": [98.9498048, 18.7882863]}, "properties": {"id": "cm-osm-node-2638612434", "name": "วัดป่าแดง", "cat": ["wat"], "province": "cm"}}, {"type": "Feature", "geometry": {"type": "Point", "coordinates": [99.0549533, 18.8801144]}, "properties": {"id": "cm-osm-node-2590245568", "name": "วัดป่าแดด", "cat": ["wat"], "province": "cm"}}, {"type": "Feature", "geometry": {"type": "Point", "coordinates": [98.9989821, 18.8016689]}, "properties": {"id": "cm-osm-relation-18882121", "name": "วัดป่าแพ่ง", "cat": ["wat"], "province": "cm"}}, {"type": "Feature", "geometry": {"type": "Point", "coordinates": [98.9905275, 18.7896605]}, "properties": {"id": "cm-osm-way-383205227", "name": "วัดป้านปิง", "cat": ["wat"], "province": "cm"}}, {"type": "Feature", "geometry": {"type": "Point", "coordinates": [99.0217828, 18.739028]}, "properties": {"id": "cm-osm-way-383587812", "name": "วัดผางยอย", "cat": ["wat"], "province": "cm"}}, {"type": "Feature", "geometry": {"type": "Point", "coordinates": [98.9820639, 18.789756]}, "properties": {"id": "cm-osm-way-242929434", "name": "วัดผาบ่อง", "cat": ["wat"], "province": "cm"}}, {"type": "Feature", "geometry": {"type": "Point", "coordinates": [98.9342005, 18.7991219]}, "properties": {"id": "cm-osm-way-302732571", "name": "วัดผาลาด", "cat": ["wat"], "province": "cm"}}, {"type": "Feature", "geometry": {"type": "Point", "coordinates": [98.9913989, 18.7856808]}, "properties": {"id": "cm-osm-way-360858585", "name": "วัดผ้าขาว", "cat": ["wat"], "province": "cm"}}, {"type": "Feature", "geometry": {"type": "Point", "coordinates": [98.9465986, 18.7981685]}, "properties": {"id": "cm-osm-way-818040399", "name": "วัดฝายหิน", "cat": ["wat"], "province": "cm"}}, {"type": "Feature", "geometry": {"type": "Point", "coordinates": [99.0604493, 18.7116751]}, "properties": {"id": "cm-osm-way-101927445", "name": "วัดพญาชมภู", "cat": ["wat"], "province": "cm"}}, {"type": "Feature", "geometry": {"type": "Point", "coordinates": [98.918844, 18.759436]}, "properties": {"id": "cm-osm-way-313040943", "name": "วัดพระธาตุดอยคำ", "cat": ["wat"], "province": "cm"}}, {"type": "Feature", "geometry": {"type": "Point", "coordinates": [98.9180905, 18.759607]}, "properties": {"id": "cm-osm-way-313695337", "name": "วัดพระธาตุดอยคํา", "cat": ["wat"], "province": "cm"}}, {"type": "Feature", "geometry": {"type": "Point", "coordinates": [98.9221034, 18.8049204]}, "properties": {"id": "cm-osm-way-114651040", "name": "วัดพระธาตุดอยสุเทพ", "cat": ["wat"], "province": "cm"}}, {"type": "Feature", "geometry": {"type": "Point", "coordinates": [98.9202265, 18.8035942]}, "properties": {"id": "cm-osm-node-4228028194", "name": "วัดพระธาตุดอยสุเทพราชวรวิหาร", "cat": ["wat"], "province": "cm"}}, {"type": "Feature", "geometry": {"type": "Point", "coordinates": [98.977821, 18.8453289]}, "properties": {"id": "cm-osm-way-1015398858", "name": "วัดพระนอนขอนม่วง", "cat": ["wat"], "province": "cm"}}, {"type": "Feature", "geometry": {"type": "Point", "coordinates": [99.0297389, 18.7056205]}, "properties": {"id": "cm-osm-way-382248992", "name": "วัดพระนอป่าเก็ดถี", "cat": ["wat"], "province": "cm"}}, {"type": "Feature", "geometry": {"type": "Point", "coordinates": [99.0371082, 18.8124718]}, "properties": {"id": "cm-osm-way-1025083041", "name": "วัดพระเจดีย์", "cat": ["wat"], "province": "cm"}}, {"type": "Feature", "geometry": {"type": "Point", "coordinates": [98.9841517, 18.7850999]}, "properties": {"id": "cm-osm-way-691917810", "name": "วัดพระเจ้าเม็งราย", "cat": ["wat"], "province": "cm"}}, {"type": "Feature", "geometry": {"type": "Point", "coordinates": [98.9933968, 18.7806632]}, "properties": {"id": "cm-osm-way-356757957", "name": "วัดพวกช้าง", "cat": ["wat"], "province": "cm"}}, {"type": "Feature", "geometry": {"type": "Point", "coordinates": [98.9809442, 18.7830207]}, "properties": {"id": "cm-osm-relation-8201931", "name": "วัดพวกหงษ์", "cat": ["wat"], "province": "cm"}}, {"type": "Feature", "geometry": {"type": "Point", "coordinates": [98.9807023, 18.7793745]}, "properties": {"id": "cm-osm-way-692682522", "name": "วัดพวกเปีย", "cat": ["wat"], "province": "cm"}}, {"type": "Feature", "geometry": {"type": "Point", "coordinates": [98.9830746, 18.7824349]}, "properties": {"id": "cm-osm-way-423031752", "name": "วัดพวกแต้ม", "cat": ["wat"], "province": "cm"}}, {"type": "Feature", "geometry": {"type": "Point", "coordinates": [98.9960361, 18.7847177]}, "properties": {"id": "cm-osm-way-360706201", "name": "วัดพันตอง", "cat": ["wat"], "province": "cm"}}, {"type": "Feature", "geometry": {"type": "Point", "coordinates": [98.991168, 18.7875898]}, "properties": {"id": "cm-osm-way-246253475", "name": "วัดพันอ้น", "cat": ["wat"], "province": "cm"}}, {"type": "Feature", "geometry": {"type": "Point", "coordinates": [98.9907993, 18.7875855]}, "properties": {"id": "cm-osm-way-695790006", "name": "วัดพันอ้น", "cat": ["wat"], "province": "cm"}}, {"type": "Feature", "geometry": {"type": "Point", "coordinates": [98.9857493, 18.7830726]}, "properties": {"id": "cm-osm-way-691949313", "name": "วัดพันแหวน", "cat": ["wat"], "province": "cm"}}, {"type": "Feature", "geometry": {"type": "Point", "coordinates": [98.9308298, 18.7018187]}, "properties": {"id": "cm-osm-node-10836850760", "name": "วัดพุทธารามบ้านแหวน", "cat": ["wat"], "province": "cm"}}, {"type": "Feature", "geometry": {"type": "Point", "coordinates": [98.9884806, 18.7827235]}, "properties": {"id": "cm-osm-way-320601922", "name": "วัดฟ่อนสร้อย", "cat": ["wat"], "province": "cm"}}, {"type": "Feature", "geometry": {"type": "Point", "coordinates": [99.0351507, 18.8508353]}, "properties": {"id": "cm-osm-way-1458592077", "name": "วัดฟ้ามุ่ย", "cat": ["wat"], "province": "cm"}}, {"type": "Feature", "geometry": {"type": "Point", "coordinates": [99.0049073, 18.8043845]}, "properties": {"id": "cm-osm-way-390789320", "name": "วัดฟ้าฮ่าม", "cat": ["wat"], "province": "cm"}}, {"type": "Feature", "geometry": {"type": "Point", "coordinates": [98.9782042, 18.6996367]}, "properties": {"id": "cm-osm-node-4237120628", "name": "วัดมงคลรัตนาราม", "cat": ["wat"], "province": "cm"}}, {"type": "Feature", "geometry": {"type": "Point", "coordinates": [99.0507707, 18.6935711]}, "properties": {"id": "cm-osm-way-382968246", "name": "วัดมงคลวนาราม", "cat": ["wat"], "province": "cm"}}, {"type": "Feature", "geometry": {"type": "Point", "coordinates": [99.021057, 18.8851632]}, "properties": {"id": "cm-osm-node-3359290469", "name": "วัดมงคลเศรษฐี", "cat": ["wat"], "province": "cm"}}, {"type": "Feature", "geometry": {"type": "Point", "coordinates": [98.9955226, 18.7877176]}, "properties": {"id": "cm-osm-way-352321202", "name": "วัดมหาวัน", "cat": ["wat"], "province": "cm"}}, {"type": "Feature", "geometry": {"type": "Point", "coordinates": [98.9890837, 18.7758094]}, "properties": {"id": "cm-osm-way-668806316", "name": "วัดยางกวง", "cat": ["wat"], "province": "cm"}}, {"type": "Feature", "geometry": {"type": "Point", "coordinates": [98.9827101, 18.7951177]}, "properties": {"id": "cm-osm-way-301483293", "name": "วัดราชมณเทียร", "cat": ["wat"], "province": "cm"}}, {"type": "Feature", "geometry": {"type": "Point", "coordinates": [98.9485787, 18.7748704]}, "properties": {"id": "cm-osm-way-563172842", "name": "วัดร่ำเปิง (ตโปทาราม)", "cat": ["wat"], "province": "cm"}}, {"type": "Feature", "geometry": {"type": "Point", "coordinates": [99.0499976, 18.7502024]}, "properties": {"id": "cm-osm-way-314808635", "name": "วัดร้องดอนไชย", "cat": ["wat"], "province": "cm"}}, {"type": "Feature", "geometry": {"type": "Point", "coordinates": [99.0141562, 18.718715]}, "properties": {"id": "cm-osm-way-642809004", "name": "วัดร้องยาว", "cat": ["wat"], "province": "cm"}}, {"type": "Feature", "geometry": {"type": "Point", "coordinates": [99.0722371, 18.8523363]}, "properties": {"id": "cm-osm-node-3404898429", "name": "วัดร้องสัก", "cat": ["wat"], "province": "cm"}}, {"type": "Feature", "geometry": {"type": "Point", "coordinates": [98.9925802, 18.8524394]}, "properties": {"id": "cm-osm-way-244378291", "name": "วัดร้องอ้อ", "cat": ["wat"], "province": "cm"}}, {"type": "Feature", "geometry": {"type": "Point", "coordinates": [98.9332208, 18.7215603]}, "properties": {"id": "cm-osm-way-145082486", "name": "วัดร้อยจันทร์", "cat": ["wat"], "province": "cm"}}, {"type": "Feature", "geometry": {"type": "Point", "coordinates": [98.9968563, 18.784719]}, "properties": {"id": "cm-osm-way-360706203", "name": "วัดลอยเคราะห์", "cat": ["wat"], "province": "cm"}}, {"type": "Feature", "geometry": {"type": "Point", "coordinates": [98.9576057, 18.7254109]}, "properties": {"id": "cm-osm-way-147250097", "name": "วัดลัฏฐวนรามิb", "cat": ["wat"], "province": "cm"}}, {"type": "Feature", "geometry": {"type": "Point", "coordinates": [98.9905189, 18.7930591]}, "properties": {"id": "cm-osm-way-265150050", "name": "วัดล่ามช้าง", "cat": ["wat"], "province": "cm"}}, {"type": "Feature", "geometry": {"type": "Point", "coordinates": [98.9598469, 18.6920707]}, "properties": {"id": "cm-osm-way-532900628", "name": "วัดวรเวทย์วิสิษฐ์", "cat": ["wat"], "province": "cm"}}, {"type": "Feature", "geometry": {"type": "Point", "coordinates": [98.9851317, 18.7062113]}, "properties": {"id": "cm-osm-way-535164583", "name": "วัดวังสิงห์คำ", "cat": ["wat"], "province": "cm"}}, {"type": "Feature", "geometry": {"type": "Point", "coordinates": [98.9831268, 18.7029105]}, "properties": {"id": "cm-osm-way-574726989", "name": "วัดวังสิงห์คำ", "cat": ["wat"], "province": "cm"}}, {"type": "Feature", "geometry": {"type": "Point", "coordinates": [99.0600555, 18.7809989]}, "properties": {"id": "cm-osm-node-1121219664", "name": "วัดวารีสุทธาวาส", "cat": ["wat"], "province": "cm"}}, {"type": "Feature", "geometry": {"type": "Point", "coordinates": [98.9074389, 18.7286296]}, "properties": {"id": "cm-osm-way-355202854", "name": "วัดวุทฒิราษฏร์", "cat": ["wat"], "province": "cm"}}, {"type": "Feature", "geometry": {"type": "Point", "coordinates": [99.0609659, 18.7035943]}, "properties": {"id": "cm-osm-way-103497273", "name": "วัดศรีดอนม", "cat": ["wat"], "province": "cm"}}, {"type": "Feature", "geometry": {"type": "Point", "coordinates": [99.0004599, 18.7815126]}, "properties": {"id": "cm-osm-way-220980844", "name": "วัดศรีดอนไชย", "cat": ["wat"], "province": "cm"}}, {"type": "Feature", "geometry": {"type": "Point", "coordinates": [99.0203427, 18.8477508]}, "properties": {"id": "cm-osm-way-147530528", "name": "วัดศรีทรายมูล", "cat": ["wat"], "province": "cm"}}, {"type": "Feature", "geometry": {"type": "Point", "coordinates": [99.0425877, 18.7369718]}, "properties": {"id": "cm-osm-way-298150021", "name": "วัดศรีบุญเรือง", "cat": ["wat"], "province": "cm"}}, {"type": "Feature", "geometry": {"type": "Point", "coordinates": [98.9995699, 18.7534886]}, "properties": {"id": "cm-osm-way-390377255", "name": "วัดศรีบุญเรือง", "cat": ["wat"], "province": "cm"}}, {"type": "Feature", "geometry": {"type": "Point", "coordinates": [98.9776572, 18.8750354]}, "properties": {"id": "cm-osm-node-4418737570", "name": "วัดศรีปิงชัย", "cat": ["wat"], "province": "cm"}}, {"type": "Feature", "geometry": {"type": "Point", "coordinates": [98.9825953, 18.7713461]}, "properties": {"id": "cm-osm-way-653545558", "name": "วัดศรีปิงเมือง", "cat": ["wat"], "province": "cm"}}, {"type": "Feature", "geometry": {"type": "Point", "coordinates": [98.9889388, 18.6808602]}, "properties": {"id": "cm-osm-way-786188924", "name": "วัดศรีมูลเรือง", "cat": ["wat"], "province": "cm"}}, {"type": "Feature", "geometry": {"type": "Point", "coordinates": [98.9841703, 18.6844216]}, "properties": {"id": "cm-osm-way-1257138548", "name": "วัดศรีวารีสถาน", "cat": ["wat"], "province": "cm"}}, {"type": "Feature", "geometry": {"type": "Point", "coordinates": [99.0442696, 18.7334746]}, "properties": {"id": "cm-osm-way-145079406", "name": "วัดศรีสองเมือง", "cat": ["wat"], "province": "cm"}}, {"type": "Feature", "geometry": {"type": "Point", "coordinates": [98.9833489, 18.7786478]}, "properties": {"id": "cm-osm-way-309886989", "name": "วัดศรีสุพรรณ", "cat": ["wat"], "province": "cm"}}, {"type": "Feature", "geometry": {"type": "Point", "coordinates": [99.0011545, 18.7959186]}, "properties": {"id": "cm-osm-way-692686707", "name": "วัดศรีโขง", "cat": ["wat"], "province": "cm"}}, {"type": "Feature", "geometry": {"type": "Point", "coordinates": [98.9460034, 18.8139176]}, "properties": {"id": "cm-osm-way-205009315", "name": "วัดศรีโสดา", "cat": ["wat"], "province": "cm"}}, {"type": "Feature", "geometry": {"type": "Point", "coordinates": [98.9662195, 18.8947796]}, "properties": {"id": "cm-osm-way-255776862", "name": "วัดสมเด๊จดอยน้อย", "cat": ["wat"], "province": "cm"}}, {"type": "Feature", "geometry": {"type": "Point", "coordinates": [99.0519474, 18.7380054]}, "properties": {"id": "cm-osm-way-104668279", "name": "วัดสรีคำชมภู", "cat": ["wat"], "province": "cm"}}, {"type": "Feature", "geometry": {"type": "Point", "coordinates": [99.0404746, 18.7051157]}, "properties": {"id": "cm-osm-way-257723360", "name": "วัดสรีโพธาราม", "cat": ["wat"], "province": "cm"}}, {"type": "Feature", "geometry": {"type": "Point", "coordinates": [98.9677831, 18.7881559]}, "properties": {"id": "cm-osm-way-322604682", "name": "วัดสวนดอก", "cat": ["wat"], "province": "cm"}}, {"type": "Feature", "geometry": {"type": "Point", "coordinates": [98.9077774, 18.7599813]}, "properties": {"id": "cm-osm-node-624112307", "name": "วัดสวนพริก", "cat": ["wat"], "province": "cm"}}, {"type": "Feature", "geometry": {"type": "Point", "coordinates": [98.952722, 18.8925496]}, "properties": {"id": "cm-osm-way-742755533", "name": "วัดสว่างบรรเทิง", "cat": ["wat"], "province": "cm"}}, {"type": "Feature", "geometry": {"type": "Point", "coordinates": [98.9182622, 18.7254471]}, "properties": {"id": "cm-osm-node-2494611645", "name": "วัดสหัสสคุณ (พันเต้า)", "cat": ["wat"], "province": "cm"}}, {"type": "Feature", "geometry": {"type": "Point", "coordinates": [98.9905505, 18.6944223]}, "properties": {"id": "cm-osm-way-406931128", "name": "วัดสันกลาง", "cat": ["wat"], "province": "cm"}}, {"type": "Feature", "geometry": {"type": "Point", "coordinates": [99.0541348, 18.7718345]}, "properties": {"id": "cm-osm-way-376385595", "name": "วัดสันกลางเหนือ", "cat": ["wat"], "province": "cm"}}, {"type": "Feature", "geometry": {"type": "Point", "coordinates": [99.0553014, 18.7635365]}, "properties": {"id": "cm-osm-way-376384261", "name": "วัดสันกลางใต้", "cat": ["wat"], "province": "cm"}}, {"type": "Feature", "geometry": {"type": "Point", "coordinates": [99.034173, 18.8316281]}, "properties": {"id": "cm-osm-node-2682539767", "name": "วัดสันคะยอม", "cat": ["wat"], "province": "cm"}}, {"type": "Feature", "geometry": {"type": "Point", "coordinates": [99.0200251, 18.7446243]}, "properties": {"id": "cm-osm-way-405674200", "name": "วัดสันคือ", "cat": ["wat"], "province": "cm"}}, {"type": "Feature", "geometry": {"type": "Point", "coordinates": [98.9796538, 18.7997294]}, "properties": {"id": "cm-osm-way-692137169", "name": "วัดสันติธรรม", "cat": ["wat"], "province": "cm"}}, {"type": "Feature", "geometry": {"type": "Point", "coordinates": [98.9951229, 18.6972814]}, "properties": {"id": "cm-osm-way-146186494", "name": "วัดสันต้นกอก", "cat": ["wat"], "province": "cm"}}, {"type": "Feature", "geometry": {"type": "Point", "coordinates": [98.9987561, 18.8249038]}, "properties": {"id": "cm-osm-node-11228426107", "name": "วัดสันทรายต้นกอก", "cat": ["wat"], "province": "cm"}}, {"type": "Feature", "geometry": {"type": "Point", "coordinates": [99.0301461, 18.818014]}, "properties": {"id": "cm-osm-way-383453299", "name": "วัดสันทรายมูล", "cat": ["wat"], "province": "cm"}}, {"type": "Feature", "geometry": {"type": "Point", "coordinates": [99.0448118, 18.8524567]}, "properties": {"id": "cm-osm-way-245463411", "name": "วัดสันทรายหลวง", "cat": ["wat"], "province": "cm"}}, {"type": "Feature", "geometry": {"type": "Point", "coordinates": [99.0610056, 18.8426501]}, "properties": {"id": "cm-osm-node-3955781349", "name": "วัดสันนาเม็ง", "cat": ["wat"], "province": "cm"}}, {"type": "Feature", "geometry": {"type": "Point", "coordinates": [99.0796504, 18.8314655]}, "properties": {"id": "cm-osm-way-253811339", "name": "วัดสันปูเลย", "cat": ["wat"], "province": "cm"}}, {"type": "Feature", "geometry": {"type": "Point", "coordinates": [99.0081293, 18.7862095]}, "properties": {"id": "cm-osm-way-251579204", "name": "วัดสันป่าข่อย", "cat": ["wat"], "province": "cm"}}, {"type": "Feature", "geometry": {"type": "Point", "coordinates": [99.0767106, 18.753443]}, "properties": {"id": "cm-osm-way-95480256", "name": "วัดสันป่าค่า", "cat": ["wat"], "province": "cm"}}, {"type": "Feature", "geometry": {"type": "Point", "coordinates": [99.0282806, 18.8587449]}, "properties": {"id": "cm-osm-way-438102825", "name": "วัดสันป่าสัก", "cat": ["wat"], "province": "cm"}}, {"type": "Feature", "geometry": {"type": "Point", "coordinates": [98.9355195, 18.7146694]}, "properties": {"id": "cm-osm-node-1585328678", "name": "วัดสันป่าสักวรอุไรธรรมาราม", "cat": ["wat"], "province": "cm"}}, {"type": "Feature", "geometry": {"type": "Point", "coordinates": [99.0186349, 18.7542187]}, "properties": {"id": "cm-osm-way-355863016", "name": "วัดสันป่าเลียง", "cat": ["wat"], "province": "cm"}}, {"type": "Feature", "geometry": {"type": "Point", "coordinates": [99.0446549, 18.8048927]}, "properties": {"id": "cm-osm-way-199769536", "name": "วัดสันพระเนตร", "cat": ["wat"], "province": "cm"}}, {"type": "Feature", "geometry": {"type": "Point", "coordinates": [99.0436461, 18.8200732]}, "properties": {"id": "cm-osm-way-225234790", "name": "วัดสันศรี", "cat": ["wat"], "province": "cm"}}, {"type": "Feature", "geometry": {"type": "Point", "coordinates": [99.0734917, 18.8453728]}, "properties": {"id": "cm-osm-way-382365670", "name": "วัดสันหลวง", "cat": ["wat"], "province": "cm"}}, {"type": "Feature", "geometry": {"type": "Point", "coordinates": [99.0429247, 18.6881628]}, "properties": {"id": "cm-osm-way-679357240", "name": "วัดสารภี", "cat": ["wat"], "province": "cm"}}, {"type": "Feature", "geometry": {"type": "Point", "coordinates": [98.99058, 18.7882409]}, "properties": {"id": "cm-osm-way-691941076", "name": "วัดสำเภา", "cat": ["wat"], "province": "cm"}}, {"type": "Feature", "geometry": {"type": "Point", "coordinates": [99.0491784, 18.7858948]}, "properties": {"id": "cm-osm-node-1691878426", "name": "วัดสีมาราม", "cat": ["wat"], "province": "cm"}}, {"type": "Feature", "geometry": {"type": "Point", "coordinates": [99.0633931, 18.7288346]}, "properties": {"id": "cm-osm-way-151485480", "name": "วัดสุพรรณ", "cat": ["wat"], "province": "cm"}}, {"type": "Feature", "geometry": {"type": "Point", "coordinates": [98.9967369, 18.7901635]}, "properties": {"id": "cm-osm-node-2649612351", "name": "วัดหนองคำ", "cat": ["wat"], "province": "cm"}}, {"type": "Feature", "geometry": {"type": "Point", "coordinates": [98.9964915, 18.7903618]}, "properties": {"id": "cm-osm-way-692146706", "name": "วัดหนองคำ", "cat": ["wat"], "province": "cm"}}, {"type": "Feature", "geometry": {"type": "Point", "coordinates": [99.0227531, 18.7892048]}, "properties": {"id": "cm-osm-way-251576969", "name": "วัดหนองป่าครั่ง", "cat": ["wat"], "province": "cm"}}, {"type": "Feature", "geometry": {"type": "Point", "coordinates": [99.0508678, 18.7184338]}, "properties": {"id": "cm-osm-way-249164672", "name": "วัดหนองป่าแสะ", "cat": ["wat"], "province": "cm"}}, {"type": "Feature", "geometry": {"type": "Point", "coordinates": [99.0126251, 18.7385922]}, "properties": {"id": "cm-osm-node-3474437368", "name": "วัดหนองผึ้ง", "cat": ["wat"], "province": "cm"}}, {"type": "Feature", "geometry": {"type": "Point", "coordinates": [99.029026, 18.6799051]}, "properties": {"id": "cm-osm-way-553253715", "name": "วัดหนองสี่แจ่ง", "cat": ["wat"], "province": "cm"}}, {"type": "Feature", "geometry": {"type": "Point", "coordinates": [99.0310087, 18.8944916]}, "properties": {"id": "cm-osm-node-2613382446", "name": "วัดหนองอุโบสถ", "cat": ["wat"], "province": "cm"}}, {"type": "Feature", "geometry": {"type": "Point", "coordinates": [99.0320389, 18.8950213]}, "properties": {"id": "cm-osm-node-4592598579", "name": "วัดหนองอุโบสถ", "cat": ["wat"], "province": "cm"}}, {"type": "Feature", "geometry": {"type": "Point", "coordinates": [99.0208127, 18.6939713]}, "properties": {"id": "cm-osm-way-577423794", "name": "วัดหนองแฝก", "cat": ["wat"], "province": "cm"}}, {"type": "Feature", "geometry": {"type": "Point", "coordinates": [99.0749913, 18.76401]}, "properties": {"id": "cm-osm-way-98698313", "name": "วัดหนองโค้ง", "cat": ["wat"], "province": "cm"}}, {"type": "Feature", "geometry": {"type": "Point", "coordinates": [99.0216731, 18.8435692]}, "properties": {"id": "cm-osm-way-326847544", "name": "วัดหนองไคร้หลวง", "cat": ["wat"], "province": "cm"}}, {"type": "Feature", "geometry": {"type": "Point", "coordinates": [98.9890993, 18.7841389]}, "properties": {"id": "cm-osm-way-361100236", "name": "วัดหมื่นตุม", "cat": ["wat"], "province": "cm"}}, {"type": "Feature", "geometry": {"type": "Point", "coordinates": [98.9920859, 18.7881156]}, "properties": {"id": "cm-osm-way-356585930", "name": "วัดหมื่นล้าน", "cat": ["wat"], "province": "cm"}}, {"type": "Feature", "geometry": {"type": "Point", "coordinates": [98.9845964, 18.7770121]}, "properties": {"id": "cm-osm-way-307423269", "name": "วัดหมื่นสาร", "cat": ["wat"], "province": "cm"}}, {"type": "Feature", "geometry": {"type": "Point", "coordinates": [98.9808988, 18.7853499]}, "properties": {"id": "cm-osm-way-238829914", "name": "วัดหมื่นเงินกอง", "cat": ["wat"], "province": "cm"}}, {"type": "Feature", "geometry": {"type": "Point", "coordinates": [98.9488579, 18.8150656]}, "properties": {"id": "cm-osm-node-5257298544", "name": "วัดหมูบุ่น", "cat": ["wat"], "province": "cm"}}, {"type": "Feature", "geometry": {"type": "Point", "coordinates": [98.9853576, 18.7950121]}, "properties": {"id": "cm-osm-way-251360257", "name": "วัดหม้อคำตวง", "cat": ["wat"], "province": "cm"}}, {"type": "Feature", "geometry": {"type": "Point", "coordinates": [99.0587766, 18.8320043]}, "properties": {"id": "cm-osm-node-2604373946", "name": "วัดหลักปัน", "cat": ["wat"], "province": "cm"}}, {"type": "Feature", "geometry": {"type": "Point", "coordinates": [99.0298762, 18.6902468]}, "properties": {"id": "cm-osm-node-4120901189", "name": "วัดหวลการณ์", "cat": ["wat"], "province": "cm"}}, {"type": "Feature", "geometry": {"type": "Point", "coordinates": [99.0545073, 18.8900424]}, "properties": {"id": "cm-osm-way-146853054", "name": "วัดหองเฃาคำ", "cat": ["wat"], "province": "cm"}}, {"type": "Feature", "geometry": {"type": "Point", "coordinates": [98.9935851, 18.7735682]}, "properties": {"id": "cm-osm-way-387446970", "name": "วัดหัวฝาย", "cat": ["wat"], "province": "cm"}}, {"type": "Feature", "geometry": {"type": "Point", "coordinates": [98.9344099, 18.7958964]}, "properties": {"id": "cm-osm-node-4496869289", "name": "วัดอนาคามี", "cat": ["wat"], "province": "cm"}}, {"type": "Feature", "geometry": {"type": "Point", "coordinates": [98.9870242, 18.7895283]}, "properties": {"id": "cm-osm-way-691923149", "name": "วัดอินทขีลสะดือเมือง", "cat": ["wat"], "province": "cm"}}, {"type": "Feature", "geometry": {"type": "Point", "coordinates": [99.0013097, 18.7873796]}, "properties": {"id": "cm-osm-way-495778859", "name": "วัดอุปคุต", "cat": ["wat"], "province": "cm"}}, {"type": "Feature", "geometry": {"type": "Point", "coordinates": [98.9376511, 18.7500236]}, "properties": {"id": "cm-osm-node-3205899957", "name": "วัดอุโบสถ", "cat": ["wat"], "province": "cm"}}, {"type": "Feature", "geometry": {"type": "Point", "coordinates": [99.0495328, 18.7536614]}, "properties": {"id": "cm-osm-way-220573058", "name": "วัดอุโบสถ", "cat": ["wat"], "province": "cm"}}, {"type": "Feature", "geometry": {"type": "Point", "coordinates": [99.008033, 18.7323724]}, "properties": {"id": "cm-osm-way-796430206", "name": "วัดอุโบสถ", "cat": ["wat"], "province": "cm"}}, {"type": "Feature", "geometry": {"type": "Point", "coordinates": [98.9525787, 18.7831026]}, "properties": {"id": "cm-osm-node-1445519684", "name": "วัดอุโมงค์(สวนพุทธรรม)", "cat": ["wat"], "province": "cm"}}, {"type": "Feature", "geometry": {"type": "Point", "coordinates": [98.989887, 18.789464]}, "properties": {"id": "cm-osm-way-383205231", "name": "วัดอุโมงค์มหาเถรจันทร์", "cat": ["wat"], "province": "cm"}}, {"type": "Feature", "geometry": {"type": "Point", "coordinates": [98.9946251, 18.7895235]}, "properties": {"id": "cm-osm-way-650706596", "name": "วัดอู่ทรายคำ", "cat": ["wat"], "province": "cm"}}, {"type": "Feature", "geometry": {"type": "Point", "coordinates": [99.002695, 18.7924738]}, "properties": {"id": "cm-osm-way-528019093", "name": "วัดเกตการาม", "cat": ["wat"], "province": "cm"}}, {"type": "Feature", "geometry": {"type": "Point", "coordinates": [98.984369, 18.7414786]}, "properties": {"id": "cm-osm-node-1014323487", "name": "วัดเกาะกลาง", "cat": ["wat"], "province": "cm"}}, {"type": "Feature", "geometry": {"type": "Point", "coordinates": [98.9957332, 18.7537478]}, "properties": {"id": "cm-osm-way-261636339", "name": "วัดเจดีย์เหลี่ยม", "cat": ["wat"], "province": "cm"}}, {"type": "Feature", "geometry": {"type": "Point", "coordinates": [99.059107, 18.8001269]}, "properties": {"id": "cm-osm-way-96938507", "name": "วัดเจติยานุสรณ์", "cat": ["wat"], "province": "cm"}}, {"type": "Feature", "geometry": {"type": "Point", "coordinates": [98.9721682, 18.8090617]}, "properties": {"id": "cm-osm-way-314697470", "name": "วัดเจ็ดยอด", "cat": ["wat"], "province": "cm"}}, {"type": "Feature", "geometry": {"type": "Point", "coordinates": [98.987883, 18.7838117]}, "properties": {"id": "cm-osm-way-297359944", "name": "วัดเจ็ดลิน", "cat": ["wat"], "province": "cm"}}, {"type": "Feature", "geometry": {"type": "Point", "coordinates": [99.0557003, 18.8152096]}, "properties": {"id": "cm-osm-node-4609435362", "name": "วัดเชฏฐาวรคุปต์", "cat": ["wat"], "province": "cm"}}, {"type": "Feature", "geometry": {"type": "Point", "coordinates": [98.9956947, 18.7885486]}, "properties": {"id": "cm-osm-way-308548477", "name": "วัดเชตวัน", "cat": ["wat"], "province": "cm"}}, {"type": "Feature", "geometry": {"type": "Point", "coordinates": [99.0036226, 18.7975465]}, "properties": {"id": "cm-osm-way-189056074", "name": "วัดเชตุพน", "cat": ["wat"], "province": "cm"}}, {"type": "Feature", "geometry": {"type": "Point", "coordinates": [99.0399381, 18.7506812]}, "properties": {"id": "cm-osm-way-375531926", "name": "วัดเชียงขาง", "cat": ["wat"], "province": "cm"}}, {"type": "Feature", "geometry": {"type": "Point", "coordinates": [98.9887797, 18.7963246]}, "properties": {"id": "cm-osm-node-1445519685", "name": "วัดเชียงยืน", "cat": ["wat"], "province": "cm"}}, {"type": "Feature", "geometry": {"type": "Point", "coordinates": [98.9820758, 18.8072959]}, "properties": {"id": "cm-osm-node-2142584557", "name": "วัดเชียงโฉม", "cat": ["wat"], "province": "cm"}}, {"type": "Feature", "geometry": {"type": "Point", "coordinates": [98.9787683, 18.7854865]}, "properties": {"id": "cm-osm-way-691945180", "name": "วัดเมธัง", "cat": ["wat"], "province": "cm"}}, {"type": "Feature", "geometry": {"type": "Point", "coordinates": [99.0110945, 18.7743406]}, "properties": {"id": "cm-osm-node-2648502947", "name": "วัดเมืองกาย", "cat": ["wat"], "province": "cm"}}, {"type": "Feature", "geometry": {"type": "Point", "coordinates": [99.0678364, 18.8785009]}, "properties": {"id": "cm-osm-way-144194426", "name": "วัดเมืองขอน", "cat": ["wat"], "province": "cm"}}, {"type": "Feature", "geometry": {"type": "Point", "coordinates": [98.9913682, 18.7802036]}, "properties": {"id": "cm-osm-way-294470220", "name": "วัดเมืองมาง", "cat": ["wat"], "province": "cm"}}, {"type": "Feature", "geometry": {"type": "Point", "coordinates": [98.9952049, 18.8204333]}, "properties": {"id": "cm-osm-way-525728485", "name": "วัดเมืองลัง", "cat": ["wat"], "province": "cm"}}, {"type": "Feature", "geometry": {"type": "Point", "coordinates": [99.0745959, 18.8811489]}, "properties": {"id": "cm-osm-way-146854911", "name": "วัดเมืองวะ", "cat": ["wat"], "province": "cm"}}, {"type": "Feature", "geometry": {"type": "Point", "coordinates": [99.0157816, 18.7645796]}, "properties": {"id": "cm-osm-way-390331056", "name": "วัดเมืองสาตรน้อย", "cat": ["wat"], "province": "cm"}}, {"type": "Feature", "geometry": {"type": "Point", "coordinates": [99.0122792, 18.76598]}, "properties": {"id": "cm-osm-node-2610146256", "name": "วัดเมืองสาตรหลวง", "cat": ["wat"], "province": "cm"}}, {"type": "Feature", "geometry": {"type": "Point", "coordinates": [99.0728007, 18.8690584]}, "properties": {"id": "cm-osm-way-146856828", "name": "วัดเมืองเล็น", "cat": ["wat"], "province": "cm"}}, {"type": "Feature", "geometry": {"type": "Point", "coordinates": [99.0276825, 18.717336]}, "properties": {"id": "cm-osm-node-4111339606", "name": "วัดเวฬุวัน", "cat": ["wat"], "province": "cm"}}, {"type": "Feature", "geometry": {"type": "Point", "coordinates": [99.0026341, 18.7536192]}, "properties": {"id": "cm-osm-way-104636963", "name": "วัดเสาหิน", "cat": ["wat"], "province": "cm"}}, {"type": "Feature", "geometry": {"type": "Point", "coordinates": [99.0517403, 18.8279329]}, "properties": {"id": "cm-osm-way-1031055148", "name": "วัดแม่กวง", "cat": ["wat"], "province": "cm"}}, {"type": "Feature", "geometry": {"type": "Point", "coordinates": [99.0286589, 18.8034175]}, "properties": {"id": "cm-osm-node-8608392272", "name": "วัดแม่คาว", "cat": ["wat"], "province": "cm"}}, {"type": "Feature", "geometry": {"type": "Point", "coordinates": [99.0445135, 18.8324146]}, "properties": {"id": "cm-osm-node-2615684340", "name": "วัดแม่ย่อยหลวง", "cat": ["wat"], "province": "cm"}}, {"type": "Feature", "geometry": {"type": "Point", "coordinates": [99.0618708, 18.6809406]}, "properties": {"id": "cm-osm-way-122483975", "name": "วัดแม่สะลาบ", "cat": ["wat"], "province": "cm"}}, {"type": "Feature", "geometry": {"type": "Point", "coordinates": [98.9625282, 18.8914842]}, "properties": {"id": "cm-osm-way-1458662000", "name": "วัดแม่สาหลวง", "cat": ["wat"], "province": "cm"}}, {"type": "Feature", "geometry": {"type": "Point", "coordinates": [98.977074, 18.8381679]}, "properties": {"id": "cm-osm-way-746949625", "name": "วัดแม่หยวก", "cat": ["wat"], "province": "cm"}}, {"type": "Feature", "geometry": {"type": "Point", "coordinates": [99.0366144, 18.8782048]}, "properties": {"id": "cm-osm-way-1028254441", "name": "วัดแม่แก้ดน้อย", "cat": ["wat"], "province": "cm"}}, {"type": "Feature", "geometry": {"type": "Point", "coordinates": [98.9987657, 18.7890964]}, "properties": {"id": "cm-osm-way-308548856", "name": "วัดแสนฝาง", "cat": ["wat"], "province": "cm"}}, {"type": "Feature", "geometry": {"type": "Point", "coordinates": [99.0395654, 18.7117285]}, "properties": {"id": "cm-osm-node-4509361887", "name": "วัดแสนหลวง", "cat": ["wat"], "province": "cm"}}, {"type": "Feature", "geometry": {"type": "Point", "coordinates": [98.9863562, 18.7940092]}, "properties": {"id": "cm-osm-way-251437025", "name": "วัดแสนเมืองมาหลวง", "cat": ["wat"], "province": "cm"}}, {"type": "Feature", "geometry": {"type": "Point", "coordinates": [98.9448858, 18.7708486]}, "properties": {"id": "cm-osm-node-2650685295", "name": "วัดโป่งน้อย", "cat": ["wat"], "province": "cm"}}, {"type": "Feature", "geometry": {"type": "Point", "coordinates": [98.9242161, 18.7264641]}, "properties": {"id": "cm-osm-node-2518154683", "name": "วัดโพธิพิชิต", "cat": ["wat"], "province": "cm"}}, {"type": "Feature", "geometry": {"type": "Point", "coordinates": [99.0433314, 18.7618035]}, "properties": {"id": "cm-osm-node-1684553068", "name": "วัดโพธิมงคล", "cat": ["wat"], "province": "cm"}}, {"type": "Feature", "geometry": {"type": "Point", "coordinates": [98.9825691, 18.7964151]}, "properties": {"id": "cm-osm-way-692137164", "name": "วัดโลกโมฬี", "cat": ["wat"], "province": "cm"}}, {"type": "Feature", "geometry": {"type": "Point", "coordinates": [98.9647516, 18.8620351]}, "properties": {"id": "cm-osm-way-1461422069", "name": "วัดโสภานาราม", "cat": ["wat"], "province": "cm"}}, {"type": "Feature", "geometry": {"type": "Point", "coordinates": [98.9425534, 18.7625211]}, "properties": {"id": "cm-osm-node-1602165380", "name": "วัดใหม่ห้วยทราย", "cat": ["wat"], "province": "cm"}}, {"type": "Feature", "geometry": {"type": "Point", "coordinates": [98.9933222, 18.7289778]}, "properties": {"id": "cm-osm-node-2862251170", "name": "วัดไชยมงคล", "cat": ["wat"], "province": "cm"}}, {"type": "Feature", "geometry": {"type": "Point", "coordinates": [98.9745939, 18.7895407]}, "properties": {"id": "cm-osm-way-813094863", "name": "วิหารหลวงพ่อทันใจ พระครูบาเจ้าเทือง นาถสีโล", "cat": ["wat"], "province": "cm"}}, {"type": "Feature", "geometry": {"type": "Point", "coordinates": [98.9494864, 18.8097257]}, "properties": {"id": "cm-osm-node-11370436480", "name": "ศาลพระภูมิ", "cat": ["wat"], "province": "cm"}}, {"type": "Feature", "geometry": {"type": "Point", "coordinates": [98.952761, 18.8048942]}, "properties": {"id": "cm-osm-way-311213404", "name": "ศาลาธรรม", "cat": ["wat"], "province": "cm"}}, {"type": "Feature", "geometry": {"type": "Point", "coordinates": [98.9748352, 18.7107578]}, "properties": {"id": "cm-osm-node-4677874013", "name": "ศาลาพระเจ้ามรกตนิรมิต", "cat": ["wat"], "province": "cm"}}, {"type": "Feature", "geometry": {"type": "Point", "coordinates": [98.9928381, 18.7818202]}, "properties": {"id": "cm-osm-node-11226861564", "name": "ศาลเจ้าพ่อหลักเมืองแจ่งกระต๊ำ", "cat": ["wat"], "province": "cm"}}, {"type": "Feature", "geometry": {"type": "Point", "coordinates": [98.9960802, 18.7978735]}, "properties": {"id": "cm-osm-node-4537566043", "name": "สมาคมพุทธภาวนาบุญสถาน", "cat": ["wat"], "province": "cm"}}, {"type": "Feature", "geometry": {"type": "Point", "coordinates": [98.9070154, 18.8432569]}, "properties": {"id": "cm-osm-node-6533745587", "name": "สำนักสงฆ์บ้านขุนช่างเคี่ยน", "cat": ["wat"], "province": "cm"}}, {"type": "Feature", "geometry": {"type": "Point", "coordinates": [99.0426948, 18.6864133]}, "properties": {"id": "cm-osm-way-700635985", "name": "สุสานปิงห่าง", "cat": ["wat"], "province": "cm"}}, {"type": "Feature", "geometry": {"type": "Point", "coordinates": [98.9223817, 18.7529741]}, "properties": {"id": "cm-osm-node-935358254", "name": "หอคำหลวง", "cat": ["wat"], "province": "cm"}}, {"type": "Feature", "geometry": {"type": "Point", "coordinates": [98.9542196, 18.7942614]}, "properties": {"id": "cm-osm-way-810358530", "name": "หอสมเด็จพระพุทธปัญญาธรรม", "cat": ["wat"], "province": "cm"}}, {"type": "Feature", "geometry": {"type": "Point", "coordinates": [98.9904913, 18.7991466]}, "properties": {"id": "cm-osm-way-250690123", "name": "เทพมณเฑียร", "cat": ["wat"], "province": "cm"}}, {"type": "Feature", "geometry": {"type": "Point", "coordinates": [99.0222127, 18.7495374]}, "properties": {"id": "cm-osm-way-333979908", "name": "ไท่หลินฝอเอวี้ยน", "cat": ["wat"], "province": "cm"}}]}