{"type": "FeatureCollection", "features": [{"type": "Feature", "geometry": {"type": "Point", "coordinates": [99.83283, 19.91144]}, "properties": {"id": "cr-osm-way-963829106", "name": "Sunthorn Charoensuawn Lawyer Office", "nameTh": "สำนักงาน สุนทร เจริญศรวล ทนายความ", "nameEn": "Sunthorn Charoensuawn Lawyer Office", "cat": ["business"], "province": "cr", "slug": "sunthorn-charoensuawn-lawyer-office-963829106", "rank": 2}}, {"type": "Feature", "geometry": {"type": "Point", "coordinates": [99.82463, 19.9039]}, "properties": {"id": "cr-osm-node-8957462325", "name": "acct concept", "nameTh": null, "nameEn": "acct concept", "cat": ["business"], "province": "cr", "slug": "acct-concept-8957462325", "rank": 1}}, {"type": "Feature", "geometry": {"type": "Point", "coordinates": [99.86016, 19.91284]}, "properties": {"id": "cr-osm-node-10303934910", "name": "ทีเจ มอลล์ ค้าส่ง", "nameTh": "ทีเจ มอลล์ ค้าส่ง", "nameEn": "TJ Mall", "cat": ["business"], "province": "cr", "slug": "tj-mall-10303934910", "rank": 2}}, {"type": "Feature", "geometry": {"type": "Point", "coordinates": [99.84436, 19.92478]}, "properties": {"id": "cr-osm-node-13810099368", "name": "บริษัท ที พลัส เซอร์วิส แอนด์ แอสเซท จำกัด", "nameTh": "บริษัท ที พลัส เซอร์วิส แอนด์ แอสเซท จำกัด", "nameEn": null, "cat": ["business"], "province": "cr", "slug": "13810099368", "rank": 3}}, {"type": "Feature", "geometry": {"type": "Point", "coordinates": [99.82597, 19.90783]}, "properties": {"id": "cr-osm-way-960771475", "name": "พัฒนกิจ จักร์สุวรรณ์ ทนายความ", "nameTh": "พัฒนกิจ จักร์สุวรรณ์ ทนายความ", "nameEn": "Pattanakit Jaksuwan Lawyer Office", "cat": ["business"], "province": "cr", "slug": "pattanakit-jaksuwan-lawyer-office-960771475", "rank": 2}}, {"type": "Feature", "geometry": {"type": "Point", "coordinates": [99.83213, 19.89933]}, "properties": {"id": "cr-osm-way-1075278725", "name": "สนง. บัญชีผดุงศักดิ์และเพื่อน", "nameTh": "สนง. บัญชีผดุงศักดิ์และเพื่อน", "nameEn": "Padungsak and Friends Accounting", "cat": ["business"], "province": "cr", "slug": "padungsak-and-friends-accounting-1075278725", "rank": 4}}, {"type": "Feature", "geometry": {"type": "Point", "coordinates": [99.8255, 19.90776]}, "properties": {"id": "cr-osm-way-960771470", "name": "สำนักงาน นิติธรรม-ธุรกิจ ทนายตวาม", "nameTh": "สำนักงาน นิติธรรม-ธุรกิจ ทนายตวาม", "nameEn": "Niti Drumma Thurakit Lawyer Office", "cat": ["business"], "province": "cr", "slug": "niti-drumma-thurakit-lawyer-office-960771470", "rank": 2}}, {"type": "Feature", "geometry": {"type": "Point", "coordinates": [99.7435, 19.55213]}, "properties": {"id": "cr-osm-way-1469683070", "name": "สำนักงานกฎหมายสามัญชน", "nameTh": "สำนักงานกฎหมายสามัญชน", "nameEn": null, "cat": ["business"], "province": "cr", "slug": "1469683070", "rank": 3}}, {"type": "Feature", "geometry": {"type": "Point", "coordinates": [99.84283, 19.91323]}, "properties": {"id": "cr-osm-node-4530908725", "name": "สำนักงานบังคับคดี จังหวัดเชียงราย", "nameTh": "สำนักงานบังคับคดี จังหวัดเชียงราย", "nameEn": "Chiang Rai Legal Execution Office", "cat": ["business"], "province": "cr", "slug": "chiang-rai-legal-execution-office-4530908725", "rank": 2}}, {"type": "Feature", "geometry": {"type": "Point", "coordinates": [99.85284, 19.9567]}, "properties": {"id": "cr-osm-way-104968668", "name": "แม็คโคร", "nameTh": "แม็คโคร", "nameEn": "Makro", "cat": ["business"], "province": "cr", "slug": "makro-104968668", "rank": 3}}]}