{"type": "FeatureCollection", "features": [{"type": "Feature", "geometry": {"type": "Point", "coordinates": [99.86064, 19.97722]}, "properties": {"id": "cr-osm-node-7238538103", "name": "1993 barber shop", "nameTh": null, "nameEn": "1993 barber shop", "cat": ["beauty"], "province": "cr", "slug": "1993-barber-shop-7238538103", "rank": 1}}, {"type": "Feature", "geometry": {"type": "Point", "coordinates": [99.86064, 19.97719]}, "properties": {"id": "cr-osm-way-775915844", "name": "1993 barber shop", "nameTh": null, "nameEn": "1993 barber shop", "cat": ["beauty"], "province": "cr", "slug": "1993-barber-shop-775915844", "rank": 1}}, {"type": "Feature", "geometry": {"type": "Point", "coordinates": [99.82124, 19.9064]}, "properties": {"id": "cr-osm-way-960685166", "name": "8@9 Barber", "nameTh": null, "nameEn": "8@9 Barber", "cat": ["beauty"], "province": "cr", "slug": "8-9-barber-960685166", "rank": 1}}, {"type": "Feature", "geometry": {"type": "Point", "coordinates": [99.81853, 19.90467]}, "properties": {"id": "cr-osm-way-1066147882", "name": "Acut Above", "nameTh": null, "nameEn": "Acut Above", "cat": ["beauty"], "province": "cr", "slug": "acut-above-1066147882", "rank": 1}}, {"type": "Feature", "geometry": {"type": "Point", "coordinates": [100.40631, 20.26487]}, "properties": {"id": "cr-osm-node-7012871586", "name": "Barber", "nameTh": null, "nameEn": "Barber", "cat": ["beauty"], "province": "cr", "slug": "barber-7012871586", "rank": 1}}, {"type": "Feature", "geometry": {"type": "Point", "coordinates": [99.82819, 19.9102]}, "properties": {"id": "cr-osm-node-4717894990", "name": "Barber Shop", "nameTh": null, "nameEn": "Barber Shop", "cat": ["beauty"], "province": "cr", "slug": "barber-shop-4717894990", "rank": 1}}, {"type": "Feature", "geometry": {"type": "Point", "coordinates": [100.40595, 20.26593]}, "properties": {"id": "cr-osm-node-4693751298", "name": "Beauty Dai", "nameTh": null, "nameEn": "Beauty Dai", "cat": ["beauty"], "province": "cr", "slug": "beauty-dai-4693751298", "rank": 1}}, {"type": "Feature", "geometry": {"type": "Point", "coordinates": [100.25662, 19.84426]}, "properties": {"id": "cr-osm-node-7608659185", "name": "Beauty Salon & Spring Rolls", "nameTh": null, "nameEn": "Beauty Salon & Spring Rolls", "cat": ["beauty"], "province": "cr", "slug": "beauty-salon-spring-rolls-7608659185", "rank": 1}}, {"type": "Feature", "geometry": {"type": "Point", "coordinates": [99.82872, 19.908]}, "properties": {"id": "cr-osm-way-960934924", "name": "Cut & Dew", "nameTh": "คัท ฿ ดิว", "nameEn": "Cut & Dew", "cat": ["beauty"], "province": "cr", "slug": "cut-dew-960934924", "rank": 2}}, {"type": "Feature", "geometry": {"type": "Point", "coordinates": [99.83615, 19.90672]}, "properties": {"id": "cr-osm-node-5470310924", "name": "Daddy Good", "nameTh": null, "nameEn": "Daddy Good", "cat": ["beauty"], "province": "cr", "slug": "daddy-good-5470310924", "rank": 3}}, {"type": "Feature", "geometry": {"type": "Point", "coordinates": [99.83448, 19.90083]}, "properties": {"id": "cr-osm-node-5416418722", "name": "Haircut", "nameTh": null, "nameEn": "Haircut", "cat": ["beauty"], "province": "cr", "slug": "haircut-5416418722", "rank": 1}}, {"type": "Feature", "geometry": {"type": "Point", "coordinates": [99.83125, 19.90612]}, "properties": {"id": "cr-osm-node-4736153522", "name": "Lemme 184 Barbershop Gentlemen only", "nameTh": null, "nameEn": "Lemme 184 Barbershop Gentlemen only", "cat": ["beauty"], "province": "cr", "slug": "lemme-184-barbershop-gentlemen-only-4736153522", "rank": 2}}, {"type": "Feature", "geometry": {"type": "Point", "coordinates": [99.82072, 19.90106]}, "properties": {"id": "cr-osm-node-6635204799", "name": "Man Smiles Cut barbershop", "nameTh": null, "nameEn": "Man Smiles Cut barbershop", "cat": ["beauty"], "province": "cr", "slug": "man-smiles-cut-barbershop-6635204799", "rank": 1}}, {"type": "Feature", "geometry": {"type": "Point", "coordinates": [99.51801, 19.21038]}, "properties": {"id": "cr-osm-node-4945349424", "name": "Massage", "nameTh": "Massage", "nameEn": null, "cat": ["beauty"], "province": "cr", "slug": "massage-4945349424", "rank": 1}}, {"type": "Feature", "geometry": {"type": "Point", "coordinates": [99.81959, 19.89609]}, "properties": {"id": "cr-osm-node-6635204720", "name": "Mee my soap", "nameTh": null, "nameEn": "Mee my soap", "cat": ["beauty"], "province": "cr", "slug": "mee-my-soap-6635204720", "rank": 1}}, {"type": "Feature", "geometry": {"type": "Point", "coordinates": [99.82894, 19.90744]}, "properties": {"id": "cr-osm-way-960934940", "name": "Meow Salon", "nameTh": "เสริมสวยเหมียว", "nameEn": "Meow Salon", "cat": ["beauty"], "province": "cr", "slug": "meow-salon-960934940", "rank": 2}}, {"type": "Feature", "geometry": {"type": "Point", "coordinates": [99.949, 19.82876]}, "properties": {"id": "cr-osm-node-7931699285", "name": "Museflower Retreat and Spa", "nameTh": null, "nameEn": "Museflower Retreat and Spa", "cat": ["beauty", "sport"], "province": "cr", "slug": "museflower-retreat-and-spa-7931699285", "rank": 3}}, {"type": "Feature", "geometry": {"type": "Point", "coordinates": [99.82588, 19.90782]}, "properties": {"id": "cr-osm-way-960771473", "name": "Pink Hair Cut 1", "nameTh": null, "nameEn": "Pink Hair Cut 1", "cat": ["beauty"], "province": "cr", "slug": "pink-hair-cut-1-960771473", "rank": 1}}, {"type": "Feature", "geometry": {"type": "Point", "coordinates": [99.8277, 19.9084]}, "properties": {"id": "cr-osm-way-960771433", "name": "Pink Salon", "nameTh": null, "nameEn": "Pink Salon", "cat": ["beauty"], "province": "cr", "slug": "pink-salon-960771433", "rank": 1}}, {"type": "Feature", "geometry": {"type": "Point", "coordinates": [99.82871, 19.90807]}, "properties": {"id": "cr-osm-way-960934923", "name": "Rebel House Barber Shop", "nameTh": null, "nameEn": "Rebel House Barber Shop", "cat": ["beauty"], "province": "cr", "slug": "rebel-house-barber-shop-960934923", "rank": 1}}, {"type": "Feature", "geometry": {"type": "Point", "coordinates": [100.40774, 20.25816]}, "properties": {"id": "cr-osm-node-4465801001", "name": "Spa & Massage", "nameTh": null, "nameEn": "Spa & Massage", "cat": ["beauty"], "province": "cr", "slug": "spa-massage-4465801001", "rank": 1}}, {"type": "Feature", "geometry": {"type": "Point", "coordinates": [99.83327, 19.90638]}, "properties": {"id": "cr-osm-node-6119141486", "name": "Spinomad Hostel", "nameTh": null, "nameEn": "Spinomad Hostel", "cat": ["beauty", "hotel"], "province": "cr", "slug": "spinomad-hostel-6119141486", "rank": 1}}, {"type": "Feature", "geometry": {"type": "Point", "coordinates": [100.40672, 20.25491]}, "properties": {"id": "cr-osm-node-4693784290", "name": "Terminal hair style", "nameTh": null, "nameEn": "Terminal hair style", "cat": ["beauty"], "province": "cr", "slug": "terminal-hair-style-4693784290", "rank": 1}}, {"type": "Feature", "geometry": {"type": "Point", "coordinates": [99.82297, 19.90716]}, "properties": {"id": "cr-osm-way-960685140", "name": "The Nail Box", "nameTh": null, "nameEn": "The Nail Box", "cat": ["beauty"], "province": "cr", "slug": "the-nail-box-960685140", "rank": 2}}, {"type": "Feature", "geometry": {"type": "Point", "coordinates": [99.83332, 19.90675]}, "properties": {"id": "cr-osm-node-5293902422", "name": "The winning salon hairdresser", "nameTh": null, "nameEn": "The winning salon hairdresser", "cat": ["beauty"], "province": "cr", "slug": "the-winning-salon-hairdresser-5293902422", "rank": 3}}, {"type": "Feature", "geometry": {"type": "Point", "coordinates": [99.8785, 20.32506]}, "properties": {"id": "cr-osm-node-5260290180", "name": "Ton Aoi Beauty Salon", "nameTh": null, "nameEn": "Ton Aoi Beauty Salon", "cat": ["beauty"], "province": "cr", "slug": "ton-aoi-beauty-salon-5260290180", "rank": 2}}, {"type": "Feature", "geometry": {"type": "Point", "coordinates": [99.84472, 19.93664]}, "properties": {"id": "cr-osm-way-1167476721", "name": "กิฟฟารีน เชียงราย", "nameTh": "กิฟฟารีน เชียงราย", "nameEn": "Giffarine Chiang Rai", "cat": ["beauty"], "province": "cr", "slug": "giffarine-chiang-rai-1167476721", "rank": 2}}, {"type": "Feature", "geometry": {"type": "Point", "coordinates": [99.86136, 20.13407]}, "properties": {"id": "cr-osm-node-2148609273", "name": "คำมูล เสริมสวย", "nameTh": "คำมูล เสริมสวย", "nameEn": null, "cat": ["beauty"], "province": "cr", "slug": "2148609273", "rank": 1}}, {"type": "Feature", "geometry": {"type": "Point", "coordinates": [99.82044, 19.90615]}, "properties": {"id": "cr-osm-way-960685184", "name": "จี-ซ่า แฮร์ดีไซน์", "nameTh": "จี-ซ่า แฮร์ดีไซน์", "nameEn": "G-ZA Hair Design", "cat": ["beauty"], "province": "cr", "slug": "g-za-hair-design-960685184", "rank": 2}}, {"type": "Feature", "geometry": {"type": "Point", "coordinates": [99.85312, 20.14575]}, "properties": {"id": "cr-osm-node-2148617370", "name": "ช้องนาง", "nameTh": "ช้องนาง", "nameEn": null, "cat": ["beauty"], "province": "cr", "slug": "2148617370", "rank": 2}}, {"type": "Feature", "geometry": {"type": "Point", "coordinates": [99.79398, 20.11641]}, "properties": {"id": "cr-osm-node-2148615704", "name": "ฐิติรัตน์ เสริมสวย", "nameTh": "ฐิติรัตน์ เสริมสวย", "nameEn": null, "cat": ["beauty"], "province": "cr", "slug": "2148615704", "rank": 1}}, {"type": "Feature", "geometry": {"type": "Point", "coordinates": [99.81904, 19.90493]}, "properties": {"id": "cr-osm-node-9121752696", "name": "ดรีม ซาลอน", "nameTh": "ดรีม ซาลอน", "nameEn": "Dream Salon", "cat": ["beauty"], "province": "cr", "slug": "dream-salon-9121752696", "rank": 3}}, {"type": "Feature", "geometry": {"type": "Point", "coordinates": [99.85609, 20.14906]}, "properties": {"id": "cr-osm-node-2148639721", "name": "ดวงดีเกษา", "nameTh": "ดวงดีเกษา", "nameEn": null, "cat": ["beauty"], "province": "cr", "slug": "2148639721", "rank": 1}}, {"type": "Feature", "geometry": {"type": "Point", "coordinates": [99.85301, 20.14433]}, "properties": {"id": "cr-osm-node-2148577327", "name": "ดาวรุ่ง", "nameTh": "ดาวรุ่ง", "nameEn": null, "cat": ["beauty"], "province": "cr", "slug": "2148577327", "rank": 2}}, {"type": "Feature", "geometry": {"type": "Point", "coordinates": [99.84845, 20.14372]}, "properties": {"id": "cr-osm-node-2148634165", "name": "ตัดผม", "nameTh": "ตัดผม", "nameEn": null, "cat": ["beauty"], "province": "cr", "slug": "2148634165", "rank": 1}}, {"type": "Feature", "geometry": {"type": "Point", "coordinates": [99.85459, 20.14844]}, "properties": {"id": "cr-osm-node-2148622829", "name": "ตัดผมชาย", "nameTh": "ตัดผมชาย", "nameEn": null, "cat": ["beauty"], "province": "cr", "slug": "2148622829", "rank": 1}}, {"type": "Feature", "geometry": {"type": "Point", "coordinates": [99.85431, 20.14989]}, "properties": {"id": "cr-osm-node-2148650353", "name": "ตัดผมชาย", "nameTh": "ตัดผมชาย", "nameEn": null, "cat": ["beauty"], "province": "cr", "slug": "2148650353", "rank": 1}}, {"type": "Feature", "geometry": {"type": "Point", "coordinates": [99.82477, 19.90446]}, "properties": {"id": "cr-osm-node-8957462393", "name": "ตัดผมชาย", "nameTh": "ตัดผมชาย", "nameEn": "Male Haircut", "cat": ["beauty"], "province": "cr", "slug": "male-haircut-8957462393", "rank": 2}}, {"type": "Feature", "geometry": {"type": "Point", "coordinates": [99.81904, 19.90497]}, "properties": {"id": "cr-osm-node-9121752695", "name": "ตัดผมชาย", "nameTh": "ตัดผมชาย", "nameEn": null, "cat": ["beauty"], "province": "cr", "slug": "9121752695", "rank": 1}}, {"type": "Feature", "geometry": {"type": "Point", "coordinates": [99.8141, 19.90351]}, "properties": {"id": "cr-osm-node-9166322478", "name": "ตัดผมชาย", "nameTh": "ตัดผมชาย", "nameEn": "men's haircut", "cat": ["beauty"], "province": "cr", "slug": "men-s-haircut-9166322478", "rank": 2}}, {"type": "Feature", "geometry": {"type": "Point", "coordinates": [99.82756, 19.90842]}, "properties": {"id": "cr-osm-way-960771435", "name": "ตัดผมชาย", "nameTh": "ตัดผมชาย", "nameEn": "Tud Phom Chai", "cat": ["beauty"], "province": "cr", "slug": "tud-phom-chai-960771435", "rank": 2}}, {"type": "Feature", "geometry": {"type": "Point", "coordinates": [99.85416, 20.14965]}, "properties": {"id": "cr-osm-node-2148650356", "name": "นวพรบิวตี้", "nameTh": "นวพรบิวตี้", "nameEn": null, "cat": ["beauty"], "province": "cr", "slug": "2148650356", "rank": 1}}, {"type": "Feature", "geometry": {"type": "Point", "coordinates": [99.82744, 19.90806]}, "properties": {"id": "cr-osm-way-960771497", "name": "นิวแฮร์คัท", "nameTh": "นิวแฮร์คัท", "nameEn": "New Haircut", "cat": ["beauty"], "province": "cr", "slug": "new-haircut-960771497", "rank": 2}}, {"type": "Feature", "geometry": {"type": "Point", "coordinates": [99.84198, 19.90252]}, "properties": {"id": "cr-osm-node-13637594601", "name": "นุ้ยหนุ่ย แว๊กซ์ขน และ สปา", "nameTh": "นุ้ยหนุ่ย แว๊กซ์ขน และ สปา", "nameEn": "Nuynui Waxing and Spa", "cat": ["beauty"], "province": "cr", "slug": "nuynui-waxing-and-spa-13637594601", "rank": 4}}, {"type": "Feature", "geometry": {"type": "Point", "coordinates": [99.83874, 19.91544]}, "properties": {"id": "cr-osm-node-10199601227", "name": "น้อยแอร์เทค", "nameTh": "น้อยแอร์เทค", "nameEn": "Noi Hair Take", "cat": ["beauty"], "province": "cr", "slug": "noi-hair-take-10199601227", "rank": 2}}, {"type": "Feature", "geometry": {"type": "Point", "coordinates": [99.82078, 19.90663]}, "properties": {"id": "cr-osm-way-960625760", "name": "น้ำ เสริมสวย", "nameTh": "น้ำ เสริมสวย", "nameEn": "Nam Salon", "cat": ["beauty"], "province": "cr", "slug": "nam-salon-960625760", "rank": 2}}, {"type": "Feature", "geometry": {"type": "Point", "coordinates": [99.85149, 20.14819]}, "properties": {"id": "cr-osm-node-2148616619", "name": "บังอร", "nameTh": "บังอร", "nameEn": null, "cat": ["beauty"], "province": "cr", "slug": "2148616619", "rank": 1}}, {"type": "Feature", "geometry": {"type": "Point", "coordinates": [99.89255, 20.43781]}, "properties": {"id": "cr-osm-way-406795422", "name": "ปุ๊ บาร์เบอร์", "nameTh": "ปุ๊ บาร์เบอร์", "nameEn": null, "cat": ["beauty"], "province": "cr", "slug": "406795422", "rank": 2}}, {"type": "Feature", "geometry": {"type": "Point", "coordinates": [99.82688, 19.90828]}, "properties": {"id": "cr-osm-way-960771448", "name": "ผมทอง", "nameTh": "ผมทอง", "nameEn": "Phom Tong", "cat": ["beauty"], "province": "cr", "slug": "phom-tong-960771448", "rank": 2}}, {"type": "Feature", "geometry": {"type": "Point", "coordinates": [99.83988, 19.91636]}, "properties": {"id": "cr-osm-way-1117776698", "name": "พูนสวัสดิ์", "nameTh": "พูนสวัสดิ์", "nameEn": "Poonsawas", "cat": ["beauty"], "province": "cr", "slug": "poonsawas-1117776698", "rank": 2}}, {"type": "Feature", "geometry": {"type": "Point", "coordinates": [99.82106, 19.90637]}, "properties": {"id": "cr-osm-way-960685171", "name": "ฟ้า บิวตี้", "nameTh": "ฟ้า บิวตี้", "nameEn": "Pha Beauty", "cat": ["beauty"], "province": "cr", "slug": "pha-beauty-960685171", "rank": 2}}, {"type": "Feature", "geometry": {"type": "Point", "coordinates": [99.83282, 20.13245]}, "properties": {"id": "cr-osm-node-2147540160", "name": "ร้านตัดผม", "nameTh": "ร้านตัดผม", "nameEn": null, "cat": ["beauty"], "province": "cr", "slug": "2147540160", "rank": 1}}, {"type": "Feature", "geometry": {"type": "Point", "coordinates": [99.8539, 20.14497]}, "properties": {"id": "cr-osm-node-2148632587", "name": "ร้านตัดผม", "nameTh": "ร้านตัดผม", "nameEn": null, "cat": ["beauty"], "province": "cr", "slug": "2148632587", "rank": 1}}, {"type": "Feature", "geometry": {"type": "Point", "coordinates": [99.80405, 20.12294]}, "properties": {"id": "cr-osm-node-2147430780", "name": "ร้านเสริมสวย", "nameTh": "ร้านเสริมสวย", "nameEn": null, "cat": ["beauty"], "province": "cr", "slug": "2147430780", "rank": 1}}, {"type": "Feature", "geometry": {"type": "Point", "coordinates": [99.86396, 20.16026]}, "properties": {"id": "cr-osm-node-2148548983", "name": "ร้านเสริมสวย", "nameTh": "ร้านเสริมสวย", "nameEn": null, "cat": ["beauty"], "province": "cr", "slug": "2148548983", "rank": 1}}, {"type": "Feature", "geometry": {"type": "Point", "coordinates": [99.82043, 19.90647]}, "properties": {"id": "cr-osm-way-960625752", "name": "ร้านเสริมสวย ชฎา", "nameTh": "ร้านเสริมสวย ชฎา", "nameEn": "Shada Salon", "cat": ["beauty"], "province": "cr", "slug": "shada-salon-960625752", "rank": 2}}, {"type": "Feature", "geometry": {"type": "Point", "coordinates": [99.85523, 20.14898]}, "properties": {"id": "cr-osm-node-2148624723", "name": "ร้านเสริมสวย บ้านน้อง", "nameTh": "ร้านเสริมสวย บ้านน้อง", "nameEn": null, "cat": ["beauty"], "province": "cr", "slug": "2148624723", "rank": 1}}, {"type": "Feature", "geometry": {"type": "Point", "coordinates": [99.85493, 20.14111]}, "properties": {"id": "cr-osm-way-204879780", "name": "ร้านเสริมสวยน้อย", "nameTh": "ร้านเสริมสวยน้อย", "nameEn": null, "cat": ["beauty"], "province": "cr", "slug": "204879780", "rank": 1}}, {"type": "Feature", "geometry": {"type": "Point", "coordinates": [99.83387, 19.91494]}, "properties": {"id": "cr-osm-way-965783880", "name": "หม่อม บิวตี้ซาลอน", "nameTh": "หม่อม บิวตี้ซาลอน", "nameEn": "Mhom Salon", "cat": ["beauty"], "province": "cr", "slug": "mhom-salon-965783880", "rank": 2}}, {"type": "Feature", "geometry": {"type": "Point", "coordinates": [99.83854, 19.91615]}, "properties": {"id": "cr-osm-node-10223255057", "name": "เก๋ บิวตี้ซาลอน", "nameTh": "เก๋ บิวตี้ซาลอน", "nameEn": "Kai's Beauty", "cat": ["beauty"], "province": "cr", "slug": "kai-s-beauty-10223255057", "rank": 2}}, {"type": "Feature", "geometry": {"type": "Point", "coordinates": [99.82356, 19.90764]}, "properties": {"id": "cr-osm-way-960685090", "name": "เล็กคิ้วสวย & สปา", "nameTh": "เล็กคิ้วสวย & สปา", "nameEn": "Lek Tattoo Parlor and Spa", "cat": ["beauty", "tattoo"], "province": "cr", "slug": "lek-tattoo-parlor-and-spa-960685090", "rank": 2}}, {"type": "Feature", "geometry": {"type": "Point", "coordinates": [99.8274, 19.90805]}, "properties": {"id": "cr-osm-way-960771496", "name": "เสนห์ชาย บิวตี้", "nameTh": "เสนห์ชาย บิวตี้", "nameEn": "Sanehchai Beauty", "cat": ["beauty"], "province": "cr", "slug": "sanehchai-beauty-960771496", "rank": 2}}, {"type": "Feature", "geometry": {"type": "Point", "coordinates": [99.83341, 19.91524]}, "properties": {"id": "cr-osm-node-9945336055", "name": "เสน่ห์ชายบิวตี้", "nameTh": "เสน่ห์ชายบิวตี้", "nameEn": "Saneychai Beauty", "cat": ["beauty"], "province": "cr", "slug": "saneychai-beauty-9945336055", "rank": 2}}, {"type": "Feature", "geometry": {"type": "Point", "coordinates": [99.82304, 19.90744]}, "properties": {"id": "cr-osm-way-960685078", "name": "เสริทสวย แฮร์พัส", "nameTh": "เสริทสวย แฮร์พัส", "nameEn": "Haie pleased Salon", "cat": ["beauty"], "province": "cr", "slug": "haie-pleased-salon-960685078", "rank": 2}}, {"type": "Feature", "geometry": {"type": "Point", "coordinates": [99.84939, 20.14439]}, "properties": {"id": "cr-osm-node-2148634181", "name": "เสริมสวย", "nameTh": "เสริมสวย", "nameEn": null, "cat": ["beauty"], "province": "cr", "slug": "2148634181", "rank": 1}}, {"type": "Feature", "geometry": {"type": "Point", "coordinates": [99.8218, 19.90699]}, "properties": {"id": "cr-osm-way-960685063", "name": "เสริมสวย กาสะลอง", "nameTh": "เสริมสวย กาสะลอง", "nameEn": "Kasalong Salon", "cat": ["beauty"], "province": "cr", "slug": "kasalong-salon-960685063", "rank": 2}}, {"type": "Feature", "geometry": {"type": "Point", "coordinates": [99.81898, 19.90317]}, "properties": {"id": "cr-osm-node-10099999778", "name": "เสริมสวย ชฎา", "nameTh": "เสริมสวย ชฎา", "nameEn": "Shada", "cat": ["beauty"], "province": "cr", "slug": "shada-10099999778", "rank": 2}}, {"type": "Feature", "geometry": {"type": "Point", "coordinates": [99.83379, 19.91496]}, "properties": {"id": "cr-osm-way-964468591", "name": "เสริมสวย อร", "nameTh": "เสริมสวย อร", "nameEn": "Orn Salon", "cat": ["beauty"], "province": "cr", "slug": "orn-salon-964468591", "rank": 2}}, {"type": "Feature", "geometry": {"type": "Point", "coordinates": [99.85523, 20.14913]}, "properties": {"id": "cr-osm-node-2148627193", "name": "เสริมสวย อารียา", "nameTh": "เสริมสวย อารียา", "nameEn": null, "cat": ["beauty"], "province": "cr", "slug": "2148627193", "rank": 1}}, {"type": "Feature", "geometry": {"type": "Point", "coordinates": [99.85531, 20.1443]}, "properties": {"id": "cr-osm-way-204877689", "name": "เสริมสวยจันทร์บิวตี้", "nameTh": "เสริมสวยจันทร์บิวตี้", "nameEn": null, "cat": ["beauty"], "province": "cr", "slug": "204877689", "rank": 1}}, {"type": "Feature", "geometry": {"type": "Point", "coordinates": [99.85466, 20.14842]}, "properties": {"id": "cr-osm-node-2148622840", "name": "เสริมสวยน้องพิมพ์", "nameTh": "เสริมสวยน้องพิมพ์", "nameEn": null, "cat": ["beauty"], "province": "cr", "slug": "2148622840", "rank": 1}}, {"type": "Feature", "geometry": {"type": "Point", "coordinates": [99.81414, 19.90349]}, "properties": {"id": "cr-osm-node-9166322479", "name": "เสริมสวยน้องโบว์", "nameTh": "เสริมสวยน้องโบว์", "nameEn": "Nong Bow Beautify", "cat": ["beauty"], "province": "cr", "slug": "nong-bow-beautify-9166322479", "rank": 2}}, {"type": "Feature", "geometry": {"type": "Point", "coordinates": [99.83284, 19.91137]}, "properties": {"id": "cr-osm-way-963829104", "name": "เสริมสวยออ", "nameTh": "เสริมสวยออ", "nameEn": "Aor Beauty", "cat": ["beauty"], "province": "cr", "slug": "aor-beauty-963829104", "rank": 2}}, {"type": "Feature", "geometry": {"type": "Point", "coordinates": [99.8381, 19.91409]}, "properties": {"id": "cr-osm-node-9154107313", "name": "เสิร์มสวย จุรีย์พร", "nameTh": "เสิร์มสวย จุรีย์พร", "nameEn": "Beautician Chureeporn", "cat": ["beauty"], "province": "cr", "slug": "beautician-chureeporn-9154107313", "rank": 2}}, {"type": "Feature", "geometry": {"type": "Point", "coordinates": [99.81427, 19.90346]}, "properties": {"id": "cr-osm-node-9166322481", "name": "เอแคร์ แฮร์สไตล์", "nameTh": "เอแคร์ แฮร์สไตล์", "nameEn": "Eclair Hair Style", "cat": ["beauty"], "province": "cr", "slug": "eclair-hair-style-9166322481", "rank": 3}}, {"type": "Feature", "geometry": {"type": "Point", "coordinates": [99.82736, 19.90805]}, "properties": {"id": "cr-osm-way-960771495", "name": "แฮร์ ฟอร์ ยู", "nameTh": "แฮร์ ฟอร์ ยู", "nameEn": "Hair For You", "cat": ["beauty"], "province": "cr", "slug": "hair-for-you-960771495", "rank": 2}}, {"type": "Feature", "geometry": {"type": "Point", "coordinates": [99.85265, 20.14488]}, "properties": {"id": "cr-osm-node-2148549131", "name": "แฮร์ดู", "nameTh": "แฮร์ดู", "nameEn": null, "cat": ["beauty"], "province": "cr", "slug": "2148549131", "rank": 1}}, {"type": "Feature", "geometry": {"type": "Point", "coordinates": [99.83621, 19.90874]}, "properties": {"id": "cr-osm-node-12344841301", "name": "่่่่่KLEEM Beauty Salon", "nameTh": "่่่่่KLEEM Beauty Salon", "nameEn": null, "cat": ["beauty"], "province": "cr", "slug": "kleem-beauty-salon-12344841301", "rank": 4}}]}