{"type": "FeatureCollection", "features": [{"type": "Feature", "geometry": {"type": "Point", "coordinates": [100.0776, 20.36727]}, "properties": {"id": "cr-osm-way-206806372", "name": "Anantara Golden Triangle and Elephant Sanctuary", "nameTh": null, "nameEn": "Anantara Golden Triangle and Elephant Sanctuary", "cat": ["chang", "hotel"], "province": "cr", "slug": "anantara-golden-triangle-and-elephant-sanctuary-206806372", "rank": 1}}, {"type": "Feature", "geometry": {"type": "Point", "coordinates": [99.70492, 19.96152]}, "properties": {"id": "cr-osm-node-1445529061", "name": "Ruammit Elephant Camp", "nameTh": "ทัวร์ช้างกระเหรี่ยงรวมมิตร", "nameEn": "Ruammit Elephant Camp", "cat": ["chang"], "province": "cr", "slug": "ruammit-elephant-camp-1445529061", "rank": 2}}]}