{"type": "FeatureCollection", "features": [{"type": "Feature", "geometry": {"type": "Point", "coordinates": [99.7072, 19.8006]}, "properties": {"id": "cr-weedth-d9569f04", "name": "109 Herbs Chiangrai", "nameTh": null, "nameEn": "109 Herbs Chiangrai", "cat": ["cannabis"], "province": "cr", "slug": "109-herbs-chiangrai-956904", "rank": 2}}, {"type": "Feature", "geometry": {"type": "Point", "coordinates": [99.83577, 19.90589]}, "properties": {"id": "cr-osm-node-10261957983", "name": "162 CBD Cafe", "nameTh": null, "nameEn": "162 CBD Cafe", "cat": ["cannabis"], "province": "cr", "slug": "162-cbd-cafe-10261957983", "rank": 1}}, {"type": "Feature", "geometry": {"type": "Point", "coordinates": [99.82783, 19.90127]}, "properties": {"id": "cr-weedth-5e1a2ce5", "name": "2Morrow Fresh Weed Store (Cannabis Shop)", "nameTh": null, "nameEn": "2Morrow Fresh Weed Store (Cannabis Shop)", "cat": ["cannabis"], "province": "cr", "slug": "2morrow-fresh-weed-store-cannabis-shop-5125", "rank": 2}}, {"type": "Feature", "geometry": {"type": "Point", "coordinates": [99.88239, 20.42425]}, "properties": {"id": "cr-weedth-c820d4df", "name": "420OO", "nameTh": null, "nameEn": "420OO", "cat": ["cannabis"], "province": "cr", "slug": "420oo-8204", "rank": 2}}, {"type": "Feature", "geometry": {"type": "Point", "coordinates": [99.85732, 19.96928]}, "properties": {"id": "cr-weedth-123b50fa", "name": "555หัวเราะดังๆ", "nameTh": "555หัวเราะดังๆ", "nameEn": null, "cat": ["cannabis"], "province": "cr", "slug": "555-12350", "rank": 2}}, {"type": "Feature", "geometry": {"type": "Point", "coordinates": [99.82783, 19.90127]}, "properties": {"id": "cr-weedth-3f5d308c", "name": "Allwayadays CEI (Weedshop)", "nameTh": null, "nameEn": "Allwayadays CEI (Weedshop)", "cat": ["cannabis"], "province": "cr", "slug": "allwayadays-cei-weedshop-35308", "rank": 2}}, {"type": "Feature", "geometry": {"type": "Point", "coordinates": [99.82783, 19.90127]}, "properties": {"id": "cr-weedth-279d552d", "name": "Amnesia (Weed Shop)", "nameTh": null, "nameEn": "Amnesia (Weed Shop)", "cat": ["cannabis"], "province": "cr", "slug": "amnesia-weed-shop-279552", "rank": 2}}, {"type": "Feature", "geometry": {"type": "Point", "coordinates": [99.82783, 19.90127]}, "properties": {"id": "cr-weedth-7a2dde4b", "name": "Angkan Cannabis อังกัญ คานาบิส", "nameTh": "Angkan Cannabis อังกัญ คานาบิส", "nameEn": null, "cat": ["cannabis"], "province": "cr", "slug": "angkan-cannabis-724", "rank": 2}}, {"type": "Feature", "geometry": {"type": "Point", "coordinates": [100.07273, 20.29545]}, "properties": {"id": "cr-weedth-66e86c1e", "name": "Area42 Dispensary & Cafe", "nameTh": null, "nameEn": "Area42 Dispensary & Cafe", "cat": ["cannabis"], "province": "cr", "slug": "area42-dispensary-cafe-66861", "rank": 2}}, {"type": "Feature", "geometry": {"type": "Point", "coordinates": [99.82783, 19.90127]}, "properties": {"id": "cr-weedth-4716af81", "name": "CHIT ชิต420", "nameTh": "CHIT ชิต420", "nameEn": null, "cat": ["cannabis"], "province": "cr", "slug": "chit-420-471681", "rank": 2}}, {"type": "Feature", "geometry": {"type": "Point", "coordinates": [99.82783, 19.90127]}, "properties": {"id": "cr-weedth-cd3df8d7", "name": "CHUM CHUM CANNABIS", "nameTh": null, "nameEn": "CHUM CHUM CANNABIS", "cat": ["cannabis"], "province": "cr", "slug": "chum-chum-cannabis-387", "rank": 2}}, {"type": "Feature", "geometry": {"type": "Point", "coordinates": [99.76429, 19.58743]}, "properties": {"id": "cr-weedth-63ee606f", "name": "CR Living & Farming Co., Ltd.", "nameTh": null, "nameEn": "CR Living & Farming Co., Ltd.", "cat": ["cannabis"], "province": "cr", "slug": "cr-living-farming-co-ltd-63606", "rank": 2}}, {"type": "Feature", "geometry": {"type": "Point", "coordinates": [99.82783, 19.90127]}, "properties": {"id": "cr-weedth-27c081af", "name": "Cafe' Chakan - สาขาห้าแยกพ่อขุน เชียงราย", "nameTh": "Cafe' Chakan - สาขาห้าแยกพ่อขุน เชียงราย", "nameEn": null, "cat": ["cannabis"], "province": "cr", "slug": "cafe-chakan-27081", "rank": 2}}, {"type": "Feature", "geometry": {"type": "Point", "coordinates": [99.85732, 19.96928]}, "properties": {"id": "cr-weedth-57ec3f79", "name": "Candy Man Medical ( Weed Shop )", "nameTh": null, "nameEn": "Candy Man Medical ( Weed Shop )", "cat": ["cannabis"], "province": "cr", "slug": "candy-man-medical-weed-shop-57379", "rank": 2}}, {"type": "Feature", "geometry": {"type": "Point", "coordinates": [99.74362, 20.18]}, "properties": {"id": "cr-weedth-5a4819d1", "name": "CannDeeBiz แคนน์-ดี-บิซ", "nameTh": "CannDeeBiz แคนน์-ดี-บิซ", "nameEn": null, "cat": ["cannabis"], "province": "cr", "slug": "canndeebiz-548191", "rank": 2}}, {"type": "Feature", "geometry": {"type": "Point", "coordinates": [99.88239, 20.42425]}, "properties": {"id": "cr-weedth-6c932aac", "name": "Cannabis Heaven 77", "nameTh": null, "nameEn": "Cannabis Heaven 77", "cat": ["cannabis"], "province": "cr", "slug": "cannabis-heaven-77-6932", "rank": 2}}, {"type": "Feature", "geometry": {"type": "Point", "coordinates": [99.85732, 19.96928]}, "properties": {"id": "cr-weedth-28f2491a", "name": "Cannablis Café Chiangrai", "nameTh": null, "nameEn": "Cannablis Café Chiangrai", "cat": ["cannabis"], "province": "cr", "slug": "cannablis-caf-chiangrai-282491", "rank": 2}}, {"type": "Feature", "geometry": {"type": "Point", "coordinates": [99.82783, 19.90127]}, "properties": {"id": "cr-weedth-c901942a", "name": "ChiWeed Cannabis Dispensary @Chaing Rai", "nameTh": null, "nameEn": "ChiWeed Cannabis Dispensary @Chaing Rai", "cat": ["cannabis"], "province": "cr", "slug": "chiweed-cannabis-dispensary-chaing-rai-901942", "rank": 2}}, {"type": "Feature", "geometry": {"type": "Point", "coordinates": [100.07273, 20.29545]}, "properties": {"id": "cr-weedth-a7fba67d", "name": "Erawan grower Cannabis(กัญชา大麻)Shop", "nameTh": "Erawan grower Cannabis(กัญชา大麻)Shop", "nameEn": null, "cat": ["cannabis"], "province": "cr", "slug": "erawan-grower-cannabis-shop-767", "rank": 2}}, {"type": "Feature", "geometry": {"type": "Point", "coordinates": [99.82783, 19.90127]}, "properties": {"id": "cr-weedth-218d7eb0", "name": "GREENLINE CANNABIS DISPENSARY", "nameTh": null, "nameEn": "GREENLINE CANNABIS DISPENSARY", "cat": ["cannabis"], "province": "cr", "slug": "greenline-cannabis-dispensary-21870", "rank": 2}}, {"type": "Feature", "geometry": {"type": "Point", "coordinates": [99.82783, 19.90127]}, "properties": {"id": "cr-weedth-dd542fb5", "name": "GREENLINE CANNABIS DISPENSARY", "nameTh": null, "nameEn": "GREENLINE CANNABIS DISPENSARY", "cat": ["cannabis"], "province": "cr", "slug": "greenline-cannabis-dispensary-5425", "rank": 2}}, {"type": "Feature", "geometry": {"type": "Point", "coordinates": [99.88239, 20.42425]}, "properties": {"id": "cr-weedth-8e11bc57", "name": "Get high", "nameTh": null, "nameEn": "Get high", "cat": ["cannabis"], "province": "cr", "slug": "get-high-81157", "rank": 2}}, {"type": "Feature", "geometry": {"type": "Point", "coordinates": [99.88239, 20.42425]}, "properties": {"id": "cr-weedth-aabba3fe", "name": "Get high", "nameTh": null, "nameEn": "Get high", "cat": ["cannabis"], "province": "cr", "slug": "get-high-3", "rank": 2}}, {"type": "Feature", "geometry": {"type": "Point", "coordinates": [99.74362, 20.18]}, "properties": {"id": "cr-weedth-80de8f99", "name": "Green Flower Weed Shop", "nameTh": null, "nameEn": "Green Flower Weed Shop", "cat": ["cannabis"], "province": "cr", "slug": "green-flower-weed-shop-80899", "rank": 2}}, {"type": "Feature", "geometry": {"type": "Point", "coordinates": [99.82783, 19.90127]}, "properties": {"id": "cr-weedth-29836ad8", "name": "Green space galaxy", "nameTh": null, "nameEn": "Green space galaxy", "cat": ["cannabis"], "province": "cr", "slug": "green-space-galaxy-298368", "rank": 2}}, {"type": "Feature", "geometry": {"type": "Point", "coordinates": [100.07273, 20.29545]}, "properties": {"id": "cr-weedth-ecea145d", "name": "GreenCat CANNABIS", "nameTh": null, "nameEn": "GreenCat CANNABIS", "cat": ["cannabis"], "province": "cr", "slug": "greencat-cannabis-145", "rank": 2}}, {"type": "Feature", "geometry": {"type": "Point", "coordinates": [99.8175, 19.89948]}, "properties": {"id": "cr-weedth-1a7df035", "name": "Greenbandicoot weed", "nameTh": null, "nameEn": "Greenbandicoot weed", "cat": ["cannabis"], "province": "cr", "slug": "greenbandicoot-weed-17035", "rank": 2}}, {"type": "Feature", "geometry": {"type": "Point", "coordinates": [99.84359, 19.92371]}, "properties": {"id": "cr-osm-node-12836625438", "name": "Greenhill", "nameTh": null, "nameEn": "Greenhill", "cat": ["cannabis"], "province": "cr", "slug": "greenhill-12836625438", "rank": 3}}, {"type": "Feature", "geometry": {"type": "Point", "coordinates": [99.82783, 19.90127]}, "properties": {"id": "cr-weedth-2def30e8", "name": "Greenman Dispensary", "nameTh": null, "nameEn": "Greenman Dispensary", "cat": ["cannabis"], "province": "cr", "slug": "greenman-dispensary-2308", "rank": 2}}, {"type": "Feature", "geometry": {"type": "Point", "coordinates": [99.76429, 19.58743]}, "properties": {"id": "cr-weedth-42ea7940", "name": "GrowerTiger พาน", "nameTh": "GrowerTiger พาน", "nameEn": null, "cat": ["cannabis"], "province": "cr", "slug": "growertiger-427940", "rank": 2}}, {"type": "Feature", "geometry": {"type": "Point", "coordinates": [99.83478, 19.9008]}, "properties": {"id": "cr-osm-node-12537616190", "name": "Growertiger cafe", "nameTh": null, "nameEn": "Growertiger cafe", "cat": ["cannabis"], "province": "cr", "slug": "growertiger-cafe-12537616190", "rank": 1}}, {"type": "Feature", "geometry": {"type": "Point", "coordinates": [99.82783, 19.90127]}, "properties": {"id": "cr-weedth-9ac57031", "name": "Growertiger café (เชียงราย)", "nameTh": "Growertiger café (เชียงราย)", "nameEn": null, "cat": ["cannabis"], "province": "cr", "slug": "growertiger-caf-957031", "rank": 2}}, {"type": "Feature", "geometry": {"type": "Point", "coordinates": [99.82783, 19.90127]}, "properties": {"id": "cr-weedth-4afd49f6", "name": "HEMPTON Dispensary @ Chiang Rai", "nameTh": null, "nameEn": "HEMPTON Dispensary @ Chiang Rai", "cat": ["cannabis"], "province": "cr", "slug": "hempton-dispensary-chiang-rai-4496", "rank": 2}}, {"type": "Feature", "geometry": {"type": "Point", "coordinates": [99.85732, 19.96928]}, "properties": {"id": "cr-weedth-dc0dae54", "name": "HUG CANNABIZ กัญชาเชียงราย", "nameTh": "HUG CANNABIZ กัญชาเชียงราย", "nameEn": null, "cat": ["cannabis"], "province": "cr", "slug": "hug-cannabiz-054", "rank": 2}}, {"type": "Feature", "geometry": {"type": "Point", "coordinates": [99.7072, 19.8006]}, "properties": {"id": "cr-weedth-e8f5d4e0", "name": "Happy Herbs Farm and Dispensary Chaing Rai", "nameTh": null, "nameEn": "Happy Herbs Farm and Dispensary Chaing Rai", "cat": ["cannabis"], "province": "cr", "slug": "happy-herbs-farm-and-dispensary-chaing-rai-8540", "rank": 2}}, {"type": "Feature", "geometry": {"type": "Point", "coordinates": [99.82783, 19.90127]}, "properties": {"id": "cr-weedth-0a9cf983", "name": "Harweed Moon", "nameTh": null, "nameEn": "Harweed Moon", "cat": ["cannabis"], "province": "cr", "slug": "harweed-moon-09983", "rank": 2}}, {"type": "Feature", "geometry": {"type": "Point", "coordinates": [99.82783, 19.90127]}, "properties": {"id": "cr-weedth-817882b0", "name": "Harweed moon cannabis shop", "nameTh": null, "nameEn": "Harweed moon cannabis shop", "cat": ["cannabis"], "province": "cr", "slug": "harweed-moon-cannabis-shop-8178820", "rank": 2}}, {"type": "Feature", "geometry": {"type": "Point", "coordinates": [99.82783, 19.90127]}, "properties": {"id": "cr-weedth-bbf5987f", "name": "Harweed moon cannabis shop", "nameTh": null, "nameEn": "Harweed moon cannabis shop", "cat": ["cannabis"], "province": "cr", "slug": "harweed-moon-cannabis-shop-5987", "rank": 2}}, {"type": "Feature", "geometry": {"type": "Point", "coordinates": [99.82783, 19.90127]}, "properties": {"id": "cr-weedth-daffd8f4", "name": "High kub cannabis shop ท่าเรือ", "nameTh": "High kub cannabis shop ท่าเรือ", "nameEn": null, "cat": ["cannabis"], "province": "cr", "slug": "high-kub-cannabis-shop-84", "rank": 2}}, {"type": "Feature", "geometry": {"type": "Point", "coordinates": [99.82783, 19.90127]}, "properties": {"id": "cr-weedth-58948672", "name": "Highbis420", "nameTh": null, "nameEn": "Highbis420", "cat": ["cannabis"], "province": "cr", "slug": "highbis420-58948672", "rank": 2}}, {"type": "Feature", "geometry": {"type": "Point", "coordinates": [99.82783, 19.90127]}, "properties": {"id": "cr-weedth-d12ced26", "name": "House of Stoner HUB", "nameTh": null, "nameEn": "House of Stoner HUB", "cat": ["cannabis"], "province": "cr", "slug": "house-of-stoner-hub-1226", "rank": 2}}, {"type": "Feature", "geometry": {"type": "Point", "coordinates": [99.83396, 20.18647]}, "properties": {"id": "cr-weedth-f590b572", "name": "INNOLEAF VALLEY", "nameTh": null, "nameEn": "INNOLEAF VALLEY", "cat": ["cannabis"], "province": "cr", "slug": "innoleaf-valley-590572", "rank": 2}}, {"type": "Feature", "geometry": {"type": "Point", "coordinates": [99.83336, 19.90655]}, "properties": {"id": "cr-osm-node-11556106719", "name": "In-N-Out Cannabis Thailand", "nameTh": null, "nameEn": "In-N-Out Cannabis Thailand", "cat": ["cannabis"], "province": "cr", "slug": "in-n-out-cannabis-thailand-11556106719", "rank": 2}}, {"type": "Feature", "geometry": {"type": "Point", "coordinates": [99.74362, 20.18]}, "properties": {"id": "cr-weedth-477e1f13", "name": "Innoleaf plus", "nameTh": null, "nameEn": "Innoleaf plus", "cat": ["cannabis"], "province": "cr", "slug": "innoleaf-plus-477113", "rank": 2}}, {"type": "Feature", "geometry": {"type": "Point", "coordinates": [99.85732, 19.96928]}, "properties": {"id": "cr-weedth-93ee572b", "name": "JDG CAFE’ BAR", "nameTh": null, "nameEn": "JDG CAFE’ BAR", "cat": ["cannabis"], "province": "cr", "slug": "jdg-cafe-bar-93572", "rank": 2}}, {"type": "Feature", "geometry": {"type": "Point", "coordinates": [99.85732, 19.96928]}, "properties": {"id": "cr-weedth-265b315b", "name": "JOHN WEED", "nameTh": null, "nameEn": "JOHN WEED", "cat": ["cannabis"], "province": "cr", "slug": "john-weed-265315", "rank": 2}}, {"type": "Feature", "geometry": {"type": "Point", "coordinates": [99.88239, 20.42425]}, "properties": {"id": "cr-weedth-58a7e236", "name": "Jop-up stop จุดแวะเติม", "nameTh": "Jop-up stop จุดแวะเติม", "nameEn": null, "cat": ["cannabis"], "province": "cr", "slug": "jop-up-stop-587236", "rank": 2}}, {"type": "Feature", "geometry": {"type": "Point", "coordinates": [99.82783, 19.90127]}, "properties": {"id": "cr-weedth-d9ed588b", "name": "Joyful Dispensary", "nameTh": null, "nameEn": "Joyful Dispensary", "cat": ["cannabis"], "province": "cr", "slug": "joyful-dispensary-9588", "rank": 2}}, {"type": "Feature", "geometry": {"type": "Point", "coordinates": [99.74362, 20.18]}, "properties": {"id": "cr-weedth-8d4dd353", "name": "K and A Cannabis Farm", "nameTh": null, "nameEn": "K and A Cannabis Farm", "cat": ["cannabis"], "province": "cr", "slug": "k-and-a-cannabis-farm-84353", "rank": 2}}, {"type": "Feature", "geometry": {"type": "Point", "coordinates": [99.76429, 19.58743]}, "properties": {"id": "cr-weedth-f9bb0d61", "name": "Make a friend cafe", "nameTh": null, "nameEn": "Make a friend cafe", "cat": ["cannabis"], "province": "cr", "slug": "make-a-friend-cafe-9061", "rank": 2}}, {"type": "Feature", "geometry": {"type": "Point", "coordinates": [100.07273, 20.29545]}, "properties": {"id": "cr-weedth-22cb107a", "name": "Min Farm view point", "nameTh": null, "nameEn": "Min Farm view point", "cat": ["cannabis"], "province": "cr", "slug": "min-farm-view-point-22107", "rank": 2}}, {"type": "Feature", "geometry": {"type": "Point", "coordinates": [99.82783, 19.90127]}, "properties": {"id": "cr-weedth-c39865ae", "name": "New FOUR KING cannabis", "nameTh": null, "nameEn": "New FOUR KING cannabis", "cat": ["cannabis"], "province": "cr", "slug": "new-four-king-cannabis-39865", "rank": 2}}, {"type": "Feature", "geometry": {"type": "Point", "coordinates": [99.7072, 19.8006]}, "properties": {"id": "cr-weedth-9eeaddff", "name": "Nrai Cannabis farm นาราย CBD ฟาร์ม", "nameTh": "Nrai Cannabis farm นาราย CBD ฟาร์ม", "nameEn": null, "cat": ["cannabis"], "province": "cr", "slug": "nrai-cannabis-farm-cbd-9", "rank": 2}}, {"type": "Feature", "geometry": {"type": "Point", "coordinates": [99.85732, 19.96928]}, "properties": {"id": "cr-weedth-046cf08a", "name": "Nure niyom เหนือนิยม og store", "nameTh": "Nure niyom เหนือนิยม og store", "nameEn": null, "cat": ["cannabis"], "province": "cr", "slug": "nure-niyom-og-store-04608", "rank": 2}}, {"type": "Feature", "geometry": {"type": "Point", "coordinates": [99.82783, 19.90127]}, "properties": {"id": "cr-weedth-6b46a8b6", "name": "O.p Cannabis", "nameTh": null, "nameEn": "O.p Cannabis", "cat": ["cannabis"], "province": "cr", "slug": "o-p-cannabis-64686", "rank": 2}}, {"type": "Feature", "geometry": {"type": "Point", "coordinates": [99.8713, 20.00803]}, "properties": {"id": "cr-weedth-1e72ac9c", "name": "OG Of GOD", "nameTh": null, "nameEn": "OG Of GOD", "cat": ["cannabis"], "province": "cr", "slug": "og-of-god-1729", "rank": 2}}, {"type": "Feature", "geometry": {"type": "Point", "coordinates": [99.76429, 19.58743]}, "properties": {"id": "cr-weedth-08eca3a8", "name": "P-milk café", "nameTh": null, "nameEn": "P-milk café", "cat": ["cannabis"], "province": "cr", "slug": "p-milk-caf-0838", "rank": 2}}, {"type": "Feature", "geometry": {"type": "Point", "coordinates": [99.85732, 19.96928]}, "properties": {"id": "cr-weedth-24754615", "name": "Peaceandlove cannabis.", "nameTh": null, "nameEn": "Peaceandlove cannabis.", "cat": ["cannabis"], "province": "cr", "slug": "peaceandlove-cannabis-24754615", "rank": 2}}, {"type": "Feature", "geometry": {"type": "Point", "coordinates": [99.88239, 20.42425]}, "properties": {"id": "cr-weedth-86e5c54b", "name": "Rangoon Cannabiz", "nameTh": null, "nameEn": "Rangoon Cannabiz", "cat": ["cannabis"], "province": "cr", "slug": "rangoon-cannabiz-86554", "rank": 2}}, {"type": "Feature", "geometry": {"type": "Point", "coordinates": [99.7072, 19.8006]}, "properties": {"id": "cr-weedth-f55657a1", "name": "Samnesia Cannabis farm", "nameTh": null, "nameEn": "Samnesia Cannabis farm", "cat": ["cannabis"], "province": "cr", "slug": "samnesia-cannabis-farm-556571", "rank": 2}}, {"type": "Feature", "geometry": {"type": "Point", "coordinates": [99.82783, 19.90127]}, "properties": {"id": "cr-weedth-58f105d2", "name": "Sensi Weed", "nameTh": null, "nameEn": "Sensi Weed", "cat": ["cannabis"], "province": "cr", "slug": "sensi-weed-581052", "rank": 2}}, {"type": "Feature", "geometry": {"type": "Point", "coordinates": [99.82783, 19.90127]}, "properties": {"id": "cr-weedth-43bc5c38", "name": "Sensi dispensary", "nameTh": null, "nameEn": "Sensi dispensary", "cat": ["cannabis"], "province": "cr", "slug": "sensi-dispensary-43538", "rank": 2}}, {"type": "Feature", "geometry": {"type": "Point", "coordinates": [99.82783, 19.90127]}, "properties": {"id": "cr-weedth-34c9be3d", "name": "SensiWeed Chiang Rai (weed shop)", "nameTh": null, "nameEn": "SensiWeed Chiang Rai (weed shop)", "cat": ["cannabis"], "province": "cr", "slug": "sensiweed-chiang-rai-weed-shop-3493", "rank": 2}}, {"type": "Feature", "geometry": {"type": "Point", "coordinates": [99.85732, 19.96928]}, "properties": {"id": "cr-weedth-8d2eb7f1", "name": "Smoked Cannabis", "nameTh": null, "nameEn": "Smoked Cannabis", "cat": ["cannabis"], "province": "cr", "slug": "smoked-cannabis-8271", "rank": 2}}, {"type": "Feature", "geometry": {"type": "Point", "coordinates": [99.88239, 20.42425]}, "properties": {"id": "cr-weedth-6a53af03", "name": "Space Station Measai", "nameTh": null, "nameEn": "Space Station Measai", "cat": ["cannabis"], "province": "cr", "slug": "space-station-measai-65303", "rank": 2}}, {"type": "Feature", "geometry": {"type": "Point", "coordinates": [99.82783, 19.90127]}, "properties": {"id": "cr-weedth-2566f111", "name": "Sweet & High Dispensary (Weed Shop)", "nameTh": null, "nameEn": "Sweet & High Dispensary (Weed Shop)", "cat": ["cannabis"], "province": "cr", "slug": "sweet-high-dispensary-weed-shop-2566111", "rank": 2}}, {"type": "Feature", "geometry": {"type": "Point", "coordinates": [99.82783, 19.90127]}, "properties": {"id": "cr-weedth-fb8cd9e2", "name": "Sweet And High Co", "nameTh": null, "nameEn": "Sweet And High Co", "cat": ["cannabis"], "province": "cr", "slug": "sweet-and-high-co-892", "rank": 2}}, {"type": "Feature", "geometry": {"type": "Point", "coordinates": [99.85732, 19.96928]}, "properties": {"id": "cr-weedth-abaaf688", "name": "T.B แมวข่วน Cannabis Shop", "nameTh": "T.B แมวข่วน Cannabis Shop", "nameEn": null, "cat": ["cannabis"], "province": "cr", "slug": "t-b-cannabis-shop-688", "rank": 2}}, {"type": "Feature", "geometry": {"type": "Point", "coordinates": [99.85732, 19.96928]}, "properties": {"id": "cr-weedth-c6491a9c", "name": "T.B แมวข่วน Cannabis Shop", "nameTh": "T.B แมวข่วน Cannabis Shop", "nameEn": null, "cat": ["cannabis"], "province": "cr", "slug": "t-b-cannabis-shop-64919", "rank": 2}}, {"type": "Feature", "geometry": {"type": "Point", "coordinates": [99.82783, 19.90127]}, "properties": {"id": "cr-weedth-d2cfc39e", "name": "THE BURNE’R SMOKE", "nameTh": null, "nameEn": "THE BURNE’R SMOKE", "cat": ["cannabis"], "province": "cr", "slug": "the-burne-r-smoke-239", "rank": 2}}, {"type": "Feature", "geometry": {"type": "Point", "coordinates": [99.82783, 19.90127]}, "properties": {"id": "cr-weedth-8c386575", "name": "THE SECRET CANNABIZ", "nameTh": null, "nameEn": "THE SECRET CANNABIZ", "cat": ["cannabis"], "province": "cr", "slug": "the-secret-cannabiz-8386575", "rank": 2}}, {"type": "Feature", "geometry": {"type": "Point", "coordinates": [99.7072, 19.8006]}, "properties": {"id": "cr-weedth-7c1b3466", "name": "Thai CBG", "nameTh": null, "nameEn": "Thai CBG", "cat": ["cannabis"], "province": "cr", "slug": "thai-cbg-713466", "rank": 2}}, {"type": "Feature", "geometry": {"type": "Point", "coordinates": [99.82783, 19.90127]}, "properties": {"id": "cr-weedth-2db273af", "name": "UGE STORE", "nameTh": null, "nameEn": "UGE STORE", "cat": ["cannabis"], "province": "cr", "slug": "uge-store-2273", "rank": 2}}, {"type": "Feature", "geometry": {"type": "Point", "coordinates": [99.77325, 20.24948]}, "properties": {"id": "cr-weedth-d7865fc6", "name": "Vega tech-Cannabis", "nameTh": null, "nameEn": "Vega tech-Cannabis", "cat": ["cannabis"], "province": "cr", "slug": "vega-tech-cannabis-78656", "rank": 2}}, {"type": "Feature", "geometry": {"type": "Point", "coordinates": [99.88239, 20.42425]}, "properties": {"id": "cr-weedth-44f41445", "name": "WEEDHEADfarmganic", "nameTh": null, "nameEn": "WEEDHEADfarmganic", "cat": ["cannabis"], "province": "cr", "slug": "weedheadfarmganic-4441445", "rank": 2}}, {"type": "Feature", "geometry": {"type": "Point", "coordinates": [99.85732, 19.96928]}, "properties": {"id": "cr-weedth-014cfa68", "name": "WEHIGH", "nameTh": null, "nameEn": "WEHIGH", "cat": ["cannabis"], "province": "cr", "slug": "wehigh-01468", "rank": 2}}, {"type": "Feature", "geometry": {"type": "Point", "coordinates": [99.82783, 19.90127]}, "properties": {"id": "cr-weedth-6ff7ff53", "name": "White Grower Cannabis", "nameTh": null, "nameEn": "White Grower Cannabis", "cat": ["cannabis"], "province": "cr", "slug": "white-grower-cannabis-6753", "rank": 2}}, {"type": "Feature", "geometry": {"type": "Point", "coordinates": [99.83495, 19.90096]}, "properties": {"id": "cr-osm-node-12540742527", "name": "Wonderbuds", "nameTh": null, "nameEn": "Wonderbuds", "cat": ["cannabis"], "province": "cr", "slug": "wonderbuds-12540742527", "rank": 1}}, {"type": "Feature", "geometry": {"type": "Point", "coordinates": [99.8175, 19.89948]}, "properties": {"id": "cr-weedth-95f6a227", "name": "Yg Organic", "nameTh": null, "nameEn": "Yg Organic", "cat": ["cannabis"], "province": "cr", "slug": "yg-organic-956227", "rank": 2}}, {"type": "Feature", "geometry": {"type": "Point", "coordinates": [99.82783, 19.90127]}, "properties": {"id": "cr-weedth-b3dfea65", "name": "Zenleafshop(ร้านขายกัญชา)Cannabis", "nameTh": "Zenleafshop(ร้านขายกัญชา)Cannabis", "nameEn": null, "cat": ["cannabis"], "province": "cr", "slug": "zenleafshop-cannabis-365", "rank": 2}}, {"type": "Feature", "geometry": {"type": "Point", "coordinates": [99.82783, 19.90127]}, "properties": {"id": "cr-weedth-36101dbb", "name": "Zenleafshop1", "nameTh": null, "nameEn": "Zenleafshop1", "cat": ["cannabis"], "province": "cr", "slug": "zenleafshop1-36101", "rank": 2}}, {"type": "Feature", "geometry": {"type": "Point", "coordinates": [99.82783, 19.90127]}, "properties": {"id": "cr-weedth-0d337ae6", "name": "Zenleafshop2", "nameTh": null, "nameEn": "Zenleafshop2", "cat": ["cannabis"], "province": "cr", "slug": "zenleafshop2-03376", "rank": 2}}, {"type": "Feature", "geometry": {"type": "Point", "coordinates": [99.82783, 19.90127]}, "properties": {"id": "cr-weedth-c6178251", "name": "Zenleafshop2ร้านกัญชาCannabis บ้านดู่", "nameTh": "Zenleafshop2ร้านกัญชาCannabis บ้านดู่", "nameEn": null, "cat": ["cannabis"], "province": "cr", "slug": "zenleafshop2-cannabis-6178251", "rank": 2}}, {"type": "Feature", "geometry": {"type": "Point", "coordinates": [99.82783, 19.90127]}, "properties": {"id": "cr-weedth-ac69308f", "name": "Zenleafshop5", "nameTh": null, "nameEn": "Zenleafshop5", "cat": ["cannabis"], "province": "cr", "slug": "zenleafshop5-69308", "rank": 2}}, {"type": "Feature", "geometry": {"type": "Point", "coordinates": [99.82783, 19.90127]}, "properties": {"id": "cr-weedth-7e8b99b2", "name": "chiweed cannabis dispensary@chaingrai&ร้านขายกัญชาชีวิต", "nameTh": "chiweed cannabis dispensary@chaingrai&ร้านขายกัญชาชีวิต", "nameEn": null, "cat": ["cannabis"], "province": "cr", "slug": "chiweed-cannabis-dispensary-chaingrai-78992", "rank": 2}}, {"type": "Feature", "geometry": {"type": "Point", "coordinates": [99.85732, 19.96928]}, "properties": {"id": "cr-weedth-d38258d1", "name": "กระท่อม&กัญชาแม่ฟ้าหลวง", "nameTh": "กระท่อม&กัญชาแม่ฟ้าหลวง", "nameEn": null, "cat": ["cannabis"], "province": "cr", "slug": "382581", "rank": 2}}, {"type": "Feature", "geometry": {"type": "Point", "coordinates": [99.83396, 20.18647]}, "properties": {"id": "cr-weedth-6ec7e741", "name": "กัญชาภาคเหนือ", "nameTh": "กัญชาภาคเหนือ", "nameEn": null, "cat": ["cannabis"], "province": "cr", "slug": "67741", "rank": 2}}, {"type": "Feature", "geometry": {"type": "Point", "coordinates": [99.82783, 19.90127]}, "properties": {"id": "cr-weedth-e0a92976", "name": "คลังกัญ ฟาร์มราคาส่ง", "nameTh": "คลังกัญ ฟาร์มราคาส่ง", "nameEn": null, "cat": ["cannabis"], "province": "cr", "slug": "092976", "rank": 2}}, {"type": "Feature", "geometry": {"type": "Point", "coordinates": [99.85732, 19.96928]}, "properties": {"id": "cr-weedth-dbeeb103", "name": "คลังกัญ สาขาเชียงราย", "nameTh": "คลังกัญ สาขาเชียงราย", "nameEn": null, "cat": ["cannabis"], "province": "cr", "slug": "103", "rank": 2}}, {"type": "Feature", "geometry": {"type": "Point", "coordinates": [99.85732, 19.96928]}, "properties": {"id": "cr-weedth-2f047cfe", "name": "คลินิกกัญชาเวช น.พ.เกรียงศักดิ์ (Medical Cannabis Clinic Dr.Kriengsak)", "nameTh": "คลินิกกัญชาเวช น.พ.เกรียงศักดิ์ (Medical Cannabis Clinic Dr.Kriengsak)", "nameEn": null, "cat": ["cannabis"], "province": "cr", "slug": "medical-cannabis-clinic-dr-kriengsak-2047", "rank": 2}}, {"type": "Feature", "geometry": {"type": "Point", "coordinates": [99.82783, 19.90127]}, "properties": {"id": "cr-weedth-def5eb22", "name": "จุด-พัก-เติม", "nameTh": "จุด-พัก-เติม", "nameEn": null, "cat": ["cannabis"], "province": "cr", "slug": "522", "rank": 2}}, {"type": "Feature", "geometry": {"type": "Point", "coordinates": [99.82783, 19.90127]}, "properties": {"id": "cr-weedth-cd8e4b09", "name": "จุด-พัก-เติม (Joodparkterm)", "nameTh": "จุด-พัก-เติม (Joodparkterm)", "nameEn": null, "cat": ["cannabis"], "province": "cr", "slug": "joodparkterm-8409", "rank": 2}}, {"type": "Feature", "geometry": {"type": "Point", "coordinates": [100.07273, 20.29545]}, "properties": {"id": "cr-weedth-7f76eed2", "name": "มินฟาร์ม", "nameTh": "มินฟาร์ม", "nameEn": null, "cat": ["cannabis"], "province": "cr", "slug": "7762", "rank": 2}}, {"type": "Feature", "geometry": {"type": "Point", "coordinates": [99.82783, 19.90127]}, "properties": {"id": "cr-weedth-b2edfcdd", "name": "ยาใจคาเฟ่ Ya Jai Cafe", "nameTh": "ยาใจคาเฟ่ Ya Jai Cafe", "nameEn": null, "cat": ["cannabis"], "province": "cr", "slug": "ya-jai-cafe-2", "rank": 2}}, {"type": "Feature", "geometry": {"type": "Point", "coordinates": [99.88239, 20.42425]}, "properties": {"id": "cr-weedth-7acd1da8", "name": "ร้าน Highway cannabis แม่สาย", "nameTh": "ร้าน Highway cannabis แม่สาย", "nameEn": null, "cat": ["cannabis"], "province": "cr", "slug": "highway-cannabis-718", "rank": 2}}, {"type": "Feature", "geometry": {"type": "Point", "coordinates": [99.88239, 20.42425]}, "properties": {"id": "cr-weedth-7cb57e36", "name": "ร้าน Highway cannabis แม่สาย", "nameTh": "ร้าน Highway cannabis แม่สาย", "nameEn": null, "cat": ["cannabis"], "province": "cr", "slug": "highway-cannabis-75736", "rank": 2}}, {"type": "Feature", "geometry": {"type": "Point", "coordinates": [100.40969, 20.23271]}, "properties": {"id": "cr-weedth-dd2784cd", "name": "ร้าน แยกยิ้ม BY HIPPO PACK", "nameTh": "ร้าน แยกยิ้ม BY HIPPO PACK", "nameEn": null, "cat": ["cannabis"], "province": "cr", "slug": "by-hippo-pack-2784", "rank": 2}}, {"type": "Feature", "geometry": {"type": "Point", "coordinates": [99.85732, 19.96928]}, "properties": {"id": "cr-weedth-1140d06f", "name": "ร้านsmile king", "nameTh": "ร้านsmile king", "nameEn": null, "cat": ["cannabis"], "province": "cr", "slug": "smile-king-114006", "rank": 2}}, {"type": "Feature", "geometry": {"type": "Point", "coordinates": [99.88239, 20.42425]}, "properties": {"id": "cr-weedth-dc14ca9e", "name": "ร้านกัญชา FastFood Cannabis Shop", "nameTh": "ร้านกัญชา FastFood Cannabis Shop", "nameEn": null, "cat": ["cannabis"], "province": "cr", "slug": "fastfood-cannabis-shop-149", "rank": 2}}, {"type": "Feature", "geometry": {"type": "Point", "coordinates": [100.3753, 20.10727]}, "properties": {"id": "cr-weedth-4388969e", "name": "ร้านกัญชา Heaven Cannabis แม่สาย", "nameTh": "ร้านกัญชา Heaven Cannabis แม่สาย", "nameEn": null, "cat": ["cannabis"], "province": "cr", "slug": "heaven-cannabis-4388969", "rank": 2}}, {"type": "Feature", "geometry": {"type": "Point", "coordinates": [99.85732, 19.96928]}, "properties": {"id": "cr-weedth-6a2e7b58", "name": "ร้านกัญชา Smile x Heaven บ้านดู่เมืองใหม่", "nameTh": "ร้านกัญชา Smile x Heaven บ้านดู่เมืองใหม่", "nameEn": null, "cat": ["cannabis"], "province": "cr", "slug": "smile-x-heaven-62758", "rank": 2}}, {"type": "Feature", "geometry": {"type": "Point", "coordinates": [99.85732, 19.96928]}, "properties": {"id": "cr-weedth-82e11d40", "name": "ร้านกัญชา Smile x Heaven บ้านดู่เมืองใหม่ เชียงราย", "nameTh": "ร้านกัญชา Smile x Heaven บ้านดู่เมืองใหม่ เชียงราย", "nameEn": null, "cat": ["cannabis"], "province": "cr", "slug": "smile-x-heaven-821140", "rank": 2}}, {"type": "Feature", "geometry": {"type": "Point", "coordinates": [99.82783, 19.90127]}, "properties": {"id": "cr-weedth-37d7884c", "name": "ร้านกัญชา Zenleafshop", "nameTh": "ร้านกัญชา Zenleafshop", "nameEn": null, "cat": ["cannabis"], "province": "cr", "slug": "zenleafshop-377884", "rank": 2}}, {"type": "Feature", "geometry": {"type": "Point", "coordinates": [99.88239, 20.42425]}, "properties": {"id": "cr-weedth-e4fefbfe", "name": "ร้านกัญชาสนิทกัญ หน้าด่านแม่สาย", "nameTh": "ร้านกัญชาสนิทกัญ หน้าด่านแม่สาย", "nameEn": null, "cat": ["cannabis"], "province": "cr", "slug": "4", "rank": 2}}, {"type": "Feature", "geometry": {"type": "Point", "coordinates": [99.88239, 20.42425]}, "properties": {"id": "cr-weedth-4f77536e", "name": "ร้านกัญชาแม่สาย Heaven Cannabis แม่สาย(หน้าด่าน)", "nameTh": "ร้านกัญชาแม่สาย Heaven Cannabis แม่สาย(หน้าด่าน)", "nameEn": null, "cat": ["cannabis"], "province": "cr", "slug": "heaven-cannabis-477536", "rank": 2}}, {"type": "Feature", "geometry": {"type": "Point", "coordinates": [99.88239, 20.42425]}, "properties": {"id": "cr-weedth-e21ba709", "name": "ร้านกัญชาแม่สาย Heaven Cannabis ใกล้วัดแม่สาย #กัญชาแม่สาย #บ้องแก้วแม่สาย", "nameTh": "ร้านกัญชาแม่สาย Heaven Cannabis ใกล้วัดแม่สาย #กัญชาแม่สาย #บ้องแก้วแม่สาย", "nameEn": null, "cat": ["cannabis"], "province": "cr", "slug": "heaven-cannabis-21709", "rank": 2}}, {"type": "Feature", "geometry": {"type": "Point", "coordinates": [99.88239, 20.42425]}, "properties": {"id": "cr-weedth-26129a0f", "name": "ร้านกัญชาแม่สาย Heaven Cannabis2", "nameTh": "ร้านกัญชาแม่สาย Heaven Cannabis2", "nameEn": null, "cat": ["cannabis"], "province": "cr", "slug": "heaven-cannabis2-261290", "rank": 2}}, {"type": "Feature", "geometry": {"type": "Point", "coordinates": [99.88239, 20.42425]}, "properties": {"id": "cr-weedth-be9bd681", "name": "ร้านกัญชาแม่สาย OG Haday420", "nameTh": "ร้านกัญชาแม่สาย OG Haday420", "nameEn": null, "cat": ["cannabis"], "province": "cr", "slug": "og-haday420-9681", "rank": 2}}, {"type": "Feature", "geometry": {"type": "Point", "coordinates": [99.76429, 19.58743]}, "properties": {"id": "cr-weedth-56f41e3f", "name": "ร้านกัญชาใกล้ฉัน MoonCannabisShop", "nameTh": "ร้านกัญชาใกล้ฉัน MoonCannabisShop", "nameEn": null, "cat": ["cannabis"], "province": "cr", "slug": "mooncannabisshop-56413", "rank": 2}}, {"type": "Feature", "geometry": {"type": "Point", "coordinates": [99.85732, 19.96928]}, "properties": {"id": "cr-weedth-931c03f1", "name": "ร้านขายกัญชา Nure niyom เหนือนิยม og", "nameTh": "ร้านขายกัญชา Nure niyom เหนือนิยม og", "nameEn": null, "cat": ["cannabis"], "province": "cr", "slug": "nure-niyom-og-931031", "rank": 2}}, {"type": "Feature", "geometry": {"type": "Point", "coordinates": [99.85732, 19.96928]}, "properties": {"id": "cr-weedth-b45644b5", "name": "ร้านขายกัญชา Nure niyom เหนือนิยม og", "nameTh": "ร้านขายกัญชา Nure niyom เหนือนิยม og", "nameEn": null, "cat": ["cannabis"], "province": "cr", "slug": "nure-niyom-og-456445", "rank": 2}}, {"type": "Feature", "geometry": {"type": "Point", "coordinates": [99.85732, 19.96928]}, "properties": {"id": "cr-weedth-545b9755", "name": "ร้านขายกัญชา Weed Chiangrai.(BAAN BangBall)", "nameTh": "ร้านขายกัญชา Weed Chiangrai.(BAAN BangBall)", "nameEn": null, "cat": ["cannabis"], "province": "cr", "slug": "weed-chiangrai-baan-bangball-5459755", "rank": 2}}, {"type": "Feature", "geometry": {"type": "Point", "coordinates": [99.85732, 19.96928]}, "properties": {"id": "cr-weedth-6df16e63", "name": "ร้านขายกัญชาบ้านดู่ เชียงราย ด้ายแดง Fifty Exotic Shop", "nameTh": "ร้านขายกัญชาบ้านดู่ เชียงราย ด้ายแดง Fifty Exotic Shop", "nameEn": null, "cat": ["cannabis"], "province": "cr", "slug": "fifty-exotic-shop-61663", "rank": 2}}, {"type": "Feature", "geometry": {"type": "Point", "coordinates": [99.85732, 19.96928]}, "properties": {"id": "cr-weedth-8da9fee9", "name": "ร้านขายกัญชาบ้านดู่-เชียงราย Santisukh Cannabis.Shop", "nameTh": "ร้านขายกัญชาบ้านดู่-เชียงราย Santisukh Cannabis.Shop", "nameEn": null, "cat": ["cannabis"], "province": "cr", "slug": "santisukh-cannabis-shop-899", "rank": 2}}, {"type": "Feature", "geometry": {"type": "Point", "coordinates": [99.85732, 19.96928]}, "properties": {"id": "cr-weedth-1b84fb9d", "name": "ร้านขายกัญชาบ้านดู่เชียงราย Smile X HEAVEN", "nameTh": "ร้านขายกัญชาบ้านดู่เชียงราย Smile X HEAVEN", "nameEn": null, "cat": ["cannabis"], "province": "cr", "slug": "smile-x-heaven-1849", "rank": 2}}, {"type": "Feature", "geometry": {"type": "Point", "coordinates": [99.8278, 19.89867]}, "properties": {"id": "cr-osm-node-12718331001", "name": "ร้านขายใบกระท่อม สี่แยกหลังโรงพยาบาล", "nameTh": "ร้านขายใบกระท่อม สี่แยกหลังโรงพยาบาล", "nameEn": null, "cat": ["cannabis"], "province": "cr", "slug": "12718331001", "rank": 1}}, {"type": "Feature", "geometry": {"type": "Point", "coordinates": [99.8175, 19.89948]}, "properties": {"id": "cr-weedth-ecb6a474", "name": "ร้านยันหลาว | YanHlaw Shop", "nameTh": "ร้านยันหลาว | YanHlaw Shop", "nameEn": null, "cat": ["cannabis"], "province": "cr", "slug": "yanhlaw-shop-6474", "rank": 2}}, {"type": "Feature", "geometry": {"type": "Point", "coordinates": [99.82783, 19.90127]}, "properties": {"id": "cr-weedth-fa91c179", "name": "ร้านยันหลาว | YanHlaw Shop", "nameTh": "ร้านยันหลาว | YanHlaw Shop", "nameEn": null, "cat": ["cannabis"], "province": "cr", "slug": "yanhlaw-shop-91179", "rank": 2}}, {"type": "Feature", "geometry": {"type": "Point", "coordinates": [99.82783, 19.90127]}, "properties": {"id": "cr-weedth-6641ea79", "name": "ร้านเฮือนขนมไทย", "nameTh": "ร้านเฮือนขนมไทย", "nameEn": null, "cat": ["cannabis"], "province": "cr", "slug": "664179", "rank": 2}}, {"type": "Feature", "geometry": {"type": "Point", "coordinates": [99.74362, 20.18]}, "properties": {"id": "cr-weedth-d98e1033", "name": "ร้านแม่จันสปอร์ต", "nameTh": "ร้านแม่จันสปอร์ต", "nameEn": null, "cat": ["cannabis"], "province": "cr", "slug": "981033", "rank": 2}}, {"type": "Feature", "geometry": {"type": "Point", "coordinates": [99.88239, 20.42425]}, "properties": {"id": "cr-weedth-ddb59fb2", "name": "ร้านใบไม้ร่าเริง ร้านกัญชาและใบกระท่อมแม่สาย Special Leaf Cannabis Store", "nameTh": "ร้านใบไม้ร่าเริง ร้านกัญชาและใบกระท่อมแม่สาย Special Leaf Cannabis Store", "nameEn": null, "cat": ["cannabis"], "province": "cr", "slug": "special-leaf-cannabis-store-592", "rank": 2}}, {"type": "Feature", "geometry": {"type": "Point", "coordinates": [99.50605, 19.70424]}, "properties": {"id": "cr-weedth-2d2286c0", "name": "วาวีลีซอฟาร์มแลนด์", "nameTh": "วาวีลีซอฟาร์มแลนด์", "nameEn": null, "cat": ["cannabis"], "province": "cr", "slug": "222860", "rank": 2}}, {"type": "Feature", "geometry": {"type": "Point", "coordinates": [99.88239, 20.42425]}, "properties": {"id": "cr-weedth-986187da", "name": "สวนฅนชอบกัญ(กัญชง กัญชา)บริษัท S.K.Y.เชียงรายแคนนาบิส จำกัด", "nameTh": "สวนฅนชอบกัญ(กัญชง กัญชา)บริษัท S.K.Y.เชียงรายแคนนาบิส จำกัด", "nameEn": null, "cat": ["cannabis"], "province": "cr", "slug": "s-k-y-986187", "rank": 2}}, {"type": "Feature", "geometry": {"type": "Point", "coordinates": [99.85732, 19.96928]}, "properties": {"id": "cr-weedth-f8ea6a6c", "name": "สันติ420", "nameTh": "สันติ420", "nameEn": null, "cat": ["cannabis"], "province": "cr", "slug": "420-866", "rank": 2}}, {"type": "Feature", "geometry": {"type": "Point", "coordinates": [99.82783, 19.90127]}, "properties": {"id": "cr-weedth-871d7c24", "name": "เจียงฮายแลนด์ - Chiang High Land", "nameTh": "เจียงฮายแลนด์ - Chiang High Land", "nameEn": null, "cat": ["cannabis"], "province": "cr", "slug": "chiang-high-land-871724", "rank": 2}}, {"type": "Feature", "geometry": {"type": "Point", "coordinates": [99.7072, 19.8006]}, "properties": {"id": "cr-weedth-30d54351", "name": "เอเจ&นาโนไฮโดรฟาร์ม (AJ&NANO HYDROFARM)", "nameTh": "เอเจ&นาโนไฮโดรฟาร์ม (AJ&NANO HYDROFARM)", "nameEn": null, "cat": ["cannabis"], "province": "cr", "slug": "aj-nano-hydrofarm-3054351", "rank": 2}}, {"type": "Feature", "geometry": {"type": "Point", "coordinates": [99.88239, 20.42425]}, "properties": {"id": "cr-weedth-0828cceb", "name": "โอจี แม่สาย", "nameTh": "โอจี แม่สาย", "nameEn": null, "cat": ["cannabis"], "province": "cr", "slug": "0828", "rank": 2}}, {"type": "Feature", "geometry": {"type": "Point", "coordinates": [100.40969, 20.23271]}, "properties": {"id": "cr-weedth-4ddd0aff", "name": "ใจแลกใจ @เชียงของ Cannabis", "nameTh": "ใจแลกใจ @เชียงของ Cannabis", "nameEn": null, "cat": ["cannabis"], "province": "cr", "slug": "cannabis-40", "rank": 2}}, {"type": "Feature", "geometry": {"type": "Point", "coordinates": [99.85732, 19.96928]}, "properties": {"id": "cr-weedth-ba3ff211", "name": "ใจแลกใจ&บ้านดู่เมืองใหม่", "nameTh": "ใจแลกใจ&บ้านดู่เมืองใหม่", "nameEn": null, "cat": ["cannabis"], "province": "cr", "slug": "3211", "rank": 2}}]}