{"type": "FeatureCollection", "features": [{"type": "Feature", "geometry": {"type": "Point", "coordinates": [99.4695643, 20.3646622]}, "properties": {"id": "cr-osm-node-3836605857", "name": "Ban Hua Mae Kham festival ground", "nameTh": null, "nameEn": "Ban Hua Mae Kham festival ground", "cat": ["community"], "province": "cr"}}, {"type": "Feature", "geometry": {"type": "Point", "coordinates": [100.4087652, 20.2545139]}, "properties": {"id": "cr-osm-node-6407886687", "name": "กลุ่มหัตถกรรม ที่เก็บของ และสินค้าหัตถกรรมประชารัฐบ้านสบสม", "nameTh": "กลุ่มหัตถกรรม ที่เก็บของ และสินค้าหัตถกรรมประชารัฐบ้านสบสม", "nameEn": "Sob Som Village Center", "cat": ["community"], "province": "cr"}}, {"type": "Feature", "geometry": {"type": "Point", "coordinates": [100.2573915, 20.2873065]}, "properties": {"id": "cr-osm-node-4252393190", "name": "คริสตจักรธารทอง", "nameTh": "คริสตจักรธารทอง", "nameEn": null, "cat": ["community"], "province": "cr"}}, {"type": "Feature", "geometry": {"type": "Point", "coordinates": [99.858637, 20.1494389]}, "properties": {"id": "cr-osm-node-2150597989", "name": "ชมรมผู้สูงอายุ อำเภอแม่จัน", "nameTh": "ชมรมผู้สูงอายุ อำเภอแม่จัน", "nameEn": null, "cat": ["community"], "province": "cr"}}, {"type": "Feature", "geometry": {"type": "Point", "coordinates": [99.8341965, 19.9163742]}, "properties": {"id": "cr-osm-way-1036773900", "name": "ชุมชนเทิดพระเกียรติ", "nameTh": "ชุมชนเทิดพระเกียรติ", "nameEn": "Therdprakiat Community Center", "cat": ["community"], "province": "cr"}}, {"type": "Feature", "geometry": {"type": "Point", "coordinates": [100.2682566, 19.7019798]}, "properties": {"id": "cr-osm-node-6424442785", "name": "ตลาดสดชุมชนบเานดอนแยง", "nameTh": "ตลาดสดชุมชนบ้านดอนแยง", "nameEn": "Ban Don Yaeng market", "cat": ["community"], "province": "cr"}}, {"type": "Feature", "geometry": {"type": "Point", "coordinates": [100.2099512, 20.30819]}, "properties": {"id": "cr-osm-node-6403351685", "name": "ตลาดสดปงของ", "nameTh": "ตลาดสดปงของ", "nameEn": "Pong Khong Market", "cat": ["community"], "province": "cr"}}, {"type": "Feature", "geometry": {"type": "Point", "coordinates": [99.8020212, 20.1992395]}, "properties": {"id": "cr-osm-node-7179402816", "name": "ตลาดแม่สลองใน", "nameTh": "ตลาดแม่สลองใน", "nameEn": "Mae Salongnai market", "cat": ["community"], "province": "cr"}}, {"type": "Feature", "geometry": {"type": "Point", "coordinates": [99.7844371, 20.0949426]}, "properties": {"id": "cr-osm-node-2147459044", "name": "ที่ทำการกำนันตำบลป่าตึง และ สถานีบำบัดทุกข์", "nameTh": "ที่ทำการกำนันตำบลป่าตึง และ สถานีบำบัดทุกข์", "nameEn": null, "cat": ["community"], "province": "cr"}}, {"type": "Feature", "geometry": {"type": "Point", "coordinates": [99.819219, 19.9027995]}, "properties": {"id": "cr-osm-node-9215459178", "name": "ที่ทำการชมรมผู้สูงอายุสันโค้งน้อย", "nameTh": "ที่ทำการชมรมผู้สูงอายุสันโค้งน้อย", "nameEn": "San Khong Noi Elderly Club", "cat": ["community"], "province": "cr"}}, {"type": "Feature", "geometry": {"type": "Point", "coordinates": [99.3689086, 19.7515171]}, "properties": {"id": "cr-osm-node-7553078689", "name": "บ้านจำปี(อาข่า)", "nameTh": "บ้านจำปี(อาข่า)", "nameEn": "Cham Pee Ar kha village", "cat": ["community"], "province": "cr"}}, {"type": "Feature", "geometry": {"type": "Point", "coordinates": [100.4502172, 20.2037897]}, "properties": {"id": "cr-osm-node-4561505497", "name": "บ้านปากอิงใต้", "nameTh": "บ้านปากอิงใต้", "nameEn": null, "cat": ["community"], "province": "cr"}}, {"type": "Feature", "geometry": {"type": "Point", "coordinates": [99.3672707, 19.728455]}, "properties": {"id": "cr-osm-node-7553078691", "name": "บ้านปางไม้", "nameTh": "บ้านปางไม้", "nameEn": "Ban Pang Mai village", "cat": ["community"], "province": "cr"}}, {"type": "Feature", "geometry": {"type": "Point", "coordinates": [100.3707438, 19.8303798]}, "properties": {"id": "cr-osm-node-6420200885", "name": "บ้านรักแผ่นดิน", "nameTh": "บ้านรักแผ่นดิน", "nameEn": "Ban Rakpandin", "cat": ["community"], "province": "cr"}}, {"type": "Feature", "geometry": {"type": "Point", "coordinates": [100.3548045, 20.3630585]}, "properties": {"id": "cr-osm-node-6406114886", "name": "บ้านเมืองกาญจน์", "nameTh": "บ้านเมืองกาญจน์", "nameEn": "Ban Muangkarn", "cat": ["community"], "province": "cr"}}, {"type": "Feature", "geometry": {"type": "Point", "coordinates": [100.3746779, 19.8379147]}, "properties": {"id": "cr-osm-node-6420200786", "name": "บ้านแผ่นดินทอว", "nameTh": "บ้านแผ่นดินทอว", "nameEn": "Ban Pandinthong", "cat": ["community"], "province": "cr"}}, {"type": "Feature", "geometry": {"type": "Point", "coordinates": [99.8093756, 19.938967]}, "properties": {"id": "cr-osm-way-1315717120", "name": "ภาต 2", "nameTh": "ภาต 2", "nameEn": "The Chiangrai Second Church District Mission Centre", "cat": ["community"], "province": "cr"}}, {"type": "Feature", "geometry": {"type": "Point", "coordinates": [99.750357, 19.9949165]}, "properties": {"id": "cr-osm-node-7502437242", "name": "มูลนิธิกระจกเงา", "nameTh": "มูลนิธิกระจกเงา", "nameEn": "the mirror foundation", "cat": ["community"], "province": "cr"}}, {"type": "Feature", "geometry": {"type": "Point", "coordinates": [99.8250369, 19.907609]}, "properties": {"id": "cr-osm-way-959733166", "name": "ร่มไทร สนุ๊กเกอร์", "nameTh": "ร่มไทร สนุ๊กเกอร์", "nameEn": "Rom Sai Snooker", "cat": ["community"], "province": "cr"}}, {"type": "Feature", "geometry": {"type": "Point", "coordinates": [100.3125293, 19.9508566]}, "properties": {"id": "cr-osm-node-5294327527", "name": "ร้านบ้านทุ่ง", "nameTh": "ร้านบ้านทุ่ง", "nameEn": "BanThung", "cat": ["community"], "province": "cr"}}, {"type": "Feature", "geometry": {"type": "Point", "coordinates": [99.8275992, 20.350611]}, "properties": {"id": "cr-osm-node-13337290901", "name": "ศูนย์การเรียนรู้ชาวไทยภูเขาบ้านเผาฮี้", "nameTh": "ศูนย์การเรียนรู้ชาวไทยภูเขาบ้านเผาฮี้", "nameEn": null, "cat": ["community"], "province": "cr"}}, {"type": "Feature", "geometry": {"type": "Point", "coordinates": [100.5087211, 19.9430936]}, "properties": {"id": "cr-osm-node-13865370001", "name": "ศูนย์การเรียนรู้ชุมชนผาตั้ง", "nameTh": "ศูนย์การเรียนรู้ชุมชนผาตั้ง", "nameEn": null, "cat": ["community"], "province": "cr"}}, {"type": "Feature", "geometry": {"type": "Point", "coordinates": [100.2500897, 20.370041]}, "properties": {"id": "cr-osm-node-6403856387", "name": "ศูนย์จัดแสดงสินค้าโอทอปชุมชนหาดบ้าย", "nameTh": "ศูนย์จัดแสดงสินค้าโอทอปชุมชนหาดบ้าย", "nameEn": "OTOP Hadbai Center", "cat": ["community"], "province": "cr"}}, {"type": "Feature", "geometry": {"type": "Point", "coordinates": [100.3197785, 19.9707509]}, "properties": {"id": "cr-osm-node-6984010691", "name": "ศูนย์ชุมชนบ้านงามเมือง", "nameTh": "ศูนย์ชุมชนบ้านงามเมือง", "nameEn": "Ban Ngam Muang village center", "cat": ["community"], "province": "cr"}}, {"type": "Feature", "geometry": {"type": "Point", "coordinates": [99.9887522, 19.8093467]}, "properties": {"id": "cr-osm-way-1233190526", "name": "ศูนย์ชุมชนบ้านจงเจริญ", "nameTh": "ศูนย์ชุมชนบ้านจงเจริญ", "nameEn": "Ban Chong Charoen Community Center", "cat": ["community"], "province": "cr"}}, {"type": "Feature", "geometry": {"type": "Point", "coordinates": [100.2588235, 20.3878107]}, "properties": {"id": "cr-osm-node-13305692101", "name": "ศูนย์ชุมชนบ้านดอนที่", "nameTh": "ศูนย์ชุมชนบ้านดอนที่", "nameEn": null, "cat": ["community"], "province": "cr"}}, {"type": "Feature", "geometry": {"type": "Point", "coordinates": [99.7813054, 19.9560206]}, "properties": {"id": "cr-osm-node-7461678287", "name": "ศูนย์ชุมชนบ้านทรายมูล", "nameTh": "ศูนย์ชุมชนบ้านทรายมูล", "nameEn": "Saimool village center", "cat": ["community"], "province": "cr"}}, {"type": "Feature", "geometry": {"type": "Point", "coordinates": [100.3290024, 19.7772274]}, "properties": {"id": "cr-osm-node-6422530885", "name": "ศูนย์ชุมชนบ้านธาตุ", "nameTh": "ศูนย์ชุมชนบ้านธาตุ", "nameEn": "Ban Tat village center", "cat": ["community"], "province": "cr"}}, {"type": "Feature", "geometry": {"type": "Point", "coordinates": [100.3172164, 19.9603768]}, "properties": {"id": "cr-osm-node-6984010689", "name": "ศูนย์ชุมชนบ้านน้ำแพร่เหนือ", "nameTh": "ศูนย์ชุมชนบ้านน้ำแพร่เหนือ", "nameEn": "Ban Namphrae Nuar village center", "cat": ["community"], "province": "cr"}}, {"type": "Feature", "geometry": {"type": "Point", "coordinates": [100.3164875, 19.9577022]}, "properties": {"id": "cr-osm-node-6984011385", "name": "ศูนย์ชุมชนบ้านน้ำแพร่ใต้", "nameTh": "ศูนย์ชุมชนบ้านน้ำแพร่ใต้", "nameEn": "Ban Namphrae Tai village center", "cat": ["community"], "province": "cr"}}, {"type": "Feature", "geometry": {"type": "Point", "coordinates": [99.8510167, 20.399391]}, "properties": {"id": "cr-osm-node-13334924301", "name": "ศูนย์ชุมชนบ้านผาหมี", "nameTh": "ศูนย์ชุมชนบ้านผาหมี", "nameEn": null, "cat": ["community"], "province": "cr"}}, {"type": "Feature", "geometry": {"type": "Point", "coordinates": [100.3994814, 19.8685841]}, "properties": {"id": "cr-osm-node-6419896388", "name": "ศูนย์ชุมชนบ้านราษฎร์ภักดี", "nameTh": "ศูนย์ชุมชนบ้านราษฎร์ภักดี", "nameEn": "Ratr Pakdee village center", "cat": ["community"], "province": "cr"}}, {"type": "Feature", "geometry": {"type": "Point", "coordinates": [100.4425367, 19.8453158]}, "properties": {"id": "cr-osm-node-6956800095", "name": "ศูนย์ชุมชนบ้านร่มฟ้าไทบ", "nameTh": "ศูนย์ชุมชนบ้านร่มฟ้าไทบ", "nameEn": "Romfahthai village center", "cat": ["community"], "province": "cr"}}, {"type": "Feature", "geometry": {"type": "Point", "coordinates": [100.2446577, 20.3450185]}, "properties": {"id": "cr-osm-node-6403566492", "name": "ศูนย์ตำรวจชุมชนหมู่บ้านสันต้นเปา", "nameTh": "ศูนย์ตำรวจชุมชนหมู่บ้านสันต้นเปา", "nameEn": "Santonpao village center", "cat": ["community"], "province": "cr"}}, {"type": "Feature", "geometry": {"type": "Point", "coordinates": [99.6024629, 20.1027312]}, "properties": {"id": "cr-osm-node-6536421985", "name": "ศูนย์ท่องเที่ยวเชิงอนุรักษ์บ้านหล่อชา", "nameTh": "ศูนย์ท่องเที่ยวเชิงอนุรักษ์บ้านหล่อชา", "nameEn": "Community-based Tourism Development Project at Ban Lo Cha", "cat": ["community"], "province": "cr"}}, {"type": "Feature", "geometry": {"type": "Point", "coordinates": [99.847065, 20.3989143]}, "properties": {"id": "cr-osm-node-13334892601", "name": "ศูนย์ปฏิบัติการ ชรบ.อพปร.บ้านผาหมี", "nameTh": "ศูนย์ปฏิบัติการ ชรบ.อพปร.บ้านผาหมี", "nameEn": null, "cat": ["community"], "province": "cr"}}, {"type": "Feature", "geometry": {"type": "Point", "coordinates": [99.7888358, 20.1153725]}, "properties": {"id": "cr-osm-way-657101578", "name": "ศูนย์ประสานงานคริสเตียนสัมพันธ์ป่าตึง", "nameTh": "ศูนย์ประสานงานคริสเตียนสัมพันธ์ป่าตึง", "nameEn": null, "cat": ["community"], "province": "cr"}}, {"type": "Feature", "geometry": {"type": "Point", "coordinates": [99.534733, 19.2053427]}, "properties": {"id": "cr-osm-node-13248931301", "name": "ศูนย์วิสาหกิจชุมชนไม้ไผ่พัฒนาเวียงกาหลง", "nameTh": "ศูนย์วิสาหกิจชุมชนไม้ไผ่พัฒนาเวียงกาหลง", "nameEn": "Bamboo SME village center", "cat": ["community"], "province": "cr"}}, {"type": "Feature", "geometry": {"type": "Point", "coordinates": [99.4862117, 19.5334571]}, "properties": {"id": "cr-osm-node-13238425001", "name": "ศูนย์หมู่บ้านป่าถ่อนใหม่สุขสันต์", "nameTh": "ศูนย์หมู่บ้านป่าถ่อนใหม่สุขสันต์", "nameEn": "Pathon Mai Suk San village center", "cat": ["community"], "province": "cr"}}, {"type": "Feature", "geometry": {"type": "Point", "coordinates": [100.4118215, 20.1492523]}, "properties": {"id": "cr-osm-node-6410917385", "name": "ศูนย์เรียนรู้ชุมชนศรีดอนชัย", "nameTh": "ศูนย์เรียนรู้ชุมชนศรีดอนชัย", "nameEn": "Sridonchai Study Center", "cat": ["community"], "province": "cr"}}, {"type": "Feature", "geometry": {"type": "Point", "coordinates": [99.6974766, 20.1101457]}, "properties": {"id": "cr-osm-node-6536437296", "name": "ศูนย์เรียนรู้เกษตรและชาติพันธุ์", "nameTh": "ศูนย์เรียนรู้เกษตรและชาติพันธุ์", "nameEn": null, "cat": ["community"], "province": "cr"}}, {"type": "Feature", "geometry": {"type": "Point", "coordinates": [100.3790256, 20.0368873]}, "properties": {"id": "cr-osm-node-13290279101", "name": "สนามกีฬากลางตำบลครึ่ง", "nameTh": "สนามกีฬากลางตำบลครึ่ง", "nameEn": "Krueng subdistrict sport center", "cat": ["community"], "province": "cr"}}, {"type": "Feature", "geometry": {"type": "Point", "coordinates": [99.8336903, 20.1347904]}, "properties": {"id": "cr-osm-node-2147540177", "name": "สภาวัฒนธรรมหมู่บ้าน", "nameTh": "สภาวัฒนธรรมหมู่บ้าน", "nameEn": null, "cat": ["community"], "province": "cr"}}, {"type": "Feature", "geometry": {"type": "Point", "coordinates": [99.8326565, 19.9153898]}, "properties": {"id": "cr-osm-way-1085370856", "name": "สมาคมฝรั่งเศสเชียงราย", "nameTh": "สมาคมฝรั่งเศสเชียงราย", "nameEn": "French Alliance", "cat": ["community"], "province": "cr"}}, {"type": "Feature", "geometry": {"type": "Point", "coordinates": [99.8332281, 19.9154944]}, "properties": {"id": "cr-osm-way-1085370871", "name": "สมาคมรถเล็กเชียงราย", "nameTh": "สมาคมรถเล็กเชียงราย", "nameEn": "Chiang Rai Small Car Association", "cat": ["community"], "province": "cr"}}, {"type": "Feature", "geometry": {"type": "Point", "coordinates": [99.8344118, 19.9119784]}, "properties": {"id": "cr-osm-way-965305303", "name": "สมาคมส่งเสริมวัฒนธรรมหญิง", "nameTh": "สมาคมส่งเสริมวัฒนธรรมหญิง", "nameEn": "Woman Culture Association", "cat": ["community"], "province": "cr"}}, {"type": "Feature", "geometry": {"type": "Point", "coordinates": [100.3526765, 20.3718827]}, "properties": {"id": "cr-osm-node-6405731186", "name": "สหกรณ์การเกษตรศุภนิมิตริมโขง", "nameTh": "สหกรณ์การเกษตรศุภนิมิตริมโขง", "nameEn": "Supanimit Rimkhong Agricultural Cooperation Ltd.", "cat": ["community"], "province": "cr"}}, {"type": "Feature", "geometry": {"type": "Point", "coordinates": [99.8348975, 19.9163877]}, "properties": {"id": "cr-osm-way-1036773887", "name": "สาขาสมาคมสภาผู้สูงอายุแห่งประเทศไทย", "nameTh": "สาขาสมาคมสภาผู้สูงอายุแห่งประเทศไทย", "nameEn": "Senior Citizens Council of Thailand Branch", "cat": ["community"], "province": "cr"}}, {"type": "Feature", "geometry": {"type": "Point", "coordinates": [99.8629884, 20.2896817]}, "properties": {"id": "cr-osm-node-6304951685", "name": "หมู่บ้านเก้าหลัง", "nameTh": "หมู่บ้านเก้าหลัง", "nameEn": "Hkao lung village", "cat": ["community"], "province": "cr"}}, {"type": "Feature", "geometry": {"type": "Point", "coordinates": [100.3763363, 20.2057317]}, "properties": {"id": "cr-osm-node-13379795401", "name": "หอประชุมบ้านน้ำม้า หมู่3", "nameTh": "หอประชุมบ้านน้ำม้า หมู่3", "nameEn": null, "cat": ["community"], "province": "cr"}}, {"type": "Feature", "geometry": {"type": "Point", "coordinates": [100.3544699, 20.3498047]}, "properties": {"id": "cr-osm-node-13302457202", "name": "หอประชุมหมู่บ้านห้วยเย็น", "nameTh": "หอประชุมหมู่บ้านห้วยเย็น", "nameEn": null, "cat": ["community"], "province": "cr"}}, {"type": "Feature", "geometry": {"type": "Point", "coordinates": [99.8443227, 19.8562826]}, "properties": {"id": "cr-osm-node-13269429701", "name": "หอประชุมหมู่บ้านและลานกิจกรรม", "nameTh": "หอประชุมหมู่บ้านและลานกิจกรรม", "nameEn": "village center", "cat": ["community"], "province": "cr"}}, {"type": "Feature", "geometry": {"type": "Point", "coordinates": [99.8261286, 19.9056006]}, "properties": {"id": "cr-osm-node-8931701770", "name": "ห้องอากาศยาน", "nameTh": "ห้องอากาศยาน", "nameEn": null, "cat": ["community"], "province": "cr"}}, {"type": "Feature", "geometry": {"type": "Point", "coordinates": [99.7930267, 20.1158926]}, "properties": {"id": "cr-osm-node-2148615748", "name": "อาคารอเนกประสงค์", "nameTh": "อาคารอเนกประสงค์", "nameEn": null, "cat": ["community"], "province": "cr"}}, {"type": "Feature", "geometry": {"type": "Point", "coordinates": [99.8111649, 19.9009143]}, "properties": {"id": "cr-osm-way-1083152662", "name": "อาคารอเนกประสงค์ ชุมชนเด่นห้า", "nameTh": "อาคารอเนกประสงค์ ชุมชนเด่นห้า", "nameEn": "Multipurpose Building, Den Ha Community", "cat": ["community"], "province": "cr"}}]}