{"type": "FeatureCollection", "features": [{"type": "Feature", "geometry": {"type": "Point", "coordinates": [99.8369293, 19.9062014]}, "properties": {"id": "cr-osm-node-10232750717", "name": "7 Eleven", "nameTh": null, "nameEn": "7 Eleven", "cat": ["essentials"], "province": "cr"}}, {"type": "Feature", "geometry": {"type": "Point", "coordinates": [99.8455345, 19.9412023]}, "properties": {"id": "cr-osm-node-6632634495", "name": "7 eleven", "nameTh": null, "nameEn": "7 eleven", "cat": ["essentials"], "province": "cr"}}, {"type": "Feature", "geometry": {"type": "Point", "coordinates": [99.8508288, 19.9539216]}, "properties": {"id": "cr-osm-node-6632634589", "name": "7 eleven", "nameTh": null, "nameEn": "7 eleven", "cat": ["essentials"], "province": "cr"}}, {"type": "Feature", "geometry": {"type": "Point", "coordinates": [99.8549495, 19.9294863]}, "properties": {"id": "cr-osm-node-10188046127", "name": "7-Eleven", "nameTh": null, "nameEn": "7-Eleven", "cat": ["essentials"], "province": "cr"}}, {"type": "Feature", "geometry": {"type": "Point", "coordinates": [100.298268, 20.052468]}, "properties": {"id": "cr-osm-node-10243746826", "name": "7-Eleven", "nameTh": null, "nameEn": "7-Eleven", "cat": ["essentials"], "province": "cr"}}, {"type": "Feature", "geometry": {"type": "Point", "coordinates": [100.2255921, 20.2993702]}, "properties": {"id": "cr-osm-node-11142730915", "name": "7-Eleven", "nameTh": null, "nameEn": "7-11", "cat": ["essentials"], "province": "cr"}}, {"type": "Feature", "geometry": {"type": "Point", "coordinates": [99.8736305, 20.0313521]}, "properties": {"id": "cr-osm-node-11342852269", "name": "7-Eleven", "nameTh": null, "nameEn": "7 Eleven", "cat": ["essentials"], "province": "cr"}}, {"type": "Feature", "geometry": {"type": "Point", "coordinates": [99.8026707, 20.1997182]}, "properties": {"id": "cr-osm-node-11343062469", "name": "7-Eleven", "nameTh": null, "nameEn": "7 eleven", "cat": ["essentials"], "province": "cr"}}, {"type": "Feature", "geometry": {"type": "Point", "coordinates": [99.8057058, 19.8468939]}, "properties": {"id": "cr-osm-node-11345485072", "name": "7-Eleven", "nameTh": null, "nameEn": "7-Eleven", "cat": ["essentials"], "province": "cr"}}, {"type": "Feature", "geometry": {"type": "Point", "coordinates": [99.7645929, 19.8221642]}, "properties": {"id": "cr-osm-node-11345485074", "name": "7-Eleven", "nameTh": null, "nameEn": "7 eleven", "cat": ["essentials"], "province": "cr"}}, {"type": "Feature", "geometry": {"type": "Point", "coordinates": [99.8225029, 19.8638893]}, "properties": {"id": "cr-osm-node-11602192607", "name": "7-Eleven", "nameTh": null, "nameEn": "7-Eleven", "cat": ["essentials"], "province": "cr"}}, {"type": "Feature", "geometry": {"type": "Point", "coordinates": [99.9096956, 19.9385114]}, "properties": {"id": "cr-osm-node-11980280011", "name": "7-Eleven", "nameTh": null, "nameEn": "7-Eleven", "cat": ["essentials"], "province": "cr"}}, {"type": "Feature", "geometry": {"type": "Point", "coordinates": [99.7491695, 19.6038167]}, "properties": {"id": "cr-osm-node-12550149267", "name": "7-Eleven", "nameTh": null, "nameEn": "7-Eleven", "cat": ["essentials"], "province": "cr"}}, {"type": "Feature", "geometry": {"type": "Point", "coordinates": [99.8866964, 20.4383225]}, "properties": {"id": "cr-osm-node-12945750501", "name": "7-Eleven", "nameTh": null, "nameEn": "7-11 Namon Intersection", "cat": ["essentials"], "province": "cr"}}, {"type": "Feature", "geometry": {"type": "Point", "coordinates": [99.8293901, 19.8756215]}, "properties": {"id": "cr-osm-node-1295675376", "name": "7-Eleven", "nameTh": null, "nameEn": "7-Eleven", "cat": ["essentials"], "province": "cr"}}, {"type": "Feature", "geometry": {"type": "Point", "coordinates": [99.8557488, 19.9665007]}, "properties": {"id": "cr-osm-node-1295676321", "name": "7-Eleven", "nameTh": null, "nameEn": "7-Eleven", "cat": ["essentials"], "province": "cr"}}, {"type": "Feature", "geometry": {"type": "Point", "coordinates": [99.8569475, 19.9682289]}, "properties": {"id": "cr-osm-node-1295698732", "name": "7-Eleven", "nameTh": null, "nameEn": "7-Eleven", "cat": ["essentials"], "province": "cr"}}, {"type": "Feature", "geometry": {"type": "Point", "coordinates": [99.8798953, 19.8352083]}, "properties": {"id": "cr-osm-node-1295923933", "name": "7-Eleven", "nameTh": null, "nameEn": "7-Eleven", "cat": ["essentials"], "province": "cr"}}, {"type": "Feature", "geometry": {"type": "Point", "coordinates": [100.4066974, 20.2630149]}, "properties": {"id": "cr-osm-node-13506750321", "name": "7-Eleven", "nameTh": null, "nameEn": "7-Eleven", "cat": ["essentials"], "province": "cr"}}, {"type": "Feature", "geometry": {"type": "Point", "coordinates": [99.6224307, 20.1595608]}, "properties": {"id": "cr-osm-node-13524227071", "name": "7-Eleven", "nameTh": null, "nameEn": "7-Eleven", "cat": ["essentials"], "province": "cr"}}, {"type": "Feature", "geometry": {"type": "Point", "coordinates": [100.0833755, 20.3452619]}, "properties": {"id": "cr-osm-node-2078690887", "name": "7-Eleven", "nameTh": null, "nameEn": "7-Eleven", "cat": ["essentials"], "province": "cr"}}, {"type": "Feature", "geometry": {"type": "Point", "coordinates": [99.516082, 19.1975905]}, "properties": {"id": "cr-osm-node-2123248677", "name": "7-Eleven", "nameTh": null, "nameEn": "7-Eleven", "cat": ["essentials"], "province": "cr"}}, {"type": "Feature", "geometry": {"type": "Point", "coordinates": [99.503614, 19.3672996]}, "properties": {"id": "cr-osm-node-2136711248", "name": "7-Eleven", "nameTh": null, "nameEn": "7-Eleven", "cat": ["essentials"], "province": "cr"}}, {"type": "Feature", "geometry": {"type": "Point", "coordinates": [99.8394438, 19.9109206]}, "properties": {"id": "cr-osm-node-2140653246", "name": "7-Eleven", "nameTh": null, "nameEn": "7-Eleven", "cat": ["essentials"], "province": "cr"}}, {"type": "Feature", "geometry": {"type": "Point", "coordinates": [99.852798, 20.14545]}, "properties": {"id": "cr-osm-node-2148546806", "name": "7-Eleven", "nameTh": null, "nameEn": "7-Eleven", "cat": ["essentials"], "province": "cr"}}, {"type": "Feature", "geometry": {"type": "Point", "coordinates": [99.8763073, 20.0489565]}, "properties": {"id": "cr-osm-node-2153737321", "name": "7-Eleven", "nameTh": null, "nameEn": "7-Eleven", "cat": ["essentials"], "province": "cr"}}, {"type": "Feature", "geometry": {"type": "Point", "coordinates": [99.8750195, 20.0561976]}, "properties": {"id": "cr-osm-node-2153746716", "name": "7-Eleven", "nameTh": null, "nameEn": "7-Eleven", "cat": ["essentials"], "province": "cr"}}, {"type": "Feature", "geometry": {"type": "Point", "coordinates": [99.8851098, 20.4294731]}, "properties": {"id": "cr-osm-node-2193469992", "name": "7-Eleven", "nameTh": null, "nameEn": "7-Eleven", "cat": ["essentials"], "province": "cr"}}, {"type": "Feature", "geometry": {"type": "Point", "coordinates": [99.8836866, 20.4374903]}, "properties": {"id": "cr-osm-node-2193469993", "name": "7-Eleven", "nameTh": null, "nameEn": "7-Eleven", "cat": ["essentials"], "province": "cr"}}, {"type": "Feature", "geometry": {"type": "Point", "coordinates": [99.8828902, 20.4394606]}, "properties": {"id": "cr-osm-node-2193469995", "name": "7-Eleven", "nameTh": null, "nameEn": "7-Eleven", "cat": ["essentials"], "province": "cr"}}, {"type": "Feature", "geometry": {"type": "Point", "coordinates": [100.0831233, 20.3457749]}, "properties": {"id": "cr-osm-node-2206759336", "name": "7-Eleven", "nameTh": null, "nameEn": "7-Eleven", "cat": ["essentials"], "province": "cr"}}, {"type": "Feature", "geometry": {"type": "Point", "coordinates": [100.0863456, 20.2738456]}, "properties": {"id": "cr-osm-node-2212067448", "name": "7-Eleven", "nameTh": null, "nameEn": "7-Eleven", "cat": ["essentials"], "province": "cr"}}, {"type": "Feature", "geometry": {"type": "Point", "coordinates": [100.4061369, 20.2569205]}, "properties": {"id": "cr-osm-node-2295433547", "name": "7-Eleven", "nameTh": null, "nameEn": "7-Eleven", "cat": ["essentials"], "province": "cr"}}, {"type": "Feature", "geometry": {"type": "Point", "coordinates": [99.8813547, 20.4428774]}, "properties": {"id": "cr-osm-node-2319580775", "name": "7-Eleven", "nameTh": null, "nameEn": "7-Eleven", "cat": ["essentials"], "province": "cr"}}, {"type": "Feature", "geometry": {"type": "Point", "coordinates": [99.8329164, 19.9048934]}, "properties": {"id": "cr-osm-node-2321380714", "name": "7-Eleven", "nameTh": null, "nameEn": "7-Eleven", "cat": ["essentials"], "province": "cr"}}, {"type": "Feature", "geometry": {"type": "Point", "coordinates": [99.7251636, 19.7462126]}, "properties": {"id": "cr-osm-node-2337598535", "name": "7-Eleven", "nameTh": null, "nameEn": "7-Eleven", "cat": ["essentials"], "province": "cr"}}, {"type": "Feature", "geometry": {"type": "Point", "coordinates": [99.7390145, 19.7750734]}, "properties": {"id": "cr-osm-node-2476374701", "name": "7-Eleven", "nameTh": null, "nameEn": "7-Eleven", "cat": ["essentials"], "province": "cr"}}, {"type": "Feature", "geometry": {"type": "Point", "coordinates": [100.1552392, 19.8470522]}, "properties": {"id": "cr-osm-node-2831790117", "name": "7-Eleven", "nameTh": null, "nameEn": "7-Eleven", "cat": ["essentials"], "province": "cr"}}, {"type": "Feature", "geometry": {"type": "Point", "coordinates": [99.6272114, 20.1655104]}, "properties": {"id": "cr-osm-node-361377599", "name": "7-Eleven", "nameTh": null, "nameEn": "7-Eleven", "cat": ["essentials"], "province": "cr"}}, {"type": "Feature", "geometry": {"type": "Point", "coordinates": [99.7408238, 19.5505079]}, "properties": {"id": "cr-osm-node-3840319436", "name": "7-Eleven", "nameTh": null, "nameEn": "7-Eleven", "cat": ["essentials"], "province": "cr"}}, {"type": "Feature", "geometry": {"type": "Point", "coordinates": [99.822614, 19.9013443]}, "properties": {"id": "cr-osm-node-3993176464", "name": "7-Eleven", "nameTh": null, "nameEn": "7-Eleven", "cat": ["essentials"], "province": "cr"}}, {"type": "Feature", "geometry": {"type": "Point", "coordinates": [99.7415651, 19.5403268]}, "properties": {"id": "cr-osm-node-4099352339", "name": "7-Eleven", "nameTh": null, "nameEn": "7-Eleven", "cat": ["essentials"], "province": "cr"}}, {"type": "Feature", "geometry": {"type": "Point", "coordinates": [99.4624782, 19.1147899]}, "properties": {"id": "cr-osm-node-4214740989", "name": "7-Eleven", "nameTh": null, "nameEn": "7-Eleven", "cat": ["essentials"], "province": "cr"}}, {"type": "Feature", "geometry": {"type": "Point", "coordinates": [100.0823834, 20.351362]}, "properties": {"id": "cr-osm-node-4359090290", "name": "7-Eleven", "nameTh": null, "nameEn": "7-Eleven", "cat": ["essentials"], "province": "cr"}}, {"type": "Feature", "geometry": {"type": "Point", "coordinates": [99.8360057, 19.9255725]}, "properties": {"id": "cr-osm-node-4395544220", "name": "7-Eleven", "nameTh": null, "nameEn": "7-Eleven", "cat": ["essentials"], "province": "cr"}}, {"type": "Feature", "geometry": {"type": "Point", "coordinates": [99.8157609, 19.9282015]}, "properties": {"id": "cr-osm-node-4525360499", "name": "7-Eleven", "nameTh": null, "nameEn": "7-Eleven", "cat": ["essentials"], "province": "cr"}}, {"type": "Feature", "geometry": {"type": "Point", "coordinates": [99.8559995, 19.9776611]}, "properties": {"id": "cr-osm-node-4530704344", "name": "7-Eleven", "nameTh": null, "nameEn": "7-Eleven", "cat": ["essentials"], "province": "cr"}}, {"type": "Feature", "geometry": {"type": "Point", "coordinates": [99.853559, 19.9780941]}, "properties": {"id": "cr-osm-node-4530704345", "name": "7-Eleven", "nameTh": null, "nameEn": "7-Eleven", "cat": ["essentials"], "province": "cr"}}, {"type": "Feature", "geometry": {"type": "Point", "coordinates": [99.8546552, 19.9784296]}, "properties": {"id": "cr-osm-node-4530704346", "name": "7-Eleven", "nameTh": null, "nameEn": "7-Eleven", "cat": ["essentials"], "province": "cr"}}, {"type": "Feature", "geometry": {"type": "Point", "coordinates": [100.3781631, 20.0374623]}, "properties": {"id": "cr-osm-node-5005082099", "name": "7-Eleven", "nameTh": null, "nameEn": "7-Eleven", "cat": ["essentials"], "province": "cr"}}, {"type": "Feature", "geometry": {"type": "Point", "coordinates": [100.083105, 20.2742267]}, "properties": {"id": "cr-osm-node-5257232007", "name": "7-Eleven", "nameTh": null, "nameEn": "7-Eleven", "cat": ["essentials"], "province": "cr"}}, {"type": "Feature", "geometry": {"type": "Point", "coordinates": [100.0906232, 19.6539004]}, "properties": {"id": "cr-osm-node-5300187687", "name": "7-Eleven", "nameTh": null, "nameEn": "7-Eleven", "cat": ["essentials"], "province": "cr"}}, {"type": "Feature", "geometry": {"type": "Point", "coordinates": [100.2411354, 19.8134544]}, "properties": {"id": "cr-osm-node-5302688175", "name": "7-Eleven", "nameTh": null, "nameEn": "7-Eleven", "cat": ["essentials"], "province": "cr"}}, {"type": "Feature", "geometry": {"type": "Point", "coordinates": [99.9928004, 19.4996666]}, "properties": {"id": "cr-osm-node-5304591193", "name": "7-Eleven", "nameTh": null, "nameEn": "7-Eleven", "cat": ["essentials"], "province": "cr"}}, {"type": "Feature", "geometry": {"type": "Point", "coordinates": [99.7947763, 19.8802249]}, "properties": {"id": "cr-osm-node-6052070140", "name": "7-Eleven", "nameTh": null, "nameEn": "7-Eleven", "cat": ["essentials"], "province": "cr"}}, {"type": "Feature", "geometry": {"type": "Point", "coordinates": [99.8301703, 19.9014493]}, "properties": {"id": "cr-osm-node-6291000616", "name": "7-Eleven", "nameTh": null, "nameEn": "7-Eleven", "cat": ["essentials"], "province": "cr"}}, {"type": "Feature", "geometry": {"type": "Point", "coordinates": [99.7519092, 19.5651564]}, "properties": {"id": "cr-osm-node-6631591501", "name": "7-Eleven", "nameTh": null, "nameEn": "7-Eleven", "cat": ["essentials"], "province": "cr"}}, {"type": "Feature", "geometry": {"type": "Point", "coordinates": [99.8379642, 19.8960326]}, "properties": {"id": "cr-osm-node-6632629890", "name": "7-Eleven", "nameTh": null, "nameEn": "7 eleven", "cat": ["essentials"], "province": "cr"}}, {"type": "Feature", "geometry": {"type": "Point", "coordinates": [99.822322, 19.9001756]}, "properties": {"id": "cr-osm-node-6690089185", "name": "7-Eleven", "nameTh": null, "nameEn": "7-Eleven", "cat": ["essentials"], "province": "cr"}}, {"type": "Feature", "geometry": {"type": "Point", "coordinates": [99.5101569, 19.3376676]}, "properties": {"id": "cr-osm-node-7086386309", "name": "7-Eleven", "nameTh": null, "nameEn": "7-Eleven", "cat": ["essentials"], "province": "cr"}}, {"type": "Feature", "geometry": {"type": "Point", "coordinates": [99.4761464, 19.4916904]}, "properties": {"id": "cr-osm-node-7086442172", "name": "7-Eleven", "nameTh": null, "nameEn": "7-Eleven", "cat": ["essentials"], "province": "cr"}}, {"type": "Feature", "geometry": {"type": "Point", "coordinates": [99.8575644, 19.894796]}, "properties": {"id": "cr-osm-node-8928531141", "name": "7-Eleven", "nameTh": null, "nameEn": "7-Eleven", "cat": ["essentials"], "province": "cr"}}, {"type": "Feature", "geometry": {"type": "Point", "coordinates": [99.8132391, 19.9002165]}, "properties": {"id": "cr-osm-node-9473042084", "name": "7-Eleven", "nameTh": null, "nameEn": "7-Eleven", "cat": ["essentials"], "province": "cr"}}, {"type": "Feature", "geometry": {"type": "Point", "coordinates": [99.8368326, 19.9007514]}, "properties": {"id": "cr-osm-node-9512592444", "name": "7-Eleven", "nameTh": null, "nameEn": "7-Eleven", "cat": ["essentials"], "province": "cr"}}, {"type": "Feature", "geometry": {"type": "Point", "coordinates": [99.84097, 19.95577]}, "properties": {"id": "cr-osm-node-9748971871", "name": "7-Eleven", "nameTh": null, "nameEn": "7-Eleven", "cat": ["essentials"], "province": "cr"}}, {"type": "Feature", "geometry": {"type": "Point", "coordinates": [99.8630927, 19.9877167]}, "properties": {"id": "cr-osm-node-9982567030", "name": "7-Eleven", "nameTh": null, "nameEn": "7-Eleven", "cat": ["essentials"], "province": "cr"}}, {"type": "Feature", "geometry": {"type": "Point", "coordinates": [99.5138028, 19.2505942]}, "properties": {"id": "cr-osm-way-1013286022", "name": "7-Eleven", "nameTh": null, "nameEn": "7-Eleven", "cat": ["essentials"], "province": "cr"}}, {"type": "Feature", "geometry": {"type": "Point", "coordinates": [99.5069638, 19.3518434]}, "properties": {"id": "cr-osm-way-1013293665", "name": "7-Eleven", "nameTh": null, "nameEn": "7-Eleven", "cat": ["essentials"], "province": "cr"}}, {"type": "Feature", "geometry": {"type": "Point", "coordinates": [99.7312716, 19.7524609]}, "properties": {"id": "cr-osm-way-1013494820", "name": "7-Eleven", "nameTh": null, "nameEn": "7-Eleven", "cat": ["essentials"], "province": "cr"}}, {"type": "Feature", "geometry": {"type": "Point", "coordinates": [100.4117807, 20.2434289]}, "properties": {"id": "cr-osm-way-1013618592", "name": "7-Eleven", "nameTh": null, "nameEn": "7-Eleven", "cat": ["essentials"], "province": "cr"}}, {"type": "Feature", "geometry": {"type": "Point", "coordinates": [99.7329443, 19.8475075]}, "properties": {"id": "cr-osm-way-1014606582", "name": "7-Eleven", "nameTh": null, "nameEn": "7-Eleven", "cat": ["essentials"], "province": "cr"}}, {"type": "Feature", "geometry": {"type": "Point", "coordinates": [99.8503404, 19.8793587]}, "properties": {"id": "cr-osm-way-1014990980", "name": "7-Eleven", "nameTh": null, "nameEn": "7-Eleven", "cat": ["essentials"], "province": "cr"}}, {"type": "Feature", "geometry": {"type": "Point", "coordinates": [99.6600027, 19.7882636]}, "properties": {"id": "cr-osm-way-1027571547", "name": "7-Eleven", "nameTh": null, "nameEn": "7-Eleven", "cat": ["essentials"], "province": "cr"}}, {"type": "Feature", "geometry": {"type": "Point", "coordinates": [99.4924812, 19.5781497]}, "properties": {"id": "cr-osm-way-1028244370", "name": "7-Eleven", "nameTh": null, "nameEn": "7-Eleven", "cat": ["essentials"], "province": "cr"}}, {"type": "Feature", "geometry": {"type": "Point", "coordinates": [100.0416886, 20.0057253]}, "properties": {"id": "cr-osm-way-1033387178", "name": "7-Eleven", "nameTh": null, "nameEn": "7-Eleven", "cat": ["essentials"], "province": "cr"}}, {"type": "Feature", "geometry": {"type": "Point", "coordinates": [99.9175445, 20.4420199]}, "properties": {"id": "cr-osm-way-1112441628", "name": "7-Eleven", "nameTh": null, "nameEn": "7-Eleven", "cat": ["essentials"], "province": "cr"}}, {"type": "Feature", "geometry": {"type": "Point", "coordinates": [99.8830894, 20.3260159]}, "properties": {"id": "cr-osm-way-1112600960", "name": "7-Eleven", "nameTh": null, "nameEn": "7-Eleven", "cat": ["essentials"], "province": "cr"}}, {"type": "Feature", "geometry": {"type": "Point", "coordinates": [100.0881404, 20.2905278]}, "properties": {"id": "cr-osm-way-1114778441", "name": "7-Eleven", "nameTh": null, "nameEn": "7-Eleven", "cat": ["essentials"], "province": "cr"}}, {"type": "Feature", "geometry": {"type": "Point", "coordinates": [99.8547818, 19.9082016]}, "properties": {"id": "cr-osm-way-1123332444", "name": "7-Eleven", "nameTh": null, "nameEn": "7-Eleven", "cat": ["essentials"], "province": "cr"}}, {"type": "Feature", "geometry": {"type": "Point", "coordinates": [99.8440642, 19.9092391]}, "properties": {"id": "cr-osm-way-1123348593", "name": "7-Eleven", "nameTh": null, "nameEn": "7-Eleven", "cat": ["essentials"], "province": "cr"}}, {"type": "Feature", "geometry": {"type": "Point", "coordinates": [99.8271292, 19.8943799]}, "properties": {"id": "cr-osm-way-1125805639", "name": "7-Eleven", "nameTh": null, "nameEn": "7-Eleven", "cat": ["essentials"], "province": "cr"}}, {"type": "Feature", "geometry": {"type": "Point", "coordinates": [99.7622902, 19.8582841]}, "properties": {"id": "cr-osm-way-1157130130", "name": "7-Eleven", "nameTh": null, "nameEn": "7-Eleven", "cat": ["essentials"], "province": "cr"}}, {"type": "Feature", "geometry": {"type": "Point", "coordinates": [99.8106195, 19.9420573]}, "properties": {"id": "cr-osm-way-1230814626", "name": "7-Eleven", "nameTh": null, "nameEn": "7-Eleven", "cat": ["essentials"], "province": "cr"}}, {"type": "Feature", "geometry": {"type": "Point", "coordinates": [99.8057047, 19.8468931]}, "properties": {"id": "cr-osm-way-1231045489", "name": "7-Eleven", "nameTh": null, "nameEn": "7-Eleven", "cat": ["essentials"], "province": "cr"}}, {"type": "Feature", "geometry": {"type": "Point", "coordinates": [99.9900464, 19.5097926]}, "properties": {"id": "cr-osm-way-1237717330", "name": "7-Eleven", "nameTh": null, "nameEn": "7-Eleven", "cat": ["essentials"], "province": "cr"}}, {"type": "Feature", "geometry": {"type": "Point", "coordinates": [100.2871163, 19.7114009]}, "properties": {"id": "cr-osm-way-1344986549", "name": "7-Eleven", "nameTh": null, "nameEn": "7-Eleven", "cat": ["essentials"], "province": "cr"}}, {"type": "Feature", "geometry": {"type": "Point", "coordinates": [99.5306602, 19.6585098]}, "properties": {"id": "cr-osm-way-1349687824", "name": "7-Eleven", "nameTh": null, "nameEn": "7-Eleven", "cat": ["essentials"], "province": "cr"}}, {"type": "Feature", "geometry": {"type": "Point", "coordinates": [99.9105922, 19.7784012]}, "properties": {"id": "cr-osm-way-1360542695", "name": "7-Eleven", "nameTh": null, "nameEn": "7-Eleven", "cat": ["essentials"], "province": "cr"}}, {"type": "Feature", "geometry": {"type": "Point", "coordinates": [99.8130547, 19.9335152]}, "properties": {"id": "cr-osm-way-1361051488", "name": "7-Eleven", "nameTh": null, "nameEn": "7-Eleven", "cat": ["essentials"], "province": "cr"}}, {"type": "Feature", "geometry": {"type": "Point", "coordinates": [99.8757503, 20.0484733]}, "properties": {"id": "cr-osm-way-1459493692", "name": "7-Eleven", "nameTh": null, "nameEn": "7-Eleven", "cat": ["essentials"], "province": "cr"}}, {"type": "Feature", "geometry": {"type": "Point", "coordinates": [99.8749786, 20.0337447]}, "properties": {"id": "cr-osm-way-1459493707", "name": "7-Eleven", "nameTh": null, "nameEn": "7-Eleven", "cat": ["essentials"], "province": "cr"}}, {"type": "Feature", "geometry": {"type": "Point", "coordinates": [99.511437, 19.2976582]}, "properties": {"id": "cr-osm-way-1459699543", "name": "7-Eleven", "nameTh": null, "nameEn": "7-Eleven", "cat": ["essentials"], "province": "cr"}}, {"type": "Feature", "geometry": {"type": "Point", "coordinates": [99.517668, 19.2057294]}, "properties": {"id": "cr-osm-way-1459699561", "name": "7-Eleven", "nameTh": null, "nameEn": "7-Eleven", "cat": ["essentials"], "province": "cr"}}, {"type": "Feature", "geometry": {"type": "Point", "coordinates": [100.1806301, 20.2579656]}, "properties": {"id": "cr-osm-way-1472869913", "name": "7-Eleven", "nameTh": null, "nameEn": "7-Eleven", "cat": ["essentials"], "province": "cr"}}, {"type": "Feature", "geometry": {"type": "Point", "coordinates": [99.8598309, 20.2675465]}, "properties": {"id": "cr-osm-way-1473783328", "name": "7-Eleven", "nameTh": null, "nameEn": "7-Eleven", "cat": ["essentials"], "province": "cr"}}, {"type": "Feature", "geometry": {"type": "Point", "coordinates": [100.4887744, 20.0218595]}, "properties": {"id": "cr-osm-way-1476333665", "name": "7-Eleven", "nameTh": null, "nameEn": "7-Eleven", "cat": ["essentials"], "province": "cr"}}, {"type": "Feature", "geometry": {"type": "Point", "coordinates": [100.1214946, 19.7620383]}, "properties": {"id": "cr-osm-way-1478742684", "name": "7-Eleven", "nameTh": null, "nameEn": "7-Eleven", "cat": ["essentials"], "province": "cr"}}, {"type": "Feature", "geometry": {"type": "Point", "coordinates": [100.0332736, 19.9914808]}, "properties": {"id": "cr-osm-way-1479090827", "name": "7-Eleven", "nameTh": null, "nameEn": "7-Eleven", "cat": ["essentials"], "province": "cr"}}, {"type": "Feature", "geometry": {"type": "Point", "coordinates": [99.7458271, 19.5895749]}, "properties": {"id": "cr-osm-way-1491381765", "name": "7-Eleven", "nameTh": null, "nameEn": "7-Eleven", "cat": ["essentials"], "province": "cr"}}, {"type": "Feature", "geometry": {"type": "Point", "coordinates": [99.5138342, 19.1931218]}, "properties": {"id": "cr-osm-way-248181188", "name": "7-Eleven", "nameTh": null, "nameEn": "7-Eleven", "cat": ["essentials"], "province": "cr"}}, {"type": "Feature", "geometry": {"type": "Point", "coordinates": [99.8308296, 19.8867885]}, "properties": {"id": "cr-osm-way-330740633", "name": "7-Eleven", "nameTh": null, "nameEn": "7-Eleven", "cat": ["essentials"], "province": "cr"}}, {"type": "Feature", "geometry": {"type": "Point", "coordinates": [99.6611026, 20.2454836]}, "properties": {"id": "cr-osm-way-373628738", "name": "7-Eleven", "nameTh": null, "nameEn": "7-Eleven", "cat": ["essentials"], "province": "cr"}}, {"type": "Feature", "geometry": {"type": "Point", "coordinates": [99.8933633, 20.4388803]}, "properties": {"id": "cr-osm-way-374815117", "name": "7-Eleven", "nameTh": null, "nameEn": "7-Eleven", "cat": ["essentials"], "province": "cr"}}, {"type": "Feature", "geometry": {"type": "Point", "coordinates": [99.884822, 20.4180161]}, "properties": {"id": "cr-osm-way-376357756", "name": "7-Eleven", "nameTh": null, "nameEn": "7-Eleven", "cat": ["essentials"], "province": "cr"}}, {"type": "Feature", "geometry": {"type": "Point", "coordinates": [99.8409791, 19.9029573]}, "properties": {"id": "cr-osm-way-391457076", "name": "7-Eleven", "nameTh": null, "nameEn": "7-Eleven", "cat": ["essentials"], "province": "cr"}}, {"type": "Feature", "geometry": {"type": "Point", "coordinates": [100.4065326, 20.2567107]}, "properties": {"id": "cr-osm-way-537568599", "name": "7-Eleven", "nameTh": null, "nameEn": "7-Eleven", "cat": ["essentials"], "province": "cr"}}, {"type": "Feature", "geometry": {"type": "Point", "coordinates": [100.4067498, 20.2630089]}, "properties": {"id": "cr-osm-way-543650858", "name": "7-Eleven", "nameTh": null, "nameEn": "7-Eleven", "cat": ["essentials"], "province": "cr"}}, {"type": "Feature", "geometry": {"type": "Point", "coordinates": [100.5048451, 20.104168]}, "properties": {"id": "cr-osm-way-555851921", "name": "7-Eleven", "nameTh": null, "nameEn": "7-Eleven", "cat": ["essentials"], "province": "cr"}}, {"type": "Feature", "geometry": {"type": "Point", "coordinates": [99.8388477, 19.8960113]}, "properties": {"id": "cr-osm-way-558431985", "name": "7-Eleven", "nameTh": null, "nameEn": "7-Eleven", "cat": ["essentials"], "province": "cr"}}, {"type": "Feature", "geometry": {"type": "Point", "coordinates": [99.4881194, 19.9306413]}, "properties": {"id": "cr-osm-way-560566657", "name": "7-Eleven", "nameTh": null, "nameEn": "7-Eleven", "cat": ["essentials"], "province": "cr"}}, {"type": "Feature", "geometry": {"type": "Point", "coordinates": [99.8167857, 19.904018]}, "properties": {"id": "cr-osm-way-641594383", "name": "7-Eleven", "nameTh": null, "nameEn": "7-Eleven", "cat": ["essentials"], "province": "cr"}}, {"type": "Feature", "geometry": {"type": "Point", "coordinates": [99.7469486, 19.8532467]}, "properties": {"id": "cr-osm-way-643008545", "name": "7-Eleven", "nameTh": null, "nameEn": "7-Eleven", "cat": ["essentials"], "province": "cr"}}, {"type": "Feature", "geometry": {"type": "Point", "coordinates": [99.7843203, 19.9543534]}, "properties": {"id": "cr-osm-way-643036851", "name": "7-Eleven", "nameTh": null, "nameEn": "7-Eleven", "cat": ["essentials"], "province": "cr"}}, {"type": "Feature", "geometry": {"type": "Point", "coordinates": [99.5322278, 19.6477598]}, "properties": {"id": "cr-osm-way-643046393", "name": "7-Eleven", "nameTh": null, "nameEn": "7-Eleven", "cat": ["essentials"], "province": "cr"}}, {"type": "Feature", "geometry": {"type": "Point", "coordinates": [99.8442322, 19.9317414]}, "properties": {"id": "cr-osm-way-684872824", "name": "7-Eleven", "nameTh": null, "nameEn": "7-Eleven", "cat": ["essentials"], "province": "cr"}}, {"type": "Feature", "geometry": {"type": "Point", "coordinates": [100.4098846, 20.2406943]}, "properties": {"id": "cr-osm-way-742559261", "name": "7-Eleven", "nameTh": null, "nameEn": "7-Eleven", "cat": ["essentials"], "province": "cr"}}, {"type": "Feature", "geometry": {"type": "Point", "coordinates": [99.8412622, 19.8980255]}, "properties": {"id": "cr-osm-way-751054195", "name": "7-Eleven", "nameTh": null, "nameEn": "7-Eleven", "cat": ["essentials"], "province": "cr"}}, {"type": "Feature", "geometry": {"type": "Point", "coordinates": [99.9471157, 20.2234211]}, "properties": {"id": "cr-osm-way-758317685", "name": "7-Eleven", "nameTh": null, "nameEn": "7-Eleven", "cat": ["essentials"], "province": "cr"}}, {"type": "Feature", "geometry": {"type": "Point", "coordinates": [99.5143846, 19.6193702]}, "properties": {"id": "cr-osm-way-758738094", "name": "7-Eleven", "nameTh": null, "nameEn": "7-Eleven", "cat": ["essentials"], "province": "cr"}}, {"type": "Feature", "geometry": {"type": "Point", "coordinates": [100.15338, 19.6909361]}, "properties": {"id": "cr-osm-way-760181681", "name": "7-Eleven", "nameTh": null, "nameEn": "7-Eleven", "cat": ["essentials"], "province": "cr"}}, {"type": "Feature", "geometry": {"type": "Point", "coordinates": [100.1759256, 19.6914138]}, "properties": {"id": "cr-osm-way-760183798", "name": "7-Eleven", "nameTh": null, "nameEn": "7-Eleven", "cat": ["essentials"], "province": "cr"}}, {"type": "Feature", "geometry": {"type": "Point", "coordinates": [100.196053, 19.6845002]}, "properties": {"id": "cr-osm-way-760186587", "name": "7-Eleven", "nameTh": null, "nameEn": "7-Eleven", "cat": ["essentials"], "province": "cr"}}, {"type": "Feature", "geometry": {"type": "Point", "coordinates": [99.8448976, 19.9142822]}, "properties": {"id": "cr-osm-way-764360671", "name": "7-Eleven", "nameTh": null, "nameEn": "7-Eleven", "cat": ["essentials"], "province": "cr"}}, {"type": "Feature", "geometry": {"type": "Point", "coordinates": [99.83816, 19.9101595]}, "properties": {"id": "cr-osm-way-837528527", "name": "7-Eleven", "nameTh": null, "nameEn": "7-Eleven", "cat": ["essentials"], "province": "cr"}}, {"type": "Feature", "geometry": {"type": "Point", "coordinates": [99.8379609, 19.8960376]}, "properties": {"id": "cr-osm-way-959789651", "name": "7-Eleven", "nameTh": null, "nameEn": "7-Eleven", "cat": ["essentials"], "province": "cr"}}, {"type": "Feature", "geometry": {"type": "Point", "coordinates": [99.8354719, 19.9090764]}, "properties": {"id": "cr-osm-way-960019792", "name": "7-Eleven", "nameTh": null, "nameEn": "7-Eleven", "cat": ["essentials"], "province": "cr"}}, {"type": "Feature", "geometry": {"type": "Point", "coordinates": [99.8295424, 19.9102387]}, "properties": {"id": "cr-osm-way-960101638", "name": "7-Eleven", "nameTh": null, "nameEn": "7-Eleven", "cat": ["essentials"], "province": "cr"}}, {"type": "Feature", "geometry": {"type": "Point", "coordinates": [99.8291691, 19.9070629]}, "properties": {"id": "cr-osm-way-960934977", "name": "7-Eleven", "nameTh": null, "nameEn": "7-Eleven", "cat": ["essentials"], "province": "cr"}}, {"type": "Feature", "geometry": {"type": "Point", "coordinates": [99.8650569, 19.8938324]}, "properties": {"id": "cr-osm-way-961314547", "name": "7-Eleven", "nameTh": null, "nameEn": "7-Eleven", "cat": ["essentials"], "province": "cr"}}, {"type": "Feature", "geometry": {"type": "Point", "coordinates": [99.8318749, 19.9067786]}, "properties": {"id": "cr-osm-way-963169284", "name": "7-Eleven", "nameTh": null, "nameEn": "7-Eleven", "cat": ["essentials"], "province": "cr"}}, {"type": "Feature", "geometry": {"type": "Point", "coordinates": [99.8342661, 19.904186]}, "properties": {"id": "cr-osm-way-968332808", "name": "7-Eleven", "nameTh": null, "nameEn": "7-Eleven", "cat": ["essentials"], "province": "cr"}}, {"type": "Feature", "geometry": {"type": "Point", "coordinates": [99.550593, 19.6731563]}, "properties": {"id": "cr-osm-node-12517748901", "name": "7-eleven", "nameTh": null, "nameEn": "7-eleven", "cat": ["essentials"], "province": "cr"}}, {"type": "Feature", "geometry": {"type": "Point", "coordinates": [99.8165967, 19.9041962]}, "properties": {"id": "cr-osm-node-4466635891", "name": "ATM", "nameTh": null, "nameEn": "ATM", "cat": ["essentials"], "province": "cr"}}, {"type": "Feature", "geometry": {"type": "Point", "coordinates": [100.1965404, 19.6885244]}, "properties": {"id": "cr-osm-node-2423417262", "name": "BAAC Bank", "nameTh": "ธนาคาร ธ.ก.ส.", "nameEn": "BAAC Bank", "cat": ["essentials"], "province": "cr"}}, {"type": "Feature", "geometry": {"type": "Point", "coordinates": [99.3769173, 19.5238071]}, "properties": {"id": "cr-osm-node-3529568695", "name": "Ban Pa Kia Credit Union", "nameTh": null, "nameEn": "Ban Pa Kia Credit Union", "cat": ["essentials"], "province": "cr"}}, {"type": "Feature", "geometry": {"type": "Point", "coordinates": [100.4069441, 20.2550194]}, "properties": {"id": "cr-osm-node-4693747099", "name": "Betagro Shop", "nameTh": null, "nameEn": "Betagro Shop", "cat": ["essentials"], "province": "cr"}}, {"type": "Feature", "geometry": {"type": "Point", "coordinates": [99.5175158, 19.205197]}, "properties": {"id": "cr-osm-node-11345585169", "name": "Big C Mini", "nameTh": "มินิบิ๊กซี", "nameEn": "Big C Mini", "cat": ["essentials"], "province": "cr"}}, {"type": "Feature", "geometry": {"type": "Point", "coordinates": [99.8328495, 19.904196]}, "properties": {"id": "cr-osm-node-2321695199", "name": "CIMB Thai Bank", "nameTh": null, "nameEn": "CIMB Thai Bank", "cat": ["essentials"], "province": "cr"}}, {"type": "Feature", "geometry": {"type": "Point", "coordinates": [99.8159409, 19.9034927]}, "properties": {"id": "cr-osm-node-2140597858", "name": "CP Fresh Mart", "nameTh": null, "nameEn": "CP Fresh Mart", "cat": ["essentials"], "province": "cr"}}, {"type": "Feature", "geometry": {"type": "Point", "coordinates": [99.8547774, 20.1496644]}, "properties": {"id": "cr-osm-node-2148622825", "name": "CP Fresh Mart", "nameTh": null, "nameEn": "CP Fresh Mart", "cat": ["essentials"], "province": "cr"}}, {"type": "Feature", "geometry": {"type": "Point", "coordinates": [99.8852133, 20.4337958]}, "properties": {"id": "cr-osm-node-2193469945", "name": "CP Fresh Mart", "nameTh": null, "nameEn": "CP Fresh Mart", "cat": ["essentials"], "province": "cr"}}, {"type": "Feature", "geometry": {"type": "Point", "coordinates": [99.5034522, 19.3661892]}, "properties": {"id": "cr-osm-way-1013293657", "name": "CP Fresh Mart", "nameTh": null, "nameEn": "CP Fresh Mart", "cat": ["essentials"], "province": "cr"}}, {"type": "Feature", "geometry": {"type": "Point", "coordinates": [100.0818348, 20.3509322]}, "properties": {"id": "cr-osm-node-4447433592", "name": "Car parking", "nameTh": null, "nameEn": "Car parking", "cat": ["essentials"], "province": "cr"}}, {"type": "Feature", "geometry": {"type": "Point", "coordinates": [100.4064211, 20.2655745]}, "properties": {"id": "cr-osm-way-758296304", "name": "Chiang Khong Post Office", "nameTh": null, "nameEn": "Chiang Khong Post Office", "cat": ["essentials"], "province": "cr"}}, {"type": "Feature", "geometry": {"type": "Point", "coordinates": [100.0815632, 20.2742758]}, "properties": {"id": "cr-osm-node-2315735986", "name": "Chiang Saen Post Office", "nameTh": null, "nameEn": "Chiang Saen Post Office", "cat": ["essentials"], "province": "cr"}}, {"type": "Feature", "geometry": {"type": "Point", "coordinates": [99.5142357, 19.1928965]}, "properties": {"id": "cr-osm-node-11345597170", "name": "Coconut house", "nameTh": null, "nameEn": "Coconut house", "cat": ["essentials"], "province": "cr"}}, {"type": "Feature", "geometry": {"type": "Point", "coordinates": [99.6217107, 19.9185815]}, "properties": {"id": "cr-osm-node-6024248586", "name": "Convenience Store", "nameTh": null, "nameEn": "Convenience Store", "cat": ["essentials"], "province": "cr"}}, {"type": "Feature", "geometry": {"type": "Point", "coordinates": [99.55323, 19.7991647]}, "properties": {"id": "cr-osm-node-2629976908", "name": "Doi Chaang Mart", "nameTh": null, "nameEn": "Doi Chaang Mart", "cat": ["essentials"], "province": "cr"}}, {"type": "Feature", "geometry": {"type": "Point", "coordinates": [100.0880538, 20.2781733]}, "properties": {"id": "cr-osm-node-2212067415", "name": "Fresh Mart", "nameTh": null, "nameEn": "Fresh Mart", "cat": ["essentials"], "province": "cr"}}, {"type": "Feature", "geometry": {"type": "Point", "coordinates": [99.8361691, 19.9114628]}, "properties": {"id": "cr-osm-node-11559718636", "name": "Fun Wash", "nameTh": "สนุกซัก", "nameEn": "Fun Wash", "cat": ["essentials"], "province": "cr"}}, {"type": "Feature", "geometry": {"type": "Point", "coordinates": [100.4057346, 20.2665105]}, "properties": {"id": "cr-osm-way-543650870", "name": "Government Savings Bank", "nameTh": null, "nameEn": "Government Savings Bank", "cat": ["essentials"], "province": "cr"}}, {"type": "Feature", "geometry": {"type": "Point", "coordinates": [99.8852786, 20.433138]}, "properties": {"id": "cr-osm-node-2207469416", "name": "Islamic Bank", "nameTh": null, "nameEn": "Islamic Bank", "cat": ["essentials"], "province": "cr"}}, {"type": "Feature", "geometry": {"type": "Point", "coordinates": [99.8323261, 19.8986911]}, "properties": {"id": "cr-osm-node-7252270198", "name": "Jumbo Wash", "nameTh": null, "nameEn": "Jumbo Wash", "cat": ["essentials"], "province": "cr"}}, {"type": "Feature", "geometry": {"type": "Point", "coordinates": [99.8545387, 20.149609]}, "properties": {"id": "cr-osm-node-2148622826", "name": "Kasikorn Bank", "nameTh": null, "nameEn": "Kasikorn Bank", "cat": ["essentials"], "province": "cr"}}, {"type": "Feature", "geometry": {"type": "Point", "coordinates": [99.9927337, 19.501843]}, "properties": {"id": "cr-osm-node-3298093172", "name": "Kasikorn Bank", "nameTh": null, "nameEn": "Kasikorn Bank", "cat": ["essentials"], "province": "cr"}}, {"type": "Feature", "geometry": {"type": "Point", "coordinates": [100.4068637, 20.2623981]}, "properties": {"id": "cr-osm-way-543650859", "name": "Kasikorn Bank", "nameTh": null, "nameEn": "Kasikorn Bank", "cat": ["essentials"], "province": "cr"}}, {"type": "Feature", "geometry": {"type": "Point", "coordinates": [99.8636806, 20.130386]}, "properties": {"id": "cr-osm-node-6632634534", "name": "Kerry", "nameTh": null, "nameEn": "Kerry", "cat": ["essentials"], "province": "cr"}}, {"type": "Feature", "geometry": {"type": "Point", "coordinates": [100.405251, 20.2690659]}, "properties": {"id": "cr-osm-node-7012851785", "name": "Kerry Express", "nameTh": null, "nameEn": "Kerry Express", "cat": ["essentials"], "province": "cr"}}, {"type": "Feature", "geometry": {"type": "Point", "coordinates": [99.8192092, 19.9037375]}, "properties": {"id": "cr-osm-node-9121767524", "name": "Kerry Express", "nameTh": null, "nameEn": "Kerry Express", "cat": ["essentials"], "province": "cr"}}, {"type": "Feature", "geometry": {"type": "Point", "coordinates": [100.4061287, 20.2644918]}, "properties": {"id": "cr-osm-way-758296302", "name": "Kerry Express", "nameTh": null, "nameEn": "Kerry Express", "cat": ["essentials"], "province": "cr"}}, {"type": "Feature", "geometry": {"type": "Point", "coordinates": [99.7472901, 19.5493844]}, "properties": {"id": "cr-osm-node-6631508922", "name": "Kerry express", "nameTh": null, "nameEn": "Kerry express", "cat": ["essentials"], "province": "cr"}}, {"type": "Feature", "geometry": {"type": "Point", "coordinates": [100.1952155, 19.6849869]}, "properties": {"id": "cr-osm-node-7013432085", "name": "Krungthai Bank", "nameTh": null, "nameEn": "Krungthai Bank", "cat": ["essentials"], "province": "cr"}}, {"type": "Feature", "geometry": {"type": "Point", "coordinates": [100.4070029, 20.260995]}, "properties": {"id": "cr-osm-way-543650864", "name": "Krungthai Bank", "nameTh": null, "nameEn": "Krungthai Bank", "cat": ["essentials"], "province": "cr"}}, {"type": "Feature", "geometry": {"type": "Point", "coordinates": [99.7878574, 19.8371423]}, "properties": {"id": "cr-osm-node-11342759769", "name": "Landmart", "nameTh": null, "nameEn": "Landmart", "cat": ["essentials"], "province": "cr"}}, {"type": "Feature", "geometry": {"type": "Point", "coordinates": [99.8395198, 19.9246714]}, "properties": {"id": "cr-osm-node-6322777389", "name": "Laundromat", "nameTh": null, "nameEn": "Laundromat", "cat": ["essentials"], "province": "cr"}}, {"type": "Feature", "geometry": {"type": "Point", "coordinates": [99.8332595, 19.9062523]}, "properties": {"id": "cr-osm-node-6322776876", "name": "Laundry", "nameTh": null, "nameEn": "Laundry", "cat": ["essentials"], "province": "cr"}}, {"type": "Feature", "geometry": {"type": "Point", "coordinates": [99.5393623, 19.654052]}, "properties": {"id": "cr-osm-node-12864929909", "name": "Lotus's go fresh", "nameTh": null, "nameEn": "Lotus's go fresh", "cat": ["essentials"], "province": "cr"}}, {"type": "Feature", "geometry": {"type": "Point", "coordinates": [99.5171717, 19.2049871]}, "properties": {"id": "cr-osm-node-13387757784", "name": "Lotus's go fresh", "nameTh": null, "nameEn": "Lotus's go fresh", "cat": ["essentials"], "province": "cr"}}, {"type": "Feature", "geometry": {"type": "Point", "coordinates": [99.5163873, 19.197494]}, "properties": {"id": "cr-osm-node-2123248671", "name": "Lotus's go fresh", "nameTh": null, "nameEn": "Lotus's go fresh", "cat": ["essentials"], "province": "cr"}}, {"type": "Feature", "geometry": {"type": "Point", "coordinates": [99.5032554, 19.3671479]}, "properties": {"id": "cr-osm-node-2136677524", "name": "Lotus's go fresh", "nameTh": null, "nameEn": "Lotus's go fresh", "cat": ["essentials"], "province": "cr"}}, {"type": "Feature", "geometry": {"type": "Point", "coordinates": [99.8158226, 19.9033656]}, "properties": {"id": "cr-osm-node-2140597873", "name": "Lotus's go fresh", "nameTh": null, "nameEn": "Lotus's go fresh", "cat": ["essentials"], "province": "cr"}}, {"type": "Feature", "geometry": {"type": "Point", "coordinates": [99.8763186, 20.0486559]}, "properties": {"id": "cr-osm-node-2153737311", "name": "Lotus's go fresh", "nameTh": null, "nameEn": "Lotus's go fresh", "cat": ["essentials"], "province": "cr"}}, {"type": "Feature", "geometry": {"type": "Point", "coordinates": [99.8846696, 20.4282781]}, "properties": {"id": "cr-osm-node-2193469952", "name": "Lotus's go fresh", "nameTh": null, "nameEn": "Lotus's go fresh", "cat": ["essentials"], "province": "cr"}}, {"type": "Feature", "geometry": {"type": "Point", "coordinates": [100.0860829, 20.2738406]}, "properties": {"id": "cr-osm-node-2212067418", "name": "Lotus's go fresh", "nameTh": null, "nameEn": "Lotus's go fresh", "cat": ["essentials"], "province": "cr"}}, {"type": "Feature", "geometry": {"type": "Point", "coordinates": [100.1541254, 19.8470317]}, "properties": {"id": "cr-osm-node-2319132228", "name": "Lotus's go fresh", "nameTh": null, "nameEn": "Lotus's go fresh", "cat": ["essentials"], "province": "cr"}}, {"type": "Feature", "geometry": {"type": "Point", "coordinates": [99.8926716, 20.4390911]}, "properties": {"id": "cr-osm-node-3725792270", "name": "Lotus's go fresh", "nameTh": null, "nameEn": "Lotus's go fresh", "cat": ["essentials"], "province": "cr"}}, {"type": "Feature", "geometry": {"type": "Point", "coordinates": [99.7494789, 19.8540037]}, "properties": {"id": "cr-osm-way-1459701951", "name": "Lotus's go fresh", "nameTh": null, "nameEn": "Lotus's go fresh", "cat": ["essentials"], "province": "cr"}}, {"type": "Feature", "geometry": {"type": "Point", "coordinates": [99.628089, 20.1655049]}, "properties": {"id": "cr-osm-node-7023555965", "name": "Mae Salong Laundry", "nameTh": null, "nameEn": "Mae Salong Laundry", "cat": ["essentials"], "province": "cr"}}, {"type": "Feature", "geometry": {"type": "Point", "coordinates": [99.8064086, 19.8926474]}, "properties": {"id": "cr-osm-node-2140533979", "name": "Max Market", "nameTh": null, "nameEn": "Max Market", "cat": ["essentials"], "province": "cr"}}, {"type": "Feature", "geometry": {"type": "Point", "coordinates": [99.8279129, 19.8994231]}, "properties": {"id": "cr-osm-node-11556106720", "name": "Mini Big C", "nameTh": null, "nameEn": "Mini Big C", "cat": ["essentials"], "province": "cr"}}, {"type": "Feature", "geometry": {"type": "Point", "coordinates": [99.7841677, 19.8613209]}, "properties": {"id": "cr-osm-way-1365893960", "name": "Mini Big C", "nameTh": null, "nameEn": "Mini Big C", "cat": ["essentials"], "province": "cr"}}, {"type": "Feature", "geometry": {"type": "Point", "coordinates": [99.831351, 19.9043853]}, "properties": {"id": "cr-osm-way-387049089", "name": "Minimart", "nameTh": null, "nameEn": "Minimart", "cat": ["essentials"], "province": "cr"}}, {"type": "Feature", "geometry": {"type": "Point", "coordinates": [99.8315166, 19.8974605]}, "properties": {"id": "cr-osm-node-12485369726", "name": "Neko Wash&Dry", "nameTh": null, "nameEn": "Neko Wash&Dry", "cat": ["essentials"], "province": "cr"}}, {"type": "Feature", "geometry": {"type": "Point", "coordinates": [99.5140347, 19.19299]}, "properties": {"id": "cr-osm-node-11345597171", "name": "OTOP Maekhachan", "nameTh": null, "nameEn": "OTOP Maekhachan", "cat": ["essentials"], "province": "cr"}}, {"type": "Feature", "geometry": {"type": "Point", "coordinates": [99.843584, 19.9305673]}, "properties": {"id": "cr-osm-node-10291400851", "name": "Ono Wash and Dry", "nameTh": null, "nameEn": "Ono Wash and Dry", "cat": ["essentials"], "province": "cr"}}, {"type": "Feature", "geometry": {"type": "Point", "coordinates": [99.82859, 19.9067444]}, "properties": {"id": "cr-osm-node-4342134091", "name": "Organic store", "nameTh": null, "nameEn": "Organic store", "cat": ["essentials"], "province": "cr"}}, {"type": "Feature", "geometry": {"type": "Point", "coordinates": [99.8326121, 19.9019769]}, "properties": {"id": "cr-osm-node-9841983417", "name": "Otteri", "nameTh": null, "nameEn": "Otteri", "cat": ["essentials"], "province": "cr"}}, {"type": "Feature", "geometry": {"type": "Point", "coordinates": [99.5121839, 19.3328998]}, "properties": {"id": "cr-osm-node-5646589722", "name": "Patta Shop", "nameTh": null, "nameEn": "Patta Shop", "cat": ["essentials"], "province": "cr"}}, {"type": "Feature", "geometry": {"type": "Point", "coordinates": [99.8358383, 19.9030967]}, "properties": {"id": "cr-osm-node-4718086990", "name": "Pawana Laundry", "nameTh": null, "nameEn": "Pawana Laundry", "cat": ["essentials"], "province": "cr"}}, {"type": "Feature", "geometry": {"type": "Point", "coordinates": [100.405974, 20.2657895]}, "properties": {"id": "cr-osm-node-7012864385", "name": "Piang-all Mini Mart", "nameTh": null, "nameEn": "Piang-all Mini Mart", "cat": ["essentials"], "province": "cr"}}, {"type": "Feature", "geometry": {"type": "Point", "coordinates": [100.4065623, 20.2550194]}, "properties": {"id": "cr-osm-node-4693779290", "name": "Plastic things", "nameTh": null, "nameEn": "Plastic things", "cat": ["essentials"], "province": "cr"}}, {"type": "Feature", "geometry": {"type": "Point", "coordinates": [100.4096187, 20.2550167]}, "properties": {"id": "cr-osm-node-2297086404", "name": "Pon Minimart", "nameTh": null, "nameEn": "Pon Minimart", "cat": ["essentials"], "province": "cr"}}, {"type": "Feature", "geometry": {"type": "Point", "coordinates": [99.8334912, 19.8814931]}, "properties": {"id": "cr-osm-node-6632610098", "name": "SME", "nameTh": null, "nameEn": "SME", "cat": ["essentials"], "province": "cr"}}, {"type": "Feature", "geometry": {"type": "Point", "coordinates": [99.7464421, 19.5019817]}, "properties": {"id": "cr-osm-node-6631591496", "name": "SNA", "nameTh": null, "nameEn": "SNA", "cat": ["essentials"], "province": "cr"}}, {"type": "Feature", "geometry": {"type": "Point", "coordinates": [99.8354307, 19.8981572]}, "properties": {"id": "cr-osm-node-10970873107", "name": "ST", "nameTh": null, "nameEn": "ST", "cat": ["essentials"], "province": "cr"}}, {"type": "Feature", "geometry": {"type": "Point", "coordinates": [100.4070915, 20.2605356]}, "properties": {"id": "cr-osm-way-543650861", "name": "Siam Commercial Bank", "nameTh": null, "nameEn": "Siam Commercial Bank", "cat": ["essentials"], "province": "cr"}}, {"type": "Feature", "geometry": {"type": "Point", "coordinates": [99.4681726, 19.878554]}, "properties": {"id": "cr-osm-node-4787556922", "name": "Small shop", "nameTh": null, "nameEn": "Small shop", "cat": ["essentials"], "province": "cr"}}, {"type": "Feature", "geometry": {"type": "Point", "coordinates": [99.5369216, 20.0311261]}, "properties": {"id": "cr-osm-node-6021581385", "name": "Store", "nameTh": null, "nameEn": "Store", "cat": ["essentials"], "province": "cr"}}, {"type": "Feature", "geometry": {"type": "Point", "coordinates": [99.8158287, 19.9277716]}, "properties": {"id": "cr-osm-node-4525360493", "name": "TESCO Lotus Express", "nameTh": null, "nameEn": "TESCO Lotus Express", "cat": ["essentials"], "province": "cr"}}, {"type": "Feature", "geometry": {"type": "Point", "coordinates": [99.8359279, 19.926674]}, "properties": {"id": "cr-osm-node-4525371847", "name": "TESCO Lotus Express", "nameTh": null, "nameEn": "TESCO Lotus Express", "cat": ["essentials"], "province": "cr"}}, {"type": "Feature", "geometry": {"type": "Point", "coordinates": [99.8408946, 19.8980074]}, "properties": {"id": "cr-osm-node-7057535387", "name": "TESCO Lotus Express", "nameTh": null, "nameEn": "TESCO Lotus Express", "cat": ["essentials"], "province": "cr"}}, {"type": "Feature", "geometry": {"type": "Point", "coordinates": [100.194705, 19.6861625]}, "properties": {"id": "cr-osm-node-2423417267", "name": "TMB", "nameTh": null, "nameEn": "TMB", "cat": ["essentials"], "province": "cr"}}, {"type": "Feature", "geometry": {"type": "Point", "coordinates": [99.8327392, 19.9031956]}, "properties": {"id": "cr-osm-way-484139941", "name": "TMB", "nameTh": null, "nameEn": "TMB", "cat": ["essentials"], "province": "cr"}}, {"type": "Feature", "geometry": {"type": "Point", "coordinates": [100.4082134, 20.2560183]}, "properties": {"id": "cr-osm-node-4693751299", "name": "Temple/monk things", "nameTh": null, "nameEn": "Temple/monk things", "cat": ["essentials"], "province": "cr"}}, {"type": "Feature", "geometry": {"type": "Point", "coordinates": [99.5427684, 19.6554886]}, "properties": {"id": "cr-osm-node-12864929907", "name": "Thaialnd Post", "nameTh": "ไปรษณีย์ไทย", "nameEn": "Thaialnd Post", "cat": ["essentials"], "province": "cr"}}, {"type": "Feature", "geometry": {"type": "Point", "coordinates": [99.8426683, 19.913058]}, "properties": {"id": "cr-osm-node-2334888645", "name": "Thanachart Bank", "nameTh": null, "nameEn": "Thanachart Bank", "cat": ["essentials"], "province": "cr"}}, {"type": "Feature", "geometry": {"type": "Point", "coordinates": [99.8276379, 19.894055]}, "properties": {"id": "cr-osm-way-1125805638", "name": "The Barrel", "nameTh": "The Barrel", "nameEn": null, "cat": ["essentials"], "province": "cr"}}, {"type": "Feature", "geometry": {"type": "Point", "coordinates": [99.8192072, 19.9035848]}, "properties": {"id": "cr-osm-node-9121767526", "name": "UOB", "nameTh": null, "nameEn": "UOB", "cat": ["essentials"], "province": "cr"}}, {"type": "Feature", "geometry": {"type": "Point", "coordinates": [99.6555919, 20.0434715]}, "properties": {"id": "cr-osm-way-675352526", "name": "Village Shop", "nameTh": null, "nameEn": "Village Shop", "cat": ["essentials"], "province": "cr"}}, {"type": "Feature", "geometry": {"type": "Point", "coordinates": [99.8362563, 19.9008867]}, "properties": {"id": "cr-osm-node-13475928474", "name": "White Bear", "nameTh": null, "nameEn": "White Bear", "cat": ["essentials"], "province": "cr"}}, {"type": "Feature", "geometry": {"type": "Point", "coordinates": [100.4082045, 20.2588565]}, "properties": {"id": "cr-osm-way-543650868", "name": "Wiang Chiang Khong Municipality", "nameTh": null, "nameEn": "Wiang Chiang Khong Municipality", "cat": ["essentials"], "province": "cr"}}, {"type": "Feature", "geometry": {"type": "Point", "coordinates": [99.8355435, 19.9400178]}, "properties": {"id": "cr-osm-node-13114006801", "name": "washing machine Makao", "nameTh": null, "nameEn": "washing machine Makao", "cat": ["essentials"], "province": "cr"}}, {"type": "Feature", "geometry": {"type": "Point", "coordinates": [99.8318356, 19.8976769]}, "properties": {"id": "cr-osm-way-1074237727", "name": "กรีน ซัก อบ รีด", "nameTh": "กรีน ซัก อบ รีด", "nameEn": "Green Laundry", "cat": ["essentials"], "province": "cr"}}, {"type": "Feature", "geometry": {"type": "Point", "coordinates": [99.8445771, 19.9141236]}, "properties": {"id": "cr-osm-node-2140653234", "name": "กรุงศรี", "nameTh": "กรุงศรี", "nameEn": "Krungsri", "cat": ["essentials"], "province": "cr"}}, {"type": "Feature", "geometry": {"type": "Point", "coordinates": [99.7410714, 19.5466139]}, "properties": {"id": "cr-osm-node-4472048672", "name": "กรุงศรี", "nameTh": "กรุงศรี", "nameEn": "Krungsri", "cat": ["essentials"], "province": "cr"}}, {"type": "Feature", "geometry": {"type": "Point", "coordinates": [99.8348482, 19.9149473]}, "properties": {"id": "cr-osm-way-965783893", "name": "คุณฬา", "nameTh": "คุณฬา", "nameEn": "Kunla Laundry", "cat": ["essentials"], "province": "cr"}}, {"type": "Feature", "geometry": {"type": "Point", "coordinates": [99.8213505, 19.902925]}, "properties": {"id": "cr-osm-way-997641725", "name": "ซันชายน์ มาร์ท", "nameTh": "ซันชายน์ มาร์ท", "nameEn": "Sunshine Mart", "cat": ["essentials"], "province": "cr"}}, {"type": "Feature", "geometry": {"type": "Point", "coordinates": [99.8831291, 20.4374587]}, "properties": {"id": "cr-osm-node-2193469987", "name": "ซีไอเอ็มบี ไทย", "nameTh": "ซีไอเอ็มบี ไทย", "nameEn": "CIMB THAI", "cat": ["essentials"], "province": "cr"}}, {"type": "Feature", "geometry": {"type": "Point", "coordinates": [99.8557113, 20.1486561]}, "properties": {"id": "cr-osm-way-204194603", "name": "ตลาดธิดาพร จำหน่อยเวลา 15.00 น. ถึง 19.00 น.", "nameTh": "ตลาดธิดาพร จำหน่อยเวลา 15.00 น. ถึง 19.00 น.", "nameEn": null, "cat": ["essentials"], "province": "cr"}}, {"type": "Feature", "geometry": {"type": "Point", "coordinates": [99.9637578, 19.5988223]}, "properties": {"id": "cr-osm-node-14030800418", "name": "ตู้กดเงิน ATM ธกส.", "nameTh": "ตู้กดเงิน ATM ธกส.", "nameEn": null, "cat": ["essentials"], "province": "cr"}}, {"type": "Feature", "geometry": {"type": "Point", "coordinates": [99.8571449, 20.1471226]}, "properties": {"id": "cr-osm-node-2143401187", "name": "ที่ทำการไปรษณีย์แม่จัน", "nameTh": "ที่ทำการไปรษณีย์แม่จัน", "nameEn": "Mae Chan Post Office", "cat": ["essentials"], "province": "cr"}}, {"type": "Feature", "geometry": {"type": "Point", "coordinates": [99.7433352, 19.5340005]}, "properties": {"id": "cr-osm-node-13264041901", "name": "ที่ทำการไปรษณีย์ไทย", "nameTh": "ที่ทำการไปรษณีย์ไทย", "nameEn": "Thai post office", "cat": ["essentials"], "province": "cr"}}, {"type": "Feature", "geometry": {"type": "Point", "coordinates": [99.7552626, 19.4597121]}, "properties": {"id": "cr-osm-node-7179407599", "name": "ที่ทำการไปรษณีย์ไทย", "nameTh": "ที่ทำการไปรษณีย์ไทย", "nameEn": null, "cat": ["essentials"], "province": "cr"}}, {"type": "Feature", "geometry": {"type": "Point", "coordinates": [100.0876111, 20.2751904]}, "properties": {"id": "cr-osm-way-1010348415", "name": "ที่ว่าการอำเภอเชียงแสน", "nameTh": "ที่ว่าการอำเภอเชียงแสน", "nameEn": "Chiang Saen District Office", "cat": ["essentials"], "province": "cr"}}, {"type": "Feature", "geometry": {"type": "Point", "coordinates": [99.5074264, 19.3479136]}, "properties": {"id": "cr-osm-way-1013293682", "name": "ที่ว่าการอำเภอเวียงป่าเป้า", "nameTh": "ที่ว่าการอำเภอเวียงป่าเป้า", "nameEn": "Wiang Pa Pao Office", "cat": ["essentials"], "province": "cr"}}, {"type": "Feature", "geometry": {"type": "Point", "coordinates": [99.8525325, 20.1463143]}, "properties": {"id": "cr-osm-node-2419121472", "name": "ที่ว่าการอำเภอแม่จัน", "nameTh": "ที่ว่าการอำเภอแม่จัน", "nameEn": null, "cat": ["essentials"], "province": "cr"}}, {"type": "Feature", "geometry": {"type": "Point", "coordinates": [99.5425062, 19.6564402]}, "properties": {"id": "cr-osm-way-585564853", "name": "ที่ว่าการอำเภอแม่สรวย", "nameTh": "ที่ว่าการอำเภอแม่สรวย", "nameEn": "Mae Suai District Office", "cat": ["essentials"], "province": "cr"}}, {"type": "Feature", "geometry": {"type": "Point", "coordinates": [99.5394088, 19.6558644]}, "properties": {"id": "cr-osm-node-12864929906", "name": "ธนพิริยะ", "nameTh": "ธนพิริยะ", "nameEn": null, "cat": ["essentials"], "province": "cr"}}, {"type": "Feature", "geometry": {"type": "Point", "coordinates": [99.5394561, 19.6558835]}, "properties": {"id": "cr-osm-way-1389859857", "name": "ธนพิริยะ สาขาแม่สรวย", "nameTh": "ธนพิริยะ สาขาแม่สรวย", "nameEn": null, "cat": ["essentials"], "province": "cr"}}, {"type": "Feature", "geometry": {"type": "Point", "coordinates": [99.853253, 20.1478906]}, "properties": {"id": "cr-osm-node-2134740687", "name": "ธนาคาร ธ.ก.ส. สาขาแม่จัน", "nameTh": "ธนาคาร ธ.ก.ส. สาขาแม่จัน", "nameEn": null, "cat": ["essentials"], "province": "cr"}}, {"type": "Feature", "geometry": {"type": "Point", "coordinates": [99.74872, 19.6008453]}, "properties": {"id": "cr-osm-node-13264254401", "name": "ธนาคาร ธกส. สาขาย่อยเจริญเมือง", "nameTh": "ธนาคาร ธกส. สาขาย่อยเจริญเมือง", "nameEn": "Bank of agriculture and agricultural cooperatives , Charoenmoung small branch", "cat": ["essentials"], "province": "cr"}}, {"type": "Feature", "geometry": {"type": "Point", "coordinates": [100.3508236, 20.0102937]}, "properties": {"id": "cr-osm-node-13290104101", "name": "ธนาคาร ธกส.สาขาบุญเรือง", "nameTh": "ธนาคาร ธกส.สาขาบุญเรือง", "nameEn": "Bank for Agriculture and Agriculture Cooperative bank, Boon Ruang branch", "cat": ["essentials"], "province": "cr"}}, {"type": "Feature", "geometry": {"type": "Point", "coordinates": [99.8302052, 19.9088414]}, "properties": {"id": "cr-osm-way-959660524", "name": "ธนาคารกรุงศรีอยุธยา", "nameTh": "ธนาคารกรุงศรีอยุธยา", "nameEn": "Krungsri Bank", "cat": ["essentials"], "province": "cr"}}, {"type": "Feature", "geometry": {"type": "Point", "coordinates": [99.8844185, 20.4358283]}, "properties": {"id": "cr-osm-way-373897621", "name": "ธนาคารกรุงศรีอยุธยา สาขาแม่สาย", "nameTh": "ธนาคารกรุงศรีอยุธยา สาขาแม่สาย", "nameEn": "Bank of Ayudhya Mae Sai Branch", "cat": ["essentials"], "province": "cr"}}, {"type": "Feature", "geometry": {"type": "Point", "coordinates": [99.8550233, 20.1497077]}, "properties": {"id": "cr-osm-node-2148622832", "name": "ธนาคารกรุงเทพ", "nameTh": "ธนาคารกรุงเทพ", "nameEn": null, "cat": ["essentials"], "province": "cr"}}, {"type": "Feature", "geometry": {"type": "Point", "coordinates": [99.855623, 19.9660778]}, "properties": {"id": "cr-osm-node-2151125545", "name": "ธนาคารกรุงเทพ", "nameTh": "ธนาคารกรุงเทพ", "nameEn": "Bangkok Bank", "cat": ["essentials"], "province": "cr"}}, {"type": "Feature", "geometry": {"type": "Point", "coordinates": [100.0844548, 20.2738282]}, "properties": {"id": "cr-osm-node-2212090169", "name": "ธนาคารกรุงเทพ", "nameTh": "ธนาคารกรุงเทพ", "nameEn": "Bangkok Bank", "cat": ["essentials"], "province": "cr"}}, {"type": "Feature", "geometry": {"type": "Point", "coordinates": [99.837135, 19.888345]}, "properties": {"id": "cr-osm-node-2334898030", "name": "ธนาคารกรุงเทพ", "nameTh": "ธนาคารกรุงเทพ", "nameEn": "Bangkok Bank", "cat": ["essentials"], "province": "cr"}}, {"type": "Feature", "geometry": {"type": "Point", "coordinates": [99.5395219, 19.6541599]}, "properties": {"id": "cr-osm-node-4530950597", "name": "ธนาคารกรุงเทพ", "nameTh": "ธนาคารกรุงเทพ", "nameEn": "Bangkok Bank", "cat": ["essentials"], "province": "cr"}}, {"type": "Feature", "geometry": {"type": "Point", "coordinates": [99.5169873, 19.2044662]}, "properties": {"id": "cr-osm-way-1459699555", "name": "ธนาคารกรุงเทพ", "nameTh": "ธนาคารกรุงเทพ", "nameEn": "Bangkok Bank", "cat": ["essentials"], "province": "cr"}}, {"type": "Feature", "geometry": {"type": "Point", "coordinates": [99.8311174, 19.908521]}, "properties": {"id": "cr-osm-way-487637525", "name": "ธนาคารกรุงเทพ", "nameTh": "ธนาคารกรุงเทพ", "nameEn": "Bangkok Bank", "cat": ["essentials"], "province": "cr"}}, {"type": "Feature", "geometry": {"type": "Point", "coordinates": [99.84137, 19.9073716]}, "properties": {"id": "cr-osm-way-488638453", "name": "ธนาคารกรุงเทพ", "nameTh": "ธนาคารกรุงเทพ", "nameEn": "Bangkok Bank", "cat": ["essentials"], "province": "cr"}}, {"type": "Feature", "geometry": {"type": "Point", "coordinates": [99.8838943, 20.4373085]}, "properties": {"id": "cr-osm-way-106085169", "name": "ธนาคารกรุงเทพ สาขาแม่สาย", "nameTh": "ธนาคารกรุงเทพ สาขาแม่สาย", "nameEn": "Bangkok Bank Mae Sai Branch", "cat": ["essentials"], "province": "cr"}}, {"type": "Feature", "geometry": {"type": "Point", "coordinates": [99.5034499, 19.3659932]}, "properties": {"id": "cr-osm-node-2136711245", "name": "ธนาคารกรุงไทย", "nameTh": "ธนาคารกรุงไทย", "nameEn": "Krung Thai Bank", "cat": ["essentials"], "province": "cr"}}, {"type": "Feature", "geometry": {"type": "Point", "coordinates": [99.8123802, 19.8993421]}, "properties": {"id": "cr-osm-node-2140553609", "name": "ธนาคารกรุงไทย", "nameTh": "ธนาคารกรุงไทย", "nameEn": "Krungthai Bank", "cat": ["essentials"], "province": "cr"}}, {"type": "Feature", "geometry": {"type": "Point", "coordinates": [100.0835639, 20.2737606]}, "properties": {"id": "cr-osm-node-2212090168", "name": "ธนาคารกรุงไทย", "nameTh": "ธนาคารกรุงไทย", "nameEn": "Krung Thai Bank", "cat": ["essentials"], "province": "cr"}}, {"type": "Feature", "geometry": {"type": "Point", "coordinates": [99.8585017, 19.9733415]}, "properties": {"id": "cr-osm-node-4530793507", "name": "ธนาคารกรุงไทย", "nameTh": "ธนาคารกรุงไทย", "nameEn": "Krungthai Bank", "cat": ["essentials"], "province": "cr"}}, {"type": "Feature", "geometry": {"type": "Point", "coordinates": [99.8582135, 20.1531674]}, "properties": {"id": "cr-osm-way-456447074", "name": "ธนาคารกรุงไทย", "nameTh": "ธนาคารกรุงไทย", "nameEn": "Krungthai Bank", "cat": ["essentials"], "province": "cr"}}, {"type": "Feature", "geometry": {"type": "Point", "coordinates": [99.8443918, 19.9138952]}, "properties": {"id": "cr-osm-way-456858792", "name": "ธนาคารกรุงไทย", "nameTh": "ธนาคารกรุงไทย", "nameEn": "Krungthai Bank", "cat": ["essentials"], "province": "cr"}}, {"type": "Feature", "geometry": {"type": "Point", "coordinates": [99.7409816, 19.5481309]}, "properties": {"id": "cr-osm-node-4472048673", "name": "ธนาคารกรุงไทย @ พาน", "nameTh": "ธนาคารกรุงไทย", "nameEn": "Krungthai Bank @ phan", "cat": ["essentials"], "province": "cr"}}, {"type": "Feature", "geometry": {"type": "Point", "coordinates": [99.8818275, 20.4418946]}, "properties": {"id": "cr-osm-node-12981491801", "name": "ธนาคารกรุงไทย จก (มหาชน) สาขา แม่สาย", "nameTh": "ธนาคารกรุงไทย จก (มหาชน) สาขา แม่สาย", "nameEn": null, "cat": ["essentials"], "province": "cr"}}, {"type": "Feature", "geometry": {"type": "Point", "coordinates": [99.8430231, 19.9133638]}, "properties": {"id": "cr-osm-node-2140653233", "name": "ธนาคารกสิกรไทย", "nameTh": "ธนาคารกสิกรไทย", "nameEn": "Kasikorn Bank", "cat": ["essentials"], "province": "cr"}}, {"type": "Feature", "geometry": {"type": "Point", "coordinates": [99.8613038, 20.2719382]}, "properties": {"id": "cr-osm-node-2173996556", "name": "ธนาคารกสิกรไทย", "nameTh": "ธนาคารกสิกรไทย", "nameEn": "Kasikorn Bank", "cat": ["essentials"], "province": "cr"}}, {"type": "Feature", "geometry": {"type": "Point", "coordinates": [99.8846719, 20.433723]}, "properties": {"id": "cr-osm-node-2193469982", "name": "ธนาคารกสิกรไทย", "nameTh": "ธนาคารกสิกรไทย", "nameEn": "Kasikorn Bank", "cat": ["essentials"], "province": "cr"}}, {"type": "Feature", "geometry": {"type": "Point", "coordinates": [99.8565843, 19.9670564]}, "properties": {"id": "cr-osm-node-4530793506", "name": "ธนาคารกสิกรไทย", "nameTh": "ธนาคารกสิกรไทย", "nameEn": "Kasikorn Bank", "cat": ["essentials"], "province": "cr"}}, {"type": "Feature", "geometry": {"type": "Point", "coordinates": [99.5038181, 19.3657923]}, "properties": {"id": "cr-osm-node-4530966449", "name": "ธนาคารกสิกรไทย", "nameTh": "ธนาคารกสิกรไทย", "nameEn": "Kasikornbank", "cat": ["essentials"], "province": "cr"}}, {"type": "Feature", "geometry": {"type": "Point", "coordinates": [99.8827917, 20.4398494]}, "properties": {"id": "cr-osm-way-223086364", "name": "ธนาคารกสิกรไทย", "nameTh": "ธนาคารกสิกรไทย", "nameEn": "Kasikornbank", "cat": ["essentials"], "province": "cr"}}, {"type": "Feature", "geometry": {"type": "Point", "coordinates": [99.8323973, 19.9072301]}, "properties": {"id": "cr-osm-way-487637530", "name": "ธนาคารกสิกรไทย", "nameTh": "ธนาคารกสิกรไทย", "nameEn": "Kasikornbank", "cat": ["essentials"], "province": "cr"}}, {"type": "Feature", "geometry": {"type": "Point", "coordinates": [99.7412461, 19.5484808]}, "properties": {"id": "cr-osm-node-4472048671", "name": "ธนาคารกสิกรไทย @ พาน", "nameTh": "ธนาคารกสิกรไทย", "nameEn": "Kasikorn Bank @ Phan", "cat": ["essentials"], "province": "cr"}}, {"type": "Feature", "geometry": {"type": "Point", "coordinates": [99.8546839, 20.1497702]}, "properties": {"id": "cr-osm-node-2134749972", "name": "ธนาคารกสิกรไทย สาขาแม่จัน", "nameTh": "ธนาคารกสิกรไทย สาขาแม่จัน", "nameEn": null, "cat": ["essentials"], "province": "cr"}}, {"type": "Feature", "geometry": {"type": "Point", "coordinates": [99.8607346, 20.2708496]}, "properties": {"id": "cr-osm-node-2173996555", "name": "ธนาคารทหารไทย", "nameTh": "ธนาคารทหารไทย", "nameEn": "TMB", "cat": ["essentials"], "province": "cr"}}, {"type": "Feature", "geometry": {"type": "Point", "coordinates": [99.8811361, 20.4433983]}, "properties": {"id": "cr-osm-node-2319586614", "name": "ธนาคารทหารไทย", "nameTh": "ธนาคารทหารไทย", "nameEn": "TMBThanachart Bank", "cat": ["essentials"], "province": "cr"}}, {"type": "Feature", "geometry": {"type": "Point", "coordinates": [99.8406369, 19.9114573]}, "properties": {"id": "cr-osm-way-1109542746", "name": "ธนาคารทหารไทย", "nameTh": "ธนาคารทหารไทย", "nameEn": "TMBThanachart Bank", "cat": ["essentials"], "province": "cr"}}, {"type": "Feature", "geometry": {"type": "Point", "coordinates": [99.8272429, 19.9084253]}, "properties": {"id": "cr-osm-way-625109724", "name": "ธนาคารทหารไทย", "nameTh": "ธนาคารทหารไทย", "nameEn": "TMBThanachart Bank", "cat": ["essentials"], "province": "cr"}}, {"type": "Feature", "geometry": {"type": "Point", "coordinates": [99.5050361, 19.3560931]}, "properties": {"id": "cr-osm-node-2136677525", "name": "ธนาคารออมสิน", "nameTh": "ธนาคารออมสิน", "nameEn": "Government Savings Bank", "cat": ["essentials"], "province": "cr"}}, {"type": "Feature", "geometry": {"type": "Point", "coordinates": [99.7757608, 19.8279929]}, "properties": {"id": "cr-osm-way-1013482858", "name": "ธนาคารออมสิน", "nameTh": "ธนาคารออมสิน", "nameEn": "Government Savings Bank", "cat": ["essentials"], "province": "cr"}}, {"type": "Feature", "geometry": {"type": "Point", "coordinates": [99.8831957, 20.4369885]}, "properties": {"id": "cr-osm-way-456738556", "name": "ธนาคารออมสิน", "nameTh": "ธนาคารออมสิน", "nameEn": "Government Savings Bank", "cat": ["essentials"], "province": "cr"}}, {"type": "Feature", "geometry": {"type": "Point", "coordinates": [99.8334488, 19.9113566]}, "properties": {"id": "cr-osm-way-965305263", "name": "ธนาคารออมสิน", "nameTh": "ธนาคารออมสิน", "nameEn": "Government Savings Bank", "cat": ["essentials"], "province": "cr"}}, {"type": "Feature", "geometry": {"type": "Point", "coordinates": [99.8529147, 20.1457255]}, "properties": {"id": "cr-osm-node-2134857689", "name": "ธนาคารออมสิน สาขาแม่จัน", "nameTh": "ธนาคารออมสิน สาขาแม่จัน", "nameEn": null, "cat": ["essentials"], "province": "cr"}}, {"type": "Feature", "geometry": {"type": "Point", "coordinates": [99.8417455, 19.9120805]}, "properties": {"id": "cr-osm-node-4530910931", "name": "ธนาคารอิสลามแห่งประเทศไทย", "nameTh": "ธนาคารอิสลามแห่งประเทศไทย", "nameEn": "Islamic Bank of Thailand", "cat": ["essentials"], "province": "cr"}}, {"type": "Feature", "geometry": {"type": "Point", "coordinates": [99.5177818, 19.2060889]}, "properties": {"id": "cr-osm-way-1459699559", "name": "ธนาคารเพื่อการเกษตรและสหกรณ์การเกษตร", "nameTh": "ธนาคารเพื่อการเกษตรและสหกรณ์การเกษตร", "nameEn": "Bank for Agriculture and Agricultural Co-operatives", "cat": ["essentials"], "province": "cr"}}, {"type": "Feature", "geometry": {"type": "Point", "coordinates": [99.5099259, 19.3384371]}, "properties": {"id": "cr-osm-node-4517964498", "name": "ธนาคารเพื่อการเกษตรและสหกรณ์การเกษตร ธ.ก.ส.", "nameTh": "ธนาคารเพื่อการเกษตรและสหกรณ์การเกษตร ธ.ก.ส.", "nameEn": "Bank for Agriculture and Agricultural Cooperatives (BAAC)", "cat": ["essentials"], "province": "cr"}}, {"type": "Feature", "geometry": {"type": "Point", "coordinates": [99.8648082, 19.9938733]}, "properties": {"id": "cr-osm-node-4527024911", "name": "ธนาคารเพื่อการเกษตรและสหกรณ์การเกษตร ธ.ก.ส.", "nameTh": "ธนาคารเพื่อการเกษตรและสหกรณ์การเกษตร ธ.ก.ส.", "nameEn": "Bank for Agriculture and Agricultural Cooperatives (BAAC)", "cat": ["essentials"], "province": "cr"}}, {"type": "Feature", "geometry": {"type": "Point", "coordinates": [99.5392402, 19.6538215]}, "properties": {"id": "cr-osm-node-4530950598", "name": "ธนาคารเพื่อการเกษตรและสหกรณ์การเกษตร ธ.ก.ส.", "nameTh": "ธนาคารเพื่อการเกษตรและสหกรณ์การเกษตร ธ.ก.ส.", "nameEn": "Bank for Agriculture and Agricultural Cooperatives (BAAC)", "cat": ["essentials"], "province": "cr"}}, {"type": "Feature", "geometry": {"type": "Point", "coordinates": [99.8256507, 19.9081946]}, "properties": {"id": "cr-osm-way-653531280", "name": "ธนาคารเพื่อการเกษตรและสหกรณ์การเกษตร สาขาเชียงราย", "nameTh": "ธนาคารเพื่อการเกษตรและสหกรณ์การเกษตร สาขาเชียงราย", "nameEn": "Bank Of Agriculture and Agricultural Cooperatives", "cat": ["essentials"], "province": "cr"}}, {"type": "Feature", "geometry": {"type": "Point", "coordinates": [99.8853769, 20.4304442]}, "properties": {"id": "cr-osm-way-373885319", "name": "ธนาคารเพื่อการเกษตรและสหกรณ์การเกษตร สาขาแม่สาย", "nameTh": "ธนาคารเพื่อการเกษตรและสหกรณ์การเกษตร สาขาแม่สาย", "nameEn": "Bank for Agriculture and Agricultural Cooperatives Mae Sai Branch", "cat": ["essentials"], "province": "cr"}}, {"type": "Feature", "geometry": {"type": "Point", "coordinates": [99.8271903, 19.9059309]}, "properties": {"id": "cr-osm-node-8931699068", "name": "ธนาคารโรงเรียน", "nameTh": "ธนาคารโรงเรียน", "nameEn": "School GSB Bank", "cat": ["essentials"], "province": "cr"}}, {"type": "Feature", "geometry": {"type": "Point", "coordinates": [99.8557102, 19.9664336]}, "properties": {"id": "cr-osm-node-2151125546", "name": "ธนาคารไทยพาณิชย์", "nameTh": "ธนาคารไทยพาณิชย์", "nameEn": "Siam Commercial Bank", "cat": ["essentials"], "province": "cr"}}, {"type": "Feature", "geometry": {"type": "Point", "coordinates": [99.507267, 19.3510599]}, "properties": {"id": "cr-osm-way-1013293661", "name": "ธนาคารไทยพาณิชย์", "nameTh": "ธนาคารไทยพาณิชย์", "nameEn": "Siam Commercial Bank", "cat": ["essentials"], "province": "cr"}}, {"type": "Feature", "geometry": {"type": "Point", "coordinates": [99.8365016, 19.8883099]}, "properties": {"id": "cr-osm-way-462018633", "name": "ธนาคารไทยพาณิชย์", "nameTh": "ธนาคารไทยพาณิชย์", "nameEn": "Siam Commercial Bank", "cat": ["essentials"], "province": "cr"}}, {"type": "Feature", "geometry": {"type": "Point", "coordinates": [99.8847284, 20.4353815]}, "properties": {"id": "cr-osm-way-373902306", "name": "ธนาคารไทยพาณิชย์ สาขาแม่สาย", "nameTh": "ธนาคารไทยพาณิชย์ สาขาแม่สาย", "nameEn": "Siam Commercial Bank Mae Sai Branch", "cat": ["essentials"], "province": "cr"}}, {"type": "Feature", "geometry": {"type": "Point", "coordinates": [99.8540098, 20.149105]}, "properties": {"id": "cr-osm-node-2148655331", "name": "ธนาคารไทยพาณิย์ สาขาแม่จัน(เชียงราย)", "nameTh": "ธนาคารไทยพาณิย์ สาขาแม่จัน(เชียงราย)", "nameEn": null, "cat": ["essentials"], "province": "cr"}}, {"type": "Feature", "geometry": {"type": "Point", "coordinates": [99.8190236, 19.905103]}, "properties": {"id": "cr-osm-node-9121752692", "name": "ป้าจิตร ซักอบรีด", "nameTh": "ป้าจิตร ซักอบรีด", "nameEn": "Pa Chit Laundry", "cat": ["essentials"], "province": "cr"}}, {"type": "Feature", "geometry": {"type": "Point", "coordinates": [99.5509091, 20.1031906]}, "properties": {"id": "cr-osm-node-7374537588", "name": "ป้านวน", "nameTh": "ป้านวน", "nameEn": null, "cat": ["essentials"], "province": "cr"}}, {"type": "Feature", "geometry": {"type": "Point", "coordinates": [99.8093116, 19.9378662]}, "properties": {"id": "cr-osm-way-1315717121", "name": "พรมงคล", "nameTh": "พรมงคล", "nameEn": "Phonmongkonchai Household Goods", "cat": ["essentials"], "province": "cr"}}, {"type": "Feature", "geometry": {"type": "Point", "coordinates": [99.5739301, 20.1010701]}, "properties": {"id": "cr-osm-node-7374536510", "name": "พี่เมย์", "nameTh": "พี่เมย์", "nameEn": null, "cat": ["essentials"], "province": "cr"}}, {"type": "Feature", "geometry": {"type": "Point", "coordinates": [99.9421492, 19.8958364]}, "properties": {"id": "cr-osm-node-2616153676", "name": "มาลัย ซัก อบ รีด (Malai Laundry)", "nameTh": "มาลัย ซัก อบ รีด (Malai Laundry)", "nameEn": null, "cat": ["essentials"], "province": "cr"}}, {"type": "Feature", "geometry": {"type": "Point", "coordinates": [99.4926714, 19.5756154]}, "properties": {"id": "cr-osm-node-13155175874", "name": "มีทรัพย์การค้า เจดีย์หลวง", "nameTh": "มีทรัพย์การค้า เจดีย์หลวง", "nameEn": null, "cat": ["essentials"], "province": "cr"}}, {"type": "Feature", "geometry": {"type": "Point", "coordinates": [99.840362, 20.1349371]}, "properties": {"id": "cr-osm-node-2147490056", "name": "ร้านของชำ", "nameTh": "ร้านของชำ", "nameEn": null, "cat": ["essentials"], "province": "cr"}}, {"type": "Feature", "geometry": {"type": "Point", "coordinates": [99.7417276, 20.1049945]}, "properties": {"id": "cr-osm-node-2147435762", "name": "ร้านขายของชำ", "nameTh": "ร้านขายของชำ", "nameEn": null, "cat": ["essentials"], "province": "cr"}}, {"type": "Feature", "geometry": {"type": "Point", "coordinates": [99.7843942, 20.0944689]}, "properties": {"id": "cr-osm-node-2147459086", "name": "ร้านขายของชำ", "nameTh": "ร้านขายของชำ", "nameEn": null, "cat": ["essentials"], "province": "cr"}}, {"type": "Feature", "geometry": {"type": "Point", "coordinates": [99.8572537, 20.144408]}, "properties": {"id": "cr-osm-node-2148549267", "name": "ร้านขายของชำ", "nameTh": "ร้านขายของชำ", "nameEn": null, "cat": ["essentials"], "province": "cr"}}, {"type": "Feature", "geometry": {"type": "Point", "coordinates": [99.8597193, 20.1500546]}, "properties": {"id": "cr-osm-node-2148580919", "name": "ร้านขายของชำ", "nameTh": "ร้านขายของชำ", "nameEn": null, "cat": ["essentials"], "province": "cr"}}, {"type": "Feature", "geometry": {"type": "Point", "coordinates": [99.7881663, 20.1149737]}, "properties": {"id": "cr-osm-node-2148615722", "name": "ร้านขายของชำ", "nameTh": "ร้านขายของชำ", "nameEn": null, "cat": ["essentials"], "province": "cr"}}, {"type": "Feature", "geometry": {"type": "Point", "coordinates": [99.8583781, 20.1500821]}, "properties": {"id": "cr-osm-node-2150598022", "name": "ร้านขายของชำ", "nameTh": "ร้านขายของชำ", "nameEn": null, "cat": ["essentials"], "province": "cr"}}, {"type": "Feature", "geometry": {"type": "Point", "coordinates": [100.4889453, 19.9401325]}, "properties": {"id": "cr-osm-node-13204024686", "name": "ร้านขายของชำ พ่อ แม่ น้องวี", "nameTh": "ร้านขายของชำ พ่อ แม่ น้องวี", "nameEn": null, "cat": ["essentials"], "province": "cr"}}, {"type": "Feature", "geometry": {"type": "Point", "coordinates": [99.8406793, 20.1337489]}, "properties": {"id": "cr-osm-node-2147424866", "name": "ร้านขายผัก ของชำ", "nameTh": "ร้านขายผัก ของชำ", "nameEn": null, "cat": ["essentials"], "province": "cr"}}, {"type": "Feature", "geometry": {"type": "Point", "coordinates": [99.7785393, 20.1117904]}, "properties": {"id": "cr-osm-node-2148541310", "name": "ร้านค้า", "nameTh": "ร้านค้า", "nameEn": null, "cat": ["essentials"], "province": "cr"}}, {"type": "Feature", "geometry": {"type": "Point", "coordinates": [99.7364405, 20.1087352]}, "properties": {"id": "cr-osm-node-2148624715", "name": "ร้านค้า", "nameTh": "ร้านค้า", "nameEn": null, "cat": ["essentials"], "province": "cr"}}, {"type": "Feature", "geometry": {"type": "Point", "coordinates": [99.7785131, 20.1121415]}, "properties": {"id": "cr-osm-node-2148541309", "name": "ร้านค้า (กรรมการหมู่บ้าน)", "nameTh": "ร้านค้า (กรรมการหมู่บ้าน)", "nameEn": null, "cat": ["essentials"], "province": "cr"}}, {"type": "Feature", "geometry": {"type": "Point", "coordinates": [99.8456037, 20.1331199]}, "properties": {"id": "cr-osm-node-2148568032", "name": "ร้านค้าของชำ", "nameTh": "ร้านค้าของชำ", "nameEn": null, "cat": ["essentials"], "province": "cr"}}, {"type": "Feature", "geometry": {"type": "Point", "coordinates": [99.8456707, 20.1331763]}, "properties": {"id": "cr-osm-node-2148568035", "name": "ร้านค้าของชำ", "nameTh": "ร้านค้าของชำ", "nameEn": null, "cat": ["essentials"], "province": "cr"}}, {"type": "Feature", "geometry": {"type": "Point", "coordinates": [99.7813511, 20.0909391]}, "properties": {"id": "cr-osm-node-2147469263", "name": "ร้านค้าชุมชน", "nameTh": "ร้านค้าชุมชน", "nameEn": null, "cat": ["essentials"], "province": "cr"}}, {"type": "Feature", "geometry": {"type": "Point", "coordinates": [99.8570693, 20.1422821]}, "properties": {"id": "cr-osm-node-2148546803", "name": "ร้านค้าทั่วไป", "nameTh": "ร้านค้าทั่วไป", "nameEn": null, "cat": ["essentials"], "province": "cr"}}, {"type": "Feature", "geometry": {"type": "Point", "coordinates": [99.8286758, 19.9017366]}, "properties": {"id": "cr-osm-way-968844525", "name": "ร้านค้าสวัสดิการอภัยภูเบศร์", "nameTh": "ร้านค้าสวัสดิการอภัยภูเบศร์", "nameEn": "Abhaibhubejhr Welfare Shop", "cat": ["essentials"], "province": "cr"}}, {"type": "Feature", "geometry": {"type": "Point", "coordinates": [99.8483615, 20.1469687]}, "properties": {"id": "cr-osm-way-204790321", "name": "ร้านซักอบรีด", "nameTh": "ร้านซักอบรีด", "nameEn": null, "cat": ["essentials"], "province": "cr"}}, {"type": "Feature", "geometry": {"type": "Point", "coordinates": [99.9713064, 20.0907616]}, "properties": {"id": "cr-osm-node-5028070223", "name": "ร้านทรงฤทธ์ สุวรรณรักษ์", "nameTh": "ร้านทรงฤทธ์ สุวรรณรักษ์", "nameEn": null, "cat": ["essentials"], "province": "cr"}}, {"type": "Feature", "geometry": {"type": "Point", "coordinates": [99.8827605, 20.3240128]}, "properties": {"id": "cr-osm-way-544295541", "name": "ร้านยายศรี", "nameTh": "ร้านยายศรี", "nameEn": null, "cat": ["essentials"], "province": "cr"}}, {"type": "Feature", "geometry": {"type": "Point", "coordinates": [99.8584651, 20.1500914]}, "properties": {"id": "cr-osm-node-2150598039", "name": "ร้านเทียมตา ซัก-อบ-รีด", "nameTh": "ร้านเทียมตา ซัก-อบ-รีด", "nameEn": null, "cat": ["essentials"], "province": "cr"}}, {"type": "Feature", "geometry": {"type": "Point", "coordinates": [99.5144044, 19.6257039]}, "properties": {"id": "cr-osm-node-13155162510", "name": "ร้านเพิ่มพรการค้า", "nameTh": "ร้านเพิ่มพรการค้า", "nameEn": null, "cat": ["essentials"], "province": "cr"}}, {"type": "Feature", "geometry": {"type": "Point", "coordinates": [99.8341932, 19.9150562]}, "properties": {"id": "cr-osm-way-965783836", "name": "ร้านแม่อ้อย", "nameTh": "ร้านแม่อ้อย", "nameEn": "Mae Oi Store", "cat": ["essentials"], "province": "cr"}}, {"type": "Feature", "geometry": {"type": "Point", "coordinates": [99.8138336, 19.9205931]}, "properties": {"id": "cr-osm-relation-14447679", "name": "ศาลากลางจังหวัดเชียงราย", "nameTh": "ศาลากลางจังหวัดเชียงราย", "nameEn": "Chiang Rai City Hall", "cat": ["essentials"], "province": "cr"}}, {"type": "Feature", "geometry": {"type": "Point", "coordinates": [99.7397315, 20.0879325]}, "properties": {"id": "cr-osm-node-2147506761", "name": "ศาลาอเนกประสงค์", "nameTh": "ศาลาอเนกประสงค์", "nameEn": "Town Hall", "cat": ["essentials"], "province": "cr"}}, {"type": "Feature", "geometry": {"type": "Point", "coordinates": [99.8273108, 19.9059286]}, "properties": {"id": "cr-osm-node-8931699061", "name": "สหกรณ์โรงเรียนสามัคคีฯ", "nameTh": "สหกรณ์โรงเรียนสามัคคีฯ", "nameEn": null, "cat": ["essentials"], "province": "cr"}}, {"type": "Feature", "geometry": {"type": "Point", "coordinates": [99.7405827, 19.7780905]}, "properties": {"id": "cr-osm-node-2138387306", "name": "สำนักงานเทศบาลตำบลป่าก่อดำ", "nameTh": "สำนักงานเทศบาลตำบลป่าก่อดำ", "nameEn": "Pa Ko Dam Municipality Office", "cat": ["essentials"], "province": "cr"}}, {"type": "Feature", "geometry": {"type": "Point", "coordinates": [99.5123757, 19.2970233]}, "properties": {"id": "cr-osm-node-2128213974", "name": "สำนักงานเทศบาลตำบลป่างิ้ว", "nameTh": "สำนักงานเทศบาลตำบลป่างิ้ว", "nameEn": "Pa Ngio District Administration", "cat": ["essentials"], "province": "cr"}}, {"type": "Feature", "geometry": {"type": "Point", "coordinates": [99.8319405, 20.1823797]}, "properties": {"id": "cr-osm-node-7038071685", "name": "สำนักงานเทศบาลตำบลป่าซาง", "nameTh": "สำนักงานเทศบาลตำบลป่าซาง", "nameEn": "Pasang subdistrict municipaly office", "cat": ["essentials"], "province": "cr"}}, {"type": "Feature", "geometry": {"type": "Point", "coordinates": [99.88562, 20.4033632]}, "properties": {"id": "cr-osm-way-371846371", "name": "สำนักงานเทศบาลตำบลเวียงพางคำ", "nameTh": "สำนักงานเทศบาลตำบลเวียงพางคำ", "nameEn": "Wiang Pang Kham Municipality Office", "cat": ["essentials"], "province": "cr"}}, {"type": "Feature", "geometry": {"type": "Point", "coordinates": [99.8843686, 20.4265324]}, "properties": {"id": "cr-osm-way-371846370", "name": "สำนักงานเทศบาลตำบลแม่สาย", "nameTh": "สำนักงานเทศบาลตำบลแม่สาย", "nameEn": "Maesai Municipality Office", "cat": ["essentials"], "province": "cr"}}, {"type": "Feature", "geometry": {"type": "Point", "coordinates": [100.1690593, 19.8390192]}, "properties": {"id": "cr-osm-node-2319131502", "name": "สํานักงานเทศบาลตําบลพญาเม็งราย", "nameTh": "สํานักงานเทศบาลตําบลพญาเม็งราย", "nameEn": null, "cat": ["essentials"], "province": "cr"}}, {"type": "Feature", "geometry": {"type": "Point", "coordinates": [99.8395493, 19.9152988]}, "properties": {"id": "cr-osm-node-10199588591", "name": "หลบมุม", "nameTh": "หลบมุม", "nameEn": "Lobmoom", "cat": ["essentials"], "province": "cr"}}, {"type": "Feature", "geometry": {"type": "Point", "coordinates": [99.8130065, 20.1266797]}, "properties": {"id": "cr-osm-node-2081838768", "name": "องค์การบริหารส่วนตำบลป่าตึง", "nameTh": "องค์การบริหารส่วนตำบลป่าตึง", "nameEn": null, "cat": ["essentials"], "province": "cr"}}, {"type": "Feature", "geometry": {"type": "Point", "coordinates": [99.9904291, 20.4154179]}, "properties": {"id": "cr-osm-way-372687262", "name": "องค์การบริหารส่วนตำบลเกาะช้าง", "nameTh": "องค์การบริหารส่วนตำบลเกาะช้าง", "nameEn": "Ko Chang Subdistrict Administration Organiztion", "cat": ["essentials"], "province": "cr"}}, {"type": "Feature", "geometry": {"type": "Point", "coordinates": [99.8852323, 20.3785453]}, "properties": {"id": "cr-osm-way-372608928", "name": "องค์การบริหารส่วนตำบลโป่งผา", "nameTh": "องค์การบริหารส่วนตำบลโป่งผา", "nameEn": "Pongpha Subdistrict Administration Organiztion", "cat": ["essentials"], "province": "cr"}}, {"type": "Feature", "geometry": {"type": "Point", "coordinates": [99.8189809, 19.9031052]}, "properties": {"id": "cr-osm-node-10099999777", "name": "อาแผ่", "nameTh": "อาแผ่", "nameEn": "Ar Phae", "cat": ["essentials"], "province": "cr"}}, {"type": "Feature", "geometry": {"type": "Point", "coordinates": [99.8208853, 19.9066551]}, "properties": {"id": "cr-osm-way-960625762", "name": "อุดมสิน", "nameTh": "อุดมสิน", "nameEn": "Udom Sin", "cat": ["essentials"], "province": "cr"}}, {"type": "Feature", "geometry": {"type": "Point", "coordinates": [99.8406389, 19.9153789]}, "properties": {"id": "cr-osm-node-10199572631", "name": "เคนตะ ลอนดรี", "nameTh": "เคนตะ ลอนดรี", "nameEn": "Kenta Laudry", "cat": ["essentials"], "province": "cr"}}, {"type": "Feature", "geometry": {"type": "Point", "coordinates": [99.8558009, 20.1473795]}, "properties": {"id": "cr-osm-node-2148639743", "name": "เครื่องซักผ้าหยอดเหรียญ", "nameTh": "เครื่องซักผ้าหยอดเหรียญ", "nameEn": null, "cat": ["essentials"], "province": "cr"}}, {"type": "Feature", "geometry": {"type": "Point", "coordinates": [99.8551227, 20.1530435]}, "properties": {"id": "cr-osm-node-2148639744", "name": "เครื่องซักผ้าหยอดเหรียญ", "nameTh": "เครื่องซักผ้าหยอดเหรียญ", "nameEn": null, "cat": ["essentials"], "province": "cr"}}, {"type": "Feature", "geometry": {"type": "Point", "coordinates": [99.8746334, 20.30052]}, "properties": {"id": "cr-osm-node-6387064886", "name": "เคอรี่รับขนส่งไปรษณีย์", "nameTh": "เคอรี่รับขนส่งไปรษณีย์", "nameEn": "Kerry post office", "cat": ["essentials"], "province": "cr"}}, {"type": "Feature", "geometry": {"type": "Point", "coordinates": [99.8333202, 19.9042089]}, "properties": {"id": "cr-osm-way-968331334", "name": "เทสโก้ โลตัส เอ็กซ์เพรส", "nameTh": "เทสโก้ โลตัส เอ็กซ์เพรส", "nameEn": "TESCO Lotus Express", "cat": ["essentials"], "province": "cr"}}, {"type": "Feature", "geometry": {"type": "Point", "coordinates": [100.0765633, 20.106313]}, "properties": {"id": "cr-osm-node-11438151644", "name": "เพ็ชร สวิส", "nameTh": "เพ็ชร สวิส", "nameEn": "Petch Swiss", "cat": ["essentials"], "province": "cr"}}, {"type": "Feature", "geometry": {"type": "Point", "coordinates": [99.8557733, 20.1473258]}, "properties": {"id": "cr-osm-node-2148639752", "name": "แตงกวา ซัก อบ ริด", "nameTh": "แตงกวา ซัก อบ ริด", "nameEn": null, "cat": ["essentials"], "province": "cr"}}, {"type": "Feature", "geometry": {"type": "Point", "coordinates": [99.8344039, 20.2679726]}, "properties": {"id": "cr-osm-node-2193339404", "name": "แสงกิจ มินิมาร์ท", "nameTh": "แสงกิจ มินิมาร์ท", "nameEn": null, "cat": ["essentials"], "province": "cr"}}, {"type": "Feature", "geometry": {"type": "Point", "coordinates": [99.8600058, 19.9770458]}, "properties": {"id": "cr-osm-way-641236156", "name": "ไปรษณีย์ บ้านดู่", "nameTh": "ไปรษณีย์ บ้านดู่", "nameEn": "Bandu Post Office", "cat": ["essentials"], "province": "cr"}}, {"type": "Feature", "geometry": {"type": "Point", "coordinates": [99.8320687, 19.8987753]}, "properties": {"id": "cr-osm-way-1074237711", "name": "ไปรษณีย์ ลานนา", "nameTh": "ไปรษณีย์ ลานนา", "nameEn": "Lanna Post Office", "cat": ["essentials"], "province": "cr"}}, {"type": "Feature", "geometry": {"type": "Point", "coordinates": [100.1900266, 19.6871506]}, "properties": {"id": "cr-osm-node-2423396297", "name": "ไปรษณีย์ เทิง", "nameTh": "ไปรษณีย์ เทิง", "nameEn": "Thoeng Post Office", "cat": ["essentials"], "province": "cr"}}, {"type": "Feature", "geometry": {"type": "Point", "coordinates": [99.5083873, 19.3473862]}, "properties": {"id": "cr-osm-node-2128243304", "name": "ไปรษณีย์ เวียงป่าเป้า", "nameTh": "ไปรษณีย์ เวียงป่าเป้า", "nameEn": "Wiang Pa Pao Post Office", "cat": ["essentials"], "province": "cr"}}, {"type": "Feature", "geometry": {"type": "Point", "coordinates": [99.8614815, 20.2714021]}, "properties": {"id": "cr-osm-node-5847622085", "name": "ไปรษณีย์ห้วยไคร้", "nameTh": "ไปรษณีย์ห้วยไคร้", "nameEn": "Huai Khrai post office", "cat": ["essentials"], "province": "cr"}}, {"type": "Feature", "geometry": {"type": "Point", "coordinates": [99.8310265, 19.9107396]}, "properties": {"id": "cr-osm-way-960101661", "name": "ไปรษณีย์เชียงราย", "nameTh": "ไปรษณีย์เชียงราย", "nameEn": null, "cat": ["essentials"], "province": "cr"}}, {"type": "Feature", "geometry": {"type": "Point", "coordinates": [100.0815802, 20.2743557]}, "properties": {"id": "cr-osm-way-1535118810", "name": "ไปรษณีย์เชียงแสน", "nameTh": "ไปรษณีย์เชียงแสน", "nameEn": "Chiang Saen Post Office", "cat": ["essentials"], "province": "cr"}}, {"type": "Feature", "geometry": {"type": "Point", "coordinates": [99.8565623, 20.2301201]}, "properties": {"id": "cr-osm-way-373409846", "name": "ไปรษณีย์แม่คำ", "nameTh": "ไปรษณีย์แม่คำ", "nameEn": "Mae Kham Post Office", "cat": ["essentials"], "province": "cr"}}, {"type": "Feature", "geometry": {"type": "Point", "coordinates": [99.8848159, 20.4116039]}, "properties": {"id": "cr-osm-way-373409847", "name": "ไปรษณีย์แม่สาย", "nameTh": "ไปรษณีย์แม่สาย", "nameEn": "Mae Sai Post Office", "cat": ["essentials"], "province": "cr"}}, {"type": "Feature", "geometry": {"type": "Point", "coordinates": [99.5164644, 19.1997998]}, "properties": {"id": "cr-osm-node-2123254176", "name": "ไปรษณีย์แม่เจดีย์", "nameTh": "ไปรษณีย์แม่เจดีย์", "nameEn": "Mae Chedi Post Office", "cat": ["essentials"], "province": "cr"}}, {"type": "Feature", "geometry": {"type": "Point", "coordinates": [99.9502651, 20.2256634]}, "properties": {"id": "cr-osm-node-2212111469", "name": "ไปรษณ๊ย์จันจว้า", "nameTh": "ไปรษณ๊ย์จันจว้า", "nameEn": "Chan Chawa Post Office", "cat": ["essentials"], "province": "cr"}}, {"type": "Feature", "geometry": {"type": "Point", "coordinates": [99.8283899, 19.9043907]}, "properties": {"id": "cr-osm-node-4664450390", "name": "ไอเดีย เครื่องเขียน", "nameTh": "ไอเดีย เครื่องเขียน", "nameEn": null, "cat": ["essentials"], "province": "cr"}}]}