{"type": "FeatureCollection", "features": [{"type": "Feature", "geometry": {"type": "Point", "coordinates": [99.8350698, 19.9108413]}, "properties": {"id": "cr-osm-node-7028932546", "name": "A-Residence", "nameTh": null, "nameEn": "A-Residence", "cat": ["hotel"], "province": "cr"}}, {"type": "Feature", "geometry": {"type": "Point", "coordinates": [99.8414061, 19.8989319]}, "properties": {"id": "cr-osm-node-5177891324", "name": "Adchara Mansion", "nameTh": null, "nameEn": "Adchara Mansion", "cat": ["hotel"], "province": "cr"}}, {"type": "Feature", "geometry": {"type": "Point", "coordinates": [99.8322139, 19.9159406]}, "properties": {"id": "cr-osm-node-2326811260", "name": "Akha River House", "nameTh": null, "nameEn": "Akha River House", "cat": ["hotel"], "province": "cr"}}, {"type": "Feature", "geometry": {"type": "Point", "coordinates": [99.7540305, 19.8084171]}, "properties": {"id": "cr-osm-way-1493014301", "name": "Akkara Resort & Villas", "nameTh": null, "nameEn": "Akkara Resort & Villas", "cat": ["hotel"], "province": "cr"}}, {"type": "Feature", "geometry": {"type": "Point", "coordinates": [99.8279557, 19.8936987]}, "properties": {"id": "cr-osm-way-387051726", "name": "Amon Inn", "nameTh": null, "nameEn": "Amon Inn", "cat": ["hotel"], "province": "cr"}}, {"type": "Feature", "geometry": {"type": "Point", "coordinates": [99.8307763, 19.8840333]}, "properties": {"id": "cr-osm-node-5898658485", "name": "Anan Boutique Hotel", "nameTh": null, "nameEn": "Anan Boutique Hotel", "cat": ["hotel"], "province": "cr"}}, {"type": "Feature", "geometry": {"type": "Point", "coordinates": [99.8353395, 19.9033322]}, "properties": {"id": "cr-osm-node-6538568086", "name": "Ann", "nameTh": null, "nameEn": "Ann", "cat": ["hotel"], "province": "cr"}}, {"type": "Feature", "geometry": {"type": "Point", "coordinates": [99.8354197, 19.9003424]}, "properties": {"id": "cr-osm-way-256549538", "name": "B2 Night Bazaar Chiang Rai", "nameTh": null, "nameEn": "B2 Night Bazaar Chiang Rai", "cat": ["hotel"], "province": "cr"}}, {"type": "Feature", "geometry": {"type": "Point", "coordinates": [99.8377004, 19.9103511]}, "properties": {"id": "cr-osm-node-11561548952", "name": "Baan Mai Kradan Hostel", "nameTh": null, "nameEn": "Baan Mai Kradan Hostel", "cat": ["hotel"], "province": "cr"}}, {"type": "Feature", "geometry": {"type": "Point", "coordinates": [99.8374824, 19.9109254]}, "properties": {"id": "cr-osm-node-5731457922", "name": "Baan Mai Kradan Hostel Chiang Rai", "nameTh": null, "nameEn": "Baan Mai Kradan Hostel Chiang Rai", "cat": ["hotel"], "province": "cr"}}, {"type": "Feature", "geometry": {"type": "Point", "coordinates": [99.842117, 19.9166048]}, "properties": {"id": "cr-osm-node-3426154627", "name": "Baan Nuk Anong Hotel", "nameTh": null, "nameEn": "Baan Nuk Anong Hotel", "cat": ["hotel"], "province": "cr"}}, {"type": "Feature", "geometry": {"type": "Point", "coordinates": [99.8276585, 19.8977534]}, "properties": {"id": "cr-osm-way-483841208", "name": "Baan Plubthong Hotel", "nameTh": null, "nameEn": "Baan Plubthong Hotel", "cat": ["hotel"], "province": "cr"}}, {"type": "Feature", "geometry": {"type": "Point", "coordinates": [99.8208795, 19.9003734]}, "properties": {"id": "cr-osm-node-6635204710", "name": "Baan Tetikarn", "nameTh": null, "nameEn": "Baan Tetikarn", "cat": ["hotel"], "province": "cr"}}, {"type": "Feature", "geometry": {"type": "Point", "coordinates": [99.8360397, 19.9028271]}, "properties": {"id": "cr-osm-way-330740484", "name": "Baanmalai Guest House", "nameTh": null, "nameEn": "Baanmalai Guest House", "cat": ["hotel"], "province": "cr"}}, {"type": "Feature", "geometry": {"type": "Point", "coordinates": [99.8422826, 19.8971808]}, "properties": {"id": "cr-osm-way-276673612", "name": "Baanpinkaew rental room chaingrai", "nameTh": null, "nameEn": "Baanpinkaew rental room chaingrai", "cat": ["hotel"], "province": "cr"}}, {"type": "Feature", "geometry": {"type": "Point", "coordinates": [99.8355138, 19.9050542]}, "properties": {"id": "cr-osm-node-4782425122", "name": "Backpack Hostel", "nameTh": null, "nameEn": "Backpack Hostel", "cat": ["hotel"], "province": "cr"}}, {"type": "Feature", "geometry": {"type": "Point", "coordinates": [99.757791, 19.9079579]}, "properties": {"id": "cr-osm-node-12450861584", "name": "Bamboo Nest", "nameTh": null, "nameEn": "Bamboo Nest", "cat": ["hotel"], "province": "cr"}}, {"type": "Feature", "geometry": {"type": "Point", "coordinates": [99.8182647, 19.8901809]}, "properties": {"id": "cr-osm-relation-8858763", "name": "Ban Ingdoi Chiangrai Resort", "nameTh": null, "nameEn": "Ban Ingdoi Chiangrai Resort", "cat": ["hotel"], "province": "cr"}}, {"type": "Feature", "geometry": {"type": "Point", "coordinates": [99.8249913, 19.9085753]}, "properties": {"id": "cr-osm-way-653531282", "name": "Ban Khun Yom", "nameTh": "บ้านขุนยม", "nameEn": "Ban Khun Yom", "cat": ["hotel"], "province": "cr"}}, {"type": "Feature", "geometry": {"type": "Point", "coordinates": [99.8343714, 19.9142624]}, "properties": {"id": "cr-osm-relation-7125275", "name": "Ban Lotus Guest House", "nameTh": null, "nameEn": "Ban Lotus Guest House", "cat": ["hotel"], "province": "cr"}}, {"type": "Feature", "geometry": {"type": "Point", "coordinates": [99.8354839, 19.9028969]}, "properties": {"id": "cr-osm-way-550986949", "name": "Baramee Guesthouse", "nameTh": null, "nameEn": "Baramee Guesthouse", "cat": ["hotel"], "province": "cr"}}, {"type": "Feature", "geometry": {"type": "Point", "coordinates": [99.8323196, 19.9061193]}, "properties": {"id": "cr-osm-node-6976725085", "name": "Bed and Bike Poshtel", "nameTh": null, "nameEn": "Bed and Bike Poshtel", "cat": ["hotel"], "province": "cr"}}, {"type": "Feature", "geometry": {"type": "Point", "coordinates": [99.8234859, 19.9042445]}, "properties": {"id": "cr-osm-node-1425326995", "name": "Ben Guesthouse", "nameTh": null, "nameEn": "Ben Guesthouse", "cat": ["hotel"], "province": "cr"}}, {"type": "Feature", "geometry": {"type": "Point", "coordinates": [99.8302971, 19.9036108]}, "properties": {"id": "cr-osm-way-330739408", "name": "Boon Bun Dan", "nameTh": null, "nameEn": "Boon Bun Dan", "cat": ["hotel"], "province": "cr"}}, {"type": "Feature", "geometry": {"type": "Point", "coordinates": [99.8323883, 19.9046028]}, "properties": {"id": "cr-osm-way-1291733042", "name": "Buan Bua Guesthouse", "nameTh": null, "nameEn": "Buan Bua Guesthouse", "cat": ["hotel"], "province": "cr"}}, {"type": "Feature", "geometry": {"type": "Point", "coordinates": [99.8322193, 19.9047482]}, "properties": {"id": "cr-osm-way-387050247", "name": "Buan Bua Guesthouse", "nameTh": null, "nameEn": "Buan Bua Guesthouse", "cat": ["hotel"], "province": "cr"}}, {"type": "Feature", "geometry": {"type": "Point", "coordinates": [99.8309119, 19.9046127]}, "properties": {"id": "cr-osm-node-13981067567", "name": "Buun Bun Dan Inn", "nameTh": null, "nameEn": "Boon Ban Dan", "cat": ["hotel"], "province": "cr"}}, {"type": "Feature", "geometry": {"type": "Point", "coordinates": [99.7850991, 19.9111394]}, "properties": {"id": "cr-osm-node-4045350216", "name": "CR Rimkok Terminal Resort", "nameTh": null, "nameEn": "CR Rimkok Terminal Resort", "cat": ["hotel"], "province": "cr"}}, {"type": "Feature", "geometry": {"type": "Point", "coordinates": [99.8577292, 19.9770771]}, "properties": {"id": "cr-osm-node-4525394592", "name": "Cabbages & Condoms", "nameTh": null, "nameEn": "Cabbages & Condoms", "cat": ["hotel"], "province": "cr"}}, {"type": "Feature", "geometry": {"type": "Point", "coordinates": [99.8150683, 19.9183854]}, "properties": {"id": "cr-osm-way-967461423", "name": "Chainarai Riverside Recreation Centre", "nameTh": null, "nameEn": "Chainarai Riverside Recreation Centre", "cat": ["hotel"], "province": "cr"}}, {"type": "Feature", "geometry": {"type": "Point", "coordinates": [99.8356146, 19.9158846]}, "properties": {"id": "cr-osm-node-6634989285", "name": "Chaiwut home stay", "nameTh": null, "nameEn": "Chaiwut home stay", "cat": ["hotel"], "province": "cr"}}, {"type": "Feature", "geometry": {"type": "Point", "coordinates": [99.8177038, 19.8934953]}, "properties": {"id": "cr-osm-way-638740452", "name": "Chayadol Resort", "nameTh": null, "nameEn": "Chayadol Resort", "cat": ["hotel"], "province": "cr"}}, {"type": "Feature", "geometry": {"type": "Point", "coordinates": [99.8308281, 19.9064221]}, "properties": {"id": "cr-osm-way-384839057", "name": "Chedi Chiangrai Boutique Hotel", "nameTh": null, "nameEn": "Chedi Chiangrai Boutique Hotel", "cat": ["hotel"], "province": "cr"}}, {"type": "Feature", "geometry": {"type": "Point", "coordinates": [99.833026, 19.9062855]}, "properties": {"id": "cr-osm-node-2908413736", "name": "Chez Nous Homestay", "nameTh": null, "nameEn": "Chez Nous Homestay", "cat": ["hotel"], "province": "cr"}}, {"type": "Feature", "geometry": {"type": "Point", "coordinates": [99.8200238, 19.9014783]}, "properties": {"id": "cr-osm-way-1107921051", "name": "Chezmoi Handcraft & Homestay", "nameTh": null, "nameEn": "Chezmoi Handcraft & Homestay", "cat": ["hotel"], "province": "cr"}}, {"type": "Feature", "geometry": {"type": "Point", "coordinates": [99.8386468, 19.9153686]}, "properties": {"id": "cr-osm-node-3617387675", "name": "Chian Guesthouse", "nameTh": null, "nameEn": "Chian Guesthouse", "cat": ["hotel"], "province": "cr"}}, {"type": "Feature", "geometry": {"type": "Point", "coordinates": [99.8303016, 19.9046533]}, "properties": {"id": "cr-osm-node-4229211891", "name": "Chiang Rai living ", "nameTh": null, "nameEn": "Chiang Rai living", "cat": ["hotel"], "province": "cr"}}, {"type": "Feature", "geometry": {"type": "Point", "coordinates": [99.833378, 19.9060091]}, "properties": {"id": "cr-osm-way-484142603", "name": "City Home Guesthouse", "nameTh": "City Home Guesthouse", "nameEn": null, "cat": ["hotel"], "province": "cr"}}, {"type": "Feature", "geometry": {"type": "Point", "coordinates": [99.8287953, 19.9075481]}, "properties": {"id": "cr-osm-way-960934932", "name": "Concept Yard", "nameTh": null, "nameEn": "Concept Yard", "cat": ["hotel"], "province": "cr"}}, {"type": "Feature", "geometry": {"type": "Point", "coordinates": [99.8320606, 19.8980883]}, "properties": {"id": "cr-osm-node-4982000321", "name": "Connect", "nameTh": null, "nameEn": "Connect", "cat": ["hotel"], "province": "cr"}}, {"type": "Feature", "geometry": {"type": "Point", "coordinates": [99.8204004, 19.8992152]}, "properties": {"id": "cr-osm-node-10245740711", "name": "Cordelia Chiangrai", "nameTh": null, "nameEn": "Cordelia Chiangrai", "cat": ["hotel"], "province": "cr"}}, {"type": "Feature", "geometry": {"type": "Point", "coordinates": [99.8143513, 19.9023106]}, "properties": {"id": "cr-osm-node-4525351173", "name": "DeHug Hotel", "nameTh": null, "nameEn": "DeHug Hotel", "cat": ["hotel"], "province": "cr"}}, {"type": "Feature", "geometry": {"type": "Point", "coordinates": [99.8368503, 19.9020151]}, "properties": {"id": "cr-osm-way-541553869", "name": "Diamond Park Inn Chiang Rai Resort", "nameTh": null, "nameEn": "Diamond Park Inn Chiang Rai Resort", "cat": ["hotel"], "province": "cr"}}, {"type": "Feature", "geometry": {"type": "Point", "coordinates": [99.7504849, 19.8226413]}, "properties": {"id": "cr-osm-way-1013489615", "name": "Doowall Hotel & Gallery", "nameTh": null, "nameEn": "Doowall Hotel & Gallery", "cat": ["hotel"], "province": "cr"}}, {"type": "Feature", "geometry": {"type": "Point", "coordinates": [99.8352449, 19.9035658]}, "properties": {"id": "cr-osm-node-5384727815", "name": "Fon guest house", "nameTh": null, "nameEn": "Fon guest house", "cat": ["hotel"], "province": "cr"}}, {"type": "Feature", "geometry": {"type": "Point", "coordinates": [99.8185011, 19.892029]}, "properties": {"id": "cr-osm-node-3997163853", "name": "Foreste Resort & Spa", "nameTh": null, "nameEn": "Foreste Resort & Spa", "cat": ["hotel"], "province": "cr"}}, {"type": "Feature", "geometry": {"type": "Point", "coordinates": [99.8404026, 19.9075906]}, "properties": {"id": "cr-osm-node-2315631889", "name": "Fun-D", "nameTh": null, "nameEn": "Fun-D", "cat": ["hotel"], "province": "cr"}}, {"type": "Feature", "geometry": {"type": "Point", "coordinates": [99.8253043, 19.9063682]}, "properties": {"id": "cr-osm-node-906244423", "name": "Garden House", "nameTh": null, "nameEn": "Garden House", "cat": ["hotel"], "province": "cr"}}, {"type": "Feature", "geometry": {"type": "Point", "coordinates": [99.8304906, 19.9017934]}, "properties": {"id": "cr-osm-node-12325154501", "name": "Get Hi Hostel", "nameTh": null, "nameEn": "Get Hi Hostel", "cat": ["hotel"], "province": "cr"}}, {"type": "Feature", "geometry": {"type": "Point", "coordinates": [99.8344385, 19.9070041]}, "properties": {"id": "cr-osm-node-4709226957", "name": "Golden Triangle Inn", "nameTh": null, "nameEn": "Golden Triangle Inn", "cat": ["hotel"], "province": "cr"}}, {"type": "Feature", "geometry": {"type": "Point", "coordinates": [99.8324204, 19.9030659]}, "properties": {"id": "cr-osm-node-4416687292", "name": "Good Morning Chiangrai", "nameTh": "Good Morning Chiangrai", "nameEn": null, "cat": ["hotel"], "province": "cr"}}, {"type": "Feature", "geometry": {"type": "Point", "coordinates": [99.8515955, 19.9052172]}, "properties": {"id": "cr-osm-node-7901119527", "name": "Goodtime Resort Chiangrai", "nameTh": null, "nameEn": "Goodtime Resort Chiangrai", "cat": ["hotel"], "province": "cr"}}, {"type": "Feature", "geometry": {"type": "Point", "coordinates": [99.815045, 19.9031091]}, "properties": {"id": "cr-osm-node-5338160358", "name": "Grace Hostel & Cafe", "nameTh": null, "nameEn": "Grace Hostel & Cafe", "cat": ["hotel"], "province": "cr"}}, {"type": "Feature", "geometry": {"type": "Point", "coordinates": [99.8348627, 19.9024066]}, "properties": {"id": "cr-osm-node-2826264519", "name": "Grandma Kaew House", "nameTh": null, "nameEn": "Grandma Kaew House", "cat": ["hotel"], "province": "cr"}}, {"type": "Feature", "geometry": {"type": "Point", "coordinates": [99.8354164, 19.8937376]}, "properties": {"id": "cr-osm-way-751055658", "name": "Green Park Resort", "nameTh": null, "nameEn": "Green Park Resort", "cat": ["hotel"], "province": "cr"}}, {"type": "Feature", "geometry": {"type": "Point", "coordinates": [99.8350327, 19.9007451]}, "properties": {"id": "cr-osm-node-12531973317", "name": "Grow", "nameTh": null, "nameEn": "Grow", "cat": ["hotel"], "province": "cr"}}, {"type": "Feature", "geometry": {"type": "Point", "coordinates": [99.8324175, 19.89912]}, "properties": {"id": "cr-osm-node-12482416727", "name": "Happynest", "nameTh": null, "nameEn": "Happynest", "cat": ["hotel"], "province": "cr"}}, {"type": "Feature", "geometry": {"type": "Point", "coordinates": [99.8325708, 19.8996397]}, "properties": {"id": "cr-osm-node-4308390491", "name": "Happynest inspiring hostel", "nameTh": null, "nameEn": "Happynest inspiring hostel", "cat": ["hotel"], "province": "cr"}}, {"type": "Feature", "geometry": {"type": "Point", "coordinates": [99.7603588, 19.8269342]}, "properties": {"id": "cr-osm-way-1013488128", "name": "Heun Baan Rongkhun Resort", "nameTh": null, "nameEn": "Heun Baan Rongkhun Resort", "cat": ["hotel"], "province": "cr"}}, {"type": "Feature", "geometry": {"type": "Point", "coordinates": [99.8330206, 19.9023994]}, "properties": {"id": "cr-osm-node-4544528292", "name": "Hi Chiangrai Hotel", "nameTh": null, "nameEn": "Hi Chiangrai Hotel", "cat": ["hotel"], "province": "cr"}}, {"type": "Feature", "geometry": {"type": "Point", "coordinates": [99.8290081, 19.8888157]}, "properties": {"id": "cr-osm-node-3339667075", "name": "Homey Dormy", "nameTh": null, "nameEn": "Homey Dormy", "cat": ["hotel"], "province": "cr"}}, {"type": "Feature", "geometry": {"type": "Point", "coordinates": [99.8326922, 19.898555]}, "properties": {"id": "cr-osm-way-641784765", "name": "Hop Inn", "nameTh": null, "nameEn": "Hop Inn", "cat": ["hotel"], "province": "cr"}}, {"type": "Feature", "geometry": {"type": "Point", "coordinates": [99.8290349, 19.9063949]}, "properties": {"id": "cr-osm-way-959733182", "name": "Hop Inn Clock Tower", "nameTh": null, "nameEn": "Hop Inn Clock Tower", "cat": ["hotel"], "province": "cr"}}, {"type": "Feature", "geometry": {"type": "Point", "coordinates": [99.8443892, 19.9215405]}, "properties": {"id": "cr-osm-node-3214076232", "name": "Huean Him Kok", "nameTh": null, "nameEn": "Huean Him Kok", "cat": ["hotel"], "province": "cr"}}, {"type": "Feature", "geometry": {"type": "Point", "coordinates": [99.8253309, 19.9074948]}, "properties": {"id": "cr-osm-way-440958818", "name": "Huen Chan Thip", "nameTh": null, "nameEn": "Huen Chan Thip", "cat": ["hotel"], "province": "cr"}}, {"type": "Feature", "geometry": {"type": "Point", "coordinates": [99.8394447, 19.9207757]}, "properties": {"id": "cr-osm-way-231636608", "name": "Imperial River House Resort", "nameTh": null, "nameEn": "Imperial River House Resort", "cat": ["hotel"], "province": "cr"}}, {"type": "Feature", "geometry": {"type": "Point", "coordinates": [99.8321148, 19.9031907]}, "properties": {"id": "cr-osm-way-484139933", "name": "Jansom House", "nameTh": null, "nameEn": "Jansom House", "cat": ["hotel"], "province": "cr"}}, {"type": "Feature", "geometry": {"type": "Point", "coordinates": [99.8342522, 19.9140062]}, "properties": {"id": "cr-osm-node-1188707070", "name": "Jitaree Guest House", "nameTh": null, "nameEn": "Jitaree Guest House", "cat": ["hotel"], "province": "cr"}}, {"type": "Feature", "geometry": {"type": "Point", "coordinates": [99.8469425, 19.9684204]}, "properties": {"id": "cr-osm-node-5422202924", "name": "Kanapee Hotel", "nameTh": null, "nameEn": "Kanapee Hotel", "cat": ["hotel"], "province": "cr"}}, {"type": "Feature", "geometry": {"type": "Point", "coordinates": [99.8407138, 19.9153547]}, "properties": {"id": "cr-osm-node-10245740318", "name": "Kenta House", "nameTh": null, "nameEn": "Kenta House", "cat": ["hotel"], "province": "cr"}}, {"type": "Feature", "geometry": {"type": "Point", "coordinates": [99.8242728, 19.8905514]}, "properties": {"id": "cr-osm-relation-8858779", "name": "Khamthana Hotel", "nameTh": null, "nameEn": "Khamthana Hotel", "cat": ["hotel"], "province": "cr"}}, {"type": "Feature", "geometry": {"type": "Point", "coordinates": [99.8242476, 19.8904643]}, "properties": {"id": "cr-osm-way-638741507", "name": "Khamthana Hotel", "nameTh": null, "nameEn": "Khamthana Hotel", "cat": ["hotel"], "province": "cr"}}, {"type": "Feature", "geometry": {"type": "Point", "coordinates": [99.8457201, 19.9084801]}, "properties": {"id": "cr-osm-node-4650542891", "name": "Koon Cha Learn Hostel", "nameTh": null, "nameEn": "Koon Cha Learn Hostel", "cat": ["hotel"], "province": "cr"}}, {"type": "Feature", "geometry": {"type": "Point", "coordinates": [99.8263626, 19.8952525]}, "properties": {"id": "cr-osm-way-391132812", "name": "La Luna", "nameTh": null, "nameEn": "La Luna", "cat": ["hotel"], "province": "cr"}}, {"type": "Feature", "geometry": {"type": "Point", "coordinates": [99.8223613, 19.9065225]}, "properties": {"id": "cr-osm-way-960685144", "name": "La Vie En Rose", "nameTh": null, "nameEn": "La Vie En Rose", "cat": ["hotel"], "province": "cr"}}, {"type": "Feature", "geometry": {"type": "Point", "coordinates": [99.8152341, 19.8894499]}, "properties": {"id": "cr-osm-node-5579664024", "name": "Lamyai Cafe &Guest House", "nameTh": null, "nameEn": "Lamyai Cafe &Guest House", "cat": ["hotel"], "province": "cr"}}, {"type": "Feature", "geometry": {"type": "Point", "coordinates": [99.8542666, 19.9226678]}, "properties": {"id": "cr-osm-way-751053203", "name": "Le Méridien Chiang Rai Resort", "nameTh": "เลอเมอริเดียน เชียงราย", "nameEn": "Le Méridien Chiang Rai Resort", "cat": ["hotel"], "province": "cr"}}, {"type": "Feature", "geometry": {"type": "Point", "coordinates": [99.8349037, 19.9063255]}, "properties": {"id": "cr-osm-way-1105521795", "name": "Le Patta", "nameTh": null, "nameEn": "Le Patta", "cat": ["hotel"], "province": "cr"}}, {"type": "Feature", "geometry": {"type": "Point", "coordinates": [99.8319319, 19.9059671]}, "properties": {"id": "cr-osm-node-10245740614", "name": "Little One", "nameTh": null, "nameEn": "Little One", "cat": ["hotel"], "province": "cr"}}, {"type": "Feature", "geometry": {"type": "Point", "coordinates": [99.8359738, 19.9050322]}, "properties": {"id": "cr-osm-node-5340195121", "name": "Lub Moh", "nameTh": null, "nameEn": "Lub Moh", "cat": ["hotel"], "province": "cr"}}, {"type": "Feature", "geometry": {"type": "Point", "coordinates": [99.8398647, 19.9225228]}, "properties": {"id": "cr-osm-node-13677669478", "name": "Luk Swan Resort", "nameTh": null, "nameEn": "Luk Swan Resort", "cat": ["hotel"], "province": "cr"}}, {"type": "Feature", "geometry": {"type": "Point", "coordinates": [99.8341649, 19.9136125]}, "properties": {"id": "cr-osm-node-2316641264", "name": "Mae Hong Son Guest House", "nameTh": null, "nameEn": "Mae Hong Son Guest House", "cat": ["hotel"], "province": "cr"}}, {"type": "Feature", "geometry": {"type": "Point", "coordinates": [99.7917436, 19.9530046]}, "properties": {"id": "cr-osm-node-5709223440", "name": "Maeyao Resort", "nameTh": null, "nameEn": "Maeyao Resort", "cat": ["hotel"], "province": "cr"}}, {"type": "Feature", "geometry": {"type": "Point", "coordinates": [99.8415691, 19.9066935]}, "properties": {"id": "cr-osm-node-4250901789", "name": "Malina Ville Hotel", "nameTh": null, "nameEn": "Malina Ville Hotel", "cat": ["hotel"], "province": "cr"}}, {"type": "Feature", "geometry": {"type": "Point", "coordinates": [99.821354, 19.8971746]}, "properties": {"id": "cr-osm-way-551459687", "name": "Maryo Hotel", "nameTh": null, "nameEn": "Maryo Hotel", "cat": ["hotel"], "province": "cr"}}, {"type": "Feature", "geometry": {"type": "Point", "coordinates": [99.8304869, 19.9046057]}, "properties": {"id": "cr-osm-way-387049084", "name": "Mercy Hostel", "nameTh": null, "nameEn": "Mercy Hostel", "cat": ["hotel"], "province": "cr"}}, {"type": "Feature", "geometry": {"type": "Point", "coordinates": [99.8320742, 19.8991546]}, "properties": {"id": "cr-osm-node-12482417078", "name": "Mira", "nameTh": null, "nameEn": "Mira", "cat": ["hotel"], "province": "cr"}}, {"type": "Feature", "geometry": {"type": "Point", "coordinates": [99.8414159, 19.9765769]}, "properties": {"id": "cr-osm-node-3997580491", "name": "Monfhasi Home Resort", "nameTh": null, "nameEn": "Monfhasi Home Resort", "cat": ["hotel"], "province": "cr"}}, {"type": "Feature", "geometry": {"type": "Point", "coordinates": [99.8311691, 19.9067053]}, "properties": {"id": "cr-osm-node-2450215744", "name": "Moon House", "nameTh": null, "nameEn": "Moon House", "cat": ["hotel"], "province": "cr"}}, {"type": "Feature", "geometry": {"type": "Point", "coordinates": [99.8362994, 19.9113871]}, "properties": {"id": "cr-osm-way-711057885", "name": "Moon and Sun Hotel", "nameTh": "โรงแรมมูนแอนด์ซัน", "nameEn": "Moon and Sun Hotel", "cat": ["hotel"], "province": "cr"}}, {"type": "Feature", "geometry": {"type": "Point", "coordinates": [99.8241021, 19.9081961]}, "properties": {"id": "cr-osm-node-4465658389", "name": "Morning Dew Lodge", "nameTh": null, "nameEn": "Morning Dew Lodge", "cat": ["hotel"], "province": "cr"}}, {"type": "Feature", "geometry": {"type": "Point", "coordinates": [99.8349719, 19.9023054]}, "properties": {"id": "cr-osm-node-4009706746", "name": "Na-Rak-O Resort", "nameTh": null, "nameEn": "Na-Rak-O Resort", "cat": ["hotel"], "province": "cr"}}, {"type": "Feature", "geometry": {"type": "Point", "coordinates": [99.8355071, 19.9104521]}, "properties": {"id": "cr-osm-node-11736625016", "name": "Nak Nakara", "nameTh": null, "nameEn": "Nak Nakara", "cat": ["hotel"], "province": "cr"}}, {"type": "Feature", "geometry": {"type": "Point", "coordinates": [99.8176623, 19.9358283]}, "properties": {"id": "cr-osm-node-9472984448", "name": "Nanadoo", "nameTh": null, "nameEn": "Nanadoo", "cat": ["hotel"], "province": "cr"}}, {"type": "Feature", "geometry": {"type": "Point", "coordinates": [99.841489, 19.9075621]}, "properties": {"id": "cr-osm-way-664556195", "name": "Nice Inn Town Hotel", "nameTh": null, "nameEn": "Nice Inn Town Hotel", "cat": ["hotel"], "province": "cr"}}, {"type": "Feature", "geometry": {"type": "Point", "coordinates": [99.7489834, 19.8311907]}, "properties": {"id": "cr-osm-way-653744089", "name": "Northstar Resort", "nameTh": null, "nameEn": "Northstar Resort", "cat": ["hotel"], "province": "cr"}}, {"type": "Feature", "geometry": {"type": "Point", "coordinates": [99.8430336, 19.9088807]}, "properties": {"id": "cr-osm-node-9505272517", "name": "Oh My Place", "nameTh": null, "nameEn": "Oh My Place", "cat": ["hotel"], "province": "cr"}}, {"type": "Feature", "geometry": {"type": "Point", "coordinates": [99.8662282, 19.9939086]}, "properties": {"id": "cr-osm-node-10245740316", "name": "Open Kitchen", "nameTh": null, "nameEn": "Open Kitchen", "cat": ["hotel"], "province": "cr"}}, {"type": "Feature", "geometry": {"type": "Point", "coordinates": [99.8317728, 19.9044841]}, "properties": {"id": "cr-osm-way-387050245", "name": "Orchids Guesthouse", "nameTh": null, "nameEn": "Orchids Guesthouse", "cat": ["hotel"], "province": "cr"}}, {"type": "Feature", "geometry": {"type": "Point", "coordinates": [99.8138266, 19.903367]}, "properties": {"id": "cr-osm-node-5416307821", "name": "Ozone Guest House", "nameTh": null, "nameEn": "Ozone Guest House", "cat": ["hotel"], "province": "cr"}}, {"type": "Feature", "geometry": {"type": "Point", "coordinates": [99.8288835, 19.9076442]}, "properties": {"id": "cr-osm-way-960934931", "name": "PAH", "nameTh": "ผ้า", "nameEn": "PAH", "cat": ["hotel"], "province": "cr"}}, {"type": "Feature", "geometry": {"type": "Point", "coordinates": [99.8170051, 19.8925804]}, "properties": {"id": "cr-osm-node-6387160135", "name": "PaiLin House Chiang Rai", "nameTh": null, "nameEn": "PaiLin House Chiang Rai", "cat": ["hotel"], "province": "cr"}}, {"type": "Feature", "geometry": {"type": "Point", "coordinates": [99.7656653, 19.8203026]}, "properties": {"id": "cr-osm-node-4751436686", "name": "Pak Ping Ing Jai", "nameTh": null, "nameEn": "Pak Ping Ing Jai", "cat": ["hotel"], "province": "cr"}}, {"type": "Feature", "geometry": {"type": "Point", "coordinates": [99.8205117, 19.8873225]}, "properties": {"id": "cr-osm-node-11486686269", "name": "Palin Family Cottage Hotel", "nameTh": null, "nameEn": "Palin Family Cottage Hotel", "cat": ["hotel"], "province": "cr"}}, {"type": "Feature", "geometry": {"type": "Point", "coordinates": [99.8196121, 19.8893833]}, "properties": {"id": "cr-osm-node-4096962288", "name": "Pan Kled Villa Eco Hill Resort", "nameTh": null, "nameEn": "Pan Kled Villa Eco Hill Resort", "cat": ["hotel"], "province": "cr"}}, {"type": "Feature", "geometry": {"type": "Point", "coordinates": [99.8412556, 19.9137037]}, "properties": {"id": "cr-osm-node-2448228278", "name": "Park Inn", "nameTh": null, "nameEn": "Park Inn", "cat": ["hotel"], "province": "cr"}}, {"type": "Feature", "geometry": {"type": "Point", "coordinates": [99.8375746, 19.8986647]}, "properties": {"id": "cr-osm-node-4677905094", "name": "Petch Siam Hotel", "nameTh": null, "nameEn": "Petch Siam Hotel", "cat": ["hotel"], "province": "cr"}}, {"type": "Feature", "geometry": {"type": "Point", "coordinates": [99.8199944, 19.933483]}, "properties": {"id": "cr-osm-way-545814482", "name": "Phowadol Resort & Spa", "nameTh": null, "nameEn": "Phowadol Resort & Spa", "cat": ["hotel"], "province": "cr"}}, {"type": "Feature", "geometry": {"type": "Point", "coordinates": [99.8249515, 19.8937836]}, "properties": {"id": "cr-osm-way-638746806", "name": "Pimann Inn", "nameTh": null, "nameEn": "Pimann Inn", "cat": ["hotel"], "province": "cr"}}, {"type": "Feature", "geometry": {"type": "Point", "coordinates": [99.8530063, 19.9057776]}, "properties": {"id": "cr-osm-node-4607722490", "name": "Ploy poo residence", "nameTh": null, "nameEn": "Ploy poo residence", "cat": ["hotel"], "province": "cr"}}, {"type": "Feature", "geometry": {"type": "Point", "coordinates": [99.8388707, 19.8871096]}, "properties": {"id": "cr-osm-node-10245740612", "name": "Pornkasem House", "nameTh": null, "nameEn": "Pornkasem House", "cat": ["hotel"], "province": "cr"}}, {"type": "Feature", "geometry": {"type": "Point", "coordinates": [99.8408371, 19.9120414]}, "properties": {"id": "cr-osm-way-643043417", "name": "Rasa Hotel", "nameTh": null, "nameEn": "Rasa Hotel", "cat": ["hotel"], "province": "cr"}}, {"type": "Feature", "geometry": {"type": "Point", "coordinates": [99.8435377, 19.9214347]}, "properties": {"id": "cr-osm-node-13677521636", "name": "Riva Vista Riverfront Hotel", "nameTh": null, "nameEn": "Riva Vista Riverfront Hotel", "cat": ["hotel"], "province": "cr"}}, {"type": "Feature", "geometry": {"type": "Point", "coordinates": [99.882173, 19.9451818]}, "properties": {"id": "cr-osm-node-11559220960", "name": "Rung Chiang Rai Resort", "nameTh": null, "nameEn": "Rung Chiang Rai Resort", "cat": ["hotel"], "province": "cr"}}, {"type": "Feature", "geometry": {"type": "Point", "coordinates": [99.828103, 19.8943663]}, "properties": {"id": "cr-osm-way-168838007", "name": "Sabai Inn", "nameTh": null, "nameEn": "Sabai Inn", "cat": ["hotel"], "province": "cr"}}, {"type": "Feature", "geometry": {"type": "Point", "coordinates": [99.8313774, 19.9061239]}, "properties": {"id": "cr-osm-node-4787402026", "name": "Sabai Jai Guesthouse & Cafe", "nameTh": null, "nameEn": "Sabai Jai Guesthouse & Cafe", "cat": ["hotel"], "province": "cr"}}, {"type": "Feature", "geometry": {"type": "Point", "coordinates": [99.8223604, 19.9012664]}, "properties": {"id": "cr-osm-node-12420693201", "name": "Sabun-Nga Hotel", "nameTh": null, "nameEn": "Sabun-Nga Hotel", "cat": ["hotel"], "province": "cr"}}, {"type": "Feature", "geometry": {"type": "Point", "coordinates": [99.8171014, 19.8948644]}, "properties": {"id": "cr-osm-node-3339347495", "name": "Saikaew Resort", "nameTh": null, "nameEn": "Saikaew Resort", "cat": ["hotel"], "province": "cr"}}, {"type": "Feature", "geometry": {"type": "Point", "coordinates": [99.8215881, 19.9061326]}, "properties": {"id": "cr-osm-way-960685161", "name": "Sann Sook Hotel", "nameTh": "แสนสุข โฮเต็ล", "nameEn": "Sann Sook Hotel", "cat": ["hotel"], "province": "cr"}}, {"type": "Feature", "geometry": {"type": "Point", "coordinates": [99.8259979, 19.9102437]}, "properties": {"id": "cr-osm-node-13980096594", "name": "Shinophat’s House", "nameTh": null, "nameEn": "Shinophat’s House", "cat": ["hotel"], "province": "cr"}}, {"type": "Feature", "geometry": {"type": "Point", "coordinates": [99.8353873, 19.9402052]}, "properties": {"id": "cr-osm-node-13114007101", "name": "Sleep and Rest Makao", "nameTh": null, "nameEn": "Sleep and Rest Makao", "cat": ["hotel"], "province": "cr"}}, {"type": "Feature", "geometry": {"type": "Point", "coordinates": [99.8324613, 19.9060587]}, "properties": {"id": "cr-osm-node-6496889986", "name": "Sofia Hostel", "nameTh": null, "nameEn": "Sofia Hostel", "cat": ["hotel"], "province": "cr"}}, {"type": "Feature", "geometry": {"type": "Point", "coordinates": [99.8329734, 19.9052404]}, "properties": {"id": "cr-osm-node-6976569285", "name": "Sook Cafe and Hostel", "nameTh": null, "nameEn": "Sook Cafe and Hostel", "cat": ["hotel"], "province": "cr"}}, {"type": "Feature", "geometry": {"type": "Point", "coordinates": [99.8298568, 19.9040903]}, "properties": {"id": "cr-osm-way-751059223", "name": "Sook Jai Guesthouse", "nameTh": null, "nameEn": "Sook Jai Guesthouse", "cat": ["hotel"], "province": "cr"}}, {"type": "Feature", "geometry": {"type": "Point", "coordinates": [99.8365056, 19.9036853]}, "properties": {"id": "cr-osm-node-5744403325", "name": "Sound Brown Coffee", "nameTh": null, "nameEn": "Sound Brown Coffee", "cat": ["hotel"], "province": "cr"}}, {"type": "Feature", "geometry": {"type": "Point", "coordinates": [99.8290881, 19.8919163]}, "properties": {"id": "cr-osm-way-168837654", "name": "Sport Inn Hotel", "nameTh": null, "nameEn": "Sport Inn Hotel", "cat": ["hotel"], "province": "cr"}}, {"type": "Feature", "geometry": {"type": "Point", "coordinates": [99.8253864, 19.9019525]}, "properties": {"id": "cr-osm-node-6282254486", "name": "Stay In Chiangrai", "nameTh": null, "nameEn": "Stay In Chiangrai", "cat": ["hotel"], "province": "cr"}}, {"type": "Feature", "geometry": {"type": "Point", "coordinates": [99.8337381, 19.9085222]}, "properties": {"id": "cr-osm-node-12308941201", "name": "SuanTung Coffee & Guesthouse", "nameTh": null, "nameEn": "SuanTung Coffee & Guesthouse", "cat": ["hotel"], "province": "cr"}}, {"type": "Feature", "geometry": {"type": "Point", "coordinates": [99.833226, 19.9139127]}, "properties": {"id": "cr-osm-node-2316646738", "name": "Sunantha House", "nameTh": null, "nameEn": "Sunantha House", "cat": ["hotel"], "province": "cr"}}, {"type": "Feature", "geometry": {"type": "Point", "coordinates": [99.8327434, 19.9060141]}, "properties": {"id": "cr-osm-node-10245740613", "name": "Suree House", "nameTh": null, "nameEn": "Suree House", "cat": ["hotel"], "province": "cr"}}, {"type": "Feature", "geometry": {"type": "Point", "coordinates": [99.8359686, 19.9035394]}, "properties": {"id": "cr-osm-node-12003199969", "name": "Tanya House", "nameTh": null, "nameEn": "Tanya House", "cat": ["hotel"], "province": "cr"}}, {"type": "Feature", "geometry": {"type": "Point", "coordinates": [99.8620178, 19.9555277]}, "properties": {"id": "cr-osm-way-657755613", "name": "Teak Garden Resort", "nameTh": null, "nameEn": "Teak Garden Resort", "cat": ["hotel"], "province": "cr"}}, {"type": "Feature", "geometry": {"type": "Point", "coordinates": [99.8334218, 19.9066923]}, "properties": {"id": "cr-osm-way-487636026", "name": "Thailand Tour Hotel", "nameTh": null, "nameEn": "Thailand Tour Hotel", "cat": ["hotel"], "province": "cr"}}, {"type": "Feature", "geometry": {"type": "Point", "coordinates": [99.8308105, 19.9076326]}, "properties": {"id": "cr-osm-node-13742818001", "name": "The Clock Tower Chiang Rai Hostel", "nameTh": null, "nameEn": "The Clock Tower Chiang Rai Hostel", "cat": ["hotel"], "province": "cr"}}, {"type": "Feature", "geometry": {"type": "Point", "coordinates": [99.8076444, 19.8489034]}, "properties": {"id": "cr-osm-node-4140359889", "name": "The Garage", "nameTh": null, "nameEn": "The garage", "cat": ["hotel"], "province": "cr"}}, {"type": "Feature", "geometry": {"type": "Point", "coordinates": [99.8317012, 19.890764]}, "properties": {"id": "cr-osm-node-10557036409", "name": "The Great Winter", "nameTh": null, "nameEn": "The Great Winter", "cat": ["hotel"], "province": "cr"}}, {"type": "Feature", "geometry": {"type": "Point", "coordinates": [99.8546594, 19.9778443]}, "properties": {"id": "cr-osm-node-4530704331", "name": "The Jaz Avenue", "nameTh": null, "nameEn": "The Jaz Avenue", "cat": ["hotel"], "province": "cr"}}, {"type": "Feature", "geometry": {"type": "Point", "coordinates": [99.8403792, 19.9180175]}, "properties": {"id": "cr-osm-way-256853080", "name": "The Legend Chiang Rai Boutique River Resort & Spa", "nameTh": null, "nameEn": "The Legend Chiang Rai Boutique River Resort & Spa", "cat": ["hotel"], "province": "cr"}}, {"type": "Feature", "geometry": {"type": "Point", "coordinates": [99.8662175, 19.9938199]}, "properties": {"id": "cr-osm-node-10245740317", "name": "The Library", "nameTh": null, "nameEn": "The Library", "cat": ["hotel"], "province": "cr"}}, {"type": "Feature", "geometry": {"type": "Point", "coordinates": [99.8354205, 19.9054429]}, "properties": {"id": "cr-osm-node-4224625389", "name": "The North Hotel", "nameTh": null, "nameEn": "The North Hotel", "cat": ["hotel"], "province": "cr"}}, {"type": "Feature", "geometry": {"type": "Point", "coordinates": [99.8268074, 19.9182877]}, "properties": {"id": "cr-osm-way-87918800", "name": "The Riverie by Katathani", "nameTh": null, "nameEn": "The Riverie by Katathani", "cat": ["hotel"], "province": "cr"}}, {"type": "Feature", "geometry": {"type": "Point", "coordinates": [99.8326752, 19.8991052]}, "properties": {"id": "cr-osm-way-641783506", "name": "The Space Hotel", "nameTh": null, "nameEn": "The Space Hotel", "cat": ["hotel"], "province": "cr"}}, {"type": "Feature", "geometry": {"type": "Point", "coordinates": [99.8242615, 19.8750363]}, "properties": {"id": "cr-osm-node-10245740712", "name": "The Target Residence", "nameTh": null, "nameEn": "The Target Residence", "cat": ["hotel"], "province": "cr"}}, {"type": "Feature", "geometry": {"type": "Point", "coordinates": [99.8270826, 19.899744]}, "properties": {"id": "cr-osm-node-10245740319", "name": "The Unique Resident Chiang Rai", "nameTh": null, "nameEn": "The Unique Resident Chiang Rai", "cat": ["hotel"], "province": "cr"}}, {"type": "Feature", "geometry": {"type": "Point", "coordinates": [99.8346829, 19.8884608]}, "properties": {"id": "cr-osm-node-11343329069", "name": "The mantrini", "nameTh": null, "nameEn": "The mantrini", "cat": ["hotel"], "province": "cr"}}, {"type": "Feature", "geometry": {"type": "Point", "coordinates": [99.8311624, 19.9066483]}, "properties": {"id": "cr-osm-node-4561324789", "name": "Ti Amo Hostel", "nameTh": null, "nameEn": "Ti Amo Hostel", "cat": ["hotel"], "province": "cr"}}, {"type": "Feature", "geometry": {"type": "Point", "coordinates": [99.8332668, 19.9088909]}, "properties": {"id": "cr-osm-node-10970063605", "name": "Together Backpacker's Hostel", "nameTh": null, "nameEn": "Together Backpacker's Hostel", "cat": ["hotel"], "province": "cr"}}, {"type": "Feature", "geometry": {"type": "Point", "coordinates": [99.8314859, 19.902563]}, "properties": {"id": "cr-osm-node-4528072891", "name": "Tourist Inn", "nameTh": "Tourist Inn", "nameEn": null, "cat": ["hotel"], "province": "cr"}}, {"type": "Feature", "geometry": {"type": "Point", "coordinates": [99.827002, 19.8994482]}, "properties": {"id": "cr-osm-way-772907453", "name": "Unique Resident", "nameTh": null, "nameEn": "Unique Resident", "cat": ["hotel"], "province": "cr"}}, {"type": "Feature", "geometry": {"type": "Point", "coordinates": [99.8246715, 19.9138237]}, "properties": {"id": "cr-osm-node-9906932217", "name": "Villa Mungkala Chiang Rai", "nameTh": null, "nameEn": "Villa Mungkala Chiang Rai", "cat": ["hotel"], "province": "cr"}}, {"type": "Feature", "geometry": {"type": "Point", "coordinates": [99.8372315, 19.8988664]}, "properties": {"id": "cr-osm-node-4548801193", "name": "Wannarit resident", "nameTh": null, "nameEn": "Wannarit resident", "cat": ["hotel"], "province": "cr"}}, {"type": "Feature", "geometry": {"type": "Point", "coordinates": [99.8351545, 19.927615]}, "properties": {"id": "cr-osm-node-4525371848", "name": "Wilacha", "nameTh": "โรงแรม วิลาชา", "nameEn": "Wilacha", "cat": ["hotel"], "province": "cr"}}, {"type": "Feature", "geometry": {"type": "Point", "coordinates": [99.8403596, 19.8993156]}, "properties": {"id": "cr-osm-node-6057439286", "name": "Winter House (true !)", "nameTh": null, "nameEn": "Winter House (true !)", "cat": ["hotel"], "province": "cr"}}, {"type": "Feature", "geometry": {"type": "Point", "coordinates": [99.8423402, 19.9033341]}, "properties": {"id": "cr-osm-node-6041743087", "name": "Winter house chiang rai", "nameTh": null, "nameEn": "Winter house chiang rai", "cat": ["hotel"], "province": "cr"}}, {"type": "Feature", "geometry": {"type": "Point", "coordinates": [99.8475298, 19.944505]}, "properties": {"id": "cr-osm-node-2148895479", "name": "Y.M.C.A. Chiang Rai", "nameTh": null, "nameEn": "Y.M.C.A. Chiang Rai", "cat": ["hotel"], "province": "cr"}}, {"type": "Feature", "geometry": {"type": "Point", "coordinates": [99.8085106, 19.8867407]}, "properties": {"id": "cr-osm-way-666388694", "name": "Yellow Duck Resort", "nameTh": null, "nameEn": "Yellow Duck Resort", "cat": ["hotel"], "province": "cr"}}, {"type": "Feature", "geometry": {"type": "Point", "coordinates": [99.8299533, 19.8982372]}, "properties": {"id": "cr-osm-node-5593597421", "name": "Yoosook Hotel", "nameTh": null, "nameEn": "Yoosook Hotel", "cat": ["hotel"], "province": "cr"}}, {"type": "Feature", "geometry": {"type": "Point", "coordinates": [99.8374414, 19.9097789]}, "properties": {"id": "cr-osm-way-711057892", "name": "Your Home", "nameTh": null, "nameEn": "Your Home", "cat": ["hotel"], "province": "cr"}}, {"type": "Feature", "geometry": {"type": "Point", "coordinates": [99.8359253, 19.9025536]}, "properties": {"id": "cr-osm-way-558429807", "name": "Zan Pla Nade Hotel", "nameTh": null, "nameEn": "Zan Pla Nade Hotel", "cat": ["hotel"], "province": "cr"}}, {"type": "Feature", "geometry": {"type": "Point", "coordinates": [99.8274689, 19.9123266]}, "properties": {"id": "cr-osm-node-4349464891", "name": "chat house", "nameTh": null, "nameEn": "chat house", "cat": ["hotel"], "province": "cr"}}, {"type": "Feature", "geometry": {"type": "Point", "coordinates": [99.8156806, 19.8455278]}, "properties": {"id": "cr-osm-node-4439001089", "name": "suybaydee", "nameTh": null, "nameEn": "suybaydee", "cat": ["hotel"], "province": "cr"}}, {"type": "Feature", "geometry": {"type": "Point", "coordinates": [99.8290222, 19.9054207]}, "properties": {"id": "cr-osm-node-1445536944", "name": "กรุงทอง", "nameTh": "กรุงทอง", "nameEn": null, "cat": ["hotel"], "province": "cr"}}, {"type": "Feature", "geometry": {"type": "Point", "coordinates": [99.8512234, 19.8930846]}, "properties": {"id": "cr-osm-way-1376968719", "name": "คงการ์เด้น วิว รีสอร์ท", "nameTh": "คงการ์เด้น วิว รีสอร์ท", "nameEn": "Kong Garden View Resort Chiang Rai", "cat": ["hotel"], "province": "cr"}}, {"type": "Feature", "geometry": {"type": "Point", "coordinates": [99.8490205, 19.9153238]}, "properties": {"id": "cr-osm-node-2148791524", "name": "คานาอันเพลส", "nameTh": "คานาอันเพลส", "nameEn": "Canaan Place", "cat": ["hotel"], "province": "cr"}}, {"type": "Feature", "geometry": {"type": "Point", "coordinates": [99.8458628, 19.9084652]}, "properties": {"id": "cr-osm-node-4663103391", "name": "คูณเจริญ", "nameTh": "คูณเจริญ", "nameEn": "KoonChaLearn Backpackers", "cat": ["hotel"], "province": "cr"}}, {"type": "Feature", "geometry": {"type": "Point", "coordinates": [99.8237904, 19.9037594]}, "properties": {"id": "cr-osm-way-967070674", "name": "จันทร์สุภา คอร์ท", "nameTh": "จันทร์สุภา คอร์ท", "nameEn": "Jansupar Court", "cat": ["hotel"], "province": "cr"}}, {"type": "Feature", "geometry": {"type": "Point", "coordinates": [99.8294394, 19.9086536]}, "properties": {"id": "cr-osm-way-959652664", "name": "ตงเซียม", "nameTh": "ตงเซียม", "nameEn": "Tongsiam", "cat": ["hotel"], "province": "cr"}}, {"type": "Feature", "geometry": {"type": "Point", "coordinates": [99.8313606, 19.8981687]}, "properties": {"id": "cr-osm-way-1074237705", "name": "นายญ่า", "nameTh": "นายญ่า", "nameEn": "Nai Ya", "cat": ["hotel"], "province": "cr"}}, {"type": "Feature", "geometry": {"type": "Point", "coordinates": [99.8320028, 19.9024204]}, "properties": {"id": "cr-osm-way-484139931", "name": "บลูลากูน", "nameTh": "บลูลากูน", "nameEn": "Blue Lagoon", "cat": ["hotel"], "province": "cr"}}, {"type": "Feature", "geometry": {"type": "Point", "coordinates": [99.8390801, 19.9153707]}, "properties": {"id": "cr-osm-way-1115228444", "name": "บ้าน นโม", "nameTh": "บ้าน นโม", "nameEn": "Baan Namo", "cat": ["hotel"], "province": "cr"}}, {"type": "Feature", "geometry": {"type": "Point", "coordinates": [99.8321197, 19.9041461]}, "properties": {"id": "cr-osm-node-5172409621", "name": "บ้านกุลหล้า", "nameTh": "บ้านกุลหล้า", "nameEn": "Ban Kullar", "cat": ["hotel"], "province": "cr"}}, {"type": "Feature", "geometry": {"type": "Point", "coordinates": [99.8330111, 19.9051009]}, "properties": {"id": "cr-osm-node-4825505122", "name": "บ้านความสุข", "nameTh": "บ้านความสุข", "nameEn": "Sook Cafe and Hostel", "cat": ["hotel"], "province": "cr"}}, {"type": "Feature", "geometry": {"type": "Point", "coordinates": [99.8316539, 19.902533]}, "properties": {"id": "cr-osm-way-1014611409", "name": "บ้านจารุ", "nameTh": "บ้านจารุ", "nameEn": "Baan Jaru", "cat": ["hotel"], "province": "cr"}}, {"type": "Feature", "geometry": {"type": "Point", "coordinates": [99.8267307, 19.9074161]}, "properties": {"id": "cr-osm-node-4356488197", "name": "บ้านนอนเพลิน", "nameTh": "บ้านนอนเพลิน", "nameEn": "Baan Norn Plearn", "cat": ["hotel"], "province": "cr"}}, {"type": "Feature", "geometry": {"type": "Point", "coordinates": [99.8272494, 19.8949195]}, "properties": {"id": "cr-osm-way-387051580", "name": "บ้านบัวรีสอร์ท", "nameTh": "บ้านบัวรีสอร์ท", "nameEn": "Baan Bua Resort", "cat": ["hotel"], "province": "cr"}}, {"type": "Feature", "geometry": {"type": "Point", "coordinates": [99.8384882, 19.9142894]}, "properties": {"id": "cr-osm-way-1110932840", "name": "บ้านพอดีดิน", "nameTh": "บ้านพอดีดิน", "nameEn": "Baan Pordeedin", "cat": ["hotel"], "province": "cr"}}, {"type": "Feature", "geometry": {"type": "Point", "coordinates": [99.8363018, 19.9027796]}, "properties": {"id": "cr-osm-way-541553985", "name": "บ้านรินลดา", "nameTh": "บ้านรินลดา", "nameEn": "Rinlada House", "cat": ["hotel"], "province": "cr"}}, {"type": "Feature", "geometry": {"type": "Point", "coordinates": [99.7670678, 19.9388816]}, "properties": {"id": "cr-osm-node-3219713102", "name": "บ้านลมเย็นโฮมสเตย์", "nameTh": "บ้านลมเย็นโฮมสเตย์", "nameEn": "Ban Lom Jen Homestay", "cat": ["hotel"], "province": "cr"}}, {"type": "Feature", "geometry": {"type": "Point", "coordinates": [99.825347, 19.9027441]}, "properties": {"id": "cr-osm-node-9134235588", "name": "บ้านลักกี", "nameTh": "บ้านลักกี", "nameEn": "Bann Lucky", "cat": ["hotel"], "province": "cr"}}, {"type": "Feature", "geometry": {"type": "Point", "coordinates": [99.8450811, 19.9246728]}, "properties": {"id": "cr-osm-node-2148823039", "name": "บ้านล้านนา", "nameTh": "บ้านล้านนา", "nameEn": "Baan Lanna Hotel", "cat": ["hotel"], "province": "cr"}}, {"type": "Feature", "geometry": {"type": "Point", "coordinates": [99.8389835, 19.9118001]}, "properties": {"id": "cr-osm-way-1109542728", "name": "บ้านสวัสดี OYO", "nameTh": "บ้านสวัสดี OYO", "nameEn": "OYO Baan Sawasdee", "cat": ["hotel"], "province": "cr"}}, {"type": "Feature", "geometry": {"type": "Point", "coordinates": [99.8359287, 19.9142693]}, "properties": {"id": "cr-osm-way-967461600", "name": "พิมานเพลส", "nameTh": "พิมานเพลส", "nameEn": "Pimann Place", "cat": ["hotel"], "province": "cr"}}, {"type": "Feature", "geometry": {"type": "Point", "coordinates": [99.8415444, 19.9746785]}, "properties": {"id": "cr-osm-node-4537064690", "name": "มอนิ่งไซค์รีสอร์ท", "nameTh": "มอนิ่งไซค์รีสอร์ท", "nameEn": "Morning Side resort", "cat": ["hotel"], "province": "cr"}}, {"type": "Feature", "geometry": {"type": "Point", "coordinates": [99.8315232, 19.9057389]}, "properties": {"id": "cr-osm-relation-5760848", "name": "วังคำ", "nameTh": "วังคำ", "nameEn": "Wangcome", "cat": ["hotel"], "province": "cr"}}, {"type": "Feature", "geometry": {"type": "Point", "coordinates": [99.815714, 19.845554]}, "properties": {"id": "cr-osm-node-4439000989", "name": "สบายดี", "nameTh": "สบายดี", "nameEn": "Sabuydee Place Chiang Rai", "cat": ["hotel"], "province": "cr"}}, {"type": "Feature", "geometry": {"type": "Point", "coordinates": [99.8337384, 19.9114445]}, "properties": {"id": "cr-osm-way-965305287", "name": "หอพักหญิง สุนันทา", "nameTh": "Sunanta", "nameEn": null, "cat": ["hotel"], "province": "cr"}}, {"type": "Feature", "geometry": {"type": "Point", "coordinates": [99.8252273, 19.9041258]}, "properties": {"id": "cr-osm-node-9134214516", "name": "หอพักเรณู", "nameTh": "หอพักเรณู", "nameEn": "Renu", "cat": ["hotel"], "province": "cr"}}, {"type": "Feature", "geometry": {"type": "Point", "coordinates": [99.8509256, 19.9196202]}, "properties": {"id": "cr-osm-node-2140748944", "name": "อัมรินทร์ รีสอร์ท", "nameTh": "อัมรินทร์ รีสอร์ท", "nameEn": "Amarin Resort", "cat": ["hotel"], "province": "cr"}}, {"type": "Feature", "geometry": {"type": "Point", "coordinates": [99.8271668, 19.8955517]}, "properties": {"id": "cr-osm-way-387051581", "name": "อารียา อินน์", "nameTh": "อารียา อินน์", "nameEn": "Ariya Inn", "cat": ["hotel"], "province": "cr"}}, {"type": "Feature", "geometry": {"type": "Point", "coordinates": [99.8496952, 19.9214063]}, "properties": {"id": "cr-osm-way-1127661763", "name": "อีทสลีฟ คาเฟ่ แอนด์ เบด", "nameTh": "อีทสลีฟ คาเฟ่ แอนด์ เบด", "nameEn": "Eat Sleep Cafe and Bed", "cat": ["hotel"], "province": "cr"}}, {"type": "Feature", "geometry": {"type": "Point", "coordinates": [99.8406949, 19.9155236]}, "properties": {"id": "cr-osm-way-1115225397", "name": "เคนตะเฮาส์", "nameTh": "เคนตะ เฮาส์", "nameEn": "Kenta House", "cat": ["hotel"], "province": "cr"}}, {"type": "Feature", "geometry": {"type": "Point", "coordinates": [99.7878928, 19.9561759]}, "properties": {"id": "cr-osm-node-3864961253", "name": "เชียงราย ม่วนใจ๋", "nameTh": "เชียงราย ม่วนใจ๋", "nameEn": "Chiang Rai Muan Jai Homestay", "cat": ["hotel"], "province": "cr"}}, {"type": "Feature", "geometry": {"type": "Point", "coordinates": [99.8311651, 19.9066762]}, "properties": {"id": "cr-osm-node-4563720690", "name": "เชียงรายเซ็นทรัลเกสท์เฮ้าส์", "nameTh": "เชียงรายเซ็นทรัลเกสท์เฮ้าส์", "nameEn": "Chiangrai Central Guesthouse", "cat": ["hotel"], "province": "cr"}}, {"type": "Feature", "geometry": {"type": "Point", "coordinates": [99.8217488, 19.8858594]}, "properties": {"id": "cr-osm-node-6125923486", "name": "เมฆแมนชั่น", "nameTh": "เมฆแมนชั่น", "nameEn": "Mech Mansion", "cat": ["hotel"], "province": "cr"}}, {"type": "Feature", "geometry": {"type": "Point", "coordinates": [99.8300552, 19.901123]}, "properties": {"id": "cr-osm-node-6325000596", "name": "เลอเทอราเนียม", "nameTh": "เลอเทอราเนียม", "nameEn": "Le Terrarium", "cat": ["hotel"], "province": "cr"}}, {"type": "Feature", "geometry": {"type": "Point", "coordinates": [99.8243656, 19.9073544]}, "properties": {"id": "cr-osm-node-5405986403", "name": "เล็ก เฮาส", "nameTh": "เล็ก เฮาส", "nameEn": "Lek house", "cat": ["hotel"], "province": "cr"}}, {"type": "Feature", "geometry": {"type": "Point", "coordinates": [99.8187727, 19.9052332]}, "properties": {"id": "cr-osm-way-1019881352", "name": "เอเมน เฮาส์", "nameTh": "เอเมน เฮาส์", "nameEn": "Amen House", "cat": ["hotel"], "province": "cr"}}, {"type": "Feature", "geometry": {"type": "Point", "coordinates": [99.839623, 19.9086108]}, "properties": {"id": "cr-osm-node-11459676770", "name": "เฮือนกาวิน", "nameTh": "เฮือนกาวิน", "nameEn": "Huan Kawin Est.58", "cat": ["hotel"], "province": "cr"}}, {"type": "Feature", "geometry": {"type": "Point", "coordinates": [99.8227817, 19.8981849]}, "properties": {"id": "cr-osm-node-8953887605", "name": "โรงแรม มณีอินน์", "nameTh": "โรงแรม มณีอินน์", "nameEn": "Mani Inn Hotel", "cat": ["hotel"], "province": "cr"}}, {"type": "Feature", "geometry": {"type": "Point", "coordinates": [99.8673589, 19.9991528]}, "properties": {"id": "cr-osm-node-1295675510", "name": "โรงแรม สิริชัย แมนชั่น", "nameTh": "โรงแรม สิริชัย แมนชั่น", "nameEn": "Siri Chai Mansion", "cat": ["hotel"], "province": "cr"}}, {"type": "Feature", "geometry": {"type": "Point", "coordinates": [99.8363705, 19.8876856]}, "properties": {"id": "cr-osm-way-967065402", "name": "โรงแรม แกรนวิสต้า", "nameTh": "โรงแรม แกรนวิสต้า", "nameEn": "Grand Vista Hotel", "cat": ["hotel"], "province": "cr"}}, {"type": "Feature", "geometry": {"type": "Point", "coordinates": [99.8596711, 19.9766418]}, "properties": {"id": "cr-osm-node-4530776858", "name": "โรงแรมนันทชัย อินน์", "nameTh": "โรงแรมนันทชัย อินน์", "nameEn": "Nantha Chai Inn", "cat": ["hotel"], "province": "cr"}}, {"type": "Feature", "geometry": {"type": "Point", "coordinates": [99.8256207, 19.9073105]}, "properties": {"id": "cr-osm-way-384839061", "name": "โรงแรมบีทู เชียงราย", "nameTh": "โรงแรมบีทู เชียงราย", "nameEn": "B2 Chinga Rai Hotel", "cat": ["hotel"], "province": "cr"}}, {"type": "Feature", "geometry": {"type": "Point", "coordinates": [99.8253275, 19.9015778]}, "properties": {"id": "cr-osm-way-1075480831", "name": "โรงแรมบ้านศิลป์", "nameTh": "โรงแรมบ้านศิลป์", "nameEn": "Baan Silp Hotel", "cat": ["hotel"], "province": "cr"}}, {"type": "Feature", "geometry": {"type": "Point", "coordinates": [99.8281273, 19.8955286]}, "properties": {"id": "cr-osm-way-751059205", "name": "โรงแรมสบาย", "nameTh": "โรงแรมสบาย", "nameEn": "Sabai Hotel", "cat": ["hotel"], "province": "cr"}}, {"type": "Feature", "geometry": {"type": "Point", "coordinates": [99.8361082, 19.9169174]}, "properties": {"id": "cr-osm-way-558685259", "name": "โรงแรมเกาะลอย", "nameTh": "โรงแรมเกาะลอย", "nameEn": "Kohloi Hotel", "cat": ["hotel"], "province": "cr"}}, {"type": "Feature", "geometry": {"type": "Point", "coordinates": [99.8311231, 19.9082311]}, "properties": {"id": "cr-osm-way-330740050", "name": "โรงแรมเชียงราย", "nameTh": "โรงแรมเชียงราย", "nameEn": "Chiang Rai Hotel", "cat": ["hotel"], "province": "cr"}}, {"type": "Feature", "geometry": {"type": "Point", "coordinates": [99.8522967, 19.9226415]}, "properties": {"id": "cr-osm-way-1127661775", "name": "โรงแรมเดอะแกรนด์ดิโอส", "nameTh": "โรงแรมเดอะแกรนด์ดิโอส", "nameEn": "The Grandiose Hotel Chiang Rai", "cat": ["hotel"], "province": "cr"}}, {"type": "Feature", "geometry": {"type": "Point", "coordinates": [99.8340698, 19.9038356]}, "properties": {"id": "cr-osm-way-623835953", "name": "โรงแรมเวียงอินทร์", "nameTh": "โรงแรมเวียงอินทร์", "nameEn": "Wiang Inn Hotel", "cat": ["hotel"], "province": "cr"}}, {"type": "Feature", "geometry": {"type": "Point", "coordinates": [99.8267681, 19.8981812]}, "properties": {"id": "cr-osm-way-1125805651", "name": "โรงแรมโกลเด็นแลนด์", "nameTh": "โรงแรมโกลเด็นแลนด์", "nameEn": "Golden Land Hotel", "cat": ["hotel"], "province": "cr"}}]}