{"type": "FeatureCollection", "features": [{"type": "Feature", "geometry": {"type": "Point", "coordinates": [99.84523, 19.92831]}, "properties": {"id": "cr-osm-way-1232062459", "name": "กาดไม้ เจียงฮาย", "nameTh": "กาดไม้ เจียงฮาย", "nameEn": null, "cat": ["home-services"], "province": "cr", "slug": "1232062459", "rank": 1}}, {"type": "Feature", "geometry": {"type": "Point", "coordinates": [99.84554, 19.92677]}, "properties": {"id": "cr-osm-way-1232062464", "name": "กาดไม้ แม่กก", "nameTh": "กาดไม้ แม่กก", "nameEn": null, "cat": ["home-services"], "province": "cr", "slug": "1232062464", "rank": 1}}, {"type": "Feature", "geometry": {"type": "Point", "coordinates": [99.83774, 19.93942]}, "properties": {"id": "cr-osm-node-13684580801", "name": "บ้านสวน", "nameTh": "บ้านสวน", "nameEn": null, "cat": ["home-services"], "province": "cr", "slug": "13684580801", "rank": 1}}]}