{"type": "FeatureCollection", "features": [{"type": "Feature", "geometry": {"type": "Point", "coordinates": [99.8202857, 19.9022384]}, "properties": {"id": "cr-osm-way-1061692929", "name": "COMBO 4 Fitness", "cat": ["learn"], "province": "cr"}}, {"type": "Feature", "geometry": {"type": "Point", "coordinates": [99.8262698, 19.9078503]}, "properties": {"id": "cr-osm-way-960771480", "name": "EnConcept", "cat": ["learn"], "province": "cr"}}, {"type": "Feature", "geometry": {"type": "Point", "coordinates": [99.8277466, 19.9084373]}, "properties": {"id": "cr-osm-way-960771432", "name": "English For Kids", "cat": ["learn"], "province": "cr"}}, {"type": "Feature", "geometry": {"type": "Point", "coordinates": [99.8351701, 19.9069418]}, "properties": {"id": "cr-osm-way-964471981", "name": "Gorilla Gym", "cat": ["learn"], "province": "cr"}}, {"type": "Feature", "geometry": {"type": "Point", "coordinates": [99.9489952, 19.8287565]}, "properties": {"id": "cr-osm-node-7931699285", "name": "Museflower Retreat and Spa", "cat": ["learn"], "province": "cr"}}, {"type": "Feature", "geometry": {"type": "Point", "coordinates": [99.837895, 19.9006685]}, "properties": {"id": "cr-osm-node-4434661296", "name": "Pro Gym", "cat": ["learn"], "province": "cr"}}, {"type": "Feature", "geometry": {"type": "Point", "coordinates": [99.8240718, 19.9078449]}, "properties": {"id": "cr-osm-way-960685102", "name": "The Underdog Muay Thai Gym", "cat": ["learn"], "province": "cr"}}, {"type": "Feature", "geometry": {"type": "Point", "coordinates": [99.8381372, 19.914043]}, "properties": {"id": "cr-osm-node-9154107312", "name": "Uncle John House Language Insitute", "cat": ["learn"], "province": "cr"}}, {"type": "Feature", "geometry": {"type": "Point", "coordinates": [99.8283362, 19.9140566]}, "properties": {"id": "cr-osm-way-959984408", "name": "Woody sexy Gym", "cat": ["learn"], "province": "cr"}}, {"type": "Feature", "geometry": {"type": "Point", "coordinates": [99.8674719, 19.9253907]}, "properties": {"id": "cr-osm-way-1014321707", "name": "มหาวิทยาลัยพะเยา วิทยาเขตเชียงราย", "cat": ["learn"], "province": "cr"}}, {"type": "Feature", "geometry": {"type": "Point", "coordinates": [99.848539, 19.984584]}, "properties": {"id": "cr-osm-way-1024441024", "name": "มหาวิทยาลัยราชภัฏเชียงราย", "cat": ["learn"], "province": "cr"}}, {"type": "Feature", "geometry": {"type": "Point", "coordinates": [99.8714528, 19.9259789]}, "properties": {"id": "cr-osm-way-1014321706", "name": "มหาวิทยาลัยรามคำแหง สาขาวิทยบริการเฉลิมพระเกียรติ จังหวัดเชียงราย", "cat": ["learn"], "province": "cr"}}, {"type": "Feature", "geometry": {"type": "Point", "coordinates": [99.821139, 19.9034266]}, "properties": {"id": "cr-osm-node-9209053639", "name": "สอนภาษาอังกฤษ", "cat": ["learn"], "province": "cr"}}, {"type": "Feature", "geometry": {"type": "Point", "coordinates": [99.8449437, 19.9828153]}, "properties": {"id": "cr-osm-way-169801125", "name": "หอประชุมใหญ่", "cat": ["learn"], "province": "cr"}}, {"type": "Feature", "geometry": {"type": "Point", "coordinates": [99.8246083, 19.907952]}, "properties": {"id": "cr-osm-way-960771459", "name": "เทรน สเตชั่น เลดี้ ยิม", "cat": ["learn"], "province": "cr"}}, {"type": "Feature", "geometry": {"type": "Point", "coordinates": [99.82569, 19.9077835]}, "properties": {"id": "cr-osm-way-960771472", "name": "เหล่าซือบิว รับสอนภาษาจีน", "cat": ["learn"], "province": "cr"}}]}