{"type": "FeatureCollection", "features": [{"type": "Feature", "geometry": {"type": "Point", "coordinates": [99.68812, 19.87629]}, "properties": {"id": "cr-osm-node-6052025264", "name": "Akha Museum", "nameTh": null, "nameEn": "Akha Museum", "cat": ["museums-galleries"], "province": "cr", "slug": "akha-museum-6052025264", "rank": 1}}, {"type": "Feature", "geometry": {"type": "Point", "coordinates": [99.80956, 20.28729]}, "properties": {"id": "cr-osm-way-222739926", "name": "Doi Tung Royal Villa", "nameTh": "พระตำหนักดอยตุง", "nameEn": "Doi Tung Royal Villa", "cat": ["museums-galleries"], "province": "cr", "slug": "doi-tung-royal-villa-222739926", "rank": 2}}, {"type": "Feature", "geometry": {"type": "Point", "coordinates": [100.41277, 20.25331]}, "properties": {"id": "cr-osm-node-4691939489", "name": "Giant Catfish and Fresh Fish 3D Museum", "nameTh": null, "nameEn": "Giant Catfish and Fresh Fish 3D Museum", "cat": ["museums-galleries"], "province": "cr", "slug": "giant-catfish-and-fresh-fish-3d-museum-4691939489", "rank": 1}}, {"type": "Feature", "geometry": {"type": "Point", "coordinates": [99.82768, 19.91151]}, "properties": {"id": "cr-osm-node-7085204619", "name": "Hong Luang Saengkaew", "nameTh": null, "nameEn": "Hong Luang Saengkaew", "cat": ["museums-galleries"], "province": "cr", "slug": "hong-luang-saengkaew-7085204619", "rank": 2}}, {"type": "Feature", "geometry": {"type": "Point", "coordinates": [100.0816, 20.35152]}, "properties": {"id": "cr-osm-node-775981375", "name": "House of Opium", "nameTh": "พิพิธภัณฑ์บ้านฝิ่น", "nameEn": "House of Opium", "cat": ["museums-galleries"], "province": "cr", "slug": "house-of-opium-775981375", "rank": 4}}, {"type": "Feature", "geometry": {"type": "Point", "coordinates": [99.85964, 19.99239]}, "properties": {"id": "cr-osm-node-6260982385", "name": "Painting gallery", "nameTh": null, "nameEn": "Painting gallery", "cat": ["museums-galleries"], "province": "cr", "slug": "painting-gallery-6260982385", "rank": 1}}, {"type": "Feature", "geometry": {"type": "Point", "coordinates": [99.65928, 19.78493]}, "properties": {"id": "cr-osm-way-1112434190", "name": "Princess Dara Rasmee Cottage and Textile Museum", "nameTh": null, "nameEn": "Princess Dara Rasmee Cottage and Textile Museum", "cat": ["museums-galleries"], "province": "cr", "slug": "princess-dara-rasmee-cottage-and-textile-museum-1112434190", "rank": 1}}, {"type": "Feature", "geometry": {"type": "Point", "coordinates": [99.64845, 19.80306]}, "properties": {"id": "cr-osm-node-6631514632", "name": "Teapot museum", "nameTh": null, "nameEn": "Teapot museum", "cat": ["museums-galleries"], "province": "cr", "slug": "teapot-museum-6631514632", "rank": 1}}, {"type": "Feature", "geometry": {"type": "Point", "coordinates": [99.83668, 19.90856]}, "properties": {"id": "cr-osm-node-12438467094", "name": "Tobacco Warehouse Chiang Rai", "nameTh": null, "nameEn": "Tobacco Warehouse Chiang Rai", "cat": ["museums-galleries"], "province": "cr", "slug": "tobacco-warehouse-chiang-rai-12438467094", "rank": 1}}, {"type": "Feature", "geometry": {"type": "Point", "coordinates": [99.76409, 19.82346]}, "properties": {"id": "cr-osm-way-549440967", "name": "White temple Art Gallery", "nameTh": null, "nameEn": "White temple Art Gallery", "cat": ["museums-galleries"], "province": "cr", "slug": "white-temple-art-gallery-549440967", "rank": 2}}, {"type": "Feature", "geometry": {"type": "Point", "coordinates": [99.85091, 19.95602]}, "properties": {"id": "cr-osm-way-965313905", "name": "ขัวศิลปะ", "nameTh": "ขัวศิลปะ", "nameEn": "Art Bridge", "cat": ["museums-galleries"], "province": "cr", "slug": "art-bridge-965313905", "rank": 4}}, {"type": "Feature", "geometry": {"type": "Point", "coordinates": [100.15217, 19.81774]}, "properties": {"id": "cr-osm-node-2295349732", "name": "คุ้มพญาเม็งราย", "nameTh": "คุ้มพญาเม็งราย", "nameEn": null, "cat": ["museums-galleries"], "province": "cr", "slug": "2295349732", "rank": 1}}, {"type": "Feature", "geometry": {"type": "Point", "coordinates": [99.86102, 19.99124]}, "properties": {"id": "cr-osm-way-393447653", "name": "บ้านดำ", "nameTh": "บ้านดำ", "nameEn": "Baan Dam Museum", "cat": ["museums-galleries"], "province": "cr", "slug": "baan-dam-museum-393447653", "rank": 4}}, {"type": "Feature", "geometry": {"type": "Point", "coordinates": [100.07933, 20.27353]}, "properties": {"id": "cr-osm-node-2313723117", "name": "พิพิธภัณฑสถานแห่งชาติ เชียงแสน", "nameTh": "พิพิธภัณฑสถานแห่งชาติ เชียงแสน", "nameEn": "Chiang Saen National Museum", "cat": ["museums-galleries"], "province": "cr", "slug": "chiang-saen-national-museum-2313723117", "rank": 3}}, {"type": "Feature", "geometry": {"type": "Point", "coordinates": [99.83573, 19.90916]}, "properties": {"id": "cr-osm-way-547713585", "name": "พิพิธภัณฑ์ชาวเขา", "nameTh": "พิพิธภัณฑ์ชาวเขา", "nameEn": "Hilltribe Museum", "cat": ["museums-galleries"], "province": "cr", "slug": "hilltribe-museum-547713585", "rank": 5}}, {"type": "Feature", "geometry": {"type": "Point", "coordinates": [99.66345, 20.24884]}, "properties": {"id": "cr-osm-relation-5596203", "name": "พิพิธภัณฑ์บ้านขุนส่า", "nameTh": "พิพิธภัณฑ์บ้านขุนส่า", "nameEn": "Khun Sa Old Camp", "cat": ["museums-galleries"], "province": "cr", "slug": "khun-sa-old-camp-5596203", "rank": 2}}, {"type": "Feature", "geometry": {"type": "Point", "coordinates": [99.8308, 19.91129]}, "properties": {"id": "cr-osm-way-1066716210", "name": "พิพิธภัณฑ์หอบูรพาจารย์ 80 ปี", "nameTh": "พิพิธภัณฑ์หอบูรพาจารย์ 80 ปี", "nameEn": null, "cat": ["museums-galleries"], "province": "cr", "slug": "80-1066716210", "rank": 1}}, {"type": "Feature", "geometry": {"type": "Point", "coordinates": [99.89287, 20.05175]}, "properties": {"id": "cr-osm-way-1472988286", "name": "พิพิธภัณฑ์อารยธรรมลุ่มน้ำโขง", "nameTh": "พิพิธภัณฑ์อารยธรรมลุ่มน้ำโขง", "nameEn": "Mekong Basin Civilization Museum", "cat": ["museums-galleries"], "province": "cr", "slug": "mekong-basin-civilization-museum-1472988286", "rank": 2}}, {"type": "Feature", "geometry": {"type": "Point", "coordinates": [99.89311, 20.05196]}, "properties": {"id": "cr-osm-way-1472988287", "name": "พิพิธภัณฑ์อารยธรรมลุ่มน้ำโขง", "nameTh": "พิพิธภัณฑ์อารยธรรมลุ่มน้ำโขง", "nameEn": "Mekong Basin Civilization Museum", "cat": ["museums-galleries"], "province": "cr", "slug": "mekong-basin-civilization-museum-1472988287", "rank": 2}}, {"type": "Feature", "geometry": {"type": "Point", "coordinates": [99.89321, 20.05161]}, "properties": {"id": "cr-osm-way-1472988288", "name": "พิพิธภัณฑ์อารยธรรมลุ่มน้ำโขง", "nameTh": "พิพิธภัณฑ์อารยธรรมลุ่มน้ำโขง", "nameEn": "Mekong Basin Civilization Museum", "cat": ["museums-galleries"], "province": "cr", "slug": "mekong-basin-civilization-museum-1472988288", "rank": 2}}, {"type": "Feature", "geometry": {"type": "Point", "coordinates": [99.81487, 19.90343]}, "properties": {"id": "cr-osm-way-992101976", "name": "พิพิธภัณฑ์อูบคำ", "nameTh": "พิพิธภัณฑ์อูบคำ", "nameEn": "Oub Kham Museum", "cat": ["museums-galleries"], "province": "cr", "slug": "oub-kham-museum-992101976", "rank": 4}}, {"type": "Feature", "geometry": {"type": "Point", "coordinates": [99.86072, 19.9921]}, "properties": {"id": "cr-osm-way-269747639", "name": "มหาวิหาร", "nameTh": "มหาวิหาร", "nameEn": "Main Sanctuary Hall", "cat": ["museums-galleries"], "province": "cr", "slug": "main-sanctuary-hall-269747639", "rank": 2}}, {"type": "Feature", "geometry": {"type": "Point", "coordinates": [99.83167, 19.91124]}, "properties": {"id": "cr-osm-way-959789780", "name": "ศูนย์วัฒนธรรมนิทัศน์และพิพิธภัณฑ์เมืองเชียงราย", "nameTh": "ศูนย์วัฒนธรรมนิทัศน์และพิพิธภัณฑ์เมืองเชียงราย", "nameEn": "Chiang Rai Culture Exhibition Center", "cat": ["museums-galleries"], "province": "cr", "slug": "chiang-rai-culture-exhibition-center-959789780", "rank": 2}}, {"type": "Feature", "geometry": {"type": "Point", "coordinates": [100.07295, 20.3629]}, "properties": {"id": "cr-osm-way-137648101", "name": "หอฝิ่น อุทยานสามเหลี่ยมทองคำ", "nameTh": "หอฝิ่น อุทยานสามเหลี่ยมทองคำ", "nameEn": "The Hall of Opium", "cat": ["museums-galleries"], "province": "cr", "slug": "the-hall-of-opium-137648101", "rank": 4}}, {"type": "Feature", "geometry": {"type": "Point", "coordinates": [99.83156, 19.91164]}, "properties": {"id": "cr-osm-way-959789787", "name": "หอวัฒนธรรมเฉลิมพระเกียรติกาญจนาภิเษก", "nameTh": "หอวัฒนธรรมเฉลิมพระเกียรติกาญจนาภิเษก", "nameEn": "Chalermprakiat Karnchanapisek Cultural Hall", "cat": ["museums-galleries"], "province": "cr", "slug": "chalermprakiat-karnchanapisek-cultural-hall-959789787", "rank": 2}}, {"type": "Feature", "geometry": {"type": "Point", "coordinates": [99.81937, 19.90406]}, "properties": {"id": "cr-osm-way-986855268", "name": "หอศิลป์ไตยวน", "nameTh": "หอศิลป์ไตยวน", "nameEn": "Tai Yuan Art Gallery", "cat": ["museums-galleries"], "province": "cr", "slug": "tai-yuan-art-gallery-986855268", "rank": 6}}, {"type": "Feature", "geometry": {"type": "Point", "coordinates": [99.83155, 19.9148]}, "properties": {"id": "cr-osm-way-959984436", "name": "โรงราชรถบุษษก", "nameTh": "โรงราชรถบุษษก", "nameEn": "Bussok Royal Chariot Garage", "cat": ["museums-galleries"], "province": "cr", "slug": "bussok-royal-chariot-garage-959984436", "rank": 2}}, {"type": "Feature", "geometry": {"type": "Point", "coordinates": [99.62172, 20.1525]}, "properties": {"id": "cr-osm-way-274903287", "name": "泰北義民文史館", "nameTh": "Memorial to Thai-Chinese People", "nameEn": "Chinese Martyrs' Memorial Museum", "cat": ["museums-galleries"], "province": "cr", "slug": "chinese-martyrs-memorial-museum-274903287", "rank": 2}}]}