{"type": "FeatureCollection", "features": [{"type": "Feature", "geometry": {"type": "Point", "coordinates": [99.7649029, 19.8223649]}, "properties": {"id": "cr-osm-way-653742268", "name": "Market", "cat": ["market"], "province": "cr"}}, {"type": "Feature", "geometry": {"type": "Point", "coordinates": [99.8451628, 19.9141634]}, "properties": {"id": "cr-osm-node-6146972305", "name": "Market (fruit, vegetables, meat, etc)", "cat": ["market"], "province": "cr"}}, {"type": "Feature", "geometry": {"type": "Point", "coordinates": [99.81945, 19.901111]}, "properties": {"id": "cr-osm-node-3993692374", "name": "Sunday Walking Street", "cat": ["market"], "province": "cr"}}, {"type": "Feature", "geometry": {"type": "Point", "coordinates": [99.8215672, 19.9010689]}, "properties": {"id": "cr-osm-node-4122938292", "name": "Sunday Walking Street", "cat": ["market"], "province": "cr"}}, {"type": "Feature", "geometry": {"type": "Point", "coordinates": [99.8360508, 19.9089271]}, "properties": {"id": "cr-osm-node-6217979490", "name": "Walking Saturday Night Market", "cat": ["market"], "province": "cr"}}, {"type": "Feature", "geometry": {"type": "Point", "coordinates": [99.8298595, 19.9097113]}, "properties": {"id": "cr-osm-way-1345039209", "name": "municipal market", "cat": ["market"], "province": "cr"}}, {"type": "Feature", "geometry": {"type": "Point", "coordinates": [99.9170145, 19.8835591]}, "properties": {"id": "cr-osm-way-500401637", "name": "กาดกำนัน", "cat": ["market"], "province": "cr"}}, {"type": "Feature", "geometry": {"type": "Point", "coordinates": [99.850431, 19.9217985]}, "properties": {"id": "cr-osm-way-1127661766", "name": "ตลาดชุมชนริมน้ำกก", "cat": ["market"], "province": "cr"}}, {"type": "Feature", "geometry": {"type": "Point", "coordinates": [99.7472296, 19.8532551]}, "properties": {"id": "cr-osm-way-1157127035", "name": "ตลาดประตูล้อ", "cat": ["market"], "province": "cr"}}, {"type": "Feature", "geometry": {"type": "Point", "coordinates": [99.8328275, 19.9009012]}, "properties": {"id": "cr-osm-node-11949436669", "name": "ตลาดศิริเนตร", "cat": ["market"], "province": "cr"}}, {"type": "Feature", "geometry": {"type": "Point", "coordinates": [99.8317283, 19.8664841]}, "properties": {"id": "cr-osm-way-1103082276", "name": "ตลาดสด", "cat": ["market"], "province": "cr"}}, {"type": "Feature", "geometry": {"type": "Point", "coordinates": [99.9303265, 19.8820474]}, "properties": {"id": "cr-osm-node-4914732646", "name": "ตลาดสดกลางเวียง", "cat": ["market"], "province": "cr"}}, {"type": "Feature", "geometry": {"type": "Point", "coordinates": [99.8646976, 19.9952762]}, "properties": {"id": "cr-osm-way-405969351", "name": "ตลาดสดนางแล", "cat": ["market"], "province": "cr"}}, {"type": "Feature", "geometry": {"type": "Point", "coordinates": [99.8909018, 19.8797012]}, "properties": {"id": "cr-osm-way-501190066", "name": "ตลาดสดบ้านด้าย", "cat": ["market"], "province": "cr"}}, {"type": "Feature", "geometry": {"type": "Point", "coordinates": [99.8359067, 19.9260659]}, "properties": {"id": "cr-osm-way-688160537", "name": "ตลาดสดบ้านใหม่", "cat": ["market"], "province": "cr"}}, {"type": "Feature", "geometry": {"type": "Point", "coordinates": [99.8360465, 19.9055566]}, "properties": {"id": "cr-osm-way-168740849", "name": "ตลาดสดเทศบาล 2", "cat": ["market"], "province": "cr"}}, {"type": "Feature", "geometry": {"type": "Point", "coordinates": [99.829871, 19.9094565]}, "properties": {"id": "cr-osm-way-387050901", "name": "ตลาดสดเทศบาล ๑", "cat": ["market"], "province": "cr"}}, {"type": "Feature", "geometry": {"type": "Point", "coordinates": [99.9324682, 19.8812159]}, "properties": {"id": "cr-osm-way-500412806", "name": "ตลาดสดเทศบาลตำบลเวียงชัย", "cat": ["market"], "province": "cr"}}, {"type": "Feature", "geometry": {"type": "Point", "coordinates": [99.8151822, 19.9033163]}, "properties": {"id": "cr-osm-way-992101977", "name": "ตลาดเด่นห้า", "cat": ["market"], "province": "cr"}}, {"type": "Feature", "geometry": {"type": "Point", "coordinates": [99.8558455, 19.9670481]}, "properties": {"id": "cr-osm-node-2151125543", "name": "ตลาดเทศบาลตำบลบ้านดู่", "cat": ["market"], "province": "cr"}}, {"type": "Feature", "geometry": {"type": "Point", "coordinates": [99.8291955, 19.8806635]}, "properties": {"id": "cr-osm-way-1125427375", "name": "ตลาดใหม่แม่กร", "cat": ["market"], "province": "cr"}}, {"type": "Feature", "geometry": {"type": "Point", "coordinates": [99.8288213, 19.9103096]}, "properties": {"id": "cr-osm-way-960101615", "name": "ตลาดไฟไหม้", "cat": ["market"], "province": "cr"}}, {"type": "Feature", "geometry": {"type": "Point", "coordinates": [99.8292175, 19.8661828]}, "properties": {"id": "cr-osm-way-1103082269", "name": "อาคารผลไม้", "cat": ["market"], "province": "cr"}}, {"type": "Feature", "geometry": {"type": "Point", "coordinates": [99.8305023, 19.8653734]}, "properties": {"id": "cr-osm-way-1103082275", "name": "อาคารผัก", "cat": ["market"], "province": "cr"}}, {"type": "Feature", "geometry": {"type": "Point", "coordinates": [99.8340658, 19.9053147]}, "properties": {"id": "cr-osm-relation-5724992", "name": "เชียงรายไนท์บาร์ซา", "cat": ["market"], "province": "cr"}}]}