{"type": "FeatureCollection", "features": [{"type": "Feature", "geometry": {"type": "Point", "coordinates": [99.84515, 19.92968]}, "properties": {"id": "cr-osm-node-4530898878", "name": "Browney Pet World", "nameTh": null, "nameEn": "Browney Pet World", "cat": ["pets"], "province": "cr", "slug": "browney-pet-world-4530898878", "rank": 1}}, {"type": "Feature", "geometry": {"type": "Point", "coordinates": [99.81631, 19.9042]}, "properties": {"id": "cr-osm-node-13957066301", "name": "Chiang Rai PET Hospital", "nameTh": null, "nameEn": "Chiang Rai PET Hospital", "cat": ["pets"], "province": "cr", "slug": "chiang-rai-pet-hospital-13957066301", "rank": 3}}, {"type": "Feature", "geometry": {"type": "Point", "coordinates": [99.82311, 19.89865]}, "properties": {"id": "cr-osm-node-5493989821", "name": "Dr Arnon Animal Hosp.", "nameTh": null, "nameEn": "Dr Arnon Animal Hosp.", "cat": ["pets"], "province": "cr", "slug": "dr-arnon-animal-hosp-5493989821", "rank": 1}}, {"type": "Feature", "geometry": {"type": "Point", "coordinates": [100.20252, 19.68152]}, "properties": {"id": "cr-osm-node-4172541895", "name": "กาชัยสัตวแพทย์", "nameTh": "กาชัยสัตวแพทย์", "nameEn": null, "cat": ["pets"], "province": "cr", "slug": "4172541895", "rank": 3}}, {"type": "Feature", "geometry": {"type": "Point", "coordinates": [99.85292, 20.14485]}, "properties": {"id": "cr-osm-node-2148556508", "name": "ทรัพทวีกิจ", "nameTh": "ทรัพทวีกิจ", "nameEn": null, "cat": ["pets"], "province": "cr", "slug": "2148556508", "rank": 2}}, {"type": "Feature", "geometry": {"type": "Point", "coordinates": [99.83067, 19.89245]}, "properties": {"id": "cr-osm-way-1125805625", "name": "บราวนี่เพ็ทเวิลด์ สาขาป่าก่อ", "nameTh": "บราวนี่เพ็ทเวิลด์ สาขาป่าก่อ", "nameEn": "Browney Pet World (Pa Kor branch)", "cat": ["pets"], "province": "cr", "slug": "browney-pet-world-pa-kor-branch-1125805625", "rank": 2}}, {"type": "Feature", "geometry": {"type": "Point", "coordinates": [99.85449, 20.1496]}, "properties": {"id": "cr-osm-node-2148622833", "name": "รักษาสัตว์", "nameTh": "รักษาสัตว์", "nameEn": null, "cat": ["pets"], "province": "cr", "slug": "2148622833", "rank": 1}}, {"type": "Feature", "geometry": {"type": "Point", "coordinates": [99.82329, 19.90758]}, "properties": {"id": "cr-osm-way-960685084", "name": "รักษาสัตว์ หมอน้อย", "nameTh": "รักษาสัตว์ หมอน้อย", "nameEn": "Dr. Noi Veterinary", "cat": ["pets"], "province": "cr", "slug": "dr-noi-veterinary-960685084", "rank": 2}}, {"type": "Feature", "geometry": {"type": "Point", "coordinates": [99.85152, 20.14472]}, "properties": {"id": "cr-osm-node-2148616622", "name": "สันทัดสัตวแพทย์", "nameTh": "สันทัดสัตวแพทย์", "nameEn": null, "cat": ["pets"], "province": "cr", "slug": "2148616622", "rank": 1}}, {"type": "Feature", "geometry": {"type": "Point", "coordinates": [99.84769, 20.14655]}, "properties": {"id": "cr-osm-way-204790319", "name": "หว่าหวา เพทช้อป", "nameTh": "หว่าหวา เพทช้อป", "nameEn": null, "cat": ["pets"], "province": "cr", "slug": "204790319", "rank": 1}}, {"type": "Feature", "geometry": {"type": "Point", "coordinates": [99.84617, 19.90839]}, "properties": {"id": "cr-osm-node-5500192027", "name": "โกโก้แอนด์หมูหยอง เพ็ทรีสอร์ท", "nameTh": "โกโก้แอนด์หมูหยอง เพ็ทรีสอร์ท", "nameEn": "KokoandMooyong Petresort", "cat": ["pets"], "province": "cr", "slug": "kokoandmooyong-petresort-5500192027", "rank": 4}}, {"type": "Feature", "geometry": {"type": "Point", "coordinates": [99.8471, 19.91533]}, "properties": {"id": "cr-osm-way-764360690", "name": "โรงพยาบาลสัตว์สหมิตร", "nameTh": "โรงพยาบาลสัตว์สหมิตร", "nameEn": "Sahamitr Animal Hospital", "cat": ["pets"], "province": "cr", "slug": "sahamitr-animal-hospital-764360690", "rank": 3}}, {"type": "Feature", "geometry": {"type": "Point", "coordinates": [99.79163, 19.58424]}, "properties": {"id": "cr-osm-node-4793786021", "name": "ใหม่เจริญมิตรนกกระทา", "nameTh": "ใหม่เจริญมิตรนกกระทา", "nameEn": null, "cat": ["pets"], "province": "cr", "slug": "4793786021", "rank": 1}}]}