{"type": "FeatureCollection", "features": [{"type": "Feature", "geometry": {"type": "Point", "coordinates": [99.8025132, 19.8862138]}, "properties": {"id": "cr-osm-way-748911030", "name": "Nong Bueng", "nameTh": "หนองปึ๋ง", "nameEn": "Nong Bueng", "cat": ["parks"], "province": "cr"}}, {"type": "Feature", "geometry": {"type": "Point", "coordinates": [99.8980212, 19.8439446]}, "properties": {"id": "cr-osm-node-4321846791", "name": "Santiburi Golf Club", "nameTh": null, "nameEn": "Santiburi Golf Club", "cat": ["parks"], "province": "cr"}}, {"type": "Feature", "geometry": {"type": "Point", "coordinates": [99.8501316, 19.9547543]}, "properties": {"id": "cr-osm-relation-16799085", "name": "ขัวแคร่", "nameTh": "ขัวแคร่", "nameEn": null, "cat": ["parks"], "province": "cr"}}, {"type": "Feature", "geometry": {"type": "Point", "coordinates": [99.8679604, 19.9263548]}, "properties": {"id": "cr-osm-way-964921438", "name": "ข่วงศึกษาวิถีชีวิตวัฒนธรรมล้านนาและอาเซียน", "nameTh": "ข่วงศึกษาวิถีชีวิตวัฒนธรรมล้านนาและอาเซียน", "nameEn": "Lanna & Asean Culture Plaza", "cat": ["parks"], "province": "cr"}}, {"type": "Feature", "geometry": {"type": "Point", "coordinates": [99.8427306, 19.9106321]}, "properties": {"id": "cr-osm-way-104960000", "name": "คลองเกาะทอง", "nameTh": "คลองเกาะทอง", "nameEn": "Kho Thong Canal", "cat": ["parks"], "province": "cr"}}, {"type": "Feature", "geometry": {"type": "Point", "coordinates": [99.8509857, 19.9105299]}, "properties": {"id": "cr-osm-way-88319401", "name": "คลองเกาะทอง", "nameTh": "คลองเกาะทอง", "nameEn": "Kho Thong Canal", "cat": ["parks"], "province": "cr"}}, {"type": "Feature", "geometry": {"type": "Point", "coordinates": [99.8447529, 19.9095314]}, "properties": {"id": "cr-osm-way-88319408", "name": "คลองเกาะทอง", "nameTh": "คลองเกาะทอง", "nameEn": "Kho Thong Canal", "cat": ["parks"], "province": "cr"}}, {"type": "Feature", "geometry": {"type": "Point", "coordinates": [99.8256859, 19.9078282]}, "properties": {"id": "cr-osm-way-991206435", "name": "คูเมืองเชียงราย", "nameTh": "คูเมืองเชียงราย", "nameEn": "Change Rai Moat", "cat": ["parks"], "province": "cr"}}, {"type": "Feature", "geometry": {"type": "Point", "coordinates": [99.8272466, 19.9062094]}, "properties": {"id": "cr-osm-way-964176063", "name": "น้ำตกหน้าหอประชุม", "nameTh": "น้ำตกหน้าหอประชุม", "nameEn": null, "cat": ["parks"], "province": "cr"}}, {"type": "Feature", "geometry": {"type": "Point", "coordinates": [99.820246, 19.9314625]}, "properties": {"id": "cr-osm-way-458258690", "name": "น้ำลัด", "nameTh": "น้ำลัด", "nameEn": "Nam Lad", "cat": ["parks"], "province": "cr"}}, {"type": "Feature", "geometry": {"type": "Point", "coordinates": [99.8224131, 19.930962]}, "properties": {"id": "cr-osm-way-88182177", "name": "น้ำลัด", "nameTh": "น้ำลัด", "nameEn": "Nam Lad", "cat": ["parks"], "province": "cr"}}, {"type": "Feature", "geometry": {"type": "Point", "coordinates": [99.8229654, 19.9282636]}, "properties": {"id": "cr-osm-way-88182190", "name": "น้ำลัด", "nameTh": "น้ำลัด", "nameEn": "Nam Lad", "cat": ["parks"], "province": "cr"}}, {"type": "Feature", "geometry": {"type": "Point", "coordinates": [99.8212837, 19.925961]}, "properties": {"id": "cr-osm-way-970878860", "name": "น้ำลัด", "nameTh": "น้ำลัด", "nameEn": "Nam Lad", "cat": ["parks"], "province": "cr"}}, {"type": "Feature", "geometry": {"type": "Point", "coordinates": [99.8134209, 19.9294074]}, "properties": {"id": "cr-osm-way-970878865", "name": "น้ำลัด", "nameTh": "น้ำลัด", "nameEn": "Nam Lad", "cat": ["parks"], "province": "cr"}}, {"type": "Feature", "geometry": {"type": "Point", "coordinates": [99.8849548, 19.9217064]}, "properties": {"id": "cr-osm-way-314713174", "name": "บ่อปลาน้ำแม่ฮ่าง", "nameTh": "บ่อปลาน้ำแม่ฮ่าง", "nameEn": null, "cat": ["parks"], "province": "cr"}}, {"type": "Feature", "geometry": {"type": "Point", "coordinates": [99.8272194, 19.9063075]}, "properties": {"id": "cr-osm-way-959647269", "name": "ลานต้นสัก", "nameTh": "ลานต้นสัก", "nameEn": "Teak Garden", "cat": ["parks"], "province": "cr"}}, {"type": "Feature", "geometry": {"type": "Point", "coordinates": [99.8246644, 19.9213588]}, "properties": {"id": "cr-osm-way-87915597", "name": "ลำน้ำเกาะแม่ฟ้า", "nameTh": "ลำน้ำเกาะแม่ฟ้า", "nameEn": null, "cat": ["parks"], "province": "cr"}}, {"type": "Feature", "geometry": {"type": "Point", "coordinates": [99.8490767, 19.8971422]}, "properties": {"id": "cr-osm-way-169309121", "name": "สระหน้า", "nameTh": "สระหน้า", "nameEn": "Sra Na", "cat": ["parks"], "province": "cr"}}, {"type": "Feature", "geometry": {"type": "Point", "coordinates": [99.8395919, 19.9141876]}, "properties": {"id": "cr-osm-way-1085548309", "name": "สวนชุมชน", "nameTh": "สวนชุมชน", "nameEn": null, "cat": ["parks"], "province": "cr"}}, {"type": "Feature", "geometry": {"type": "Point", "coordinates": [99.8346531, 19.9083574]}, "properties": {"id": "cr-osm-way-342465614", "name": "สวนตุง", "nameTh": "สวนตุง", "nameEn": "Suan Tung", "cat": ["parks"], "province": "cr"}}, {"type": "Feature", "geometry": {"type": "Point", "coordinates": [99.8254577, 19.905305]}, "properties": {"id": "cr-osm-way-959647289", "name": "สวนน้ำตกเก่า", "nameTh": "สวนน้ำตกเก่า", "nameEn": "Old Water Fall Garden", "cat": ["parks"], "province": "cr"}}, {"type": "Feature", "geometry": {"type": "Point", "coordinates": [99.8254858, 19.9051409]}, "properties": {"id": "cr-osm-way-959647291", "name": "สวนพฤกษศาสตร์สามัคคี", "nameTh": "สวนพฤกษศาสตร์สามัคคี", "nameEn": "Samakkhi Botanical Garden", "cat": ["parks"], "province": "cr"}}, {"type": "Feature", "geometry": {"type": "Point", "coordinates": [99.8469446, 19.9769632]}, "properties": {"id": "cr-osm-node-13607264101", "name": "สวนสมเด็จย่า", "nameTh": "สวนสมเด็จย่า", "nameEn": "Somdet Ya Park", "cat": ["parks"], "province": "cr"}}, {"type": "Feature", "geometry": {"type": "Point", "coordinates": [99.8414276, 19.907782]}, "properties": {"id": "cr-osm-way-1127653545", "name": "สวนสยามรวมใจ", "nameTh": "สวนสยามรวมใจ", "nameEn": "Siam Ruamchai Square", "cat": ["parks"], "province": "cr"}}, {"type": "Feature", "geometry": {"type": "Point", "coordinates": [99.9429579, 19.8489587]}, "properties": {"id": "cr-osm-way-543871762", "name": "สวนสาธารณะ หนองหลวง", "nameTh": "สวนสาธารณะ หนองหลวง", "nameEn": "Suan Satharana Nong Luang", "cat": ["parks"], "province": "cr"}}, {"type": "Feature", "geometry": {"type": "Point", "coordinates": [99.8376601, 19.9183709]}, "properties": {"id": "cr-osm-way-543872967", "name": "สวนสาธารณะ เกาะลอย", "nameTh": "สวนสาธารณะ เกาะลอย", "nameEn": "Ko Loi Park", "cat": ["parks"], "province": "cr"}}, {"type": "Feature", "geometry": {"type": "Point", "coordinates": [99.8540585, 19.9240611]}, "properties": {"id": "cr-osm-way-964497469", "name": "สวนสาธารณะริมกก", "nameTh": "สวนสาธารณะริมกก", "nameEn": "Kok Riverside Park", "cat": ["parks"], "province": "cr"}}, {"type": "Feature", "geometry": {"type": "Point", "coordinates": [99.8247488, 19.9214766]}, "properties": {"id": "cr-osm-way-410746805", "name": "สวนสาธารณะเกาะแม่ฟ้า ฯ", "nameTh": "สวนสาธารณะเกาะแม่ฟ้า ฯ", "nameEn": "Koh Mae Fah Park", "cat": ["parks"], "province": "cr"}}, {"type": "Feature", "geometry": {"type": "Point", "coordinates": [99.8160204, 19.9211444]}, "properties": {"id": "cr-osm-way-968950271", "name": "สวนสาธารณะเฉลิมพระเกียรติ", "nameTh": "สวนสาธารณะเฉลิมพระเกียรติ", "nameEn": "Chaloem Phrakiat Park", "cat": ["parks"], "province": "cr"}}, {"type": "Feature", "geometry": {"type": "Point", "coordinates": [99.8027005, 19.8860994]}, "properties": {"id": "cr-osm-way-315436118", "name": "สวนหนองปึ๋ง", "nameTh": "สวนหนองปึ๋ง", "nameEn": "Nong Bueng Park", "cat": ["parks"], "province": "cr"}}, {"type": "Feature", "geometry": {"type": "Point", "coordinates": [99.8269708, 19.9045227]}, "properties": {"id": "cr-osm-way-959647313", "name": "สวนหย่อมข้างอาคาร 5", "nameTh": "สวนหย่อมข้างอาคาร 5", "nameEn": "Fish Ponds Mini Garden", "cat": ["parks"], "province": "cr"}}, {"type": "Feature", "geometry": {"type": "Point", "coordinates": [99.8189787, 19.90159]}, "properties": {"id": "cr-osm-way-1102521904", "name": "สวนหย่อมป้ายวัด", "nameTh": "สวนหย่อมป้ายวัด", "nameEn": null, "cat": ["parks"], "province": "cr"}}, {"type": "Feature", "geometry": {"type": "Point", "coordinates": [99.826335, 19.9038033]}, "properties": {"id": "cr-osm-way-965368812", "name": "สวนหลังตึก 11", "nameTh": "สวนหลังตึก 11", "nameEn": "Garden Behind Building 11", "cat": ["parks"], "province": "cr"}}, {"type": "Feature", "geometry": {"type": "Point", "coordinates": [99.8316618, 19.9153545]}, "properties": {"id": "cr-osm-way-765579201", "name": "สวนเทิดพระเกียรติ 90 ปีสมเด็จพระศรีนครินทร์", "nameTh": "สวนเทิดพระเกียรติ 90 ปีสมเด็จพระศรีนครินทร์", "nameEn": "Princess Mother 90th Anniversary Park", "cat": ["parks"], "province": "cr"}}, {"type": "Feature", "geometry": {"type": "Point", "coordinates": [99.8458081, 19.919449]}, "properties": {"id": "cr-osm-way-204902539", "name": "สวนแขวงทางหลวง", "nameTh": "สวนแขวงทางหลวง", "nameEn": "Kweang Tangluang Garden", "cat": ["parks"], "province": "cr"}}, {"type": "Feature", "geometry": {"type": "Point", "coordinates": [99.8242663, 19.9271341]}, "properties": {"id": "cr-osm-way-1105525646", "name": "สวนโรงแรมเวียงอินทร์", "nameTh": "สวนโรงแรมเวียงอินทร์", "nameEn": "Wing Inn Garden", "cat": ["parks"], "province": "cr"}}, {"type": "Feature", "geometry": {"type": "Point", "coordinates": [99.8643518, 19.9254187]}, "properties": {"id": "cr-osm-way-316043567", "name": "สวนไม้งามริมกก", "nameTh": "สวนไม้งามริมกก", "nameEn": "Garden Of Reeds", "cat": ["parks"], "province": "cr"}}, {"type": "Feature", "geometry": {"type": "Point", "coordinates": [99.7344876, 19.8600698]}, "properties": {"id": "cr-osm-way-325727411", "name": "สิงห์ปาร์ค", "nameTh": "สิงห์ปาร์ค", "nameEn": "Singha Park", "cat": ["parks"], "province": "cr"}}, {"type": "Feature", "geometry": {"type": "Point", "coordinates": [99.8889264, 19.9231593]}, "properties": {"id": "cr-osm-way-314713175", "name": "หนองกกหลง", "nameTh": "หนองกกหลง", "nameEn": null, "cat": ["parks"], "province": "cr"}}, {"type": "Feature", "geometry": {"type": "Point", "coordinates": [99.7820399, 19.9114302]}, "properties": {"id": "cr-osm-way-643239166", "name": "หนองกล้วย", "nameTh": "หนองกล้วย", "nameEn": "Nong Kluay", "cat": ["parks"], "province": "cr"}}, {"type": "Feature", "geometry": {"type": "Point", "coordinates": [99.7962118, 19.898727]}, "properties": {"id": "cr-osm-way-970849385", "name": "หนองก็อบแก็บ", "nameTh": "หนองก็อบแก็บ", "nameEn": null, "cat": ["parks"], "province": "cr"}}, {"type": "Feature", "geometry": {"type": "Point", "coordinates": [99.950703, 19.8199169]}, "properties": {"id": "cr-osm-way-1233195702", "name": "หนองขัว", "nameTh": "หนองขัว", "nameEn": "Nong Khua", "cat": ["parks"], "province": "cr"}}, {"type": "Feature", "geometry": {"type": "Point", "coordinates": [99.8031137, 19.8784069]}, "properties": {"id": "cr-osm-way-88177642", "name": "หนองขี้บ้วน", "nameTh": "หนองขี้บ้วน", "nameEn": "Nong Khi Buan", "cat": ["parks"], "province": "cr"}}, {"type": "Feature", "geometry": {"type": "Point", "coordinates": [99.9277459, 19.8753875]}, "properties": {"id": "cr-osm-way-132215997", "name": "หนองบวกบอน", "nameTh": "หนองบวกบอน", "nameEn": null, "cat": ["parks"], "province": "cr"}}, {"type": "Feature", "geometry": {"type": "Point", "coordinates": [99.8452466, 19.9785864]}, "properties": {"id": "cr-osm-way-28446392", "name": "หนองบัว", "nameTh": "หนองบัว", "nameEn": "Nong Bua", "cat": ["parks"], "province": "cr"}}, {"type": "Feature", "geometry": {"type": "Point", "coordinates": [99.8562702, 19.94957]}, "properties": {"id": "cr-osm-way-593126843", "name": "หนองบัว", "nameTh": "หนองบัว", "nameEn": null, "cat": ["parks"], "province": "cr"}}, {"type": "Feature", "geometry": {"type": "Point", "coordinates": [99.8051272, 19.8854735]}, "properties": {"id": "cr-osm-way-28446394", "name": "หนองปึ๋ง", "nameTh": "หนองปึ๋ง", "nameEn": "Nong Bueng", "cat": ["parks"], "province": "cr"}}, {"type": "Feature", "geometry": {"type": "Point", "coordinates": [99.8082795, 19.8861848]}, "properties": {"id": "cr-osm-way-407667389", "name": "หนองปึ๋ง", "nameTh": "หนองปึ๋ง", "nameEn": "Nong Bueng", "cat": ["parks"], "province": "cr"}}, {"type": "Feature", "geometry": {"type": "Point", "coordinates": [99.8047037, 19.8847189]}, "properties": {"id": "cr-osm-way-407667392", "name": "หนองปึ๋ง", "nameTh": "หนองปึ๋ง", "nameEn": "Nong Bueng", "cat": ["parks"], "province": "cr"}}, {"type": "Feature", "geometry": {"type": "Point", "coordinates": [99.8061959, 19.8850632]}, "properties": {"id": "cr-osm-way-965591448", "name": "หนองปึ๋ง", "nameTh": "หนองปึ๋ง", "nameEn": "Nong Bueng", "cat": ["parks"], "province": "cr"}}, {"type": "Feature", "geometry": {"type": "Point", "coordinates": [99.7888234, 19.9456897]}, "properties": {"id": "cr-osm-way-169204225", "name": "หนองป่าอั้น", "nameTh": "หนองป่าอั้น", "nameEn": null, "cat": ["parks"], "province": "cr"}}, {"type": "Feature", "geometry": {"type": "Point", "coordinates": [99.8378062, 19.9473502]}, "properties": {"id": "cr-osm-way-168868302", "name": "หนองป่าไคร้", "nameTh": "หนองป่าไคร้", "nameEn": "Nong Pa Khrai", "cat": ["parks"], "province": "cr"}}, {"type": "Feature", "geometry": {"type": "Point", "coordinates": [99.8270546, 19.9430799]}, "properties": {"id": "cr-osm-relation-17971639", "name": "หนองป่าไม้", "nameTh": "หนองป่าไม้", "nameEn": null, "cat": ["parks"], "province": "cr"}}, {"type": "Feature", "geometry": {"type": "Point", "coordinates": [99.8537674, 19.9166295]}, "properties": {"id": "cr-osm-relation-17137029", "name": "หนองร่องปลาค้าว", "nameTh": "หนองร่องปลาค้าว", "nameEn": "Nong Rong Pla Khao", "cat": ["parks"], "province": "cr"}}, {"type": "Feature", "geometry": {"type": "Point", "coordinates": [99.8817795, 19.9227807]}, "properties": {"id": "cr-osm-way-314713172", "name": "หนองร่องแหย่ง", "nameTh": "หนองร่องแหย่ง", "nameEn": null, "cat": ["parks"], "province": "cr"}}, {"type": "Feature", "geometry": {"type": "Point", "coordinates": [99.8539283, 19.900939]}, "properties": {"id": "cr-osm-way-315081923", "name": "หนองสองตอ", "nameTh": "หนองสองตอ", "nameEn": "Nong Song Tor", "cat": ["parks"], "province": "cr"}}, {"type": "Feature", "geometry": {"type": "Point", "coordinates": [99.9373568, 19.8212538]}, "properties": {"id": "cr-osm-relation-7770299", "name": "หนองหลวง", "nameTh": "หนองหลวง", "nameEn": "Nong Luang", "cat": ["parks"], "province": "cr"}}, {"type": "Feature", "geometry": {"type": "Point", "coordinates": [99.8556195, 19.9032336]}, "properties": {"id": "cr-osm-way-961314553", "name": "หนองแสะ", "nameTh": "หนองแสะ", "nameEn": null, "cat": ["parks"], "province": "cr"}}, {"type": "Feature", "geometry": {"type": "Point", "coordinates": [99.7951264, 19.9044709]}, "properties": {"id": "cr-osm-way-384155064", "name": "อุทยานศิลปะวัฒนธรรมแม่ฟ้าหลวง", "nameTh": "อุทยานศิลปะวัฒนธรรมแม่ฟ้าหลวง", "nameEn": "Mae Fah Luang Art and Culture Park", "cat": ["parks"], "province": "cr"}}, {"type": "Feature", "geometry": {"type": "Point", "coordinates": [99.8634039, 19.5605535]}, "properties": {"id": "cr-osm-relation-5944648", "name": "อุทยานแห่งชาติแม่ปืม", "nameTh": "อุทยานแห่งชาติแม่ปืม", "nameEn": "Mae Puem National Park", "cat": ["parks"], "province": "cr"}}, {"type": "Feature", "geometry": {"type": "Point", "coordinates": [99.7183967, 19.8614433]}, "properties": {"id": "cr-osm-way-210757742", "name": "อ่างเก็บน้ำห้วยล่างสร้อย", "nameTh": "อ่างเก็บน้ำห้วยล่างสร้อย", "nameEn": "Huai Lang Soi Reservoir", "cat": ["parks"], "province": "cr"}}, {"type": "Feature", "geometry": {"type": "Point", "coordinates": [99.7213475, 19.8669121]}, "properties": {"id": "cr-osm-way-28446399", "name": "อ่างเก็บน้ำห้าสิบ", "nameTh": "อ่างเก็บน้ำห้าสิบ", "nameEn": "Reservoir 15", "cat": ["parks"], "province": "cr"}}]}