{"type": "FeatureCollection", "features": [{"type": "Feature", "geometry": {"type": "Point", "coordinates": [99.89203, 20.05143]}, "properties": {"id": "cr-osm-way-1285536890", "name": "Boonsong-Piengjai (Harnpanich) Asavabhokin International Dormitory 2", "nameTh": null, "nameEn": "Boonsong-Piengjai (Harnpanich) Asavabhokin International Dormitory 2", "cat": ["realestate"], "province": "cr", "slug": "boonsong-piengjai-harnpanich-asavabhokin-international-dormi-1285536890", "rank": 1}}, {"type": "Feature", "geometry": {"type": "Point", "coordinates": [99.89446, 20.04825]}, "properties": {"id": "cr-osm-way-1285536833", "name": "F1", "nameTh": null, "nameEn": "F1", "cat": ["realestate"], "province": "cr", "slug": "f1-1285536833", "rank": 1}}, {"type": "Feature", "geometry": {"type": "Point", "coordinates": [99.89402, 20.04841]}, "properties": {"id": "cr-osm-way-1285536832", "name": "F2", "nameTh": null, "nameEn": "F2", "cat": ["realestate"], "province": "cr", "slug": "f2-1285536832", "rank": 1}}, {"type": "Feature", "geometry": {"type": "Point", "coordinates": [99.89385, 20.04986]}, "properties": {"id": "cr-osm-way-1285536834", "name": "F3", "nameTh": null, "nameEn": "F3", "cat": ["realestate"], "province": "cr", "slug": "f3-1285536834", "rank": 1}}, {"type": "Feature", "geometry": {"type": "Point", "coordinates": [99.89268, 20.04864]}, "properties": {"id": "cr-osm-way-1046112943", "name": "F4", "nameTh": null, "nameEn": "F4", "cat": ["realestate"], "province": "cr", "slug": "f4-1046112943", "rank": 1}}, {"type": "Feature", "geometry": {"type": "Point", "coordinates": [99.89202, 20.04997]}, "properties": {"id": "cr-osm-way-1285536888", "name": "F5", "nameTh": null, "nameEn": "F5", "cat": ["realestate"], "province": "cr", "slug": "f5-1285536888", "rank": 1}}, {"type": "Feature", "geometry": {"type": "Point", "coordinates": [99.89204, 20.05042]}, "properties": {"id": "cr-osm-way-1285536889", "name": "F6", "nameTh": null, "nameEn": "F6", "cat": ["realestate"], "province": "cr", "slug": "f6-1285536889", "rank": 1}}, {"type": "Feature", "geometry": {"type": "Point", "coordinates": [99.83263, 19.88056]}, "properties": {"id": "cr-osm-relation-11330999", "name": "Heritage Hotel", "nameTh": null, "nameEn": "Heritage Hotel", "cat": ["realestate"], "province": "cr", "slug": "heritage-hotel-11330999", "rank": 1}}, {"type": "Feature", "geometry": {"type": "Point", "coordinates": [99.89938, 20.05813]}, "properties": {"id": "cr-osm-way-1285536826", "name": "L1", "nameTh": null, "nameEn": "L1", "cat": ["realestate"], "province": "cr", "slug": "l1-1285536826", "rank": 1}}, {"type": "Feature", "geometry": {"type": "Point", "coordinates": [99.899, 20.05859]}, "properties": {"id": "cr-osm-way-1285536824", "name": "L2", "nameTh": null, "nameEn": "L2", "cat": ["realestate"], "province": "cr", "slug": "l2-1285536824", "rank": 1}}, {"type": "Feature", "geometry": {"type": "Point", "coordinates": [99.8987, 20.05788]}, "properties": {"id": "cr-osm-way-1285536825", "name": "L3", "nameTh": null, "nameEn": "L3", "cat": ["realestate"], "province": "cr", "slug": "l3-1285536825", "rank": 1}}, {"type": "Feature", "geometry": {"type": "Point", "coordinates": [99.89838, 20.05819]}, "properties": {"id": "cr-osm-way-1285536823", "name": "L4", "nameTh": null, "nameEn": "L4", "cat": ["realestate"], "province": "cr", "slug": "l4-1285536823", "rank": 1}}, {"type": "Feature", "geometry": {"type": "Point", "coordinates": [99.89788, 20.0577]}, "properties": {"id": "cr-osm-way-1285536822", "name": "L5", "nameTh": null, "nameEn": "L5", "cat": ["realestate"], "province": "cr", "slug": "l5-1285536822", "rank": 1}}, {"type": "Feature", "geometry": {"type": "Point", "coordinates": [99.89742, 20.05694]}, "properties": {"id": "cr-osm-way-657760624", "name": "L6", "nameTh": null, "nameEn": "L6", "cat": ["realestate"], "province": "cr", "slug": "l6-657760624", "rank": 1}}, {"type": "Feature", "geometry": {"type": "Point", "coordinates": [99.8976, 20.05628]}, "properties": {"id": "cr-osm-way-657760601", "name": "L7", "nameTh": null, "nameEn": "L7", "cat": ["realestate"], "province": "cr", "slug": "l7-657760601", "rank": 1}}, {"type": "Feature", "geometry": {"type": "Point", "coordinates": [99.73313, 19.68273]}, "properties": {"id": "cr-osm-way-1368610347", "name": "M2", "nameTh": null, "nameEn": "M2", "cat": ["realestate"], "province": "cr", "slug": "m2-1368610347", "rank": 1}}, {"type": "Feature", "geometry": {"type": "Point", "coordinates": [99.85675, 19.91796]}, "properties": {"id": "cr-osm-way-1289305458", "name": "P'CAT HOUSE", "nameTh": null, "nameEn": "P'CAT HOUSE", "cat": ["realestate"], "province": "cr", "slug": "p-cat-house-1289305458", "rank": 1}}, {"type": "Feature", "geometry": {"type": "Point", "coordinates": [99.89256, 20.05066]}, "properties": {"id": "cr-osm-way-1285536892", "name": "Police General Pow Sarasin International Dormitory", "nameTh": null, "nameEn": "Police General Pow Sarasin International Dormitory", "cat": ["realestate"], "province": "cr", "slug": "police-general-pow-sarasin-international-dormitory-1285536892", "rank": 1}}, {"type": "Feature", "geometry": {"type": "Point", "coordinates": [99.89208, 20.05095]}, "properties": {"id": "cr-osm-way-1285536891", "name": "Prasert-Tassanee Poongkumarn International Dormitory 1", "nameTh": null, "nameEn": "Prasert-Tassanee Poongkumarn International Dormitory 1", "cat": ["realestate"], "province": "cr", "slug": "prasert-tassanee-poongkumarn-international-dormitory-1-1285536891", "rank": 1}}, {"type": "Feature", "geometry": {"type": "Point", "coordinates": [99.89297, 20.0498]}, "properties": {"id": "cr-osm-way-1285536895", "name": "Sakthing Dormitory 1", "nameTh": null, "nameEn": "Sakthing Dormitory 1", "cat": ["realestate"], "province": "cr", "slug": "sakthing-dormitory-1-1285536895", "rank": 1}}, {"type": "Feature", "geometry": {"type": "Point", "coordinates": [99.893, 20.05018]}, "properties": {"id": "cr-osm-way-1285536893", "name": "Sakthong Dormitory 2", "nameTh": null, "nameEn": "Sakthong Dormitory 2", "cat": ["realestate"], "province": "cr", "slug": "sakthong-dormitory-2-1285536893", "rank": 1}}, {"type": "Feature", "geometry": {"type": "Point", "coordinates": [99.89313, 20.05067]}, "properties": {"id": "cr-osm-way-1285536894", "name": "Sakthong Dormitory 3", "nameTh": null, "nameEn": "Sakthong Dormitory 3", "cat": ["realestate"], "province": "cr", "slug": "sakthong-dormitory-3-1285536894", "rank": 1}}, {"type": "Feature", "geometry": {"type": "Point", "coordinates": [99.83937, 19.91387]}, "properties": {"id": "cr-osm-way-1085548310", "name": "Sleep Mode", "nameTh": null, "nameEn": "Sleep Mode", "cat": ["realestate"], "province": "cr", "slug": "sleep-mode-1085548310", "rank": 1}}, {"type": "Feature", "geometry": {"type": "Point", "coordinates": [99.83217, 19.87651]}, "properties": {"id": "cr-osm-way-1047190780", "name": "กัลปพฤกษ์ แกรนด์ พาร์ค", "nameTh": "กัลปพฤกษ์ แกรนด์ พาร์ค", "nameEn": null, "cat": ["realestate"], "province": "cr", "slug": "1047190780", "rank": 1}}, {"type": "Feature", "geometry": {"type": "Point", "coordinates": [99.83781, 19.91385]}, "properties": {"id": "cr-osm-way-990683033", "name": "จันทร์ฉาย อพาร์ทเม้นท์", "nameTh": "จันทร์ฉาย อพาร์ทเม้นท์", "nameEn": "Chanchai Apartment", "cat": ["realestate"], "province": "cr", "slug": "chanchai-apartment-990683033", "rank": 2}}, {"type": "Feature", "geometry": {"type": "Point", "coordinates": [99.83579, 19.91466]}, "properties": {"id": "cr-osm-way-1085370835", "name": "ซีแอล อพาร์ทเมนต์", "nameTh": "ซีแอล อพาร์ทเมนต์", "nameEn": "CL Apartment", "cat": ["realestate"], "province": "cr", "slug": "cl-apartment-1085370835", "rank": 2}}, {"type": "Feature", "geometry": {"type": "Point", "coordinates": [99.86092, 19.94786]}, "properties": {"id": "cr-osm-way-1352012396", "name": "ที่ดินจัดสรร ฮักเจียงฮาย", "nameTh": "ฮักเจียงฮาย ที่ดินจัดสรร", "nameEn": "Hug Chiangrai", "cat": ["realestate"], "province": "cr", "slug": "hug-chiangrai-1352012396", "rank": 3}}, {"type": "Feature", "geometry": {"type": "Point", "coordinates": [99.84145, 19.91634]}, "properties": {"id": "cr-osm-way-1115225422", "name": "บ้านกาญจนา", "nameTh": "บ้านกาญจนา", "nameEn": "Baan Kanjana", "cat": ["realestate"], "province": "cr", "slug": "baan-kanjana-1115225422", "rank": 2}}, {"type": "Feature", "geometry": {"type": "Point", "coordinates": [99.83781, 19.91497]}, "properties": {"id": "cr-osm-way-1086651716", "name": "บ้านบุญศิรี", "nameTh": "บ้านบุญศิรี", "nameEn": "Boon Siri House", "cat": ["realestate"], "province": "cr", "slug": "boon-siri-house-1086651716", "rank": 2}}, {"type": "Feature", "geometry": {"type": "Point", "coordinates": [99.82129, 19.90434]}, "properties": {"id": "cr-osm-way-997332348", "name": "บ้านพักรื่นรมย์", "nameTh": "บ้านพักรื่นรมย์", "nameEn": "Ruen Rome Dormitory", "cat": ["realestate"], "province": "cr", "slug": "ruen-rome-dormitory-997332348", "rank": 2}}, {"type": "Feature", "geometry": {"type": "Point", "coordinates": [99.82496, 19.91753]}, "properties": {"id": "cr-osm-way-971901772", "name": "บ้านพักวิทยาลัยอาชีวศึกษา", "nameTh": "บ้านพักวิทยาลัยอาชีวศึกษา", "nameEn": null, "cat": ["realestate"], "province": "cr", "slug": "971901772", "rank": 1}}, {"type": "Feature", "geometry": {"type": "Point", "coordinates": [99.74004, 19.76637]}, "properties": {"id": "cr-osm-way-1461887896", "name": "บ้านพักเจ้าหน้าที่ 1", "nameTh": "บ้านพักเจ้าหน้าที่ 1", "nameEn": null, "cat": ["realestate"], "province": "cr", "slug": "1-1461887896", "rank": 1}}, {"type": "Feature", "geometry": {"type": "Point", "coordinates": [99.74034, 19.7664]}, "properties": {"id": "cr-osm-way-1461887898", "name": "บ้านพักเจ้าหน้าที่ 2", "nameTh": "บ้านพักเจ้าหน้าที่ 2", "nameEn": null, "cat": ["realestate"], "province": "cr", "slug": "2-1461887898", "rank": 1}}, {"type": "Feature", "geometry": {"type": "Point", "coordinates": [99.83451, 19.89684]}, "properties": {"id": "cr-osm-way-973547960", "name": "บ้านร่วมใจ", "nameTh": "บ้านร่วมใจ", "nameEn": null, "cat": ["realestate"], "province": "cr", "slug": "973547960", "rank": 1}}, {"type": "Feature", "geometry": {"type": "Point", "coordinates": [99.82118, 19.90364]}, "properties": {"id": "cr-osm-way-997332340", "name": "พลอยพิศา", "nameTh": "พลอยพิศา", "nameEn": "Ploy Phisa", "cat": ["realestate"], "province": "cr", "slug": "ploy-phisa-997332340", "rank": 3}}, {"type": "Feature", "geometry": {"type": "Point", "coordinates": [99.83871, 19.91439]}, "properties": {"id": "cr-osm-way-1110932842", "name": "ศรินเพลส", "nameTh": "ศรินเพลส", "nameEn": "Sarin Place", "cat": ["realestate"], "province": "cr", "slug": "sarin-place-1110932842", "rank": 2}}, {"type": "Feature", "geometry": {"type": "Point", "coordinates": [99.86799, 19.99567]}, "properties": {"id": "cr-osm-way-1456852609", "name": "ศุภาลัย การ์เด้นวิลล์ นางแล-เชียงราย", "nameTh": "ศุภาลัย การ์เด้นวิลล์ นางแล-เชียงราย", "nameEn": "Supalai Garden Ville Nanglae-Chiangrai", "cat": ["realestate"], "province": "cr", "slug": "supalai-garden-ville-nanglae-chiangrai-1456852609", "rank": 2}}, {"type": "Feature", "geometry": {"type": "Point", "coordinates": [99.83303, 19.86154]}, "properties": {"id": "cr-osm-way-1455958814", "name": "ศุภาลัย พาร์ควิลล์ แม่กรณ์-เชียงราย", "nameTh": "ศุภาลัย พาร์ควิลล์ แม่กรณ์-เชียงราย", "nameEn": "Supalai Park Ville Mae Korn-Chiang Rai", "cat": ["realestate"], "province": "cr", "slug": "supalai-park-ville-mae-korn-chiang-rai-1455958814", "rank": 2}}, {"type": "Feature", "geometry": {"type": "Point", "coordinates": [99.83221, 19.86418]}, "properties": {"id": "cr-osm-way-1455961732", "name": "ศุภาลัย เบลล่า แม่กรณ์-เชียงราย", "nameTh": "ศุภาลัย เบลล่า แม่กรณ์-เชียงราย", "nameEn": "Supalai Bella Mae Korn-Chiang Rai", "cat": ["realestate"], "province": "cr", "slug": "supalai-bella-mae-korn-chiang-rai-1455961732", "rank": 2}}, {"type": "Feature", "geometry": {"type": "Point", "coordinates": [99.83515, 19.91481]}, "properties": {"id": "cr-osm-way-1085370845", "name": "สุวรรณดี อพาร์ทเมนต์", "nameTh": "สุวรรณดี อพาร์ทเมนต์", "nameEn": "Suwannadee Apartment", "cat": ["realestate"], "province": "cr", "slug": "suwannadee-apartment-1085370845", "rank": 2}}, {"type": "Feature", "geometry": {"type": "Point", "coordinates": [99.88128, 20.32402]}, "properties": {"id": "cr-osm-way-544295158", "name": "หอพัก จิราภา", "nameTh": "หอพัก จิราภา", "nameEn": null, "cat": ["realestate"], "province": "cr", "slug": "544295158", "rank": 1}}, {"type": "Feature", "geometry": {"type": "Point", "coordinates": [99.83309, 19.91595]}, "properties": {"id": "cr-osm-way-1037270065", "name": "หอพัก ซันเดย์", "nameTh": "หอพัก ซันเดย์", "nameEn": "Sunday Dormitory", "cat": ["realestate"], "province": "cr", "slug": "sunday-dormitory-1037270065", "rank": 2}}, {"type": "Feature", "geometry": {"type": "Point", "coordinates": [99.81971, 19.90314]}, "properties": {"id": "cr-osm-way-998068518", "name": "หอพักพุทธแก้ว", "nameTh": "หอพักพุทธแก้ว", "nameEn": "Phuttha Kaew", "cat": ["realestate"], "province": "cr", "slug": "phuttha-kaew-998068518", "rank": 2}}, {"type": "Feature", "geometry": {"type": "Point", "coordinates": [99.81979, 19.90296]}, "properties": {"id": "cr-osm-way-998068519", "name": "หอพักพุทธแก้ว", "nameTh": "หอพักพุทธแก้ว", "nameEn": "Phuttha Kaew", "cat": ["realestate"], "province": "cr", "slug": "phuttha-kaew-998068519", "rank": 2}}, {"type": "Feature", "geometry": {"type": "Point", "coordinates": [99.82367, 19.90175]}, "properties": {"id": "cr-osm-way-997955927", "name": "หอพักมณีรัตน์", "nameTh": "หอพักมณีรัตน์", "nameEn": "Maneerat", "cat": ["realestate"], "province": "cr", "slug": "maneerat-997955927", "rank": 2}}, {"type": "Feature", "geometry": {"type": "Point", "coordinates": [99.82121, 19.90408]}, "properties": {"id": "cr-osm-way-997332344", "name": "หอพักหญิงใจดี", "nameTh": "หอพักหญิงใจดี", "nameEn": "Jaidee female dormitory", "cat": ["realestate"], "province": "cr", "slug": "jaidee-female-dormitory-997332344", "rank": 2}}, {"type": "Feature", "geometry": {"type": "Point", "coordinates": [99.83282, 19.9152]}, "properties": {"id": "cr-osm-way-1085370859", "name": "หอพักเกรด A", "nameTh": "หอพักเกรด A", "nameEn": "Grade A Dormitory", "cat": ["realestate"], "province": "cr", "slug": "grade-a-dormitory-1085370859", "rank": 2}}, {"type": "Feature", "geometry": {"type": "Point", "coordinates": [99.8382, 19.91586]}, "properties": {"id": "cr-osm-way-1086651688", "name": "หอพักโชคดี", "nameTh": "หอพักโชคดี", "nameEn": "Chok Dee Apartment", "cat": ["realestate"], "province": "cr", "slug": "chok-dee-apartment-1086651688", "rank": 2}}, {"type": "Feature", "geometry": {"type": "Point", "coordinates": [99.8214, 19.90326]}, "properties": {"id": "cr-osm-way-997641682", "name": "ห้องเช่า เริ่มอรุณ", "nameTh": "ห้องเช่า เริ่มอรุณ", "nameEn": "Rerm Arun", "cat": ["realestate"], "province": "cr", "slug": "rerm-arun-997641682", "rank": 3}}, {"type": "Feature", "geometry": {"type": "Point", "coordinates": [99.83772, 19.91414]}, "properties": {"id": "cr-osm-way-1085548369", "name": "อพาร์ตเมนท์แก้วเพลส", "nameTh": "อพาร์ตเมนท์แก้วเพลส", "nameEn": "Kaew's Place Apartment", "cat": ["realestate"], "province": "cr", "slug": "kaew-s-place-apartment-1085548369", "rank": 3}}, {"type": "Feature", "geometry": {"type": "Point", "coordinates": [99.81973, 19.90154]}, "properties": {"id": "cr-osm-way-1107921060", "name": "เรจิน่าเพลส", "nameTh": "เรจิน่าเพลส", "nameEn": "Regina Place", "cat": ["realestate"], "province": "cr", "slug": "regina-place-1107921060", "rank": 2}}, {"type": "Feature", "geometry": {"type": "Point", "coordinates": [99.74024, 19.76665]}, "properties": {"id": "cr-osm-way-1461887894", "name": "แฟลตเจ้าหน้าที่ 1", "nameTh": "แฟลตเจ้าหน้าที่ 1", "nameEn": null, "cat": ["realestate"], "province": "cr", "slug": "1-1461887894", "rank": 1}}, {"type": "Feature", "geometry": {"type": "Point", "coordinates": [99.73962, 19.76686]}, "properties": {"id": "cr-osm-way-1461887895", "name": "แฟลตเจ้าหน้าที่ 2", "nameTh": "แฟลตเจ้าหน้าที่ 2", "nameEn": null, "cat": ["realestate"], "province": "cr", "slug": "2-1461887895", "rank": 1}}]}