{"type": "FeatureCollection", "features": [{"type": "Feature", "geometry": {"type": "Point", "coordinates": [99.511836, 19.3310924]}, "properties": {"id": "cr-osm-way-1248124697", "name": "\"Hovercraft Garage\"", "nameTh": null, "nameEn": "\"Hovercraft Garage\"", "cat": ["repair"], "province": "cr"}}, {"type": "Feature", "geometry": {"type": "Point", "coordinates": [99.8326115, 19.9019106]}, "properties": {"id": "cr-osm-node-9847662611", "name": "96 Tires", "nameTh": null, "nameEn": "96 Tires", "cat": ["repair"], "province": "cr"}}, {"type": "Feature", "geometry": {"type": "Point", "coordinates": [99.8290116, 19.9070527]}, "properties": {"id": "cr-osm-way-960934975", "name": "A Rich Shop", "nameTh": "เอริชช็อป", "nameEn": "A Rich Shop", "cat": ["repair"], "province": "cr"}}, {"type": "Feature", "geometry": {"type": "Point", "coordinates": [99.8792901, 19.9539524]}, "properties": {"id": "cr-osm-node-6636010885", "name": "AIS", "nameTh": null, "nameEn": "AIS", "cat": ["repair"], "province": "cr"}}, {"type": "Feature", "geometry": {"type": "Point", "coordinates": [99.8325428, 19.9017246]}, "properties": {"id": "cr-osm-way-1073509635", "name": "Advice", "nameTh": "แอดไวซ์", "nameEn": "Advice", "cat": ["repair"], "province": "cr"}}, {"type": "Feature", "geometry": {"type": "Point", "coordinates": [99.8308334, 19.8863932]}, "properties": {"id": "cr-osm-way-1110659337", "name": "B-Quik", "nameTh": null, "nameEn": "B-Quik", "cat": ["repair"], "province": "cr"}}, {"type": "Feature", "geometry": {"type": "Point", "coordinates": [99.8353081, 19.9069128]}, "properties": {"id": "cr-osm-way-964471982", "name": "Chuaicharoen", "nameTh": "ช่วยเจริญการช่าง", "nameEn": "Chuaicharoen", "cat": ["repair"], "province": "cr"}}, {"type": "Feature", "geometry": {"type": "Point", "coordinates": [99.8604602, 20.1350481]}, "properties": {"id": "cr-osm-node-2148609279", "name": "Ecu Shop", "nameTh": null, "nameEn": "Ecu Shop", "cat": ["repair"], "province": "cr"}}, {"type": "Feature", "geometry": {"type": "Point", "coordinates": [99.8313687, 19.8939531]}, "properties": {"id": "cr-osm-node-13251034626", "name": "Evolt Superbike", "nameTh": null, "nameEn": "Evolt Superbike", "cat": ["repair"], "province": "cr"}}, {"type": "Feature", "geometry": {"type": "Point", "coordinates": [99.7413149, 19.5477015]}, "properties": {"id": "cr-osm-node-4472048668", "name": "Greenwing", "nameTh": null, "nameEn": "Greenwing", "cat": ["repair"], "province": "cr"}}, {"type": "Feature", "geometry": {"type": "Point", "coordinates": [99.7407663, 19.5520641]}, "properties": {"id": "cr-osm-node-4472048669", "name": "Greenwing", "nameTh": null, "nameEn": "Greenwing", "cat": ["repair"], "province": "cr"}}, {"type": "Feature", "geometry": {"type": "Point", "coordinates": [99.8266782, 19.8997172]}, "properties": {"id": "cr-osm-way-772907458", "name": "KVC Computer", "nameTh": null, "nameEn": "KVC Computer", "cat": ["repair"], "province": "cr"}}, {"type": "Feature", "geometry": {"type": "Point", "coordinates": [99.8460448, 19.9155533]}, "properties": {"id": "cr-osm-way-1444067063", "name": "MC​ tires", "nameTh": null, "nameEn": "Pirelli Big Bike Tyres", "cat": ["repair"], "province": "cr"}}, {"type": "Feature", "geometry": {"type": "Point", "coordinates": [99.8325808, 19.9018894]}, "properties": {"id": "cr-osm-node-9452453317", "name": "Maxx scooter", "nameTh": null, "nameEn": "Maxx scooter", "cat": ["repair"], "province": "cr"}}, {"type": "Feature", "geometry": {"type": "Point", "coordinates": [99.8534455, 20.1483906]}, "properties": {"id": "cr-osm-node-2148640826", "name": "N & A โฟน", "nameTh": "N & A โฟน", "nameEn": null, "cat": ["repair"], "province": "cr"}}, {"type": "Feature", "geometry": {"type": "Point", "coordinates": [99.8498807, 20.1465213]}, "properties": {"id": "cr-osm-node-2148616608", "name": "NT computer", "nameTh": null, "nameEn": "NT computer", "cat": ["repair"], "province": "cr"}}, {"type": "Feature", "geometry": {"type": "Point", "coordinates": [99.8852758, 20.4415823]}, "properties": {"id": "cr-osm-node-6280656585", "name": "Phone Repairs", "nameTh": null, "nameEn": "Phone Repairs", "cat": ["repair"], "province": "cr"}}, {"type": "Feature", "geometry": {"type": "Point", "coordinates": [99.8584295, 20.1510507]}, "properties": {"id": "cr-osm-node-2150597923", "name": "TN เฮตเตอร์", "nameTh": "TN เฮตเตอร์", "nameEn": null, "cat": ["repair"], "province": "cr"}}, {"type": "Feature", "geometry": {"type": "Point", "coordinates": [99.8302665, 19.8840593]}, "properties": {"id": "cr-osm-node-9360738668", "name": "Tart Motorrad (BMW)", "nameTh": null, "nameEn": "Tart Motorrad (BMW)", "cat": ["repair"], "province": "cr"}}, {"type": "Feature", "geometry": {"type": "Point", "coordinates": [99.8337926, 19.9044252]}, "properties": {"id": "cr-osm-node-6634719585", "name": "Telenor", "nameTh": null, "nameEn": "telenor", "cat": ["repair"], "province": "cr"}}, {"type": "Feature", "geometry": {"type": "Point", "coordinates": [99.8569418, 20.1455111]}, "properties": {"id": "cr-osm-node-2150597973", "name": "กิจเจริญ หม้อน้ำ ท่อไอเสีย", "nameTh": "กิจเจริญ หม้อน้ำ ท่อไอเสีย", "nameEn": null, "cat": ["repair"], "province": "cr"}}, {"type": "Feature", "geometry": {"type": "Point", "coordinates": [99.8477995, 20.1491486]}, "properties": {"id": "cr-osm-node-2147436981", "name": "ชัยการช่าง", "nameTh": "ชัยการช่าง", "nameEn": null, "cat": ["repair"], "province": "cr"}}, {"type": "Feature", "geometry": {"type": "Point", "coordinates": [99.8314677, 19.897749]}, "properties": {"id": "cr-osm-way-1074237730", "name": "ช่างต๊อก", "nameTh": "ช่างต๊อก", "nameEn": "Tok's", "cat": ["repair"], "province": "cr"}}, {"type": "Feature", "geometry": {"type": "Point", "coordinates": [99.8571829, 20.1437999]}, "properties": {"id": "cr-osm-node-2148626583", "name": "ซันซาวด์ ออดีโอ", "nameTh": "ซันซาวด์ ออดีโอ", "nameEn": null, "cat": ["repair"], "province": "cr"}}, {"type": "Feature", "geometry": {"type": "Point", "coordinates": [99.8193808, 19.9057076]}, "properties": {"id": "cr-osm-way-960685205", "name": "ซุงยานยนต์", "nameTh": "ซุงยานยนต์", "nameEn": "Sung Automotive", "cat": ["repair"], "province": "cr"}}, {"type": "Feature", "geometry": {"type": "Point", "coordinates": [99.8600606, 20.1518289]}, "properties": {"id": "cr-osm-node-2150597992", "name": "ซ่อมมอเตอร์ไซค์", "nameTh": "ซ่อมมอเตอร์ไซค์", "nameEn": null, "cat": ["repair"], "province": "cr"}}, {"type": "Feature", "geometry": {"type": "Point", "coordinates": [99.8460384, 19.8712474]}, "properties": {"id": "cr-osm-way-1067793073", "name": "ซ่อมรถยนต์ทุกชนิด", "nameTh": "ซ่อมรถยนต์ทุกชนิด", "nameEn": null, "cat": ["repair"], "province": "cr"}}, {"type": "Feature", "geometry": {"type": "Point", "coordinates": [99.8603643, 19.9301103]}, "properties": {"id": "cr-osm-way-1232063569", "name": "ตรอ.อภิสิทธิ์ ออโต้เช็ค", "nameTh": "ตรอ.อภิสิทธิ์ ออโต้เช็ค", "nameEn": null, "cat": ["repair"], "province": "cr"}}, {"type": "Feature", "geometry": {"type": "Point", "coordinates": [99.8355316, 19.905887]}, "properties": {"id": "cr-osm-node-10261957979", "name": "ตี๋โมบาย", "nameTh": "ตี๋โมบาย", "nameEn": "Tee Mobile", "cat": ["repair"], "province": "cr"}}, {"type": "Feature", "geometry": {"type": "Point", "coordinates": [99.8550388, 20.1497018]}, "properties": {"id": "cr-osm-node-2148622830", "name": "ตู่ โมบาย", "nameTh": "ตู่ โมบาย", "nameEn": null, "cat": ["repair"], "province": "cr"}}, {"type": "Feature", "geometry": {"type": "Point", "coordinates": [99.854612, 20.1595319]}, "properties": {"id": "cr-osm-way-204778493", "name": "ธนัทยนตรกิจ", "nameTh": "ธนัทยนตรกิจ", "nameEn": null, "cat": ["repair"], "province": "cr"}}, {"type": "Feature", "geometry": {"type": "Point", "coordinates": [99.8334806, 19.9088533]}, "properties": {"id": "cr-osm-way-960070510", "name": "บ้านช่าง", "nameTh": "บ้านช่าง", "nameEn": "Bann Chang", "cat": ["repair"], "province": "cr"}}, {"type": "Feature", "geometry": {"type": "Point", "coordinates": [99.830567, 19.9105503]}, "properties": {"id": "cr-osm-way-960101666", "name": "พิสิษฐ์กลการ", "nameTh": "พิสิษฐ์กลการ", "nameEn": null, "cat": ["repair"], "province": "cr"}}, {"type": "Feature", "geometry": {"type": "Point", "coordinates": [99.8155161, 19.9033689]}, "properties": {"id": "cr-osm-node-9166342527", "name": "ฟันโมบาย เซอร์วิส", "nameTh": "ฟันโมบาย เซอร์วิส", "nameEn": "Fun Mobile Service", "cat": ["repair"], "province": "cr"}}, {"type": "Feature", "geometry": {"type": "Point", "coordinates": [99.831101, 19.9074008]}, "properties": {"id": "cr-osm-way-961802268", "name": "ฟิกซ์ กะ โฟน", "nameTh": "ฟิกซ์ กะ โฟน", "nameEn": "Fix Ka Phone", "cat": ["repair"], "province": "cr"}}, {"type": "Feature", "geometry": {"type": "Point", "coordinates": [99.8561805, 20.1498151]}, "properties": {"id": "cr-osm-node-2148639729", "name": "มุมโมบาย", "nameTh": "มุมโมบาย", "nameEn": null, "cat": ["repair"], "province": "cr"}}, {"type": "Feature", "geometry": {"type": "Point", "coordinates": [99.8571206, 20.14338]}, "properties": {"id": "cr-osm-node-2148548739", "name": "ยุทธ มอเตอร์แอร์ เบอร์โทร", "nameTh": "ยุทธ มอเตอร์แอร์ เบอร์โทร", "nameEn": null, "cat": ["repair"], "province": "cr"}}, {"type": "Feature", "geometry": {"type": "Point", "coordinates": [99.8323956, 19.9007805]}, "properties": {"id": "cr-osm-node-9817126384", "name": "ร้านก๋ง ซ่อมจักรยายนต์", "nameTh": "ร้านก๋ง ซ่อมจักรยายนต์", "nameEn": "Kog Motorcycle/electrical repairs", "cat": ["repair"], "province": "cr"}}, {"type": "Feature", "geometry": {"type": "Point", "coordinates": [99.8544698, 20.1397639]}, "properties": {"id": "cr-osm-node-2148632586", "name": "ร้านคอมพิวเตอร์", "nameTh": "ร้านคอมพิวเตอร์", "nameEn": null, "cat": ["repair"], "province": "cr"}}, {"type": "Feature", "geometry": {"type": "Point", "coordinates": [99.8545789, 20.139752]}, "properties": {"id": "cr-osm-way-204880305", "name": "ร้านคอมยิ้ม", "nameTh": "ร้านคอมยิ้ม", "nameEn": null, "cat": ["repair"], "province": "cr"}}, {"type": "Feature", "geometry": {"type": "Point", "coordinates": [99.8579095, 20.1505296]}, "properties": {"id": "cr-osm-node-2150598026", "name": "ร้านชาติมอเตอร์", "nameTh": "ร้านชาติมอเตอร์", "nameEn": null, "cat": ["repair"], "province": "cr"}}, {"type": "Feature", "geometry": {"type": "Point", "coordinates": [99.8633789, 20.1312602]}, "properties": {"id": "cr-osm-node-2148549640", "name": "ร้านซ่อมตู้เย็น", "nameTh": "ร้านซ่อมตู้เย็น", "nameEn": null, "cat": ["repair"], "province": "cr"}}, {"type": "Feature", "geometry": {"type": "Point", "coordinates": [99.7440377, 20.106954]}, "properties": {"id": "cr-osm-node-2147440858", "name": "ร้านซ่อมมอเตอร์ไซค์", "nameTh": "ร้านซ่อมมอเตอร์ไซค์", "nameEn": null, "cat": ["repair"], "province": "cr"}}, {"type": "Feature", "geometry": {"type": "Point", "coordinates": [99.7687324, 20.1100889]}, "properties": {"id": "cr-osm-node-2148615731", "name": "ร้านซ่อมมอเตอร์ไซค์", "nameTh": "ร้านซ่อมมอเตอร์ไซค์", "nameEn": null, "cat": ["repair"], "province": "cr"}}, {"type": "Feature", "geometry": {"type": "Point", "coordinates": [99.8553771, 20.1532419]}, "properties": {"id": "cr-osm-node-2148639732", "name": "ร้านซ่อมมอเตอร์ไซค์", "nameTh": "ร้านซ่อมมอเตอร์ไซค์", "nameEn": null, "cat": ["repair"], "province": "cr"}}, {"type": "Feature", "geometry": {"type": "Point", "coordinates": [99.8615186, 20.133195]}, "properties": {"id": "cr-osm-node-2148569036", "name": "ร้านซ่อมรถ", "nameTh": "ร้านซ่อมรถ", "nameEn": null, "cat": ["repair"], "province": "cr"}}, {"type": "Feature", "geometry": {"type": "Point", "coordinates": [100.0940423, 19.7022243]}, "properties": {"id": "cr-osm-node-4404359891", "name": "ร้านอวบมือถือ", "nameTh": "ร้านอวบมือถือ", "nameEn": null, "cat": ["repair"], "province": "cr"}}, {"type": "Feature", "geometry": {"type": "Point", "coordinates": [99.8560942, 20.1498898]}, "properties": {"id": "cr-osm-node-2148627187", "name": "ร้านเติมเงิน", "nameTh": "ร้านเติมเงิน", "nameEn": null, "cat": ["repair"], "province": "cr"}}, {"type": "Feature", "geometry": {"type": "Point", "coordinates": [99.8139816, 19.9036038]}, "properties": {"id": "cr-osm-node-9166322475", "name": "ศักดิ์มอเตอร์ไซค์", "nameTh": "ศักดิ์มอเตอร์ไซค์", "nameEn": "Sak Motorcycle", "cat": ["repair"], "province": "cr"}}, {"type": "Feature", "geometry": {"type": "Point", "coordinates": [99.8189474, 19.9053446]}, "properties": {"id": "cr-osm-way-986855267", "name": "ศูนย์บริการหลังการขาย (สำนักงานใหญ่ เด่นห้ามอเตอร์ กรุ๊ป)", "nameTh": "ศูนย์บริการหลังการขาย (สำนักงานใหญ่ เด่นห้ามอเตอร์ กรุ๊ป)", "nameEn": "after-sales service center (Denha Motor Group HQ)", "cat": ["repair"], "province": "cr"}}, {"type": "Feature", "geometry": {"type": "Point", "coordinates": [99.8388403, 19.9086263]}, "properties": {"id": "cr-osm-way-959789615", "name": "ส. ชัยยนต์", "nameTh": "ส. ชัยยนต์", "nameEn": null, "cat": ["repair"], "province": "cr"}}, {"type": "Feature", "geometry": {"type": "Point", "coordinates": [99.8582918, 20.1506269]}, "properties": {"id": "cr-osm-node-2148640786", "name": "ส.คาร์คลีนิค", "nameTh": "ส.คาร์คลีนิค", "nameEn": null, "cat": ["repair"], "province": "cr"}}, {"type": "Feature", "geometry": {"type": "Point", "coordinates": [99.8300654, 19.8899545]}, "properties": {"id": "cr-osm-way-1093123241", "name": "สหดีเซล", "nameTh": "สหดีเซล", "nameEn": "Saha Diesel", "cat": ["repair"], "province": "cr"}}, {"type": "Feature", "geometry": {"type": "Point", "coordinates": [99.8299854, 19.9071548]}, "properties": {"id": "cr-osm-way-960934994", "name": "สุดไทย ไแที", "nameTh": "สุดไทย ไแที", "nameEn": "Sud Thai I.T.", "cat": ["repair"], "province": "cr"}}, {"type": "Feature", "geometry": {"type": "Point", "coordinates": [99.8575209, 19.9291163]}, "properties": {"id": "cr-osm-way-1113583689", "name": "สุวิทย์ ออโต้เช็ค", "nameTh": "สุวิทย์ ออโต้เช็ค", "nameEn": "Suvit Auto-Check", "cat": ["repair"], "province": "cr"}}, {"type": "Feature", "geometry": {"type": "Point", "coordinates": [99.850764, 20.1494493]}, "properties": {"id": "cr-osm-node-2147421947", "name": "หอมนานค้าไม้", "nameTh": "หอมนานค้าไม้", "nameEn": null, "cat": ["repair"], "province": "cr"}}, {"type": "Feature", "geometry": {"type": "Point", "coordinates": [99.8545883, 20.1476923]}, "properties": {"id": "cr-osm-node-2135845821", "name": "อู่ ช.การช่าง", "nameTh": "อู่ ช.การช่าง", "nameEn": null, "cat": ["repair"], "province": "cr"}}, {"type": "Feature", "geometry": {"type": "Point", "coordinates": [99.7923592, 20.1157707]}, "properties": {"id": "cr-osm-node-2148615749", "name": "อู่ช่างรอ", "nameTh": "อู่ช่างรอ", "nameEn": null, "cat": ["repair"], "province": "cr"}}, {"type": "Feature", "geometry": {"type": "Point", "coordinates": [99.9097287, 19.9387946]}, "properties": {"id": "cr-osm-node-11980301931", "name": "อู่ช่างเอ", "nameTh": "อู่ช่างเอ", "nameEn": null, "cat": ["repair"], "province": "cr"}}, {"type": "Feature", "geometry": {"type": "Point", "coordinates": [99.8404951, 20.1375439]}, "properties": {"id": "cr-osm-node-2147424865", "name": "อู่ซ่อมรถ", "nameTh": "อู่ซ่อมรถ", "nameEn": null, "cat": ["repair"], "province": "cr"}}, {"type": "Feature", "geometry": {"type": "Point", "coordinates": [99.8044179, 20.1243857]}, "properties": {"id": "cr-osm-node-2147432620", "name": "อู่ซ่อมรถ", "nameTh": "อู่ซ่อมรถ", "nameEn": null, "cat": ["repair"], "province": "cr"}}, {"type": "Feature", "geometry": {"type": "Point", "coordinates": [99.7666977, 20.1097849]}, "properties": {"id": "cr-osm-node-2148615750", "name": "อู่ซ่อมรถ", "nameTh": "อู่ซ่อมรถ", "nameEn": null, "cat": ["repair"], "province": "cr"}}, {"type": "Feature", "geometry": {"type": "Point", "coordinates": [99.8494781, 20.1446412]}, "properties": {"id": "cr-osm-node-2148634180", "name": "อู่มนตรี", "nameTh": "อู่มนตรี", "nameEn": null, "cat": ["repair"], "province": "cr"}}, {"type": "Feature", "geometry": {"type": "Point", "coordinates": [99.7897615, 20.1153993]}, "properties": {"id": "cr-osm-way-657101574", "name": "อู่ยาโนเครื่องกล", "nameTh": "อู่ยาโนเครื่องกล", "nameEn": null, "cat": ["repair"], "province": "cr"}}, {"type": "Feature", "geometry": {"type": "Point", "coordinates": [99.814475, 19.8631379]}, "properties": {"id": "cr-osm-way-1105799301", "name": "อู่ศุภณัฐ ออโต้เซอร์วิส", "nameTh": "อู่ศุภณัฐ ออโต้เซอร์วิส", "nameEn": "Supanat's Auto Services", "cat": ["repair"], "province": "cr"}}, {"type": "Feature", "geometry": {"type": "Point", "coordinates": [99.8569, 20.144534]}, "properties": {"id": "cr-osm-node-2135817265", "name": "อู่สนั่นการช่าง", "nameTh": "อู่สนั่นการช่าง", "nameEn": null, "cat": ["repair"], "province": "cr"}}, {"type": "Feature", "geometry": {"type": "Point", "coordinates": [100.5119856, 20.1109874]}, "properties": {"id": "cr-osm-node-11277890723", "name": "อู่สามชัยคาร์เซอร์วิส", "nameTh": "อู่สามชัยคาร์เซอร์วิส", "nameEn": null, "cat": ["repair"], "province": "cr"}}, {"type": "Feature", "geometry": {"type": "Point", "coordinates": [99.8569192, 20.1447637]}, "properties": {"id": "cr-osm-node-2135833737", "name": "อู่สี ต.รุ่งเรือง", "nameTh": "อู่สี ต.รุ่งเรือง", "nameEn": null, "cat": ["repair"], "province": "cr"}}, {"type": "Feature", "geometry": {"type": "Point", "coordinates": [99.8101684, 20.1262887]}, "properties": {"id": "cr-osm-node-2147432625", "name": "อู่อึ่งการช่าง", "nameTh": "อู่อึ่งการช่าง", "nameEn": null, "cat": ["repair"], "province": "cr"}}, {"type": "Feature", "geometry": {"type": "Point", "coordinates": [99.7708339, 19.8522024]}, "properties": {"id": "cr-osm-node-13167472670", "name": "อู่เจเอส เซอร์วิส เชียงราย", "nameTh": "อู่เจเอส เซอร์วิส เชียงราย", "nameEn": null, "cat": ["repair"], "province": "cr"}}, {"type": "Feature", "geometry": {"type": "Point", "coordinates": [99.8143271, 19.8634446]}, "properties": {"id": "cr-osm-way-1105799302", "name": "อู่เล็ก", "nameTh": "อู่เล็ก", "nameEn": "Lek's", "cat": ["repair"], "province": "cr"}}, {"type": "Feature", "geometry": {"type": "Point", "coordinates": [99.8357332, 19.914841]}, "properties": {"id": "cr-osm-way-1085370837", "name": "อู่โชค ออโตเซอร์วิส", "nameTh": "อู่โชค ออโตเซอร์วิส", "nameEn": null, "cat": ["repair"], "province": "cr"}}, {"type": "Feature", "geometry": {"type": "Point", "coordinates": [99.8535616, 20.1483223]}, "properties": {"id": "cr-osm-node-2148655342", "name": "เซ็นเตอร์โมบาย 2", "nameTh": "เซ็นเตอร์โมบาย 2", "nameEn": null, "cat": ["repair"], "province": "cr"}}, {"type": "Feature", "geometry": {"type": "Point", "coordinates": [99.8557194, 20.1498423]}, "properties": {"id": "cr-osm-node-2148639747", "name": "เซ็นเตอร์โมบาย สาขา 1", "nameTh": "เซ็นเตอร์โมบาย สาขา 1", "nameEn": null, "cat": ["repair"], "province": "cr"}}, {"type": "Feature", "geometry": {"type": "Point", "coordinates": [99.8186439, 19.9053762]}, "properties": {"id": "cr-osm-way-1019881349", "name": "เด่นห้า แอร์ เซอร์วิส", "nameTh": "เด่นห้า แอร์ เซอร์วิส", "nameEn": "Denha AC Service", "cat": ["repair"], "province": "cr"}}, {"type": "Feature", "geometry": {"type": "Point", "coordinates": [99.8514549, 20.1439041]}, "properties": {"id": "cr-osm-node-2148616625", "name": "เบริด์ แม่จัน", "nameTh": "เบริด์ แม่จัน", "nameEn": null, "cat": ["repair"], "province": "cr"}}, {"type": "Feature", "geometry": {"type": "Point", "coordinates": [99.8347356, 19.9042124]}, "properties": {"id": "cr-osm-way-968343207", "name": "เฮงเฮง โมบาย", "nameTh": "เฮงเฮง โมบาย", "nameEn": "Heng Heng Mobile", "cat": ["repair"], "province": "cr"}}, {"type": "Feature", "geometry": {"type": "Point", "coordinates": [99.8435561, 20.1390656]}, "properties": {"id": "cr-osm-node-2148568062", "name": "แม่จันคาร์เซอร์วิส", "nameTh": "แม่จันคาร์เซอร์วิส", "nameEn": null, "cat": ["repair"], "province": "cr"}}, {"type": "Feature", "geometry": {"type": "Point", "coordinates": [99.8568696, 20.1440496]}, "properties": {"id": "cr-osm-node-2148630940", "name": "แม่จันท่อไอเสีย", "nameTh": "แม่จันท่อไอเสีย", "nameEn": null, "cat": ["repair"], "province": "cr"}}, {"type": "Feature", "geometry": {"type": "Point", "coordinates": [99.8550429, 20.1497364]}, "properties": {"id": "cr-osm-node-2148622841", "name": "แม่จันวิทยุ", "nameTh": "แม่จันวิทยุ", "nameEn": null, "cat": ["repair"], "province": "cr"}}, {"type": "Feature", "geometry": {"type": "Point", "coordinates": [99.8305535, 19.9072749]}, "properties": {"id": "cr-osm-way-960935003", "name": "แสงธรรม", "nameTh": "แสงธรรม", "nameEn": "Seang Dramma", "cat": ["repair"], "province": "cr"}}, {"type": "Feature", "geometry": {"type": "Point", "coordinates": [99.8563802, 20.1497994]}, "properties": {"id": "cr-osm-node-2148640838", "name": "แฮปปี้โฟน", "nameTh": "แฮปปี้โฟน", "nameEn": null, "cat": ["repair"], "province": "cr"}}, {"type": "Feature", "geometry": {"type": "Point", "coordinates": [99.8403495, 19.9069527]}, "properties": {"id": "cr-osm-way-965582258", "name": "ไทยเจริญการยาง", "nameTh": "ไทยเจริญการยาง", "nameEn": "Thaicharoen Kanyang", "cat": ["repair"], "province": "cr"}}]}