{"type": "FeatureCollection", "features": [{"type": "Feature", "geometry": {"type": "Point", "coordinates": [99.82029, 19.90224]}, "properties": {"id": "cr-osm-way-1061692929", "name": "COMBO 4 Fitness", "nameTh": null, "nameEn": "COMBO 4 Fitness", "cat": ["sport"], "province": "cr", "slug": "combo-4-fitness-1061692929", "rank": 2}}, {"type": "Feature", "geometry": {"type": "Point", "coordinates": [99.83517, 19.90694]}, "properties": {"id": "cr-osm-way-964471981", "name": "Gorilla Gym", "nameTh": null, "nameEn": "Gorilla Gym", "cat": ["sport"], "province": "cr", "slug": "gorilla-gym-964471981", "rank": 2}}, {"type": "Feature", "geometry": {"type": "Point", "coordinates": [100.1671, 19.69279]}, "properties": {"id": "cr-osm-way-760181683", "name": "Iron Cans Fitness", "nameTh": null, "nameEn": "Iron Cans Fitness", "cat": ["sport"], "province": "cr", "slug": "iron-cans-fitness-760181683", "rank": 1}}, {"type": "Feature", "geometry": {"type": "Point", "coordinates": [99.949, 19.82876]}, "properties": {"id": "cr-osm-node-7931699285", "name": "Museflower Retreat and Spa", "nameTh": null, "nameEn": "Museflower Retreat and Spa", "cat": ["beauty", "sport"], "province": "cr", "slug": "museflower-retreat-and-spa-7931699285", "rank": 3}}, {"type": "Feature", "geometry": {"type": "Point", "coordinates": [99.8379, 19.90067]}, "properties": {"id": "cr-osm-node-4434661296", "name": "Pro Gym", "nameTh": null, "nameEn": "Pro Gym", "cat": ["sport"], "province": "cr", "slug": "pro-gym-4434661296", "rank": 1}}, {"type": "Feature", "geometry": {"type": "Point", "coordinates": [99.89473, 20.05704]}, "properties": {"id": "cr-osm-way-93562995", "name": "Queen Sirikit 72nd Jubilee Sport Arena", "nameTh": null, "nameEn": "Queen Sirikit 72nd Jubilee Sport Arena", "cat": ["sport"], "province": "cr", "slug": "queen-sirikit-72nd-jubilee-sport-arena-93562995", "rank": 1}}, {"type": "Feature", "geometry": {"type": "Point", "coordinates": [99.89459, 20.05856]}, "properties": {"id": "cr-osm-way-1285536829", "name": "Sport Stadium", "nameTh": null, "nameEn": "Sport Stadium", "cat": ["sport"], "province": "cr", "slug": "sport-stadium-1285536829", "rank": 1}}, {"type": "Feature", "geometry": {"type": "Point", "coordinates": [99.82298, 19.90781]}, "properties": {"id": "cr-osm-way-960685083", "name": "The Kid", "nameTh": "เดอะคิด", "nameEn": "The Kid", "cat": ["sport"], "province": "cr", "slug": "the-kid-960685083", "rank": 2}}, {"type": "Feature", "geometry": {"type": "Point", "coordinates": [99.8408, 19.91824]}, "properties": {"id": "cr-osm-way-298357696", "name": "Wellness", "nameTh": null, "nameEn": "Wellness", "cat": ["sport"], "province": "cr", "slug": "wellness-298357696", "rank": 1}}, {"type": "Feature", "geometry": {"type": "Point", "coordinates": [99.82834, 19.91406]}, "properties": {"id": "cr-osm-way-959984408", "name": "Woody sexy Gym", "nameTh": null, "nameEn": "Woody sexy Gym", "cat": ["sport"], "province": "cr", "slug": "woody-sexy-gym-959984408", "rank": 1}}, {"type": "Feature", "geometry": {"type": "Point", "coordinates": [99.82282, 19.93036]}, "properties": {"id": "cr-osm-way-971313080", "name": "บ้านรำไทย", "nameTh": "บ้านรำไทย", "nameEn": "Bann Rum Thai", "cat": ["sport"], "province": "cr", "slug": "bann-rum-thai-971313080", "rank": 2}}, {"type": "Feature", "geometry": {"type": "Point", "coordinates": [99.85565, 19.91368]}, "properties": {"id": "cr-osm-way-315296555", "name": "สนามกีฬากลาง", "nameTh": "สนามกีฬากลาง", "nameEn": "Integrated Learning and Recreation Center", "cat": ["sport"], "province": "cr", "slug": "integrated-learning-and-recreation-center-315296555", "rank": 2}}, {"type": "Feature", "geometry": {"type": "Point", "coordinates": [100.07843, 20.27994]}, "properties": {"id": "cr-osm-way-1542806527", "name": "สนามกีฬากลางอำเภอเชียงแสน", "nameTh": "สนามกีฬากลางอำเภอเชียงแสน", "nameEn": "Chiang Saen Central Sports Complex", "cat": ["sport"], "province": "cr", "slug": "chiang-saen-central-sports-complex-1542806527", "rank": 2}}, {"type": "Feature", "geometry": {"type": "Point", "coordinates": [99.66268, 20.24446]}, "properties": {"id": "cr-osm-way-549948904", "name": "สนามกีฬาบ้านเทอดไทย", "nameTh": "สนามกีฬาบ้านเทอดไทย", "nameEn": "Ban Thoet Thai Stadium", "cat": ["sport"], "province": "cr", "slug": "ban-thoet-thai-stadium-549948904", "rank": 2}}, {"type": "Feature", "geometry": {"type": "Point", "coordinates": [99.82719, 19.90586]}, "properties": {"id": "cr-osm-node-8931699065", "name": "ห้องเรียนเต้น", "nameTh": "ห้องเรียนเต้น", "nameEn": "Dance Hall", "cat": ["sport"], "province": "cr", "slug": "dance-hall-8931699065", "rank": 2}}, {"type": "Feature", "geometry": {"type": "Point", "coordinates": [99.82461, 19.90795]}, "properties": {"id": "cr-osm-way-960771459", "name": "เทรน สเตชั่น เลดี้ ยิม", "nameTh": "เทรน สเตชั่น เลดี้ ยิม", "nameEn": "Train Station Lady Gym", "cat": ["sport"], "province": "cr", "slug": "train-station-lady-gym-960771459", "rank": 2}}]}