{"type": "FeatureCollection", "features": [{"type": "Feature", "geometry": {"type": "Point", "coordinates": [99.8312921, 19.9498503]}, "properties": {"id": "cr-osm-way-1097702191", "name": "Chiang Rai International Christian School", "nameTh": "โรงเรียนคริสเตียนนานาชาติเชียงราย", "nameEn": "Chiang Rai International Christian School", "cat": ["school-intl"], "province": "cr"}}, {"type": "Feature", "geometry": {"type": "Point", "coordinates": [99.8419121, 19.931368]}, "properties": {"id": "cr-osm-way-1097702190", "name": "โรงเรียนนานาชาติเชียงราย", "nameTh": "โรงเรียนนานาชาติเชียงราย", "nameEn": "Chiang Rai International School", "cat": ["school-intl"], "province": "cr"}}]}