{"type": "FeatureCollection", "features": [{"type": "Feature", "geometry": {"type": "Point", "coordinates": [100.406, 20.26556]}, "properties": {"id": "cr-osm-node-7012871585", "name": "Art & Antique Centre", "nameTh": null, "nameEn": "Art & Antique Centre", "cat": ["shopping"], "province": "cr", "slug": "art-antique-centre-7012871585", "rank": 1}}, {"type": "Feature", "geometry": {"type": "Point", "coordinates": [99.81095, 20.2895]}, "properties": {"id": "cr-osm-node-2316793662", "name": "Doi Tung Coffee", "nameTh": null, "nameEn": "Doi Tung Coffee", "cat": ["shopping"], "province": "cr", "slug": "doi-tung-coffee-2316793662", "rank": 1}}, {"type": "Feature", "geometry": {"type": "Point", "coordinates": [99.81124, 20.28966]}, "properties": {"id": "cr-osm-node-2316793697", "name": "Doi Tung Lifestyle", "nameTh": null, "nameEn": "Doi Tung Lifestyle", "cat": ["shopping"], "province": "cr", "slug": "doi-tung-lifestyle-2316793697", "rank": 1}}, {"type": "Feature", "geometry": {"type": "Point", "coordinates": [100.52016, 19.93097]}, "properties": {"id": "cr-osm-way-555873470", "name": "Gift Shops", "nameTh": null, "nameEn": "Gift Shops", "cat": ["shopping"], "province": "cr", "slug": "gift-shops-555873470", "rank": 1}}, {"type": "Feature", "geometry": {"type": "Point", "coordinates": [99.83564, 19.86955]}, "properties": {"id": "cr-osm-node-4834971321", "name": "Global House", "nameTh": null, "nameEn": "Global House", "cat": ["shopping"], "province": "cr", "slug": "global-house-4834971321", "rank": 1}}, {"type": "Feature", "geometry": {"type": "Point", "coordinates": [99.88663, 20.39761]}, "properties": {"id": "cr-osm-node-10799596405", "name": "Global House Maesai", "nameTh": null, "nameEn": "Global House Maesai", "cat": ["shopping"], "province": "cr", "slug": "global-house-maesai-10799596405", "rank": 4}}, {"type": "Feature", "geometry": {"type": "Point", "coordinates": [99.83962, 19.86443]}, "properties": {"id": "cr-osm-way-374911690", "name": "Home Pro", "nameTh": null, "nameEn": "Home Pro", "cat": ["shopping"], "province": "cr", "slug": "home-pro-374911690", "rank": 1}}, {"type": "Feature", "geometry": {"type": "Point", "coordinates": [99.82821, 19.87135]}, "properties": {"id": "cr-osm-way-1356116150", "name": "Home Sukkapan", "nameTh": null, "nameEn": "Home Sukkapan", "cat": ["shopping"], "province": "cr", "slug": "home-sukkapan-1356116150", "rank": 1}}, {"type": "Feature", "geometry": {"type": "Point", "coordinates": [99.83753, 19.92704]}, "properties": {"id": "cr-osm-node-13961314701", "name": "MR.D.I.Y", "nameTh": null, "nameEn": "MR.D.I.Y", "cat": ["shopping"], "province": "cr", "slug": "mr-d-i-y-13961314701", "rank": 2}}, {"type": "Feature", "geometry": {"type": "Point", "coordinates": [99.53941, 19.65538]}, "properties": {"id": "cr-osm-node-12864929905", "name": "MR.DIY", "nameTh": null, "nameEn": "MR.DIY", "cat": ["shopping"], "province": "cr", "slug": "mr-diy-12864929905", "rank": 1}}, {"type": "Feature", "geometry": {"type": "Point", "coordinates": [99.50702, 19.35167]}, "properties": {"id": "cr-osm-way-1349668542", "name": "MR.DIY", "nameTh": null, "nameEn": "MR.DIY", "cat": ["shopping"], "province": "cr", "slug": "mr-diy-1349668542", "rank": 1}}, {"type": "Feature", "geometry": {"type": "Point", "coordinates": [99.88746, 20.42049]}, "properties": {"id": "cr-osm-way-1476418875", "name": "Mega Home", "nameTh": null, "nameEn": "Mega Home", "cat": ["shopping"], "province": "cr", "slug": "mega-home-1476418875", "rank": 1}}, {"type": "Feature", "geometry": {"type": "Point", "coordinates": [99.86171, 19.97869]}, "properties": {"id": "cr-osm-way-758286292", "name": "MegaHome", "nameTh": null, "nameEn": "Mega Home", "cat": ["shopping"], "province": "cr", "slug": "mega-home-758286292", "rank": 1}}, {"type": "Feature", "geometry": {"type": "Point", "coordinates": [100.40573, 20.26695]}, "properties": {"id": "cr-osm-node-13526356776", "name": "Mr diy", "nameTh": null, "nameEn": "Mr diy", "cat": ["shopping"], "province": "cr", "slug": "mr-diy-13526356776", "rank": 1}}, {"type": "Feature", "geometry": {"type": "Point", "coordinates": [99.50463, 19.35893]}, "properties": {"id": "cr-osm-node-2136689556", "name": "OTOP", "nameTh": null, "nameEn": "OTOP", "cat": ["shopping"], "province": "cr", "slug": "otop-2136689556", "rank": 1}}, {"type": "Feature", "geometry": {"type": "Point", "coordinates": [99.74788, 19.49441]}, "properties": {"id": "cr-osm-node-6631508913", "name": "Paint shop", "nameTh": null, "nameEn": "Paint shop", "cat": ["shopping"], "province": "cr", "slug": "paint-shop-6631508913", "rank": 1}}, {"type": "Feature", "geometry": {"type": "Point", "coordinates": [99.83346, 19.90541]}, "properties": {"id": "cr-osm-node-6633501591", "name": "Paintings", "nameTh": null, "nameEn": "Paintings", "cat": ["shopping"], "province": "cr", "slug": "paintings-6633501591", "rank": 1}}, {"type": "Feature", "geometry": {"type": "Point", "coordinates": [99.83345, 19.90547]}, "properties": {"id": "cr-osm-node-6633501790", "name": "Paintings", "nameTh": null, "nameEn": "Paintings", "cat": ["shopping"], "province": "cr", "slug": "paintings-6633501790", "rank": 1}}, {"type": "Feature", "geometry": {"type": "Point", "coordinates": [99.88553, 20.18407]}, "properties": {"id": "cr-osm-node-13613927501", "name": "Poterie", "nameTh": null, "nameEn": "Poterie", "cat": ["shopping"], "province": "cr", "slug": "poterie-13613927501", "rank": 1}}, {"type": "Feature", "geometry": {"type": "Point", "coordinates": [99.81116, 19.85089]}, "properties": {"id": "cr-osm-node-6632610093", "name": "Roofing", "nameTh": null, "nameEn": "Roofing", "cat": ["shopping"], "province": "cr", "slug": "roofing-6632610093", "rank": 1}}, {"type": "Feature", "geometry": {"type": "Point", "coordinates": [99.83612, 19.88493]}, "properties": {"id": "cr-osm-way-224695879", "name": "SCG Home Solution", "nameTh": null, "nameEn": "SCG Home Solution", "cat": ["shopping"], "province": "cr", "slug": "scg-home-solution-224695879", "rank": 1}}, {"type": "Feature", "geometry": {"type": "Point", "coordinates": [99.75002, 19.56264]}, "properties": {"id": "cr-osm-node-6631508924", "name": "TOA", "nameTh": null, "nameEn": "TOA", "cat": ["shopping"], "province": "cr", "slug": "toa-6631508924", "rank": 1}}, {"type": "Feature", "geometry": {"type": "Point", "coordinates": [99.84457, 19.92425]}, "properties": {"id": "cr-osm-node-6632634485", "name": "TOA", "nameTh": null, "nameEn": "TOA", "cat": ["shopping"], "province": "cr", "slug": "toa-6632634485", "rank": 1}}, {"type": "Feature", "geometry": {"type": "Point", "coordinates": [99.86349, 20.15836]}, "properties": {"id": "cr-osm-node-6632634597", "name": "TOA", "nameTh": null, "nameEn": "TOA", "cat": ["shopping"], "province": "cr", "slug": "toa-6632634597", "rank": 1}}, {"type": "Feature", "geometry": {"type": "Point", "coordinates": [99.64917, 19.80284]}, "properties": {"id": "cr-osm-node-6631610195", "name": "Tea shop", "nameTh": null, "nameEn": "Tea shop", "cat": ["shopping"], "province": "cr", "slug": "tea-shop-6631610195", "rank": 1}}, {"type": "Feature", "geometry": {"type": "Point", "coordinates": [99.72856, 19.74992]}, "properties": {"id": "cr-osm-node-2476366678", "name": "Tool Shop", "nameTh": null, "nameEn": "Tool Shop", "cat": ["shopping"], "province": "cr", "slug": "tool-shop-2476366678", "rank": 1}}, {"type": "Feature", "geometry": {"type": "Point", "coordinates": [99.85516, 20.153]}, "properties": {"id": "cr-osm-node-2148639718", "name": "Varm", "nameTh": "วอร์ม", "nameEn": "Varm", "cat": ["shopping"], "province": "cr", "slug": "varm-2148639718", "rank": 2}}, {"type": "Feature", "geometry": {"type": "Point", "coordinates": [99.53503, 19.20665]}, "properties": {"id": "cr-osm-node-3216497457", "name": "Wiang Kalong", "nameTh": null, "nameEn": "Wiang Kalong", "cat": ["shopping"], "province": "cr", "slug": "wiang-kalong-3216497457", "rank": 1}}, {"type": "Feature", "geometry": {"type": "Point", "coordinates": [99.86556, 19.99798]}, "properties": {"id": "cr-osm-node-6632634513", "name": "Wood trade", "nameTh": null, "nameEn": "Wood trade", "cat": ["shopping"], "province": "cr", "slug": "wood-trade-6632634513", "rank": 1}}, {"type": "Feature", "geometry": {"type": "Point", "coordinates": [99.83317, 19.91027]}, "properties": {"id": "cr-osm-way-963829092", "name": "Yong Lee Seng SCG", "nameTh": "ย่งหลีเส็ง SCG", "nameEn": "Yong Lee Seng SCG", "cat": ["shopping"], "province": "cr", "slug": "yong-lee-seng-scg-963829092", "rank": 2}}, {"type": "Feature", "geometry": {"type": "Point", "coordinates": [99.85983, 19.97973]}, "properties": {"id": "cr-osm-node-6632634590", "name": "salvage", "nameTh": null, "nameEn": "salvage", "cat": ["shopping"], "province": "cr", "slug": "salvage-6632634590", "rank": 1}}, {"type": "Feature", "geometry": {"type": "Point", "coordinates": [99.83323, 19.9049]}, "properties": {"id": "cr-osm-node-6633501793", "name": "specialty coffee", "nameTh": null, "nameEn": "specialty coffee", "cat": ["shopping"], "province": "cr", "slug": "specialty-coffee-6633501793", "rank": 1}}, {"type": "Feature", "geometry": {"type": "Point", "coordinates": [99.83261, 19.90245]}, "properties": {"id": "cr-osm-way-1073509647", "name": "ก.พานิช", "nameTh": "ก.พานิช", "nameEn": "K. Panich", "cat": ["shopping"], "province": "cr", "slug": "k-panich-1073509647", "rank": 2}}, {"type": "Feature", "geometry": {"type": "Point", "coordinates": [99.83071, 19.9085]}, "properties": {"id": "cr-osm-way-961802249", "name": "กวงฮั่วจั่น", "nameTh": "กวงฮั่วจั่น", "nameEn": "Kwang Howa Jan", "cat": ["shopping"], "province": "cr", "slug": "kwang-howa-jan-961802249", "rank": 2}}, {"type": "Feature", "geometry": {"type": "Point", "coordinates": [99.83522, 19.90415]}, "properties": {"id": "cr-osm-way-968343216", "name": "จงวัฒนา", "nameTh": "จงวัฒนา", "nameEn": "Jongwattana", "cat": ["shopping"], "province": "cr", "slug": "jongwattana-968343216", "rank": 2}}, {"type": "Feature", "geometry": {"type": "Point", "coordinates": [99.85023, 20.14557]}, "properties": {"id": "cr-osm-way-204880197", "name": "ชัยอลูมิเนียม", "nameTh": "ชัยอลูมิเนียม", "nameEn": null, "cat": ["shopping"], "province": "cr", "slug": "204880197", "rank": 1}}, {"type": "Feature", "geometry": {"type": "Point", "coordinates": [99.85825, 20.15044]}, "properties": {"id": "cr-osm-node-2150598012", "name": "น้อยการเบาะ", "nameTh": "น้อยการเบาะ", "nameEn": null, "cat": ["shopping"], "province": "cr", "slug": "2150598012", "rank": 1}}, {"type": "Feature", "geometry": {"type": "Point", "coordinates": [99.86586, 20.16308]}, "properties": {"id": "cr-osm-node-2148608464", "name": "บริษัท เทพวัลย์กรุ๊ป สาขาแม่จัน", "nameTh": "บริษัท เทพวัลย์กรุ๊ป สาขาแม่จัน", "nameEn": null, "cat": ["shopping"], "province": "cr", "slug": "2148608464", "rank": 1}}, {"type": "Feature", "geometry": {"type": "Point", "coordinates": [99.7257, 20.111]}, "properties": {"id": "cr-osm-node-5314130022", "name": "บ้านนิว", "nameTh": "บ้านนิว", "nameEn": null, "cat": ["shopping"], "province": "cr", "slug": "5314130022", "rank": 1}}, {"type": "Feature", "geometry": {"type": "Point", "coordinates": [99.85845, 20.15144]}, "properties": {"id": "cr-osm-node-2148640783", "name": "ปฐมอลูมิเนียม", "nameTh": "ปฐมอลูมิเนียม", "nameEn": null, "cat": ["shopping"], "province": "cr", "slug": "2148640783", "rank": 1}}, {"type": "Feature", "geometry": {"type": "Point", "coordinates": [99.74103, 19.5484]}, "properties": {"id": "cr-osm-node-4547311490", "name": "ประสานมิตร", "nameTh": "ประสานมิตร", "nameEn": "Prasanmit", "cat": ["shopping"], "province": "cr", "slug": "prasanmit-4547311490", "rank": 2}}, {"type": "Feature", "geometry": {"type": "Point", "coordinates": [99.81809, 20.12883]}, "properties": {"id": "cr-osm-node-2147430775", "name": "พงค์สกร", "nameTh": "พงค์สกร", "nameEn": null, "cat": ["shopping"], "province": "cr", "slug": "2147430775", "rank": 1}}, {"type": "Feature", "geometry": {"type": "Point", "coordinates": [99.8308, 19.9074]}, "properties": {"id": "cr-osm-way-961802266", "name": "พลภัณฑ์", "nameTh": "พลภัณฑ์", "nameEn": "Polapan", "cat": ["shopping"], "province": "cr", "slug": "polapan-961802266", "rank": 2}}, {"type": "Feature", "geometry": {"type": "Point", "coordinates": [99.8345, 19.90418]}, "properties": {"id": "cr-osm-way-968343203", "name": "พุทธรักษา", "nameTh": "พุทธรักษา", "nameEn": "Puttaraksa", "cat": ["shopping"], "province": "cr", "slug": "puttaraksa-968343203", "rank": 2}}, {"type": "Feature", "geometry": {"type": "Point", "coordinates": [99.82785, 19.90811]}, "properties": {"id": "cr-osm-way-960771510", "name": "ภูฟ้า ธนาลัย", "nameTh": "ภูฟ้า ธนาลัย", "nameEn": "PhuPha Thanalai", "cat": ["shopping"], "province": "cr", "slug": "phupha-thanalai-960771510", "rank": 2}}, {"type": "Feature", "geometry": {"type": "Point", "coordinates": [99.85824, 20.15023]}, "properties": {"id": "cr-osm-node-2150598020", "name": "ร้านกลองยาว รับตีมีด", "nameTh": "ร้านกลองยาว รับตีมีด", "nameEn": null, "cat": ["shopping"], "province": "cr", "slug": "2150598020", "rank": 1}}, {"type": "Feature", "geometry": {"type": "Point", "coordinates": [99.81134, 20.12568]}, "properties": {"id": "cr-osm-node-2147432640", "name": "ร้านขายของชำ", "nameTh": "ร้านขายของชำ", "nameEn": null, "cat": ["shopping"], "province": "cr", "slug": "2147432640", "rank": 1}}, {"type": "Feature", "geometry": {"type": "Point", "coordinates": [99.83293, 20.13226]}, "properties": {"id": "cr-osm-node-2147540148", "name": "ร้านขายของชำ", "nameTh": "ร้านขายของชำ", "nameEn": null, "cat": ["shopping"], "province": "cr", "slug": "2147540148", "rank": 1}}, {"type": "Feature", "geometry": {"type": "Point", "coordinates": [99.83289, 20.13311]}, "properties": {"id": "cr-osm-node-2147540149", "name": "ร้านขายของชำ", "nameTh": "ร้านขายของชำ", "nameEn": null, "cat": ["shopping"], "province": "cr", "slug": "2147540149", "rank": 1}}, {"type": "Feature", "geometry": {"type": "Point", "coordinates": [99.83304, 20.13312]}, "properties": {"id": "cr-osm-node-2147540150", "name": "ร้านขายของชำ", "nameTh": "ร้านขายของชำ", "nameEn": null, "cat": ["shopping"], "province": "cr", "slug": "2147540150", "rank": 1}}, {"type": "Feature", "geometry": {"type": "Point", "coordinates": [99.83328, 20.13314]}, "properties": {"id": "cr-osm-node-2147540151", "name": "ร้านขายของชำ", "nameTh": "ร้านขายของชำ", "nameEn": null, "cat": ["shopping"], "province": "cr", "slug": "2147540151", "rank": 1}}, {"type": "Feature", "geometry": {"type": "Point", "coordinates": [99.83393, 20.13325]}, "properties": {"id": "cr-osm-node-2147540154", "name": "ร้านขายของชำ", "nameTh": "ร้านขายของชำ", "nameEn": null, "cat": ["shopping"], "province": "cr", "slug": "2147540154", "rank": 1}}, {"type": "Feature", "geometry": {"type": "Point", "coordinates": [99.76843, 20.1097]}, "properties": {"id": "cr-osm-node-2148615716", "name": "ร้านขายของชำ", "nameTh": "ร้านขายของชำ", "nameEn": null, "cat": ["shopping"], "province": "cr", "slug": "2148615716", "rank": 1}}, {"type": "Feature", "geometry": {"type": "Point", "coordinates": [99.76908, 20.10976]}, "properties": {"id": "cr-osm-node-2148615717", "name": "ร้านขายของชำ", "nameTh": "ร้านขายของชำ", "nameEn": null, "cat": ["shopping"], "province": "cr", "slug": "2148615717", "rank": 1}}, {"type": "Feature", "geometry": {"type": "Point", "coordinates": [99.767, 20.10986]}, "properties": {"id": "cr-osm-node-2148615718", "name": "ร้านขายของชำ", "nameTh": "ร้านขายของชำ", "nameEn": null, "cat": ["shopping"], "province": "cr", "slug": "2148615718", "rank": 1}}, {"type": "Feature", "geometry": {"type": "Point", "coordinates": [99.76986, 20.11028]}, "properties": {"id": "cr-osm-node-2148615719", "name": "ร้านขายของชำ", "nameTh": "ร้านขายของชำ", "nameEn": null, "cat": ["shopping"], "province": "cr", "slug": "2148615719", "rank": 1}}, {"type": "Feature", "geometry": {"type": "Point", "coordinates": [99.77001, 20.11032]}, "properties": {"id": "cr-osm-node-2148615720", "name": "ร้านขายของชำ", "nameTh": "ร้านขายของชำ", "nameEn": null, "cat": ["shopping"], "province": "cr", "slug": "2148615720", "rank": 1}}, {"type": "Feature", "geometry": {"type": "Point", "coordinates": [99.77028, 20.11092]}, "properties": {"id": "cr-osm-node-2148615721", "name": "ร้านขายของชำ", "nameTh": "ร้านขายของชำ", "nameEn": null, "cat": ["shopping"], "province": "cr", "slug": "2148615721", "rank": 1}}, {"type": "Feature", "geometry": {"type": "Point", "coordinates": [99.78981, 20.115]}, "properties": {"id": "cr-osm-node-2148615723", "name": "ร้านขายของชำ", "nameTh": "ร้านขายของชำ", "nameEn": null, "cat": ["shopping"], "province": "cr", "slug": "2148615723", "rank": 1}}, {"type": "Feature", "geometry": {"type": "Point", "coordinates": [99.79082, 20.11519]}, "properties": {"id": "cr-osm-node-2148615724", "name": "ร้านขายของชำ", "nameTh": "ร้านขายของชำ", "nameEn": null, "cat": ["shopping"], "province": "cr", "slug": "2148615724", "rank": 1}}, {"type": "Feature", "geometry": {"type": "Point", "coordinates": [99.79238, 20.11549]}, "properties": {"id": "cr-osm-node-2148615725", "name": "ร้านขายของชำ", "nameTh": "ร้านขายของชำ", "nameEn": null, "cat": ["shopping"], "province": "cr", "slug": "2148615725", "rank": 1}}, {"type": "Feature", "geometry": {"type": "Point", "coordinates": [99.79201, 20.11577]}, "properties": {"id": "cr-osm-node-2148615726", "name": "ร้านขายของชำ", "nameTh": "ร้านขายของชำ", "nameEn": null, "cat": ["shopping"], "province": "cr", "slug": "2148615726", "rank": 1}}, {"type": "Feature", "geometry": {"type": "Point", "coordinates": [99.79297, 20.11687]}, "properties": {"id": "cr-osm-node-2148615727", "name": "ร้านขายของชำ", "nameTh": "ร้านขายของชำ", "nameEn": null, "cat": ["shopping"], "province": "cr", "slug": "2148615727", "rank": 1}}, {"type": "Feature", "geometry": {"type": "Point", "coordinates": [99.73142, 20.11011]}, "properties": {"id": "cr-osm-node-2148549625", "name": "ร้านขายวัสดุก่อสร้าง", "nameTh": "ร้านขายวัสดุก่อสร้าง", "nameEn": null, "cat": ["shopping"], "province": "cr", "slug": "2148549625", "rank": 1}}, {"type": "Feature", "geometry": {"type": "Point", "coordinates": [99.77868, 20.11206]}, "properties": {"id": "cr-osm-node-2148549301", "name": "ร้านขายไม้กวาด", "nameTh": "ร้านขายไม้กวาด", "nameEn": null, "cat": ["shopping"], "province": "cr", "slug": "2148549301", "rank": 1}}, {"type": "Feature", "geometry": {"type": "Point", "coordinates": [99.73141, 20.11011]}, "properties": {"id": "cr-osm-node-2148624718", "name": "ร้านค้า", "nameTh": "ร้านค้า", "nameEn": null, "cat": ["shopping"], "province": "cr", "slug": "2148624718", "rank": 1}}, {"type": "Feature", "geometry": {"type": "Point", "coordinates": [99.72514, 20.11133]}, "properties": {"id": "cr-osm-node-2148549629", "name": "ร้านธีรพัตรการสร้าง", "nameTh": "ร้านธีรพัตรการสร้าง", "nameEn": null, "cat": ["shopping"], "province": "cr", "slug": "2148549629", "rank": 1}}, {"type": "Feature", "geometry": {"type": "Point", "coordinates": [99.72508, 20.11136]}, "properties": {"id": "cr-osm-node-2148624720", "name": "ร้านธีรพัตรการสร้าง", "nameTh": "ร้านธีรพัตรการสร้าง", "nameEn": null, "cat": ["shopping"], "province": "cr", "slug": "2148624720", "rank": 1}}, {"type": "Feature", "geometry": {"type": "Point", "coordinates": [99.84717, 20.1434]}, "properties": {"id": "cr-osm-node-2148634174", "name": "ร้านแม่จันจักรเย็บผ้าและอุปกรณ์", "nameTh": "ร้านแม่จันจักรเย็บผ้าและอุปกรณ์", "nameEn": null, "cat": ["shopping"], "province": "cr", "slug": "2148634174", "rank": 1}}, {"type": "Feature", "geometry": {"type": "Point", "coordinates": [99.53834, 19.6577]}, "properties": {"id": "cr-osm-way-585564850", "name": "ร้านไทโยวัสดุก่อสร้าง", "nameTh": "ร้านไทโยวัสดุก่อสร้าง", "nameEn": null, "cat": ["shopping"], "province": "cr", "slug": "585564850", "rank": 1}}, {"type": "Feature", "geometry": {"type": "Point", "coordinates": [100.40687, 20.25478]}, "properties": {"id": "cr-osm-node-4340644491", "name": "ลายไทย", "nameTh": "ลายไทย", "nameEn": null, "cat": ["shopping"], "province": "cr", "slug": "4340644491", "rank": 2}}, {"type": "Feature", "geometry": {"type": "Point", "coordinates": [100.40685, 20.2548]}, "properties": {"id": "cr-osm-node-4340659489", "name": "ลายไทย", "nameTh": "ลายไทย", "nameEn": null, "cat": ["shopping"], "province": "cr", "slug": "4340659489", "rank": 2}}, {"type": "Feature", "geometry": {"type": "Point", "coordinates": [100.40685, 20.25477]}, "properties": {"id": "cr-osm-node-4340659589", "name": "ลายไทย", "nameTh": "ลายไทย", "nameEn": null, "cat": ["shopping"], "province": "cr", "slug": "4340659589", "rank": 2}}, {"type": "Feature", "geometry": {"type": "Point", "coordinates": [99.98436, 19.8061]}, "properties": {"id": "cr-osm-node-11442130600", "name": "ลุงรัตน์", "nameTh": "ลุงรัตน์", "nameEn": "Lung Rat", "cat": ["shopping"], "province": "cr", "slug": "lung-rat-11442130600", "rank": 2}}, {"type": "Feature", "geometry": {"type": "Point", "coordinates": [99.84982, 20.146]}, "properties": {"id": "cr-osm-node-2148616621", "name": "วิรัตน์อลูมิเนียม", "nameTh": "วิรัตน์อลูมิเนียม", "nameEn": null, "cat": ["shopping"], "province": "cr", "slug": "2148616621", "rank": 1}}, {"type": "Feature", "geometry": {"type": "Point", "coordinates": [99.8353, 19.90419]}, "properties": {"id": "cr-osm-way-968343217", "name": "ศรีเกียรติชัย", "nameTh": "ศรีเกียรติชัย", "nameEn": "Srikiatchai", "cat": ["shopping"], "province": "cr", "slug": "srikiatchai-968343217", "rank": 2}}, {"type": "Feature", "geometry": {"type": "Point", "coordinates": [99.85575, 20.14985]}, "properties": {"id": "cr-osm-node-2148639739", "name": "ศรีแม่จัน", "nameTh": "ศรีแม่จัน", "nameEn": null, "cat": ["shopping"], "province": "cr", "slug": "2148639739", "rank": 1}}, {"type": "Feature", "geometry": {"type": "Point", "coordinates": [99.83123, 19.90779]}, "properties": {"id": "cr-osm-way-961802274", "name": "สากลนคร", "nameTh": "สากลนคร", "nameEn": "Sakolnakorn", "cat": ["shopping"], "province": "cr", "slug": "sakolnakorn-961802274", "rank": 2}}, {"type": "Feature", "geometry": {"type": "Point", "coordinates": [99.88166, 20.43912]}, "properties": {"id": "cr-osm-way-375246969", "name": "หงษ์ฟ้า พลาซ่า", "nameTh": "หงษ์ฟ้า พลาซ่า", "nameEn": "Hongfah Plaza", "cat": ["shopping"], "province": "cr", "slug": "hongfah-plaza-375246969", "rank": 3}}, {"type": "Feature", "geometry": {"type": "Point", "coordinates": [99.83204, 19.8985]}, "properties": {"id": "cr-osm-way-1074237714", "name": "หจก. รวมเกษตร", "nameTh": "หจก. รวมเกษตร", "nameEn": "Ruamkaset Part., Ltd.", "cat": ["shopping"], "province": "cr", "slug": "ruamkaset-part-ltd-1074237714", "rank": 3}}, {"type": "Feature", "geometry": {"type": "Point", "coordinates": [99.86281, 19.93126]}, "properties": {"id": "cr-osm-node-11475932640", "name": "หจก. เมืองเหนือดีโฮม", "nameTh": "หจก. เมืองเหนือดีโฮม", "nameEn": null, "cat": ["shopping"], "province": "cr", "slug": "11475932640", "rank": 1}}, {"type": "Feature", "geometry": {"type": "Point", "coordinates": [99.86422, 20.1595]}, "properties": {"id": "cr-osm-node-4360106389", "name": "หจก.แม่จันค้าวัสดุ", "nameTh": "หจก.แม่จันค้าวัสดุ", "nameEn": null, "cat": ["shopping"], "province": "cr", "slug": "4360106389", "rank": 3}}, {"type": "Feature", "geometry": {"type": "Point", "coordinates": [99.86022, 19.91236]}, "properties": {"id": "cr-osm-way-449300567", "name": "หลังคาเหล็ก บี.เค.", "nameTh": "หลังคาเหล็ก บี.เค.", "nameEn": "B.K. Metal Roof", "cat": ["shopping"], "province": "cr", "slug": "b-k-metal-roof-449300567", "rank": 2}}, {"type": "Feature", "geometry": {"type": "Point", "coordinates": [99.79256, 20.11588]}, "properties": {"id": "cr-osm-node-2148615747", "name": "อนงค์ มินิมาร์ท", "nameTh": "อนงค์ มินิมาร์ท", "nameEn": null, "cat": ["shopping"], "province": "cr", "slug": "2148615747", "rank": 1}}, {"type": "Feature", "geometry": {"type": "Point", "coordinates": [99.85779, 20.15154]}, "properties": {"id": "cr-osm-node-2148640828", "name": "อุดมภัณท์โลหะกิจ", "nameTh": "ท์โลหะกิจ", "nameEn": null, "cat": ["shopping"], "province": "cr", "slug": "2148640828", "rank": 1}}, {"type": "Feature", "geometry": {"type": "Point", "coordinates": [99.83004, 19.90879]}, "properties": {"id": "cr-osm-way-959652659", "name": "ฮิมกี่", "nameTh": "ฮิมกี่", "nameEn": "Himki", "cat": ["shopping"], "province": "cr", "slug": "himki-959652659", "rank": 2}}, {"type": "Feature", "geometry": {"type": "Point", "coordinates": [99.81058, 20.12646]}, "properties": {"id": "cr-osm-node-2147432646", "name": "เกษรมินิมาร์ท", "nameTh": "เกษรมินิมาร์ท", "nameEn": null, "cat": ["shopping"], "province": "cr", "slug": "2147432646", "rank": 1}}, {"type": "Feature", "geometry": {"type": "Point", "coordinates": [99.85584, 20.14778]}, "properties": {"id": "cr-osm-node-2148639746", "name": "เซเว่นอีเลฟเว่น", "nameTh": "เซเว่นอีเลฟเว่น", "nameEn": null, "cat": ["shopping"], "province": "cr", "slug": "2148639746", "rank": 1}}, {"type": "Feature", "geometry": {"type": "Point", "coordinates": [99.83303, 19.88628]}, "properties": {"id": "cr-osm-way-1110659333", "name": "เซ็นทรัล เชียงราย", "nameTh": "เซ็นทรัล เชียงราย", "nameEn": "Central Chiang Rai", "cat": ["shopping"], "province": "cr", "slug": "central-chiang-rai-1110659333", "rank": 5}}, {"type": "Feature", "geometry": {"type": "Point", "coordinates": [99.85607, 20.14765]}, "properties": {"id": "cr-osm-node-2148640836", "name": "เนรมิต สโตร์", "nameTh": "เนรมิต สโตร์", "nameEn": null, "cat": ["shopping"], "province": "cr", "slug": "2148640836", "rank": 1}}, {"type": "Feature", "geometry": {"type": "Point", "coordinates": [99.84355, 20.13944]}, "properties": {"id": "cr-osm-node-2148568052", "name": "เอกชัยแลนด์ รับสร้างบ้าน", "nameTh": "เอกชัยแลนด์ รับสร้างบ้าน", "nameEn": null, "cat": ["shopping"], "province": "cr", "slug": "2148568052", "rank": 1}}, {"type": "Feature", "geometry": {"type": "Point", "coordinates": [99.85066, 19.95352]}, "properties": {"id": "cr-osm-node-11475932636", "name": "เอ็นพี อลูมิเนียม", "nameTh": "เอ็นพี อลูมิเนียม", "nameEn": null, "cat": ["shopping"], "province": "cr", "slug": "11475932636", "rank": 1}}, {"type": "Feature", "geometry": {"type": "Point", "coordinates": [99.85803, 20.15107]}, "properties": {"id": "cr-osm-node-2148640790", "name": "แม่จันค้าวัสดุ", "nameTh": "ร้านหาญเจริญกิจ", "nameEn": null, "cat": ["shopping"], "province": "cr", "slug": "2148640790", "rank": 3}}, {"type": "Feature", "geometry": {"type": "Point", "coordinates": [99.83269, 19.88593]}, "properties": {"id": "cr-osm-node-1741088693", "name": "โรบินสัน", "nameTh": "โรบินสัน", "nameEn": "Robinson", "cat": ["shopping"], "province": "cr", "slug": "robinson-1741088693", "rank": 3}}, {"type": "Feature", "geometry": {"type": "Point", "coordinates": [99.88947, 20.42041]}, "properties": {"id": "cr-osm-way-417326142", "name": "โฮมมาร์ท เวียงพานทวีภัณฑ์", "nameTh": "โฮมมาร์ท เวียงพานทวีภัณฑ์", "nameEn": "Home Mart Mae Sai Branch", "cat": ["shopping"], "province": "cr", "slug": "home-mart-mae-sai-branch-417326142", "rank": 4}}, {"type": "Feature", "geometry": {"type": "Point", "coordinates": [99.85605, 20.14884]}, "properties": {"id": "cr-osm-node-2148639755", "name": "ไชยยศมินิมาร์ท", "nameTh": "ไชยยศมินิมาร์ท", "nameEn": null, "cat": ["shopping"], "province": "cr", "slug": "2148639755", "rank": 1}}, {"type": "Feature", "geometry": {"type": "Point", "coordinates": [99.84169, 19.91273]}, "properties": {"id": "cr-osm-node-10169153338", "name": "ไทยนครค้าวัสดุ", "nameTh": "ไทยนครค้าวัสดุ", "nameEn": "Thainakorn Kawassadu", "cat": ["shopping"], "province": "cr", "slug": "thainakorn-kawassadu-10169153338", "rank": 3}}, {"type": "Feature", "geometry": {"type": "Point", "coordinates": [99.82952, 19.87284]}, "properties": {"id": "cr-osm-way-1027574457", "name": "ไทวัสดุ", "nameTh": "ไทวัสดุ", "nameEn": "Thai Watsadu", "cat": ["shopping"], "province": "cr", "slug": "thai-watsadu-1027574457", "rank": 2}}]}