{"type": "FeatureCollection", "features": [{"type": "Feature", "geometry": {"type": "Point", "coordinates": [99.8309, 19.9074]}, "properties": {"id": "cr-curated-clock-tower", "name": "หอนาฬิกาเฉลิมพระเกียรติฯ เชียงราย", "nameTh": "หอนาฬิกาเฉลิมพระเกียรติฯ เชียงราย", "nameEn": "Chiang Rai Clock Tower", "cat": ["sights"], "province": "cr"}}, {"type": "Feature", "geometry": {"type": "Point", "coordinates": [100.522079, 19.9286678]}, "properties": {"id": "cr-osm-node-11212152353", "name": "102 Viewpoint", "nameTh": null, "nameEn": "102 Viewpoint", "cat": ["sights"], "province": "cr"}}, {"type": "Feature", "geometry": {"type": "Point", "coordinates": [100.1009052, 20.2453371]}, "properties": {"id": "cr-osm-node-7745889885", "name": "Amazing Mekong Viewpoint", "nameTh": null, "nameEn": "Amazing Mekong Viewpoint", "cat": ["sights"], "province": "cr"}}, {"type": "Feature", "geometry": {"type": "Point", "coordinates": [99.9079581, 20.1315242]}, "properties": {"id": "cr-osm-node-7152166406", "name": "Arnon Home", "nameTh": null, "nameEn": "Arnon Home", "cat": ["sights"], "province": "cr"}}, {"type": "Feature", "geometry": {"type": "Point", "coordinates": [99.6509657, 20.1607913]}, "properties": {"id": "cr-osm-node-2075992352", "name": "Ban Klang", "nameTh": null, "nameEn": "Ban Klang", "cat": ["sights"], "province": "cr"}}, {"type": "Feature", "geometry": {"type": "Point", "coordinates": [99.8252889, 20.352645]}, "properties": {"id": "cr-osm-node-11122851274", "name": "Ban Pha Hee", "nameTh": null, "nameEn": "Pha Hi village", "cat": ["sights"], "province": "cr"}}, {"type": "Feature", "geometry": {"type": "Point", "coordinates": [99.825286, 20.3522031]}, "properties": {"id": "cr-osm-node-11122851275", "name": "Ban Pha Hee", "nameTh": null, "nameEn": "Pha Hi village", "cat": ["sights"], "province": "cr"}}, {"type": "Feature", "geometry": {"type": "Point", "coordinates": [99.8263831, 20.3511749]}, "properties": {"id": "cr-osm-node-6296854285", "name": "Ban Pha Hee", "nameTh": null, "nameEn": "Pha Hi village", "cat": ["sights"], "province": "cr"}}, {"type": "Feature", "geometry": {"type": "Point", "coordinates": [99.7337273, 19.8656781]}, "properties": {"id": "cr-osm-node-6284163599", "name": "Beautiful view with flowers around", "nameTh": null, "nameEn": "Beautiful view with flowers around", "cat": ["sights"], "province": "cr"}}, {"type": "Feature", "geometry": {"type": "Point", "coordinates": [99.8734483, 20.4431292]}, "properties": {"id": "cr-osm-node-6334555585", "name": "Big Buddha statue and viewpoint", "nameTh": null, "nameEn": "Big Buddha statue and viewpoint", "cat": ["sights"], "province": "cr"}}, {"type": "Feature", "geometry": {"type": "Point", "coordinates": [100.3343932, 19.8647342]}, "properties": {"id": "cr-osm-way-374782968", "name": "Commemorative Hall", "nameTh": null, "nameEn": "Commemorative Hall", "cat": ["sights"], "province": "cr"}}, {"type": "Feature", "geometry": {"type": "Point", "coordinates": [99.7001313, 19.9994896]}, "properties": {"id": "cr-osm-node-2227426160", "name": "Doi Bo Viewpoint", "nameTh": null, "nameEn": "Doi Bo Viewpoint", "cat": ["sights"], "province": "cr"}}, {"type": "Feature", "geometry": {"type": "Point", "coordinates": [99.575767, 19.8233877]}, "properties": {"id": "cr-osm-node-1636589942", "name": "Doi Chang Viewpoint/Camping", "nameTh": null, "nameEn": "Doi Chang Viewpoint/Camping", "cat": ["sights"], "province": "cr"}}, {"type": "Feature", "geometry": {"type": "Point", "coordinates": [99.6835466, 20.121149]}, "properties": {"id": "cr-osm-node-6154689985", "name": "Doi Doo Dao", "nameTh": null, "nameEn": "Doi Doo Dao", "cat": ["sights"], "province": "cr"}}, {"type": "Feature", "geometry": {"type": "Point", "coordinates": [99.5285347, 19.9602458]}, "properties": {"id": "cr-osm-node-3893195772", "name": "Doi Kat Phi Park", "nameTh": null, "nameEn": "Doi Kat Phi Park", "cat": ["sights"], "province": "cr"}}, {"type": "Feature", "geometry": {"type": "Point", "coordinates": [100.5188273, 19.9312823]}, "properties": {"id": "cr-osm-node-4930501827", "name": "Doi Pha Tang", "nameTh": "Doi Pha Tang", "nameEn": null, "cat": ["sights"], "province": "cr"}}, {"type": "Feature", "geometry": {"type": "Point", "coordinates": [99.8111475, 20.3354134]}, "properties": {"id": "cr-osm-node-5405019122", "name": "Doi Tung Pass", "nameTh": null, "nameEn": "Doi Tung Pass", "cat": ["sights"], "province": "cr"}}, {"type": "Feature", "geometry": {"type": "Point", "coordinates": [100.0812531, 20.3536224]}, "properties": {"id": "cr-osm-node-361391252", "name": "Golden Triangle", "nameTh": null, "nameEn": "Golden Triangle", "cat": ["sights"], "province": "cr"}}, {"type": "Feature", "geometry": {"type": "Point", "coordinates": [99.5797196, 19.8808631]}, "properties": {"id": "cr-osm-node-8191082685", "name": "Highest point of Doi Chang", "nameTh": null, "nameEn": "Highest point of Doi Chang", "cat": ["sights"], "province": "cr"}}, {"type": "Feature", "geometry": {"type": "Point", "coordinates": [99.6282874, 20.104499]}, "properties": {"id": "cr-osm-node-6154623518", "name": "Kio Sa Tai Viewpoint", "nameTh": null, "nameEn": "Kio Sa Tai Viewpoint", "cat": ["sights"], "province": "cr"}}, {"type": "Feature", "geometry": {"type": "Point", "coordinates": [99.7928804, 20.0532187]}, "properties": {"id": "cr-osm-node-8191082845", "name": "Koncho Lawas peak", "nameTh": null, "nameEn": "Koncho Lawas peak", "cat": ["sights"], "province": "cr"}}, {"type": "Feature", "geometry": {"type": "Point", "coordinates": [99.4577329, 19.0515575]}, "properties": {"id": "cr-osm-node-4539038790", "name": "Limelife", "nameTh": "Limelife", "nameEn": null, "cat": ["sights"], "province": "cr"}}, {"type": "Feature", "geometry": {"type": "Point", "coordinates": [99.8102374, 20.2894386]}, "properties": {"id": "cr-osm-node-5468324722", "name": "Mae Fah Laung Garden", "nameTh": null, "nameEn": "Mae Fah Laung Garden", "cat": ["sights"], "province": "cr"}}, {"type": "Feature", "geometry": {"type": "Point", "coordinates": [99.5373747, 19.6951148]}, "properties": {"id": "cr-osm-node-3929046245", "name": "Mae Suai Reservoir Viewpoint", "nameTh": null, "nameEn": "Mae Suai Reservoir Viewpoint", "cat": ["sights"], "province": "cr"}}, {"type": "Feature", "geometry": {"type": "Point", "coordinates": [100.4837686, 20.1805987]}, "properties": {"id": "cr-osm-node-2875806004", "name": "Mekong Viewpoint", "nameTh": "จุดชมวิวริมโขง บ้านห้วยเอียน", "nameEn": "Mekong Viewpoint", "cat": ["sights"], "province": "cr"}}, {"type": "Feature", "geometry": {"type": "Point", "coordinates": [99.6305707, 20.1655603]}, "properties": {"id": "cr-osm-node-3292273431", "name": "My Place Viewpoint", "nameTh": null, "nameEn": "My Place Viewpoint", "cat": ["sights"], "province": "cr"}}, {"type": "Feature", "geometry": {"type": "Point", "coordinates": [99.6485693, 20.1625326]}, "properties": {"id": "cr-osm-node-6112247885", "name": "Nice View", "nameTh": null, "nameEn": "Nice View", "cat": ["sights"], "province": "cr"}}, {"type": "Feature", "geometry": {"type": "Point", "coordinates": [99.569594, 20.182321]}, "properties": {"id": "cr-osm-node-6114568186", "name": "Nice view", "nameTh": null, "nameEn": "Nice view", "cat": ["sights"], "province": "cr"}}, {"type": "Feature", "geometry": {"type": "Point", "coordinates": [99.5743826, 20.1778131]}, "properties": {"id": "cr-osm-node-6114861785", "name": "Nice view", "nameTh": null, "nameEn": "Nice view", "cat": ["sights"], "province": "cr"}}, {"type": "Feature", "geometry": {"type": "Point", "coordinates": [99.6702339, 19.9429023]}, "properties": {"id": "cr-osm-node-7103997885", "name": "Nice view of Akha village", "nameTh": null, "nameEn": "Nice view of Akha village", "cat": ["sights"], "province": "cr"}}, {"type": "Feature", "geometry": {"type": "Point", "coordinates": [100.0791575, 20.2840199]}, "properties": {"id": "cr-osm-node-2326555293", "name": "Northwest Corner Fort", "nameTh": null, "nameEn": "Northwest Corner Fort", "cat": ["sights"], "province": "cr"}}, {"type": "Feature", "geometry": {"type": "Point", "coordinates": [100.3656809, 20.3492968]}, "properties": {"id": "cr-osm-node-7216538775", "name": "Paradise Road Viewpoint & Sign", "nameTh": null, "nameEn": "Paradise Road Viewpoint & Sign", "cat": ["sights"], "province": "cr"}}, {"type": "Feature", "geometry": {"type": "Point", "coordinates": [100.4972265, 19.8698799]}, "properties": {"id": "cr-osm-node-11109031705", "name": "Phu Chi Dao", "nameTh": null, "nameEn": "Phu Chi Dao", "cat": ["sights"], "province": "cr"}}, {"type": "Feature", "geometry": {"type": "Point", "coordinates": [99.6698036, 20.0372855]}, "properties": {"id": "cr-osm-node-2401369026", "name": "Princess Gardens", "nameTh": null, "nameEn": "Princess Gardens", "cat": ["sights"], "province": "cr"}}, {"type": "Feature", "geometry": {"type": "Point", "coordinates": [99.4155822, 19.8018747]}, "properties": {"id": "cr-osm-node-2772678121", "name": "Princess Project", "nameTh": null, "nameEn": "Princess Project", "cat": ["sights"], "province": "cr"}}, {"type": "Feature", "geometry": {"type": "Point", "coordinates": [99.8108974, 20.3351146]}, "properties": {"id": "cr-osm-node-7072768231", "name": "Sunset terrace", "nameTh": null, "nameEn": "Sunset terrace", "cat": ["sights"], "province": "cr"}}, {"type": "Feature", "geometry": {"type": "Point", "coordinates": [99.6618378, 20.160274]}, "properties": {"id": "cr-osm-node-7023605342", "name": "Tea 101 Plant Station Viewpoint", "nameTh": null, "nameEn": "Tea 101 Plant Station Viewpoint", "cat": ["sights"], "province": "cr"}}, {"type": "Feature", "geometry": {"type": "Point", "coordinates": [99.660109, 20.1608016]}, "properties": {"id": "cr-osm-node-7087513185", "name": "Tea plantations", "nameTh": null, "nameEn": "Tea plantations", "cat": ["sights"], "province": "cr"}}, {"type": "Feature", "geometry": {"type": "Point", "coordinates": [99.8755672, 20.3871457]}, "properties": {"id": "cr-osm-node-4805716521", "name": "Unfinished House", "nameTh": "Unfinished House", "nameEn": null, "cat": ["sights"], "province": "cr"}}, {"type": "Feature", "geometry": {"type": "Point", "coordinates": [99.6147094, 20.1549359]}, "properties": {"id": "cr-osm-node-6150676193", "name": "Valley Viewpoint & Akha Village", "nameTh": null, "nameEn": "Valley Viewpoint & Akha Village", "cat": ["sights"], "province": "cr"}}, {"type": "Feature", "geometry": {"type": "Point", "coordinates": [100.5159361, 19.9357312]}, "properties": {"id": "cr-osm-node-5580102122", "name": "Viewpoint", "nameTh": null, "nameEn": "Viewpoint", "cat": ["sights"], "province": "cr"}}, {"type": "Feature", "geometry": {"type": "Point", "coordinates": [100.5163587, 19.9321351]}, "properties": {"id": "cr-osm-node-5580103021", "name": "Viewpoint", "nameTh": null, "nameEn": "Viewpoint", "cat": ["sights"], "province": "cr"}}, {"type": "Feature", "geometry": {"type": "Point", "coordinates": [100.3395242, 19.8679105]}, "properties": {"id": "cr-osm-way-555866978", "name": "Viewpoint & Plaza", "nameTh": "จุดชมวิวและร้านขายของที่ระลึกริมสระภูหลงถัง", "nameEn": "Viewpoint & Plaza", "cat": ["sights"], "province": "cr"}}, {"type": "Feature", "geometry": {"type": "Point", "coordinates": [99.6154198, 20.1533113]}, "properties": {"id": "cr-osm-node-6150676192", "name": "Viewpoint Tea Terraces & Mae Salong", "nameTh": null, "nameEn": "Viewpoint Tea Terraces & Mae Salong", "cat": ["sights"], "province": "cr"}}, {"type": "Feature", "geometry": {"type": "Point", "coordinates": [99.5868684, 20.1526434]}, "properties": {"id": "cr-osm-node-6110274387", "name": "Village panorama", "nameTh": null, "nameEn": "Village panorama", "cat": ["sights"], "province": "cr"}}, {"type": "Feature", "geometry": {"type": "Point", "coordinates": [100.0882814, 20.2736479]}, "properties": {"id": "cr-osm-node-2326557478", "name": "Wat Ku Kham", "nameTh": null, "nameEn": "Wat Ku Kham", "cat": ["sights"], "province": "cr"}}, {"type": "Feature", "geometry": {"type": "Point", "coordinates": [100.0770421, 20.2740817]}, "properties": {"id": "cr-osm-way-1380457904", "name": "Wat Pa Sak", "nameTh": null, "nameEn": "Wat Pa Sak", "cat": ["sights"], "province": "cr"}}, {"type": "Feature", "geometry": {"type": "Point", "coordinates": [99.88592, 20.43912]}, "properties": {"id": "cr-osm-node-3540575893", "name": "Wat Phu Sukaram", "nameTh": null, "nameEn": "Wat Phu Sukaram", "cat": ["sights"], "province": "cr"}}, {"type": "Feature", "geometry": {"type": "Point", "coordinates": [99.4502583, 19.7778788]}, "properties": {"id": "cr-osm-node-2700594095", "name": "Waterfall", "nameTh": null, "nameEn": "Waterfall", "cat": ["sights"], "province": "cr"}}, {"type": "Feature", "geometry": {"type": "Point", "coordinates": [99.4870474, 19.8267862]}, "properties": {"id": "cr-osm-node-2700594191", "name": "Waterfall", "nameTh": null, "nameEn": "Waterfall", "cat": ["sights"], "province": "cr"}}, {"type": "Feature", "geometry": {"type": "Point", "coordinates": [99.7536204, 20.0329792]}, "properties": {"id": "cr-osm-node-3357655423", "name": "Waterfall", "nameTh": null, "nameEn": "Waterfall", "cat": ["sights"], "province": "cr"}}, {"type": "Feature", "geometry": {"type": "Point", "coordinates": [99.5346448, 19.7419375]}, "properties": {"id": "cr-osm-node-9553296366", "name": "Wawi-Aussichtspunkt", "nameTh": null, "nameEn": "Wawi-Aussichtspunkt", "cat": ["sights"], "province": "cr"}}, {"type": "Feature", "geometry": {"type": "Point", "coordinates": [100.0288147, 20.0760852]}, "properties": {"id": "cr-osm-node-11556335081", "name": "Weed leaf", "nameTh": null, "nameEn": "Weed leaf", "cat": ["sights"], "province": "cr"}}, {"type": "Feature", "geometry": {"type": "Point", "coordinates": [100.43484, 19.8066062]}, "properties": {"id": "cr-osm-node-6175994885", "name": "sunset", "nameTh": null, "nameEn": "sunset", "cat": ["sights"], "province": "cr"}}, {"type": "Feature", "geometry": {"type": "Point", "coordinates": [99.6388014, 20.1751443]}, "properties": {"id": "cr-osm-node-6187134085", "name": "view on the valley and tea plantation", "nameTh": null, "nameEn": "view on the valley and tea plantation", "cat": ["sights"], "province": "cr"}}, {"type": "Feature", "geometry": {"type": "Point", "coordinates": [99.7500024, 20.1110604]}, "properties": {"id": "cr-osm-node-2148604082", "name": "จุดชมวิว", "nameTh": "จุดชมวิว", "nameEn": null, "cat": ["sights"], "province": "cr"}}, {"type": "Feature", "geometry": {"type": "Point", "coordinates": [99.5386097, 19.7426596]}, "properties": {"id": "cr-osm-node-4411102607", "name": "จุดชมวิว กม. 5 + 475", "nameTh": "จุดชมวิว กม. 5 + 475", "nameEn": "Viewpoint KM. 5+475", "cat": ["sights"], "province": "cr"}}, {"type": "Feature", "geometry": {"type": "Point", "coordinates": [99.816742, 20.3071576]}, "properties": {"id": "cr-osm-node-3761459720", "name": "จุดชมวิว กม.14", "nameTh": "จุดชมวิว กม.14", "nameEn": "14km Viewpoint", "cat": ["sights"], "province": "cr"}}, {"type": "Feature", "geometry": {"type": "Point", "coordinates": [99.8598611, 20.1269504]}, "properties": {"id": "cr-osm-node-2142152302", "name": "จุดชมวิวดอยนางนอน แม่จัน", "nameTh": "จุดชมวิวดอยนางนอน แม่จัน", "nameEn": null, "cat": ["sights"], "province": "cr"}}, {"type": "Feature", "geometry": {"type": "Point", "coordinates": [99.8442011, 20.1248932]}, "properties": {"id": "cr-osm-node-2148568025", "name": "จุดชมวิวป่าไม้ชุมชน", "nameTh": "จุดชมวิวป่าไม้ชุมชน", "nameEn": null, "cat": ["sights"], "province": "cr"}}, {"type": "Feature", "geometry": {"type": "Point", "coordinates": [100.3498827, 20.3808488]}, "properties": {"id": "cr-osm-node-6405731085", "name": "จุดชมวิวผาพระ", "nameTh": "จุดชมวิวผาพระ", "nameEn": "Pa Pra View Point", "cat": ["sights"], "province": "cr"}}, {"type": "Feature", "geometry": {"type": "Point", "coordinates": [100.4354853, 19.8348614]}, "properties": {"id": "cr-osm-node-6956279285", "name": "จุดชมวิวร้าง", "nameTh": "จุดชมวิวร้าง", "nameEn": "Abandoned view point", "cat": ["sights"], "province": "cr"}}, {"type": "Feature", "geometry": {"type": "Point", "coordinates": [100.3342531, 19.864831]}, "properties": {"id": "cr-osm-node-3781562152", "name": "จุดชมวิววนอุทยานพญาพิภักดิ์", "nameTh": "จุดชมวิววนอุทยานพญาพิภักดิ์", "nameEn": "Viewpoint", "cat": ["sights"], "province": "cr"}}, {"type": "Feature", "geometry": {"type": "Point", "coordinates": [100.3659387, 20.3496565]}, "properties": {"id": "cr-osm-node-903660664", "name": "จุดชมวิวห้วยทรายมาน ที่ 1", "nameTh": "จุดชมวิวห้วยทรายมาน ที่ 1", "nameEn": "Huaisai Man Viewpoint 1st", "cat": ["sights"], "province": "cr"}}, {"type": "Feature", "geometry": {"type": "Point", "coordinates": [100.3194377, 20.3964212]}, "properties": {"id": "cr-osm-node-6405431385", "name": "จุดชมวิวห้วยทรายมาน ที่2", "nameTh": "จุดชมวิวห้วยทรายมาน ที่2", "nameEn": "Huaisai Man View Point 2rd", "cat": ["sights"], "province": "cr"}}, {"type": "Feature", "geometry": {"type": "Point", "coordinates": [100.3327762, 19.8698302]}, "properties": {"id": "cr-osm-node-6951279888", "name": "จุดชมวิวในนาข้าวดอย", "nameTh": "จุดชมวิวในนาข้าวดอย", "nameEn": "Mountain rice farm view point", "cat": ["sights"], "province": "cr"}}, {"type": "Feature", "geometry": {"type": "Point", "coordinates": [99.820536, 20.2012169]}, "properties": {"id": "cr-osm-node-3969000504", "name": "จุดชมวิวไร่ชาฉุยฟง", "nameTh": "จุดชมวิวไร่ชาฉุยฟง", "nameEn": "Chuifong tea plantation view point", "cat": ["sights"], "province": "cr"}}, {"type": "Feature", "geometry": {"type": "Point", "coordinates": [100.3230417, 19.8718178]}, "properties": {"id": "cr-osm-node-6951292886", "name": "จุดชมวิวไร่ปลูกดอกกุหลาบ", "nameTh": "จุดชมวิวไร่ปลูกดอกกุหลาบ", "nameEn": "Rose farm view point", "cat": ["sights"], "province": "cr"}}, {"type": "Feature", "geometry": {"type": "Point", "coordinates": [100.4048051, 19.7323247]}, "properties": {"id": "cr-osm-node-11212152360", "name": "ดอยชมดาว", "nameTh": "ดอยชมดาว", "nameEn": "Doi Chom Dao", "cat": ["sights"], "province": "cr"}}, {"type": "Feature", "geometry": {"type": "Point", "coordinates": [99.7703432, 20.2375109]}, "properties": {"id": "cr-osm-node-9452082819", "name": "ดอยช้วยส้าน", "nameTh": "ดอยช้วยส้าน", "nameEn": null, "cat": ["sights"], "province": "cr"}}, {"type": "Feature", "geometry": {"type": "Point", "coordinates": [99.5697951, 19.8090493]}, "properties": {"id": "cr-osm-node-12042777930", "name": "ดอยช้างเชียงราย", "nameTh": "ดอยช้างเชียงราย", "nameEn": "Doi Chang Chiang Rai", "cat": ["sights"], "province": "cr"}}, {"type": "Feature", "geometry": {"type": "Point", "coordinates": [99.8776502, 20.4428358]}, "properties": {"id": "cr-osm-node-361389801", "name": "ดอยเวา", "nameTh": "ดอยเวา", "nameEn": "Scorpion Mountain (Doi Wao)", "cat": ["sights"], "province": "cr"}}, {"type": "Feature", "geometry": {"type": "Point", "coordinates": [100.0485521, 20.26206]}, "properties": {"id": "cr-osm-node-4232920489", "name": "ทะเลสาปเชียงแสน", "nameTh": "ทะเลสาปเชียงแสน", "nameEn": null, "cat": ["sights"], "province": "cr"}}, {"type": "Feature", "geometry": {"type": "Point", "coordinates": [100.3329005, 19.8685694]}, "properties": {"id": "cr-osm-node-6951292690", "name": "ทาแยกไปจุดชมวิวเล็กๆ", "nameTh": "ทาแยกไปจุดชมวิวเล็กๆ", "nameEn": "Juction to go little view point", "cat": ["sights"], "province": "cr"}}, {"type": "Feature", "geometry": {"type": "Point", "coordinates": [99.7802563, 20.0877203]}, "properties": {"id": "cr-osm-node-2584822791", "name": "น้ำตกแม่ก้างปลา", "nameTh": "น้ำตกแม่ก้างปลา", "nameEn": "Mae Kangpla Waterfall", "cat": ["sights"], "province": "cr"}}, {"type": "Feature", "geometry": {"type": "Point", "coordinates": [99.8249206, 19.9143143]}, "properties": {"id": "cr-osm-way-971101242", "name": "บ้านจอมพลป. พิบูลสงคราม", "nameTh": "บ้านจอมพลป. พิบูลสงคราม", "nameEn": "Plaek Phibunsongkhram House", "cat": ["sights"], "province": "cr"}}, {"type": "Feature", "geometry": {"type": "Point", "coordinates": [99.4925206, 19.1535175]}, "properties": {"id": "cr-osm-node-5795776253", "name": "บ้านหนานทวน", "nameTh": "บ้านหนานทวน", "nameEn": "Tuan", "cat": ["sights"], "province": "cr"}}, {"type": "Feature", "geometry": {"type": "Point", "coordinates": [99.8291886, 19.9129359]}, "properties": {"id": "cr-osm-way-959789795", "name": "บ้านแห่งความทรงจำ", "nameTh": "บ้านแห่งความทรงจำ", "nameEn": null, "cat": ["sights"], "province": "cr"}}, {"type": "Feature", "geometry": {"type": "Point", "coordinates": [99.8234115, 19.9143207]}, "properties": {"id": "cr-osm-node-2622028405", "name": "ประตูขะด๊ำ", "nameTh": "ประตูขะด๊ำ", "nameEn": "Khatam Gate", "cat": ["sights"], "province": "cr"}}, {"type": "Feature", "geometry": {"type": "Point", "coordinates": [100.0886521, 20.2654897]}, "properties": {"id": "cr-osm-node-2326555154", "name": "ประตูดินขอ", "nameTh": "ประตูดินขอ", "nameEn": "Din Kor Gate", "cat": ["sights"], "province": "cr"}}, {"type": "Feature", "geometry": {"type": "Point", "coordinates": [100.0803316, 20.2688379]}, "properties": {"id": "cr-osm-node-2326555156", "name": "ประตูทัพม่าน", "nameTh": "ประตูทัพม่าน", "nameEn": "Thapman Gate", "cat": ["sights"], "province": "cr"}}, {"type": "Feature", "geometry": {"type": "Point", "coordinates": [100.0881655, 20.280829]}, "properties": {"id": "cr-osm-node-11436212414", "name": "ประตูท่าคราว", "nameTh": "ประตูท่าคราว", "nameEn": "Tha Krao Gate", "cat": ["sights"], "province": "cr"}}, {"type": "Feature", "geometry": {"type": "Point", "coordinates": [99.8345679, 19.9124831]}, "properties": {"id": "cr-osm-node-2622028406", "name": "ประตูท่าทราย", "nameTh": "ประตูท่าทราย", "nameEn": "Tha Sai Gate", "cat": ["sights"], "province": "cr"}}, {"type": "Feature", "geometry": {"type": "Point", "coordinates": [100.088271, 20.2844363]}, "properties": {"id": "cr-osm-node-11436212413", "name": "ประตูท่ารั้วปีก", "nameTh": "ประตูท่ารั้วปีก", "nameEn": "Tha Ruea Peek Gate", "cat": ["sights"], "province": "cr"}}, {"type": "Feature", "geometry": {"type": "Point", "coordinates": [100.088405, 20.2782006]}, "properties": {"id": "cr-osm-node-11436212415", "name": "ประตูท่าวิสุกรรม", "nameTh": "ประตูท่าวิสุกรรม", "nameEn": "Tha Wisukarma Gate", "cat": ["sights"], "province": "cr"}}, {"type": "Feature", "geometry": {"type": "Point", "coordinates": [100.0882686, 20.2742375]}, "properties": {"id": "cr-osm-node-11436212416", "name": "ประตูท่าหลวง", "nameTh": "ประตูท่าหลวง", "nameEn": "Tha Luang Gate", "cat": ["sights"], "province": "cr"}}, {"type": "Feature", "geometry": {"type": "Point", "coordinates": [100.0902291, 20.2662915]}, "properties": {"id": "cr-osm-node-11436212418", "name": "ประตูท่าอ้อย", "nameTh": "ประตูท่าอ้อย", "nameEn": "Tha Oi Gate", "cat": ["sights"], "province": "cr"}}, {"type": "Feature", "geometry": {"type": "Point", "coordinates": [100.0883501, 20.270472]}, "properties": {"id": "cr-osm-node-11436212417", "name": "ประตูท่าเสาดิน", "nameTh": "ประตูท่าเสาดิน", "nameEn": "Tha Sao Din Gate", "cat": ["sights"], "province": "cr"}}, {"type": "Feature", "geometry": {"type": "Point", "coordinates": [100.0853812, 20.28441]}, "properties": {"id": "cr-osm-node-2326555155", "name": "ประตูนางเซิ้ง", "nameTh": "ประตูนางเซิ้ง", "nameEn": "Nang Sheng Gate", "cat": ["sights"], "province": "cr"}}, {"type": "Feature", "geometry": {"type": "Point", "coordinates": [99.8266573, 19.9068611]}, "properties": {"id": "cr-osm-node-2622028407", "name": "ประตูป่าแดง", "nameTh": "ประตูป่าแดง", "nameEn": "Pa Daeng Gate", "cat": ["sights"], "province": "cr"}}, {"type": "Feature", "geometry": {"type": "Point", "coordinates": [100.0768734, 20.2769063]}, "properties": {"id": "cr-osm-node-2326555153", "name": "ประตูหนองมูต", "nameTh": "ประตูหนองมูต", "nameEn": "Nangmood Gate", "cat": ["sights"], "province": "cr"}}, {"type": "Feature", "geometry": {"type": "Point", "coordinates": [100.0783705, 20.2737904]}, "properties": {"id": "cr-osm-node-2326555296", "name": "ประตูเชียงแสน", "nameTh": "ประตูเชียงแสน", "nameEn": "Chiang Saen Gate", "cat": ["sights"], "province": "cr"}}, {"type": "Feature", "geometry": {"type": "Point", "coordinates": [99.8401041, 19.9104462]}, "properties": {"id": "cr-osm-node-2622028552", "name": "พระราชานุสาวรีย์พญามังราย", "nameTh": "พระราชานุสาวรีย์พญามังราย", "nameEn": "The King Mengrai Great Memorial", "cat": ["sights"], "province": "cr"}}, {"type": "Feature", "geometry": {"type": "Point", "coordinates": [100.0199595, 20.388662]}, "properties": {"id": "cr-osm-node-6238134289", "name": "พระใหญ่ สถานปฏิบัติธรรมดอยเวียงแก้ว", "nameTh": "พระใหญ่ สถานปฏิบัติธรรมดอยเวียงแก้ว", "nameEn": null, "cat": ["sights"], "province": "cr"}}, {"type": "Feature", "geometry": {"type": "Point", "coordinates": [100.5002243, 19.881504]}, "properties": {"id": "cr-osm-node-11113821205", "name": "ภูชี้เดือน", "nameTh": "ภูชี้เดือน", "nameEn": null, "cat": ["sights"], "province": "cr"}}, {"type": "Feature", "geometry": {"type": "Point", "coordinates": [100.5001794, 19.881488]}, "properties": {"id": "cr-osm-node-11212167145", "name": "ภูชี้เดือน", "nameTh": "ภูชี้เดือน", "nameEn": null, "cat": ["sights"], "province": "cr"}}, {"type": "Feature", "geometry": {"type": "Point", "coordinates": [100.3664528, 20.3506456]}, "properties": {"id": "cr-osm-node-13300793301", "name": "ลานจดชมวิวห้วยทรายมาน1", "nameTh": "ลานจดชมวิวห้วยทรายมาน1", "nameEn": "Houay Si Man view point", "cat": ["sights"], "province": "cr"}}, {"type": "Feature", "geometry": {"type": "Point", "coordinates": [100.1233261, 20.2415757]}, "properties": {"id": "cr-osm-node-11442436448", "name": "วัดธาตุเขียว", "nameTh": "วัดธาตุเขียว", "nameEn": "Wat That Khiao", "cat": ["sights"], "province": "cr"}}, {"type": "Feature", "geometry": {"type": "Point", "coordinates": [100.0762218, 20.2769526]}, "properties": {"id": "cr-osm-way-772845002", "name": "วัดป่าสัก", "nameTh": "วัดป่าสัก", "nameEn": "Wat Pa Sak", "cat": ["sights"], "province": "cr"}}, {"type": "Feature", "geometry": {"type": "Point", "coordinates": [100.0846499, 20.2738336]}, "properties": {"id": "cr-osm-node-2326556966", "name": "วัดพระยืน", "nameTh": "วัดพระยืน", "nameEn": "Wat Phra Yuen", "cat": ["sights"], "province": "cr"}}, {"type": "Feature", "geometry": {"type": "Point", "coordinates": [100.0839962, 20.2738929]}, "properties": {"id": "cr-osm-node-2326556967", "name": "วัดพระเจ้าทองน้อย", "nameTh": "วัดพระเจ้าทองน้อย", "nameEn": "Wat Phra Chao Thong Noi", "cat": ["sights"], "province": "cr"}}, {"type": "Feature", "geometry": {"type": "Point", "coordinates": [100.0822309, 20.2742556]}, "properties": {"id": "cr-osm-node-2326555960", "name": "วัดมุงเมือง", "nameTh": "วัดมุงเมือง", "nameEn": "Mung Mang Temple Ruin", "cat": ["sights", "wat"], "province": "cr"}}, {"type": "Feature", "geometry": {"type": "Point", "coordinates": [100.0777841, 20.2775239]}, "properties": {"id": "cr-osm-node-2326559348", "name": "วัดอ้อมแก้ว", "nameTh": "วัดอ้อมแก้ว", "nameEn": "Wat Aom Kaew", "cat": ["sights"], "province": "cr"}}, {"type": "Feature", "geometry": {"type": "Point", "coordinates": [100.0855619, 20.2744561]}, "properties": {"id": "cr-osm-node-2326556968", "name": "วัดเชตวัน", "nameTh": "วัดเชตวัน", "nameEn": "Wat Chetawan", "cat": ["sights"], "province": "cr"}}, {"type": "Feature", "geometry": {"type": "Point", "coordinates": [99.7543003, 19.9350352]}, "properties": {"id": "cr-osm-node-4561505498", "name": "สถานี บ้านดอยฮาง", "nameTh": "สถานี บ้านดอยฮาง", "nameEn": null, "cat": ["sights"], "province": "cr"}}, {"type": "Feature", "geometry": {"type": "Point", "coordinates": [100.0827443, 20.3512149]}, "properties": {"id": "cr-osm-node-4359090389", "name": "สามเหลี่ยมทองคำ", "nameTh": "สามเหลี่ยมทองคำ", "nameEn": "Golden Triangle", "cat": ["sights"], "province": "cr"}}, {"type": "Feature", "geometry": {"type": "Point", "coordinates": [99.6209787, 20.1638259]}, "properties": {"id": "cr-osm-node-361384368", "name": "สุสานนายพลต้วน", "nameTh": "สุสานนายพลต้วน", "nameEn": "Tomb of General Tuan", "cat": ["sights"], "province": "cr"}}, {"type": "Feature", "geometry": {"type": "Point", "coordinates": [99.8309886, 19.9071628]}, "properties": {"id": "cr-osm-way-487637817", "name": "หอนาฬิกา", "nameTh": "หอนาฬิกา", "nameEn": "Clock Tower", "cat": ["sights"], "province": "cr"}}, {"type": "Feature", "geometry": {"type": "Point", "coordinates": [99.8306042, 19.910257]}, "properties": {"id": "cr-osm-node-5384728145", "name": "หอนาฬิกาเก่า", "nameTh": "หอนาฬิกาเก่า", "nameEn": "Old clock tower", "cat": ["sights"], "province": "cr"}}, {"type": "Feature", "geometry": {"type": "Point", "coordinates": [99.8678919, 20.3810106]}, "properties": {"id": "cr-osm-node-13511837043", "name": "อนุสาวรีย์นาวาตรี สมาน กุนัน (จ่าแซม)", "nameTh": "อนุสาวรีย์นาวาตรี สมาน กุนัน (จ่าแซม)", "nameEn": "Saman Kunan Memorial", "cat": ["sights"], "province": "cr"}}, {"type": "Feature", "geometry": {"type": "Point", "coordinates": [99.8309906, 19.9064399]}, "properties": {"id": "cr-osm-way-484142132", "name": "เจดีย์โบราณ", "nameTh": "เจดีย์โบราณ", "nameEn": "Ancient Pagoda", "cat": ["sights"], "province": "cr"}}, {"type": "Feature", "geometry": {"type": "Point", "coordinates": [99.8227206, 19.9150356]}, "properties": {"id": "cr-osm-node-2622028414", "name": "เสาสะดือเมืองเชียงราย", "nameTh": "เสาสะดือเมืองเชียงราย", "nameEn": "The Navel City Pillar of Chiang Rai", "cat": ["sights"], "province": "cr"}}, {"type": "Feature", "geometry": {"type": "Point", "coordinates": [100.1206646, 20.2452921]}, "properties": {"id": "cr-osm-node-11442436441", "name": "เสาหลัก", "nameTh": "เสาหลัก", "nameEn": null, "cat": ["sights"], "province": "cr"}}, {"type": "Feature", "geometry": {"type": "Point", "coordinates": [99.8108036, 20.3379546]}, "properties": {"id": "cr-osm-node-3771643920", "name": "แนวเขตชายแดน ไทย-เมียนมา", "nameTh": "แนวเขตชายแดน ไทย-เมียนมา", "nameEn": "Border of Thailand and Myanmar", "cat": ["sights"], "province": "cr"}}, {"type": "Feature", "geometry": {"type": "Point", "coordinates": [100.1213111, 20.2437575]}, "properties": {"id": "cr-osm-node-11442436439", "name": "โบราณสถานหมายเลข 21", "nameTh": "โบราณสถานหมายเลข 21", "nameEn": "Ancient Monument No.21", "cat": ["sights"], "province": "cr"}}, {"type": "Feature", "geometry": {"type": "Point", "coordinates": [99.8761709, 19.7633124]}, "properties": {"id": "cr-osm-node-4526581196", "name": "ไร่เชิญตะวัน", "nameTh": "ไร่เชิญตะวัน", "nameEn": null, "cat": ["sights"], "province": "cr"}}]}