{"type": "FeatureCollection", "features": [{"type": "Feature", "geometry": {"type": "Point", "coordinates": [99.7073, 20.17985]}, "properties": {"id": "cr-obec-1057120609", "name": "โรงเรียนชุมชนศึกษา(บ้านแม่สะแลป)", "nameTh": "โรงเรียนชุมชนศึกษา(บ้านแม่สะแลป)", "nameEn": null, "cat": ["school"], "province": "cr", "slug": "1057120609", "rank": 2}}, {"type": "Feature", "geometry": {"type": "Point", "coordinates": [99.43376, 19.39869]}, "properties": {"id": "cr-obec-1057120479", "name": "โรงเรียนดอยเวียงผาพิทยา", "nameTh": "โรงเรียนดอยเวียงผาพิทยา", "nameEn": null, "cat": ["school"], "province": "cr", "slug": "1057120479", "rank": 3}}, {"type": "Feature", "geometry": {"type": "Point", "coordinates": [99.51169, 19.89925]}, "properties": {"id": "cr-obec-1057120431", "name": "โรงเรียนดอยเวียงวิทยา", "nameTh": "โรงเรียนดอยเวียงวิทยา", "nameEn": null, "cat": ["school"], "province": "cr", "slug": "1057120431", "rank": 3}}, {"type": "Feature", "geometry": {"type": "Point", "coordinates": [99.75919, 20.20745]}, "properties": {"id": "cr-obec-1057120611", "name": "โรงเรียนดอยแสนใจ(ตชด.อนุสรณ์)", "nameTh": "โรงเรียนดอยแสนใจ(ตชด.อนุสรณ์)", "nameEn": null, "cat": ["school"], "province": "cr", "slug": "1057120611", "rank": 3}}, {"type": "Feature", "geometry": {"type": "Point", "coordinates": [99.56331, 20.29381]}, "properties": {"id": "cr-obec-1057120737", "name": "โรงเรียนตำรวจตระเวนชายแดน บ้านนาโต่ (วปรอ.344 อุปถัมภ์)", "nameTh": "โรงเรียนตำรวจตระเวนชายแดน บ้านนาโต่ (วปรอ.344 อุปถัมภ์)", "nameEn": null, "cat": ["school"], "province": "cr", "slug": "344-1057120737", "rank": 3}}, {"type": "Feature", "geometry": {"type": "Point", "coordinates": [99.73944, 20.26349]}, "properties": {"id": "cr-obec-1057120739", "name": "โรงเรียนตำรวจตระเวนชายแดนศรีสมวงศ์", "nameTh": "โรงเรียนตำรวจตระเวนชายแดนศรีสมวงศ์", "nameEn": null, "cat": ["school"], "province": "cr", "slug": "1057120739", "rank": 3}}, {"type": "Feature", "geometry": {"type": "Point", "coordinates": [99.64863, 20.25016]}, "properties": {"id": "cr-obec-1057120738", "name": "โรงเรียนตำรวจตะเวนชายแดน เจ้าพ่อหลวงอุปถัมภ์ 3 (ช่างกลปทุมวันอนุสรณ์ 4)", "nameTh": "โรงเรียนตำรวจตะเวนชายแดน เจ้าพ่อหลวงอุปถัมภ์ 3 (ช่างกลปทุมวันอนุสรณ์ 4)", "nameEn": null, "cat": ["school"], "province": "cr", "slug": "3-4-1057120738", "rank": 3}}, {"type": "Feature", "geometry": {"type": "Point", "coordinates": [99.67718, 20.24969]}, "properties": {"id": "cr-obec-1057120740", "name": "โรงเรียนตำรวจตะเวนชายแดนบำรุงที่ 87", "nameTh": "โรงเรียนตำรวจตะเวนชายแดนบำรุงที่ 87", "nameEn": null, "cat": ["school"], "province": "cr", "slug": "87-1057120740", "rank": 3}}, {"type": "Feature", "geometry": {"type": "Point", "coordinates": [100.51253, 19.93678]}, "properties": {"id": "cr-obec-1057120587", "name": "โรงเรียนบรรพตวิทยา", "nameTh": "โรงเรียนบรรพตวิทยา", "nameEn": null, "cat": ["school"], "province": "cr", "slug": "1057120587", "rank": 3}}, {"type": "Feature", "geometry": {"type": "Point", "coordinates": [99.58994, 19.99268]}, "properties": {"id": "cr-obec-1057120693", "name": "โรงเรียนบ้านกกน้อยวิทยา", "nameTh": "โรงเรียนบ้านกกน้อยวิทยา", "nameEn": null, "cat": ["school"], "province": "cr", "slug": "1057120693", "rank": 3}}, {"type": "Feature", "geometry": {"type": "Point", "coordinates": [99.65615, 20.15665]}, "properties": {"id": "cr-obec-1057120614", "name": "โรงเรียนบ้านกลาง", "nameTh": "โรงเรียนบ้านกลาง", "nameEn": null, "cat": ["school"], "province": "cr", "slug": "1057120614", "rank": 3}}, {"type": "Feature", "geometry": {"type": "Point", "coordinates": [99.8022, 20.27398]}, "properties": {"id": "cr-obec-1057120593", "name": "โรงเรียนบ้านขาแหย่งพัฒนา", "nameTh": "โรงเรียนบ้านขาแหย่งพัฒนา", "nameEn": null, "cat": ["school"], "province": "cr", "slug": "1057120593", "rank": 3}}, {"type": "Feature", "geometry": {"type": "Point", "coordinates": [99.37134, 19.08944]}, "properties": {"id": "cr-obec-1057120505", "name": "โรงเรียนบ้านขุนลาว", "nameTh": "โรงเรียนบ้านขุนลาว", "nameEn": null, "cat": ["school"], "province": "cr", "slug": "1057120505", "rank": 2}}, {"type": "Feature", "geometry": {"type": "Point", "coordinates": [99.45775, 19.87773]}, "properties": {"id": "cr-obec-1057120424", "name": "โรงเรียนบ้านขุนสรวย", "nameTh": "โรงเรียนบ้านขุนสรวย", "nameEn": null, "cat": ["school"], "province": "cr", "slug": "1057120424", "rank": 3}}, {"type": "Feature", "geometry": {"type": "Point", "coordinates": [100.29303, 19.72141]}, "properties": {"id": "cr-obec-1057120198", "name": "โรงเรียนบ้านขุนห้วยไคร้", "nameTh": "โรงเรียนบ้านขุนห้วยไคร้", "nameEn": null, "cat": ["school"], "province": "cr", "slug": "1057120198", "rank": 3}}, {"type": "Feature", "geometry": {"type": "Point", "coordinates": [99.53531, 20.03266]}, "properties": {"id": "cr-obec-1057120011", "name": "โรงเรียนบ้านจะคือ", "nameTh": "โรงเรียนบ้านจะคือ", "nameEn": null, "cat": ["school"], "province": "cr", "slug": "1057120011", "rank": 3}}, {"type": "Feature", "geometry": {"type": "Point", "coordinates": [99.70768, 20.29222]}, "properties": {"id": "cr-obec-1057120599", "name": "โรงเรียนบ้านจะตี", "nameTh": "โรงเรียนบ้านจะตี", "nameEn": null, "cat": ["school"], "province": "cr", "slug": "1057120599", "rank": 3}}, {"type": "Feature", "geometry": {"type": "Point", "coordinates": [99.55592, 19.81965]}, "properties": {"id": "cr-obec-1057120422", "name": "โรงเรียนบ้านดอยช้าง", "nameTh": "โรงเรียนบ้านดอยช้าง", "nameEn": null, "cat": ["school"], "province": "cr", "slug": "1057120422", "rank": 3}}, {"type": "Feature", "geometry": {"type": "Point", "coordinates": [100.03259, 20.34793]}, "properties": {"id": "cr-obec-1057120143", "name": "โรงเรียนบ้านดอยสะโง๊ะ", "nameTh": "โรงเรียนบ้านดอยสะโง๊ะ", "nameEn": null, "cat": ["school"], "province": "cr", "slug": "1057120143", "rank": 3}}, {"type": "Feature", "geometry": {"type": "Point", "coordinates": [100.45173, 19.95996]}, "properties": {"id": "cr-obec-1057120588", "name": "โรงเรียนบ้านทรายทอง", "nameTh": "โรงเรียนบ้านทรายทอง", "nameEn": null, "cat": ["school"], "province": "cr", "slug": "1057120588", "rank": 3}}, {"type": "Feature", "geometry": {"type": "Point", "coordinates": [99.49927, 19.75545]}, "properties": {"id": "cr-obec-1057120420", "name": "โรงเรียนบ้านทุ่งพร้าว (เพ็คกี้ฮิทค็อก)", "nameTh": "โรงเรียนบ้านทุ่งพร้าว (เพ็คกี้ฮิทค็อก)", "nameEn": null, "cat": ["school"], "province": "cr", "slug": "1057120420", "rank": 3}}, {"type": "Feature", "geometry": {"type": "Point", "coordinates": [100.48952, 20.03448]}, "properties": {"id": "cr-obec-1057120579", "name": "โรงเรียนบ้านท่าข้าม", "nameTh": "โรงเรียนบ้านท่าข้าม", "nameEn": null, "cat": ["school"], "province": "cr", "slug": "1057120579", "rank": 3}}, {"type": "Feature", "geometry": {"type": "Point", "coordinates": [99.51514, 19.96283]}, "properties": {"id": "cr-obec-1057120418", "name": "โรงเรียนบ้านปางกิ่ว(ศุภสิทธิ์มหาคุณ)", "nameTh": "โรงเรียนบ้านปางกิ่ว(ศุภสิทธิ์มหาคุณ)", "nameEn": null, "cat": ["school"], "province": "cr", "slug": "1057120418", "rank": 3}}, {"type": "Feature", "geometry": {"type": "Point", "coordinates": [99.618, 19.89859]}, "properties": {"id": "cr-obec-1057120009", "name": "โรงเรียนบ้านปางขอน", "nameTh": "โรงเรียนบ้านปางขอน", "nameEn": null, "cat": ["school"], "province": "cr", "slug": "1057120009", "rank": 3}}, {"type": "Feature", "geometry": {"type": "Point", "coordinates": [99.58136, 19.45454]}, "properties": {"id": "cr-obec-1057120478", "name": "โรงเรียนบ้านปางมะขามป้อม", "nameTh": "โรงเรียนบ้านปางมะขามป้อม", "nameEn": null, "cat": ["school"], "province": "cr", "slug": "1057120478", "rank": 2}}, {"type": "Feature", "geometry": {"type": "Point", "coordinates": [99.54582, 20.32607]}, "properties": {"id": "cr-obec-1057120602", "name": "โรงเรียนบ้านปางมะหัน", "nameTh": "โรงเรียนบ้านปางมะหัน", "nameEn": null, "cat": ["school"], "province": "cr", "slug": "1057120602", "rank": 3}}, {"type": "Feature", "geometry": {"type": "Point", "coordinates": [99.70309, 20.10704]}, "properties": {"id": "cr-obec-1057120330", "name": "โรงเรียนบ้านปางสา", "nameTh": "โรงเรียนบ้านปางสา", "nameEn": null, "cat": ["school"], "province": "cr", "slug": "1057120330", "rank": 2}}, {"type": "Feature", "geometry": {"type": "Point", "coordinates": [99.55849, 19.49649]}, "properties": {"id": "cr-obec-1057120412", "name": "โรงเรียนบ้านปางหก", "nameTh": "โรงเรียนบ้านปางหก", "nameEn": null, "cat": ["school"], "province": "cr", "slug": "1057120412", "rank": 3}}, {"type": "Feature", "geometry": {"type": "Point", "coordinates": [99.58957, 19.48821]}, "properties": {"id": "cr-obec-1057120411", "name": "โรงเรียนบ้านปางหลวง", "nameTh": "โรงเรียนบ้านปางหลวง", "nameEn": null, "cat": ["school"], "province": "cr", "slug": "1057120411", "rank": 3}}, {"type": "Feature", "geometry": {"type": "Point", "coordinates": [99.73279, 20.33313]}, "properties": {"id": "cr-obec-1057120594", "name": "โรงเรียนบ้านป่าซางนาเงิน", "nameTh": "โรงเรียนบ้านป่าซางนาเงิน", "nameEn": null, "cat": ["school"], "province": "cr", "slug": "1057120594", "rank": 3}}, {"type": "Feature", "geometry": {"type": "Point", "coordinates": [99.40885, 19.30908]}, "properties": {"id": "cr-obec-1057120492", "name": "โรงเรียนบ้านป่าตึง", "nameTh": "โรงเรียนบ้านป่าตึง", "nameEn": null, "cat": ["school"], "province": "cr", "slug": "1057120492", "rank": 3}}, {"type": "Feature", "geometry": {"type": "Point", "coordinates": [99.61401, 19.59846]}, "properties": {"id": "cr-obec-1057120387", "name": "โรงเรียนบ้านป่าเมี่ยงแม่พริก", "nameTh": "โรงเรียนบ้านป่าเมี่ยงแม่พริก", "nameEn": null, "cat": ["school"], "province": "cr", "slug": "1057120387", "rank": 3}}, {"type": "Feature", "geometry": {"type": "Point", "coordinates": [100.28128, 20.19573]}, "properties": {"id": "cr-obec-1057120152", "name": "โรงเรียนบ้านป่าไร่หลวงวิทยา(ตชด.ช่างกลปทุมวันอนุสรณ์ 9)", "nameTh": "โรงเรียนบ้านป่าไร่หลวงวิทยา(ตชด.ช่างกลปทุมวันอนุสรณ์ 9)", "nameEn": null, "cat": ["school"], "province": "cr", "slug": "9-1057120152", "rank": 3}}, {"type": "Feature", "geometry": {"type": "Point", "coordinates": [99.65973, 20.3002]}, "properties": {"id": "cr-obec-1057120606", "name": "โรงเรียนบ้านผาจี", "nameTh": "โรงเรียนบ้านผาจี", "nameEn": null, "cat": ["school"], "province": "cr", "slug": "1057120606", "rank": 3}}, {"type": "Feature", "geometry": {"type": "Point", "coordinates": [99.56894, 19.93345]}, "properties": {"id": "cr-obec-1057120010", "name": "โรงเรียนบ้านผาลั้ง", "nameTh": "โรงเรียนบ้านผาลั้ง", "nameEn": null, "cat": ["school"], "province": "cr", "slug": "1057120010", "rank": 3}}, {"type": "Feature", "geometry": {"type": "Point", "coordinates": [99.813, 20.34242]}, "properties": {"id": "cr-obec-1057120469", "name": "โรงเรียนบ้านผาฮี้", "nameTh": "โรงเรียนบ้านผาฮี้", "nameEn": null, "cat": ["school"], "province": "cr", "slug": "1057120469", "rank": 3}}, {"type": "Feature", "geometry": {"type": "Point", "coordinates": [99.74358, 20.17143]}, "properties": {"id": "cr-obec-1057120610", "name": "โรงเรียนบ้านผาเดื่อ", "nameTh": "โรงเรียนบ้านผาเดื่อ", "nameEn": null, "cat": ["school"], "province": "cr", "slug": "1057120610", "rank": 3}}, {"type": "Feature", "geometry": {"type": "Point", "coordinates": [99.54134, 19.87071]}, "properties": {"id": "cr-obec-1057120430", "name": "โรงเรียนบ้านผาแดงหลวง", "nameTh": "โรงเรียนบ้านผาแดงหลวง", "nameEn": null, "cat": ["school"], "province": "cr", "slug": "1057120430", "rank": 2}}, {"type": "Feature", "geometry": {"type": "Point", "coordinates": [100.45656, 19.91648]}, "properties": {"id": "cr-obec-1057120581", "name": "โรงเรียนบ้านผาแล", "nameTh": "โรงเรียนบ้านผาแล", "nameEn": null, "cat": ["school"], "province": "cr", "slug": "1057120581", "rank": 3}}, {"type": "Feature", "geometry": {"type": "Point", "coordinates": [100.33663, 19.86855]}, "properties": {"id": "cr-obec-1057120630", "name": "โรงเรียนบ้านพญาพิภักดิ์", "nameTh": "โรงเรียนบ้านพญาพิภักดิ์", "nameEn": null, "cat": ["school"], "province": "cr", "slug": "1057120630", "rank": 2}}, {"type": "Feature", "geometry": {"type": "Point", "coordinates": [99.61925, 20.3217]}, "properties": {"id": "cr-obec-1057120596", "name": "โรงเรียนบ้านพญาไพร", "nameTh": "โรงเรียนบ้านพญาไพร", "nameEn": null, "cat": ["school"], "province": "cr", "slug": "1057120596", "rank": 3}}, {"type": "Feature", "geometry": {"type": "Point", "coordinates": [99.61726, 20.14416]}, "properties": {"id": "cr-obec-1057120615", "name": "โรงเรียนบ้านพนาสวรรค์", "nameTh": "โรงเรียนบ้านพนาสวรรค์", "nameEn": null, "cat": ["school"], "province": "cr", "slug": "1057120615", "rank": 3}}, {"type": "Feature", "geometry": {"type": "Point", "coordinates": [99.69519, 20.22855]}, "properties": {"id": "cr-obec-1057120608", "name": "โรงเรียนบ้านมนตรีวิทยา", "nameTh": "โรงเรียนบ้านมนตรีวิทยา", "nameEn": null, "cat": ["school"], "province": "cr", "slug": "1057120608", "rank": 3}}, {"type": "Feature", "geometry": {"type": "Point", "coordinates": [99.46156, 19.93962]}, "properties": {"id": "cr-obec-1057120415", "name": "โรงเรียนบ้านมังกาล่า", "nameTh": "โรงเรียนบ้านมังกาล่า", "nameEn": null, "cat": ["school"], "province": "cr", "slug": "1057120415", "rank": 3}}, {"type": "Feature", "geometry": {"type": "Point", "coordinates": [99.86918, 19.96427]}, "properties": {"id": "cr-obec-1057120045", "name": "โรงเรียนบ้านรวมมิตรสาขาห้องเรียนบ้านจะต๋อเบอ", "nameTh": "โรงเรียนบ้านรวมมิตรสาขาห้องเรียนบ้านจะต๋อเบอ", "nameEn": null, "cat": ["school"], "province": "cr", "slug": "1057120045", "rank": 3}}, {"type": "Feature", "geometry": {"type": "Point", "coordinates": [99.59614, 20.11868]}, "properties": {"id": "cr-obec-1057120332", "name": "โรงเรียนบ้านรวมใจ", "nameTh": "โรงเรียนบ้านรวมใจ", "nameEn": null, "cat": ["school"], "province": "cr", "slug": "1057120332", "rank": 3}}, {"type": "Feature", "geometry": {"type": "Point", "coordinates": [100.3662, 19.82322]}, "properties": {"id": "cr-obec-1057120208", "name": "โรงเรียนบ้านรักแผ่นดิน", "nameTh": "โรงเรียนบ้านรักแผ่นดิน", "nameEn": null, "cat": ["school"], "province": "cr", "slug": "1057120208", "rank": 3}}, {"type": "Feature", "geometry": {"type": "Point", "coordinates": [100.4005, 19.86568]}, "properties": {"id": "cr-obec-1057120210", "name": "โรงเรียนบ้านราษฎร์ภักดี", "nameTh": "โรงเรียนบ้านราษฎร์ภักดี", "nameEn": null, "cat": ["school"], "province": "cr", "slug": "1057120210", "rank": 3}}, {"type": "Feature", "geometry": {"type": "Point", "coordinates": [99.48689, 19.93253]}, "properties": {"id": "cr-obec-1057120414", "name": "โรงเรียนบ้านวาวี", "nameTh": "โรงเรียนบ้านวาวี", "nameEn": null, "cat": ["school"], "province": "cr", "slug": "1057120414", "rank": 3}}, {"type": "Feature", "geometry": {"type": "Point", "coordinates": [100.30944, 20.37798]}, "properties": {"id": "cr-obec-1057120098", "name": "โรงเรียนบ้านสองพี่น้อง", "nameTh": "โรงเรียนบ้านสองพี่น้อง", "nameEn": null, "cat": ["school"], "province": "cr", "slug": "1057120098", "rank": 3}}, {"type": "Feature", "geometry": {"type": "Point", "coordinates": [99.62453, 20.15809]}, "properties": {"id": "cr-obec-1057120612", "name": "โรงเรียนบ้านสันติคีรี", "nameTh": "โรงเรียนบ้านสันติคีรี", "nameEn": null, "cat": ["school"], "province": "cr", "slug": "1057120612", "rank": 3}}, {"type": "Feature", "geometry": {"type": "Point", "coordinates": [99.58741, 20.10291]}, "properties": {"id": "cr-obec-1057120331", "name": "โรงเรียนบ้านสันติสุข", "nameTh": "โรงเรียนบ้านสันติสุข", "nameEn": null, "cat": ["school"], "province": "cr", "slug": "1057120331", "rank": 3}}, {"type": "Feature", "geometry": {"type": "Point", "coordinates": [99.61875, 19.70915]}, "properties": {"id": "cr-obec-1057120379", "name": "โรงเรียนบ้านหนองผำ", "nameTh": "โรงเรียนบ้านหนองผำ", "nameEn": null, "cat": ["school"], "province": "cr", "slug": "1057120379", "rank": 3}}, {"type": "Feature", "geometry": {"type": "Point", "coordinates": [100.4186, 19.90396]}, "properties": {"id": "cr-obec-1057120589", "name": "โรงเรียนบ้านหนองเตา", "nameTh": "โรงเรียนบ้านหนองเตา", "nameEn": null, "cat": ["school"], "province": "cr", "slug": "1057120589", "rank": 3}}, {"type": "Feature", "geometry": {"type": "Point", "coordinates": [99.52995, 19.84766]}, "properties": {"id": "cr-obec-1057120429", "name": "โรงเรียนบ้านห้วยกล้า", "nameTh": "โรงเรียนบ้านห้วยกล้า", "nameEn": null, "cat": ["school"], "province": "cr", "slug": "1057120429", "rank": 3}}, {"type": "Feature", "geometry": {"type": "Point", "coordinates": [99.51805, 19.78022]}, "properties": {"id": "cr-obec-1057120425", "name": "โรงเรียนบ้านห้วยขี้เหล็ก", "nameTh": "โรงเรียนบ้านห้วยขี้เหล็ก", "nameEn": null, "cat": ["school"], "province": "cr", "slug": "1057120425", "rank": 3}}, {"type": "Feature", "geometry": {"type": "Point", "coordinates": [100.44118, 19.86717]}, "properties": {"id": "cr-obec-1057120584", "name": "โรงเรียนบ้านห้วยคุ", "nameTh": "โรงเรียนบ้านห้วยคุ", "nameEn": null, "cat": ["school"], "province": "cr", "slug": "1057120584", "rank": 3}}, {"type": "Feature", "geometry": {"type": "Point", "coordinates": [99.51362, 19.96891]}, "properties": {"id": "cr-obec-1057120005", "name": "โรงเรียนบ้านห้วยชมภู", "nameTh": "โรงเรียนบ้านห้วยชมภู", "nameEn": null, "cat": ["school"], "province": "cr", "slug": "1057120005", "rank": 3}}, {"type": "Feature", "geometry": {"type": "Point", "coordinates": [99.50449, 19.83936]}, "properties": {"id": "cr-obec-1057120427", "name": "โรงเรียนบ้านห้วยน้ำเย็น", "nameTh": "โรงเรียนบ้านห้วยน้ำเย็น", "nameEn": null, "cat": ["school"], "province": "cr", "slug": "1057120427", "rank": 3}}, {"type": "Feature", "geometry": {"type": "Point", "coordinates": [99.67421, 20.23119]}, "properties": {"id": "cr-obec-1057120607", "name": "โรงเรียนบ้านห้วยผึ้ง", "nameTh": "โรงเรียนบ้านห้วยผึ้ง", "nameEn": null, "cat": ["school"], "province": "cr", "slug": "1057120607", "rank": 3}}, {"type": "Feature", "geometry": {"type": "Point", "coordinates": [99.49951, 19.7743]}, "properties": {"id": "cr-obec-1057120423", "name": "โรงเรียนบ้านห้วยมะซาง", "nameTh": "โรงเรียนบ้านห้วยมะซาง", "nameEn": null, "cat": ["school"], "province": "cr", "slug": "1057120423", "rank": 3}}, {"type": "Feature", "geometry": {"type": "Point", "coordinates": [99.41828, 19.64688]}, "properties": {"id": "cr-obec-1057120394", "name": "โรงเรียนบ้านห้วยมะแกง", "nameTh": "โรงเรียนบ้านห้วยมะแกง", "nameEn": null, "cat": ["school"], "province": "cr", "slug": "1057120394", "rank": 3}}, {"type": "Feature", "geometry": {"type": "Point", "coordinates": [99.45755, 19.09194]}, "properties": {"id": "cr-obec-1057120507", "name": "โรงเรียนบ้านห้วยม่วง", "nameTh": "โรงเรียนบ้านห้วยม่วง", "nameEn": null, "cat": ["school"], "province": "cr", "slug": "1057120507", "rank": 3}}, {"type": "Feature", "geometry": {"type": "Point", "coordinates": [99.37546, 19.72207]}, "properties": {"id": "cr-obec-1057120395", "name": "โรงเรียนบ้านห้วยสะลักวิทยา", "nameTh": "โรงเรียนบ้านห้วยสะลักวิทยา", "nameEn": null, "cat": ["school"], "province": "cr", "slug": "1057120395", "rank": 3}}, {"type": "Feature", "geometry": {"type": "Point", "coordinates": [99.61552, 20.21463]}, "properties": {"id": "cr-obec-1057120604", "name": "โรงเรียนบ้านห้วยหก", "nameTh": "โรงเรียนบ้านห้วยหก", "nameEn": null, "cat": ["school"], "province": "cr", "slug": "1057120604", "rank": 3}}, {"type": "Feature", "geometry": {"type": "Point", "coordinates": [99.40205, 19.72422]}, "properties": {"id": "cr-obec-1057120392", "name": "โรงเรียนบ้านห้วยหญ้าไซ", "nameTh": "โรงเรียนบ้านห้วยหญ้าไซ", "nameEn": null, "cat": ["school"], "province": "cr", "slug": "1057120392", "rank": 3}}, {"type": "Feature", "geometry": {"type": "Point", "coordinates": [99.58152, 20.25211]}, "properties": {"id": "cr-obec-1057120605", "name": "โรงเรียนบ้านห้วยหยวกป่าโซ", "nameTh": "โรงเรียนบ้านห้วยหยวกป่าโซ", "nameEn": null, "cat": ["school"], "province": "cr", "slug": "1057120605", "rank": 3}}, {"type": "Feature", "geometry": {"type": "Point", "coordinates": [100.4415, 19.88896]}, "properties": {"id": "cr-obec-1057120582", "name": "โรงเรียนบ้านห้วยหาน", "nameTh": "โรงเรียนบ้านห้วยหาน", "nameEn": null, "cat": ["school"], "province": "cr", "slug": "1057120582", "rank": 3}}, {"type": "Feature", "geometry": {"type": "Point", "coordinates": [99.40835, 19.30894]}, "properties": {"id": "cr-obec-1057120493", "name": "โรงเรียนบ้านห้วยหินลาดใน", "nameTh": "โรงเรียนบ้านห้วยหินลาดใน", "nameEn": null, "cat": ["school"], "province": "cr", "slug": "1057120493", "rank": 3}}, {"type": "Feature", "geometry": {"type": "Point", "coordinates": [99.64972, 20.26824]}, "properties": {"id": "cr-obec-1057120603", "name": "โรงเรียนบ้านห้วยอื้น", "nameTh": "โรงเรียนบ้านห้วยอื้น", "nameEn": null, "cat": ["school"], "province": "cr", "slug": "1057120603", "rank": 3}}, {"type": "Feature", "geometry": {"type": "Point", "coordinates": [99.62252, 19.91939]}, "properties": {"id": "cr-obec-1057120055", "name": "โรงเรียนบ้านห้วยแม่เลี่ยม", "nameTh": "โรงเรียนบ้านห้วยแม่เลี่ยม", "nameEn": null, "cat": ["school"], "province": "cr", "slug": "1057120055", "rank": 3}}, {"type": "Feature", "geometry": {"type": "Point", "coordinates": [99.4382, 19.13048]}, "properties": {"id": "cr-obec-1057120506", "name": "โรงเรียนบ้านห้วยโป่ง", "nameTh": "โรงเรียนบ้านห้วยโป่ง", "nameEn": null, "cat": ["school"], "province": "cr", "slug": "1057120506", "rank": 3}}, {"type": "Feature", "geometry": {"type": "Point", "coordinates": [99.49933, 19.81753]}, "properties": {"id": "cr-obec-1057120426", "name": "โรงเรียนบ้านห้วยไคร้", "nameTh": "โรงเรียนบ้านห้วยไคร้", "nameEn": null, "cat": ["school"], "province": "cr", "slug": "1057120426", "rank": 3}}, {"type": "Feature", "geometry": {"type": "Point", "coordinates": [99.82866, 20.27031]}, "properties": {"id": "cr-obec-1057120591", "name": "โรงเรียนบ้านห้วยไร่สามัคคี", "nameTh": "โรงเรียนบ้านห้วยไร่สามัคคี", "nameEn": null, "cat": ["school"], "province": "cr", "slug": "1057120591", "rank": 3}}, {"type": "Feature", "geometry": {"type": "Point", "coordinates": [99.66224, 20.2415]}, "properties": {"id": "cr-obec-1057120595", "name": "โรงเรียนบ้านเทอดไทย", "nameTh": "โรงเรียนบ้านเทอดไทย", "nameEn": null, "cat": ["school"], "province": "cr", "slug": "1057120595", "rank": 3}}, {"type": "Feature", "geometry": {"type": "Point", "coordinates": [100.35434, 20.365]}, "properties": {"id": "cr-obec-1057120097", "name": "โรงเรียนบ้านเมืองกาญจน์", "nameTh": "โรงเรียนบ้านเมืองกาญจน์", "nameEn": null, "cat": ["school"], "province": "cr", "slug": "1057120097", "rank": 3}}, {"type": "Feature", "geometry": {"type": "Point", "coordinates": [99.4681, 19.06811]}, "properties": {"id": "cr-obec-1057120504", "name": "โรงเรียนบ้านเมืองน้อย(นิมมานเหมินทานุสรณ์)", "nameTh": "โรงเรียนบ้านเมืองน้อย(นิมมานเหมินทานุสรณ์)", "nameEn": null, "cat": ["school"], "province": "cr", "slug": "1057120504", "rank": 3}}, {"type": "Feature", "geometry": {"type": "Point", "coordinates": [99.49912, 19.95969]}, "properties": {"id": "cr-obec-1057120417", "name": "โรงเรียนบ้านเลาลี", "nameTh": "โรงเรียนบ้านเลาลี", "nameEn": null, "cat": ["school"], "province": "cr", "slug": "1057120417", "rank": 3}}, {"type": "Feature", "geometry": {"type": "Point", "coordinates": [100.29864, 20.11037]}, "properties": {"id": "cr-obec-1057120123", "name": "โรงเรียนบ้านเวียงหมอก", "nameTh": "โรงเรียนบ้านเวียงหมอก", "nameEn": null, "cat": ["school"], "province": "cr", "slug": "1057120123", "rank": 3}}, {"type": "Feature", "geometry": {"type": "Point", "coordinates": [100.37599, 19.84255]}, "properties": {"id": "cr-obec-1057120209", "name": "โรงเรียนบ้านแผ่นดินทอง", "nameTh": "โรงเรียนบ้านแผ่นดินทอง", "nameEn": null, "cat": ["school"], "province": "cr", "slug": "1057120209", "rank": 3}}, {"type": "Feature", "geometry": {"type": "Point", "coordinates": [99.43263, 19.70513]}, "properties": {"id": "cr-obec-1057120393", "name": "โรงเรียนบ้านแม่ตาช้าง", "nameTh": "โรงเรียนบ้านแม่ตาช้าง", "nameEn": null, "cat": ["school"], "province": "cr", "slug": "1057120393", "rank": 2}}, {"type": "Feature", "geometry": {"type": "Point", "coordinates": [99.57514, 19.54301]}, "properties": {"id": "cr-obec-1057120404", "name": "โรงเรียนบ้านแม่ตาแมว", "nameTh": "โรงเรียนบ้านแม่ตาแมว", "nameEn": null, "cat": ["school"], "province": "cr", "slug": "1057120404", "rank": 3}}, {"type": "Feature", "geometry": {"type": "Point", "coordinates": [99.33514, 19.39012]}, "properties": {"id": "cr-obec-1057120490", "name": "โรงเรียนบ้านแม่ปูนหลวง", "nameTh": "โรงเรียนบ้านแม่ปูนหลวง", "nameEn": null, "cat": ["school"], "province": "cr", "slug": "1057120490", "rank": 3}}, {"type": "Feature", "geometry": {"type": "Point", "coordinates": [99.42478, 19.54077]}, "properties": {"id": "cr-obec-1057120407", "name": "โรงเรียนบ้านแม่ผักแหละ", "nameTh": "โรงเรียนบ้านแม่ผักแหละ", "nameEn": null, "cat": ["school"], "province": "cr", "slug": "1057120407", "rank": 3}}, {"type": "Feature", "geometry": {"type": "Point", "coordinates": [99.63406, 20.32762]}, "properties": {"id": "cr-obec-1057120597", "name": "โรงเรียนบ้านแม่หม้อ", "nameTh": "โรงเรียนบ้านแม่หม้อ", "nameEn": null, "cat": ["school"], "province": "cr", "slug": "1057120597", "rank": 2}}, {"type": "Feature", "geometry": {"type": "Point", "coordinates": [99.59778, 20.14044]}, "properties": {"id": "cr-obec-1057120617", "name": "โรงเรียนบ้านแม่เต๋อ", "nameTh": "โรงเรียนบ้านแม่เต๋อ", "nameEn": null, "cat": ["school"], "province": "cr", "slug": "1057120617", "rank": 2}}, {"type": "Feature", "geometry": {"type": "Point", "coordinates": [99.45512, 19.95611]}, "properties": {"id": "cr-obec-1057120419", "name": "โรงเรียนบ้านแม่โมงเย้า", "nameTh": "โรงเรียนบ้านแม่โมงเย้า", "nameEn": null, "cat": ["school"], "province": "cr", "slug": "1057120419", "rank": 3}}, {"type": "Feature", "geometry": {"type": "Point", "coordinates": [99.5244, 19.73064]}, "properties": {"id": "cr-obec-1057120421", "name": "โรงเรียนบ้านแสนเจริญ", "nameTh": "โรงเรียนบ้านแสนเจริญ", "nameEn": null, "cat": ["school"], "province": "cr", "slug": "1057120421", "rank": 3}}, {"type": "Feature", "geometry": {"type": "Point", "coordinates": [99.49268, 19.42804]}, "properties": {"id": "cr-obec-1057120480", "name": "โรงเรียนบ้านโป่งนก", "nameTh": "โรงเรียนบ้านโป่งนก", "nameEn": null, "cat": ["school"], "province": "cr", "slug": "1057120480", "rank": 3}}, {"type": "Feature", "geometry": {"type": "Point", "coordinates": [99.68942, 19.93684]}, "properties": {"id": "cr-obec-1057120060", "name": "โรงเรียนบ้านโป่งน้ำร้อน", "nameTh": "โรงเรียนบ้านโป่งน้ำร้อน", "nameEn": null, "cat": ["school"], "province": "cr", "slug": "1057120060", "rank": 3}}, {"type": "Feature", "geometry": {"type": "Point", "coordinates": [100.49389, 20.02711]}, "properties": {"id": "cr-obec-1057120577", "name": "โรงเรียนบ้านโล๊ะวังผา", "nameTh": "โรงเรียนบ้านโล๊ะวังผา", "nameEn": null, "cat": ["school"], "province": "cr", "slug": "1057120577", "rank": 3}}, {"type": "Feature", "geometry": {"type": "Point", "coordinates": [99.64454, 20.17189]}, "properties": {"id": "cr-obec-1057120613", "name": "โรงเรียนบ้านใหม่สันติ", "nameTh": "โรงเรียนบ้านใหม่สันติ", "nameEn": null, "cat": ["school"], "province": "cr", "slug": "1057120613", "rank": 3}}, {"type": "Feature", "geometry": {"type": "Point", "coordinates": [100.16846, 19.99597]}, "properties": {"id": "cr-obec-1057120560", "name": "โรงเรียนบ้านใหม่สุขสันต์", "nameTh": "โรงเรียนบ้านใหม่สุขสันต์", "nameEn": null, "cat": ["school"], "province": "cr", "slug": "1057120560", "rank": 3}}, {"type": "Feature", "geometry": {"type": "Point", "coordinates": [99.42866, 19.57807]}, "properties": {"id": "cr-obec-1057120403", "name": "โรงเรียนบ้านใหม่แม่ยางมิ้น", "nameTh": "โรงเรียนบ้านใหม่แม่ยางมิ้น", "nameEn": null, "cat": ["school"], "province": "cr", "slug": "1057120403", "rank": 3}}, {"type": "Feature", "geometry": {"type": "Point", "coordinates": [100.48972, 20.01737]}, "properties": {"id": "cr-obec-1057120576", "name": "โรงเรียนปอวิทยา", "nameTh": "โรงเรียนปอวิทยา", "nameEn": null, "cat": ["school"], "province": "cr", "slug": "1057120576", "rank": 3}}, {"type": "Feature", "geometry": {"type": "Point", "coordinates": [99.33678, 19.12818]}, "properties": {"id": "cr-obec-1057120513", "name": "โรงเรียนปางมะกาดวิทยา", "nameTh": "โรงเรียนปางมะกาดวิทยา", "nameEn": null, "cat": ["school"], "province": "cr", "slug": "1057120513", "rank": 3}}, {"type": "Feature", "geometry": {"type": "Point", "coordinates": [100.46694, 19.98747]}, "properties": {"id": "cr-obec-1057120580", "name": "โรงเรียนปางหัดสหศาสตร์", "nameTh": "โรงเรียนปางหัดสหศาสตร์", "nameEn": null, "cat": ["school"], "province": "cr", "slug": "1057120580", "rank": 3}}, {"type": "Feature", "geometry": {"type": "Point", "coordinates": [99.60668, 20.01945]}, "properties": {"id": "cr-obec-1057120041", "name": "โรงเรียนผาขวางวิทยา", "nameTh": "โรงเรียนผาขวางวิทยา", "nameEn": null, "cat": ["school"], "province": "cr", "slug": "1057120041", "rank": 3}}, {"type": "Feature", "geometry": {"type": "Point", "coordinates": [99.60508, 20.31984]}, "properties": {"id": "cr-obec-1057120598", "name": "โรงเรียนพญาไพรไตรมิตร", "nameTh": "โรงเรียนพญาไพรไตรมิตร", "nameEn": null, "cat": ["school"], "province": "cr", "slug": "1057120598", "rank": 2}}, {"type": "Feature", "geometry": {"type": "Point", "coordinates": [99.5935, 20.27658]}, "properties": {"id": "cr-obec-1057120600", "name": "โรงเรียนรัฐราษฎร์วิทยา", "nameTh": "โรงเรียนรัฐราษฎร์วิทยา", "nameEn": null, "cat": ["school"], "province": "cr", "slug": "1057120600", "rank": 3}}, {"type": "Feature", "geometry": {"type": "Point", "coordinates": [99.6831, 20.13207]}, "properties": {"id": "cr-obec-1057120616", "name": "โรงเรียนราษฎร์พัฒนา", "nameTh": "โรงเรียนราษฎร์พัฒนา", "nameEn": null, "cat": ["school"], "province": "cr", "slug": "1057120616", "rank": 3}}, {"type": "Feature", "geometry": {"type": "Point", "coordinates": [99.6279, 19.40562]}, "properties": {"id": "cr-obec-1057120292", "name": "โรงเรียนริมวัง ๒", "nameTh": "โรงเรียนริมวัง ๒", "nameEn": null, "cat": ["school"], "province": "cr", "slug": "1057120292", "rank": 3}}, {"type": "Feature", "geometry": {"type": "Point", "coordinates": [99.63609, 19.44455]}, "properties": {"id": "cr-obec-1057120291", "name": "โรงเรียนริมวัง๑", "nameTh": "โรงเรียนริมวัง๑", "nameEn": null, "cat": ["school"], "province": "cr", "slug": "1057120291", "rank": 2}}, {"type": "Feature", "geometry": {"type": "Point", "coordinates": [99.48037, 19.91267]}, "properties": {"id": "cr-obec-1057120724", "name": "โรงเรียนวาวีวิทยาคม", "nameTh": "โรงเรียนวาวีวิทยาคม", "nameEn": null, "cat": ["school"], "province": "cr", "slug": "1057120724", "rank": 3}}, {"type": "Feature", "geometry": {"type": "Point", "coordinates": [100.48398, 20.02301]}, "properties": {"id": "cr-obec-1057120742", "name": "โรงเรียนสมถวิลจินตมัยบ้านห้วยแล้ง(ต.ช.ด.อนุสรณ์)", "nameTh": "โรงเรียนสมถวิลจินตมัยบ้านห้วยแล้ง(ต.ช.ด.อนุสรณ์)", "nameEn": null, "cat": ["school"], "province": "cr", "slug": "1057120742", "rank": 2}}, {"type": "Feature", "geometry": {"type": "Point", "coordinates": [99.85853, 19.97454]}, "properties": {"id": "cr-obec-1057120733", "name": "โรงเรียนสันติคีรีวิทยาคม", "nameTh": "โรงเรียนสันติคีรีวิทยาคม", "nameEn": null, "cat": ["school"], "province": "cr", "slug": "1057120733", "rank": 3}}, {"type": "Feature", "geometry": {"type": "Point", "coordinates": [99.52117, 20.33862]}, "properties": {"id": "cr-obec-1057120601", "name": "โรงเรียนสามัคคีพัฒนา", "nameTh": "โรงเรียนสามัคคีพัฒนา", "nameEn": null, "cat": ["school"], "province": "cr", "slug": "1057120601", "rank": 3}}, {"type": "Feature", "geometry": {"type": "Point", "coordinates": [99.32634, 19.49772]}, "properties": {"id": "cr-obec-1057120413", "name": "โรงเรียนห้วยน้ำขุ่นวิทยา", "nameTh": "โรงเรียนห้วยน้ำขุ่นวิทยา", "nameEn": null, "cat": ["school"], "province": "cr", "slug": "1057120413", "rank": 3}}, {"type": "Feature", "geometry": {"type": "Point", "coordinates": [99.81474, 20.29882]}, "properties": {"id": "cr-obec-1057120592", "name": "โรงเรียนอนุบาลแม่ฟ้าหลวง", "nameTh": "โรงเรียนอนุบาลแม่ฟ้าหลวง", "nameEn": null, "cat": ["school"], "province": "cr", "slug": "1057120592", "rank": 3}}, {"type": "Feature", "geometry": {"type": "Point", "coordinates": [99.85181, 20.39882]}, "properties": {"id": "cr-obec-1057120468", "name": "โรงเรียนเจ้าพ่อหลวงอุปถัมภ์ ๕", "nameTh": "โรงเรียนเจ้าพ่อหลวงอุปถัมภ์ ๕", "nameEn": null, "cat": ["school"], "province": "cr", "slug": "1057120468", "rank": 3}}, {"type": "Feature", "geometry": {"type": "Point", "coordinates": [100.36049, 19.80994]}, "properties": {"id": "cr-obec-1057120691", "name": "โรงเรียนเพียงหลวง  16 สาขาห้องเรียนบ้านร่มโพธิ์ทอง", "nameTh": "โรงเรียนเพียงหลวง  16 สาขาห้องเรียนบ้านร่มโพธิ์ทอง", "nameEn": null, "cat": ["school"], "province": "cr", "slug": "16-1057120691", "rank": 3}}, {"type": "Feature", "geometry": {"type": "Point", "coordinates": [100.40393, 19.78412]}, "properties": {"id": "cr-obec-1057120204", "name": "โรงเรียนเพียงหลวง 16", "nameTh": "โรงเรียนเพียงหลวง 16", "nameEn": null, "cat": ["school"], "province": "cr", "slug": "16-1057120204", "rank": 3}}, {"type": "Feature", "geometry": {"type": "Point", "coordinates": [100.2928, 19.79249]}, "properties": {"id": "cr-obec-1057120205", "name": "โรงเรียนเพียงหลวง 16 สาขาบ้านขุนต้า", "nameTh": "โรงเรียนเพียงหลวง 16 สาขาบ้านขุนต้า", "nameEn": null, "cat": ["school"], "province": "cr", "slug": "16-1057120205", "rank": 2}}, {"type": "Feature", "geometry": {"type": "Point", "coordinates": [100.39306, 19.74732]}, "properties": {"id": "cr-obec-1057120207", "name": "โรงเรียนเพียงหลวง 16 สาขาห้องเรียนบ้านพิทักษ์ไทย", "nameTh": "โรงเรียนเพียงหลวง 16 สาขาห้องเรียนบ้านพิทักษ์ไทย", "nameEn": null, "cat": ["school"], "province": "cr", "slug": "16-1057120207", "rank": 3}}, {"type": "Feature", "geometry": {"type": "Point", "coordinates": [100.40963, 19.79421]}, "properties": {"id": "cr-obec-1057120206", "name": "โรงเรียนเพียงหลวง 16 สาขาห้องเรียนบ้านร่มฟ้าไทย", "nameTh": "โรงเรียนเพียงหลวง 16 สาขาห้องเรียนบ้านร่มฟ้าไทย", "nameEn": null, "cat": ["school"], "province": "cr", "slug": "16-1057120206", "rank": 2}}, {"type": "Feature", "geometry": {"type": "Point", "coordinates": [100.38001, 19.75648]}, "properties": {"id": "cr-obec-1057120741", "name": "โรงเรียนเพียงหลวง 16 สาขาห้องเรียนบ้านเล่าตาขาว", "nameTh": "โรงเรียนเพียงหลวง 16 สาขาห้องเรียนบ้านเล่าตาขาว", "nameEn": null, "cat": ["school"], "province": "cr", "slug": "16-1057120741", "rank": 2}}, {"type": "Feature", "geometry": {"type": "Point", "coordinates": [99.35827, 19.6288]}, "properties": {"id": "cr-obec-1057120405", "name": "โรงเรียนเวียงผาวิทยา", "nameTh": "โรงเรียนเวียงผาวิทยา", "nameEn": null, "cat": ["school"], "province": "cr", "slug": "1057120405", "rank": 3}}, {"type": "Feature", "geometry": {"type": "Point", "coordinates": [99.5593, 19.46717]}, "properties": {"id": "cr-obec-1057120477", "name": "โรงเรียนแม่ตะละวิทยา", "nameTh": "โรงเรียนแม่ตะละวิทยา", "nameEn": null, "cat": ["school"], "province": "cr", "slug": "1057120477", "rank": 3}}, {"type": "Feature", "geometry": {"type": "Point", "coordinates": [99.60823, 19.86195]}, "properties": {"id": "cr-obec-1057120059", "name": "โรงเรียนแม่มอญวิทยา", "nameTh": "โรงเรียนแม่มอญวิทยา", "nameEn": null, "cat": ["school"], "province": "cr", "slug": "1057120059", "rank": 3}}, {"type": "Feature", "geometry": {"type": "Point", "coordinates": [100.1343, 19.96403]}, "properties": {"id": "cr-obec-1057120551", "name": "โรงเรียนแม่หลวงอุปถัมภ์ไทยคีรี", "nameTh": "โรงเรียนแม่หลวงอุปถัมภ์ไทยคีรี", "nameEn": null, "cat": ["school"], "province": "cr", "slug": "1057120551", "rank": 2}}, {"type": "Feature", "geometry": {"type": "Point", "coordinates": [100.22154, 20.1918]}, "properties": {"id": "cr-obec-1057120150", "name": "โรงเรียนแม่แอบวิทยาคม", "nameTh": "โรงเรียนแม่แอบวิทยาคม", "nameEn": null, "cat": ["school"], "province": "cr", "slug": "1057120150", "rank": 3}}, {"type": "Feature", "geometry": {"type": "Point", "coordinates": [99.46591, 19.88032]}, "properties": {"id": "cr-obec-1057120416", "name": "โรงเรียนโป่งกลางน้ำประชาสรรค์", "nameTh": "โรงเรียนโป่งกลางน้ำประชาสรรค์", "nameEn": null, "cat": ["school"], "province": "cr", "slug": "1057120416", "rank": 2}}, {"type": "Feature", "geometry": {"type": "Point", "coordinates": [100.38281, 19.87801]}, "properties": {"id": "cr-obec-1057120586", "name": "โรงเรียนไตรมิตรวิทยา", "nameTh": "โรงเรียนไตรมิตรวิทยา", "nameEn": null, "cat": ["school"], "province": "cr", "slug": "1057120586", "rank": 3}}]}