{"type": "FeatureCollection", "features": [{"type": "Feature", "geometry": {"type": "Point", "coordinates": [100.13014, 20.06577]}, "properties": {"id": "cr-osm-node-6253108386", "name": "Coffee", "nameTh": null, "nameEn": "Coffee", "cat": ["food"], "province": "cr", "slug": "coffee-6253108386", "rank": 1}}, {"type": "Feature", "geometry": {"type": "Point", "coordinates": [99.83078, 19.90684]}, "properties": {"id": "cr-osm-way-963169297", "name": "Yoddoi Coffee & Tea", "nameTh": "ยอดดอยกาแฟและชา", "nameEn": "Yoddoi Coffee & Tea", "cat": ["food"], "province": "cr", "slug": "yoddoi-coffee-tea-963169297", "rank": 4}}, {"type": "Feature", "geometry": {"type": "Point", "coordinates": [100.08536, 20.27412]}, "properties": {"id": "cr-osm-node-5401620121", "name": "night and morning market", "nameTh": null, "nameEn": "night and morning market", "cat": ["food"], "province": "cr", "slug": "night-and-morning-market-5401620121", "rank": 1}}]}