{"type": "FeatureCollection", "features": [{"type": "Feature", "geometry": {"type": "Point", "coordinates": [99.8329, 19.90472]}, "properties": {"id": "cr-osm-node-4662987919", "name": "Aye's Restaurant", "nameTh": null, "nameEn": "Aye's Restaurant", "cat": ["food"], "province": "cr", "slug": "aye-s-restaurant-4662987919", "rank": 1}}, {"type": "Feature", "geometry": {"type": "Point", "coordinates": [99.62701, 20.16569]}, "properties": {"id": "cr-osm-node-4739149121", "name": "Café The Local", "nameTh": null, "nameEn": "Café The Local", "cat": ["food"], "province": "cr", "slug": "caf-the-local-4739149121", "rank": 1}}, {"type": "Feature", "geometry": {"type": "Point", "coordinates": [99.83357, 19.88648]}, "properties": {"id": "cr-osm-node-4578404090", "name": "Dairy Queen", "nameTh": null, "nameEn": "Dairy Queen", "cat": ["food"], "province": "cr", "slug": "dairy-queen-4578404090", "rank": 1}}, {"type": "Feature", "geometry": {"type": "Point", "coordinates": [99.83105, 19.9061]}, "properties": {"id": "cr-osm-node-5320151028", "name": "Heaven Burger", "nameTh": null, "nameEn": "Heaven Burger", "cat": ["food"], "province": "cr", "slug": "heaven-burger-5320151028", "rank": 3}}, {"type": "Feature", "geometry": {"type": "Point", "coordinates": [100.08855, 20.28572]}, "properties": {"id": "cr-osm-node-5810517059", "name": "Hut of love", "nameTh": null, "nameEn": "Hut of love", "cat": ["food"], "province": "cr", "slug": "hut-of-love-5810517059", "rank": 1}}, {"type": "Feature", "geometry": {"type": "Point", "coordinates": [99.86027, 19.99235]}, "properties": {"id": "cr-osm-node-12860331935", "name": "Jack The Reaper", "nameTh": null, "nameEn": "Jack The Reaper", "cat": ["food"], "province": "cr", "slug": "jack-the-reaper-12860331935", "rank": 3}}, {"type": "Feature", "geometry": {"type": "Point", "coordinates": [99.8288, 19.90712]}, "properties": {"id": "cr-osm-node-13389915801", "name": "Kunda Vegetarian Café", "nameTh": null, "nameEn": "Kunda Vegetarian Café", "cat": ["food"], "province": "cr", "slug": "kunda-vegetarian-caf-13389915801", "rank": 1}}, {"type": "Feature", "geometry": {"type": "Point", "coordinates": [99.74081, 19.54629]}, "properties": {"id": "cr-osm-node-4107186719", "name": "Love Terrong", "nameTh": null, "nameEn": "Love Terrong", "cat": ["food"], "province": "cr", "slug": "love-terrong-4107186719", "rank": 1}}, {"type": "Feature", "geometry": {"type": "Point", "coordinates": [99.83479, 19.88642]}, "properties": {"id": "cr-osm-node-2334898016", "name": "McDonald's", "nameTh": "แมคโดนัลด์", "nameEn": "McDonald's", "cat": ["food"], "province": "cr", "slug": "mcdonald-s-2334898016", "rank": 4}}, {"type": "Feature", "geometry": {"type": "Point", "coordinates": [99.51723, 19.20392]}, "properties": {"id": "cr-osm-node-4731787879", "name": "Sam's Eatery", "nameTh": null, "nameEn": "Sam's Eatery", "cat": ["food"], "province": "cr", "slug": "sam-s-eatery-4731787879", "rank": 1}}, {"type": "Feature", "geometry": {"type": "Point", "coordinates": [99.83142, 19.90648]}, "properties": {"id": "cr-osm-node-6919495008", "name": "San Fran", "nameTh": null, "nameEn": "Sanfran Burger & Beer", "cat": ["food"], "province": "cr", "slug": "sanfran-burger-beer-6919495008", "rank": 2}}, {"type": "Feature", "geometry": {"type": "Point", "coordinates": [99.8339, 19.90896]}, "properties": {"id": "cr-osm-node-3022782391", "name": "Stardust Bar & Grill", "nameTh": null, "nameEn": "Stardust Bar & Grill", "cat": ["food"], "province": "cr", "slug": "stardust-bar-grill-3022782391", "rank": 1}}, {"type": "Feature", "geometry": {"type": "Point", "coordinates": [99.82855, 19.91391]}, "properties": {"id": "cr-osm-way-551185211", "name": "The Hungry Wolf", "nameTh": "ฮังกรีวูฟล์ สเต็กเฮาส์", "nameEn": "The Hungry Wolf", "cat": ["food"], "province": "cr", "slug": "the-hungry-wolf-551185211", "rank": 4}}, {"type": "Feature", "geometry": {"type": "Point", "coordinates": [99.83078, 19.90684]}, "properties": {"id": "cr-osm-way-963169297", "name": "Yoddoi Coffee & Tea", "nameTh": "ยอดดอยกาแฟและชา", "nameEn": "Yoddoi Coffee & Tea", "cat": ["food"], "province": "cr", "slug": "yoddoi-coffee-tea-963169297", "rank": 4}}, {"type": "Feature", "geometry": {"type": "Point", "coordinates": [99.83799, 19.91415]}, "properties": {"id": "cr-osm-node-9703077817", "name": "ปังปอนด์สเต็ก", "nameTh": "ปังปอนด์สเต็ก", "nameEn": "Pangpond Steakhouse", "cat": ["food"], "province": "cr", "slug": "pangpond-steakhouse-9703077817", "rank": 2}}]}