{"type": "FeatureCollection", "features": [{"type": "Feature", "geometry": {"type": "Point", "coordinates": [99.81594, 19.90349]}, "properties": {"id": "cr-osm-node-2140597858", "name": "CP Fresh Mart", "nameTh": null, "nameEn": "CP Fresh Mart", "cat": ["essentials"], "province": "cr", "slug": "cp-fresh-mart-2140597858", "rank": 1}}, {"type": "Feature", "geometry": {"type": "Point", "coordinates": [99.85478, 20.14966]}, "properties": {"id": "cr-osm-node-2148622825", "name": "CP Fresh Mart", "nameTh": null, "nameEn": "CP Fresh Mart", "cat": ["essentials"], "province": "cr", "slug": "cp-fresh-mart-2148622825", "rank": 1}}, {"type": "Feature", "geometry": {"type": "Point", "coordinates": [99.88521, 20.4338]}, "properties": {"id": "cr-osm-node-2193469945", "name": "CP Fresh Mart", "nameTh": null, "nameEn": "CP Fresh Mart", "cat": ["essentials"], "province": "cr", "slug": "cp-fresh-mart-2193469945", "rank": 1}}, {"type": "Feature", "geometry": {"type": "Point", "coordinates": [99.50345, 19.36619]}, "properties": {"id": "cr-osm-way-1013293657", "name": "CP Fresh Mart", "nameTh": null, "nameEn": "CP Fresh Mart", "cat": ["essentials"], "province": "cr", "slug": "cp-fresh-mart-1013293657", "rank": 1}}]}