{"type": "FeatureCollection", "features": [{"type": "Feature", "geometry": {"type": "Point", "coordinates": [99.82861, 19.90502]}, "properties": {"id": "cr-osm-node-10307977396", "name": "1055 brewing at corner", "nameTh": null, "nameEn": "1055 brewing at corner", "cat": ["food"], "province": "cr", "slug": "1055-brewing-at-corner-10307977396", "rank": 3}}, {"type": "Feature", "geometry": {"type": "Point", "coordinates": [99.88033, 20.32219]}, "properties": {"id": "cr-osm-node-5260275657", "name": "11Coffee Roasters", "nameTh": null, "nameEn": "11Coffee Roasters", "cat": ["food"], "province": "cr", "slug": "11coffee-roasters-5260275657", "rank": 2}}, {"type": "Feature", "geometry": {"type": "Point", "coordinates": [99.8804, 20.3222]}, "properties": {"id": "cr-osm-way-702969689", "name": "11Coffee Roasters", "nameTh": null, "nameEn": "11Coffee Roasters", "cat": ["food"], "province": "cr", "slug": "11coffee-roasters-702969689", "rank": 1}}, {"type": "Feature", "geometry": {"type": "Point", "coordinates": [99.85706, 19.97887]}, "properties": {"id": "cr-osm-node-12890174172", "name": "47% Coffee", "nameTh": null, "nameEn": "47% Coffee", "cat": ["food"], "province": "cr", "slug": "47-coffee-12890174172", "rank": 3}}, {"type": "Feature", "geometry": {"type": "Point", "coordinates": [99.83439, 19.86795]}, "properties": {"id": "cr-osm-node-10201640190", "name": "A.NA cuisine & coffee", "nameTh": null, "nameEn": "A.NA cuisine & coffee", "cat": ["food"], "province": "cr", "slug": "a-na-cuisine-coffee-10201640190", "rank": 3}}, {"type": "Feature", "geometry": {"type": "Point", "coordinates": [99.83444, 19.86797]}, "properties": {"id": "cr-osm-way-1115470938", "name": "A.NA cuisine & coffee", "nameTh": null, "nameEn": "A.NA cuisine & coffee", "cat": ["food"], "province": "cr", "slug": "a-na-cuisine-coffee-1115470938", "rank": 3}}, {"type": "Feature", "geometry": {"type": "Point", "coordinates": [99.82383, 19.90743]}, "properties": {"id": "cr-osm-way-959733157", "name": "Agape Coffee", "nameTh": null, "nameEn": "Agape Coffee", "cat": ["food"], "province": "cr", "slug": "agape-coffee-959733157", "rank": 1}}, {"type": "Feature", "geometry": {"type": "Point", "coordinates": [99.79599, 19.94513]}, "properties": {"id": "cr-osm-node-7199874885", "name": "Akha Cottage", "nameTh": null, "nameEn": "Akha Cottage Coffee", "cat": ["food"], "province": "cr", "slug": "akha-cottage-coffee-7199874885", "rank": 2}}, {"type": "Feature", "geometry": {"type": "Point", "coordinates": [99.82659, 19.90706]}, "properties": {"id": "cr-osm-node-9941448217", "name": "Akha Hill", "nameTh": null, "nameEn": "Akha Hill", "cat": ["food"], "province": "cr", "slug": "akha-hill-9941448217", "rank": 3}}, {"type": "Feature", "geometry": {"type": "Point", "coordinates": [99.83613, 19.90088]}, "properties": {"id": "cr-osm-node-12548011119", "name": "Arigano Coffee", "nameTh": null, "nameEn": "Arigano Coffee", "cat": ["food"], "province": "cr", "slug": "arigano-coffee-12548011119", "rank": 1}}, {"type": "Feature", "geometry": {"type": "Point", "coordinates": [100.40784, 20.26255]}, "properties": {"id": "cr-osm-node-13332850401", "name": "Beyond Sky Cafe", "nameTh": null, "nameEn": "Beyond Sky Cafe", "cat": ["food"], "province": "cr", "slug": "beyond-sky-cafe-13332850401", "rank": 3}}, {"type": "Feature", "geometry": {"type": "Point", "coordinates": [99.82886, 19.90447]}, "properties": {"id": "cr-osm-node-13389908501", "name": "Breakfast Factory", "nameTh": null, "nameEn": "Breakfast Factory", "cat": ["food"], "province": "cr", "slug": "breakfast-factory-13389908501", "rank": 1}}, {"type": "Feature", "geometry": {"type": "Point", "coordinates": [99.83788, 19.90095]}, "properties": {"id": "cr-osm-node-13463369506", "name": "Breakfast Monster", "nameTh": null, "nameEn": "Breakfast Monster", "cat": ["food"], "province": "cr", "slug": "breakfast-monster-13463369506", "rank": 1}}, {"type": "Feature", "geometry": {"type": "Point", "coordinates": [99.85, 19.9234]}, "properties": {"id": "cr-osm-node-13184024816", "name": "Bundarnjai - Coffee Eatery Bingsu", "nameTh": null, "nameEn": "Bundarnjai - Coffee Eatery Bingsu", "cat": ["food"], "province": "cr", "slug": "bundarnjai-coffee-eatery-bingsu-13184024816", "rank": 3}}, {"type": "Feature", "geometry": {"type": "Point", "coordinates": [99.83368, 19.90529]}, "properties": {"id": "cr-osm-way-384838098", "name": "Center Point Night Bazar restaurant", "nameTh": null, "nameEn": "Center Point Night Bazar restaurant", "cat": ["food"], "province": "cr", "slug": "center-point-night-bazar-restaurant-384838098", "rank": 1}}, {"type": "Feature", "geometry": {"type": "Point", "coordinates": [99.81683, 20.20012]}, "properties": {"id": "cr-osm-node-3968871249", "name": "Choui Fong", "nameTh": null, "nameEn": "Choui Fong", "cat": ["food"], "province": "cr", "slug": "choui-fong-3968871249", "rank": 4}}, {"type": "Feature", "geometry": {"type": "Point", "coordinates": [99.71861, 20.16602]}, "properties": {"id": "cr-osm-node-9899500877", "name": "Daddy's Coffee House / A-Pa Coffee", "nameTh": null, "nameEn": "Daddy's Coffee House / A-Pa Coffee", "cat": ["food"], "province": "cr", "slug": "daddy-s-coffee-house-a-pa-coffee-9899500877", "rank": 1}}, {"type": "Feature", "geometry": {"type": "Point", "coordinates": [99.74815, 19.8233]}, "properties": {"id": "cr-osm-node-13093773836", "name": "Doofeel", "nameTh": null, "nameEn": "Doofeel", "cat": ["food"], "province": "cr", "slug": "doofeel-13093773836", "rank": 1}}, {"type": "Feature", "geometry": {"type": "Point", "coordinates": [99.85894, 19.9924]}, "properties": {"id": "cr-osm-way-653519354", "name": "Give Green Farm House", "nameTh": null, "nameEn": "Give Green Farm House", "cat": ["food"], "province": "cr", "slug": "give-green-farm-house-653519354", "rank": 3}}, {"type": "Feature", "geometry": {"type": "Point", "coordinates": [99.83242, 19.89908]}, "properties": {"id": "cr-osm-node-13435252058", "name": "Good Carb", "nameTh": null, "nameEn": "Good Carb", "cat": ["food"], "province": "cr", "slug": "good-carb-13435252058", "rank": 3}}, {"type": "Feature", "geometry": {"type": "Point", "coordinates": [99.91815, 19.94571]}, "properties": {"id": "cr-osm-node-13523596601", "name": "Horizon Cafe & Restaurant", "nameTh": null, "nameEn": "Horizon Cafe & Restaurant", "cat": ["food"], "province": "cr", "slug": "horizon-cafe-restaurant-13523596601", "rank": 1}}, {"type": "Feature", "geometry": {"type": "Point", "coordinates": [99.8962, 20.42432]}, "properties": {"id": "cr-osm-node-10244676324", "name": "Kampai", "nameTh": null, "nameEn": "Kampai", "cat": ["food"], "province": "cr", "slug": "kampai-10244676324", "rank": 1}}, {"type": "Feature", "geometry": {"type": "Point", "coordinates": [99.72131, 19.84259]}, "properties": {"id": "cr-osm-node-4542952739", "name": "Melody Coffee", "nameTh": null, "nameEn": "Melody Coffee", "cat": ["food"], "province": "cr", "slug": "melody-coffee-4542952739", "rank": 1}}, {"type": "Feature", "geometry": {"type": "Point", "coordinates": [99.75354, 19.44782]}, "properties": {"id": "cr-osm-node-10547552330", "name": "Mogami Cafe", "nameTh": null, "nameEn": "Mogami Cafe", "cat": ["food"], "province": "cr", "slug": "mogami-cafe-10547552330", "rank": 2}}, {"type": "Feature", "geometry": {"type": "Point", "coordinates": [99.83974, 20.14025]}, "properties": {"id": "cr-osm-node-8389823678", "name": "Panor Coffee Shop", "nameTh": null, "nameEn": "Panor Coffee Shop", "cat": ["food"], "province": "cr", "slug": "panor-coffee-shop-8389823678", "rank": 2}}, {"type": "Feature", "geometry": {"type": "Point", "coordinates": [99.8327, 19.90604]}, "properties": {"id": "cr-osm-node-4559979989", "name": "Reggae Home & Bar", "nameTh": null, "nameEn": "Reggae Home & Bar", "cat": ["food"], "province": "cr", "slug": "reggae-home-bar-4559979989", "rank": 3}}, {"type": "Feature", "geometry": {"type": "Point", "coordinates": [99.62306, 20.16904]}, "properties": {"id": "cr-osm-node-7023582464", "name": "San Ting", "nameTh": null, "nameEn": "San Ting", "cat": ["food"], "province": "cr", "slug": "san-ting-7023582464", "rank": 1}}, {"type": "Feature", "geometry": {"type": "Point", "coordinates": [99.67164, 19.84065]}, "properties": {"id": "cr-osm-node-13520932101", "name": "SangKaew", "nameTh": null, "nameEn": "SangKaew", "cat": ["food"], "province": "cr", "slug": "sangkaew-13520932101", "rank": 3}}, {"type": "Feature", "geometry": {"type": "Point", "coordinates": [99.49289, 19.57844]}, "properties": {"id": "cr-osm-node-13460387261", "name": "Story 4len", "nameTh": null, "nameEn": "Story 4len", "cat": ["food"], "province": "cr", "slug": "story-4len-13460387261", "rank": 1}}, {"type": "Feature", "geometry": {"type": "Point", "coordinates": [99.75739, 19.82496]}, "properties": {"id": "cr-osm-node-13435252415", "name": "Suan Singha", "nameTh": null, "nameEn": "Suan Singha", "cat": ["food"], "province": "cr", "slug": "suan-singha-13435252415", "rank": 1}}, {"type": "Feature", "geometry": {"type": "Point", "coordinates": [99.83308, 19.90407]}, "properties": {"id": "cr-osm-node-10743249084", "name": "Summer Taste Ice Cream", "nameTh": null, "nameEn": "Summer Taste Ice Cream", "cat": ["food"], "province": "cr", "slug": "summer-taste-ice-cream-10743249084", "rank": 2}}, {"type": "Feature", "geometry": {"type": "Point", "coordinates": [99.85893, 19.97772]}, "properties": {"id": "cr-osm-node-10770351663", "name": "TCOS Cafe", "nameTh": null, "nameEn": "TCOS Cafe", "cat": ["food"], "province": "cr", "slug": "tcos-cafe-10770351663", "rank": 2}}, {"type": "Feature", "geometry": {"type": "Point", "coordinates": [99.83824, 19.91109]}, "properties": {"id": "cr-osm-node-9131881434", "name": "ก๋วยเตี๋ยวต้มยำสุโขทัย", "nameTh": "ก๋วยเตี๋ยวต้มยำสุโขทัย", "nameEn": "Sukhothai Tom Yum Noodles", "cat": ["food"], "province": "cr", "slug": "sukhothai-tom-yum-noodles-9131881434", "rank": 2}}, {"type": "Feature", "geometry": {"type": "Point", "coordinates": [99.83359, 19.9092]}, "properties": {"id": "cr-osm-way-960070519", "name": "ดอยช้างคาเฟ่ สวนตุง", "nameTh": "ดอยช้างคาเฟ่ สวนตุง", "nameEn": "Doi Chang Cafe Suan Tung", "cat": ["food"], "province": "cr", "slug": "doi-chang-cafe-suan-tung-960070519", "rank": 2}}, {"type": "Feature", "geometry": {"type": "Point", "coordinates": [99.82507, 19.90671]}, "properties": {"id": "cr-osm-node-8440021025", "name": "บุหงา ตานี Cafe' & Bistro", "nameTh": "บุหงา ตานี Cafe' & Bistro", "nameEn": null, "cat": ["food"], "province": "cr", "slug": "cafe-bistro-8440021025", "rank": 3}}, {"type": "Feature", "geometry": {"type": "Point", "coordinates": [99.87549, 19.95914]}, "properties": {"id": "cr-osm-node-13580292501", "name": "ภพันร็", "nameTh": "ภพันร็", "nameEn": "Phuphan", "cat": ["food"], "province": "cr", "slug": "phuphan-13580292501", "rank": 3}}, {"type": "Feature", "geometry": {"type": "Point", "coordinates": [99.86607, 20.32502]}, "properties": {"id": "cr-osm-node-5260239218", "name": "ร้านต้นโพธิ์", "nameTh": "ร้านต้นโพธิ์", "nameEn": null, "cat": ["food"], "province": "cr", "slug": "5260239218", "rank": 2}}, {"type": "Feature", "geometry": {"type": "Point", "coordinates": [99.75878, 19.81542]}, "properties": {"id": "cr-osm-node-13616990501", "name": "ร้านโกนงค์3", "nameTh": "ร้านโกนงค์3", "nameEn": "Ko Nong", "cat": ["food"], "province": "cr", "slug": "ko-nong-13616990501", "rank": 2}}, {"type": "Feature", "geometry": {"type": "Point", "coordinates": [99.82183, 19.90334]}, "properties": {"id": "cr-osm-way-997641687", "name": "ลาบปลาดอยตอง", "nameTh": "ลาบปลาดอยตอง", "nameEn": "Lap Pla Doi Tong", "cat": ["food"], "province": "cr", "slug": "lap-pla-doi-tong-997641687", "rank": 4}}, {"type": "Feature", "geometry": {"type": "Point", "coordinates": [99.84999, 19.92158]}, "properties": {"id": "cr-osm-way-1127661764", "name": "ลีลาวดี", "nameTh": "ร้านอาหารลีลาวดีเชียงราย", "nameEn": "Leelavadee", "cat": ["food"], "province": "cr", "slug": "leelavadee-1127661764", "rank": 6}}, {"type": "Feature", "geometry": {"type": "Point", "coordinates": [99.83799, 19.90908]}, "properties": {"id": "cr-osm-node-9097753203", "name": "สเต็กลุงหนวด", "nameTh": "สเต็กลุงหนวด", "nameEn": "Steak Lung Nhuad", "cat": ["food"], "province": "cr", "slug": "steak-lung-nhuad-9097753203", "rank": 2}}, {"type": "Feature", "geometry": {"type": "Point", "coordinates": [99.82973, 19.89902]}, "properties": {"id": "cr-osm-node-11893650113", "name": "หมีเพลิน MeehPloen Cafe", "nameTh": "หมีเพลิน MeehPloen Cafe", "nameEn": null, "cat": ["food"], "province": "cr", "slug": "meehploen-cafe-11893650113", "rank": 3}}, {"type": "Feature", "geometry": {"type": "Point", "coordinates": [99.82769, 19.90641]}, "properties": {"id": "cr-osm-node-9124114260", "name": "หอมจันทร์", "nameTh": "หอมจันทร์", "nameEn": "Homchan", "cat": ["food"], "province": "cr", "slug": "homchan-9124114260", "rank": 4}}, {"type": "Feature", "geometry": {"type": "Point", "coordinates": [99.82787, 19.89912]}, "properties": {"id": "cr-osm-node-6282356485", "name": "ออมละไม", "nameTh": "ออมละไม", "nameEn": "Om La-Mai (homemade ice cream)", "cat": ["food"], "province": "cr", "slug": "om-la-mai-homemade-ice-cream-6282356485", "rank": 2}}, {"type": "Feature", "geometry": {"type": "Point", "coordinates": [99.81522, 19.90077]}, "properties": {"id": "cr-osm-node-8953875584", "name": "เวียงหลวงหมูกระทะ", "nameTh": "เวียงหลวงหมูกระทะ", "nameEn": "Wiangluang Mookata", "cat": ["food"], "province": "cr", "slug": "wiangluang-mookata-8953875584", "rank": 2}}, {"type": "Feature", "geometry": {"type": "Point", "coordinates": [99.83036, 19.88483]}, "properties": {"id": "cr-osm-node-5171371321", "name": "โตกตอง", "nameTh": "โตกตอง", "nameEn": "Tok Tong Restaurant", "cat": ["food"], "province": "cr", "slug": "tok-tong-restaurant-5171371321", "rank": 3}}]}