{"type": "FeatureCollection", "features": [{"type": "Feature", "geometry": {"type": "Point", "coordinates": [99.82861, 19.90502]}, "properties": {"id": "cr-osm-node-10307977396", "name": "1055 brewing at corner", "nameTh": null, "nameEn": "1055 brewing at corner", "cat": ["food"], "province": "cr", "slug": "1055-brewing-at-corner-10307977396", "rank": 3}}, {"type": "Feature", "geometry": {"type": "Point", "coordinates": [99.8804, 20.3222]}, "properties": {"id": "cr-osm-way-702969689", "name": "11Coffee Roasters", "nameTh": null, "nameEn": "11Coffee Roasters", "cat": ["food"], "province": "cr", "slug": "11coffee-roasters-702969689", "rank": 1}}, {"type": "Feature", "geometry": {"type": "Point", "coordinates": [99.83083, 19.90908]}, "properties": {"id": "cr-osm-node-6725738686", "name": "1:2 - กาดหลวง", "nameTh": "1:2 - กาดหลวง", "nameEn": "1:2 Chiang Rai Brew", "cat": ["food"], "province": "cr", "slug": "1-2-chiang-rai-brew-6725738686", "rank": 3}}, {"type": "Feature", "geometry": {"type": "Point", "coordinates": [100.40538, 20.27141]}, "properties": {"id": "cr-osm-node-3289826877", "name": "Cafe de Lao", "nameTh": null, "nameEn": "Cafe de Lao", "cat": ["food"], "province": "cr", "slug": "cafe-de-lao-3289826877", "rank": 1}}, {"type": "Feature", "geometry": {"type": "Point", "coordinates": [99.74115, 19.54019]}, "properties": {"id": "cr-osm-node-4099350657", "name": "Café Amazon", "nameTh": "คาเฟ่ อเมซอน", "nameEn": "Café Amazon", "cat": ["food"], "province": "cr", "slug": "caf-amazon-4099350657", "rank": 2}}, {"type": "Feature", "geometry": {"type": "Point", "coordinates": [99.83727, 19.9088]}, "properties": {"id": "cr-osm-node-3214139849", "name": "Coffee Bright", "nameTh": null, "nameEn": "Coffee Bright", "cat": ["food"], "province": "cr", "slug": "coffee-bright-3214139849", "rank": 1}}, {"type": "Feature", "geometry": {"type": "Point", "coordinates": [99.49374, 19.56004]}, "properties": {"id": "cr-osm-node-2081340989", "name": "Doi Chaang Café", "nameTh": null, "nameEn": "Doi Chaang Coffee House @ Maesuai", "cat": ["food"], "province": "cr", "slug": "doi-chaang-coffee-house-maesuai-2081340989", "rank": 2}}, {"type": "Feature", "geometry": {"type": "Point", "coordinates": [99.84959, 19.96914]}, "properties": {"id": "cr-osm-way-1197823633", "name": "Heaven Café : Marble", "nameTh": null, "nameEn": "Heaven Café : Marble", "cat": ["food"], "province": "cr", "slug": "heaven-caf-marble-1197823633", "rank": 3}}, {"type": "Feature", "geometry": {"type": "Point", "coordinates": [99.51635, 19.22415]}, "properties": {"id": "cr-osm-way-675078299", "name": "Love Spoon Coffee House & Restaurant", "nameTh": null, "nameEn": "Love Spoon Coffee House & Restaurant", "cat": ["food"], "province": "cr", "slug": "love-spoon-coffee-house-restaurant-675078299", "rank": 1}}, {"type": "Feature", "geometry": {"type": "Point", "coordinates": [99.72131, 19.84259]}, "properties": {"id": "cr-osm-node-4542952739", "name": "Melody Coffee", "nameTh": null, "nameEn": "Melody Coffee", "cat": ["food"], "province": "cr", "slug": "melody-coffee-4542952739", "rank": 1}}, {"type": "Feature", "geometry": {"type": "Point", "coordinates": [99.50461, 19.59605]}, "properties": {"id": "cr-osm-node-5338616583", "name": "Mim Cafe & Bakery", "nameTh": null, "nameEn": "Mim Cafe & Bakery", "cat": ["food"], "province": "cr", "slug": "mim-cafe-bakery-5338616583", "rank": 2}}, {"type": "Feature", "geometry": {"type": "Point", "coordinates": [99.51194, 19.3042]}, "properties": {"id": "cr-osm-node-5397821283", "name": "Orange House", "nameTh": null, "nameEn": "Orange House", "cat": ["food"], "province": "cr", "slug": "orange-house-5397821283", "rank": 2}}, {"type": "Feature", "geometry": {"type": "Point", "coordinates": [99.87894, 19.95481]}, "properties": {"id": "cr-osm-node-5321292210", "name": "Rabika Coffee", "nameTh": null, "nameEn": "Rabika Coffee", "cat": ["food"], "province": "cr", "slug": "rabika-coffee-5321292210", "rank": 1}}, {"type": "Feature", "geometry": {"type": "Point", "coordinates": [99.8339, 19.90896]}, "properties": {"id": "cr-osm-node-3022782391", "name": "Stardust Bar & Grill", "nameTh": null, "nameEn": "Stardust Bar & Grill", "cat": ["food"], "province": "cr", "slug": "stardust-bar-grill-3022782391", "rank": 1}}, {"type": "Feature", "geometry": {"type": "Point", "coordinates": [100.41251, 20.14993]}, "properties": {"id": "cr-osm-node-5285338523", "name": "Sungwa Cafe", "nameTh": null, "nameEn": "Sungwa Cafe", "cat": ["food"], "province": "cr", "slug": "sungwa-cafe-5285338523", "rank": 1}}, {"type": "Feature", "geometry": {"type": "Point", "coordinates": [99.85893, 19.97772]}, "properties": {"id": "cr-osm-node-10770351663", "name": "TCOS Cafe", "nameTh": null, "nameEn": "TCOS Cafe", "cat": ["food"], "province": "cr", "slug": "tcos-cafe-10770351663", "rank": 2}}, {"type": "Feature", "geometry": {"type": "Point", "coordinates": [99.82755, 19.89658]}, "properties": {"id": "cr-osm-way-751059215", "name": "The Roastery by Roj", "nameTh": null, "nameEn": "The Roastery by Roj", "cat": ["food"], "province": "cr", "slug": "the-roastery-by-roj-751059215", "rank": 3}}, {"type": "Feature", "geometry": {"type": "Point", "coordinates": [99.85096, 19.95466]}, "properties": {"id": "cr-osm-node-12683798696", "name": "Thunder Rabbit Coffee", "nameTh": null, "nameEn": "Thunder Rabbit Coffee", "cat": ["food"], "province": "cr", "slug": "thunder-rabbit-coffee-12683798696", "rank": 2}}, {"type": "Feature", "geometry": {"type": "Point", "coordinates": [99.86799, 20.0044]}, "properties": {"id": "cr-osm-node-6632634295", "name": "บาลานซ์ บีน : Balanced Bean Chiangrai", "nameTh": "บาลานซ์ บีน : Balanced Bean Chiangrai", "nameEn": null, "cat": ["food"], "province": "cr", "slug": "balanced-bean-chiangrai-6632634295", "rank": 3}}, {"type": "Feature", "geometry": {"type": "Point", "coordinates": [100.40605, 20.26707]}, "properties": {"id": "cr-osm-node-4324903962", "name": "Baan Fai Guest House", "nameTh": null, "nameEn": "Baan Fai Guest House", "cat": ["hotel"], "province": "cr", "slug": "baan-fai-guest-house-4324903962", "rank": 1}}, {"type": "Feature", "geometry": {"type": "Point", "coordinates": [99.63178, 20.16533]}, "properties": {"id": "cr-osm-node-7023547192", "name": "Baan Hom Muen Lee", "nameTh": null, "nameEn": "Baan Hom Muen Lee", "cat": ["hotel"], "province": "cr", "slug": "baan-hom-muen-lee-7023547192", "rank": 1}}, {"type": "Feature", "geometry": {"type": "Point", "coordinates": [99.89701, 20.42204]}, "properties": {"id": "cr-osm-node-10244676325", "name": "Bansuan Resort Hotel, Mae Sai", "nameTh": null, "nameEn": "Bansuan Resort Hotel, Mae Sai", "cat": ["hotel"], "province": "cr", "slug": "bansuan-resort-hotel-mae-sai-10244676325", "rank": 2}}, {"type": "Feature", "geometry": {"type": "Point", "coordinates": [100.4062, 20.2706]}, "properties": {"id": "cr-osm-way-546319095", "name": "Day Waterfront Hotel", "nameTh": null, "nameEn": "Day Waterfront Hotel", "cat": ["hotel"], "province": "cr", "slug": "day-waterfront-hotel-546319095", "rank": 2}}, {"type": "Feature", "geometry": {"type": "Point", "coordinates": [99.8404, 19.90759]}, "properties": {"id": "cr-osm-node-2315631889", "name": "Fun-D", "nameTh": null, "nameEn": "Fun-D", "cat": ["hotel"], "province": "cr", "slug": "fun-d-2315631889", "rank": 2}}, {"type": "Feature", "geometry": {"type": "Point", "coordinates": [100.40463, 20.26744]}, "properties": {"id": "cr-osm-node-2297130582", "name": "Funky Box Hostel", "nameTh": null, "nameEn": "Funky Box Hostel", "cat": ["hotel"], "province": "cr", "slug": "funky-box-hostel-2297130582", "rank": 1}}, {"type": "Feature", "geometry": {"type": "Point", "coordinates": [99.83444, 19.907]}, "properties": {"id": "cr-osm-node-4709226957", "name": "Golden Triangle Inn", "nameTh": null, "nameEn": "Golden Triangle Inn", "cat": ["hotel"], "province": "cr", "slug": "golden-triangle-inn-4709226957", "rank": 1}}, {"type": "Feature", "geometry": {"type": "Point", "coordinates": [99.83425, 19.91401]}, "properties": {"id": "cr-osm-node-1188707070", "name": "Jitaree Guest House", "nameTh": null, "nameEn": "Jitaree Guest House", "cat": ["hotel"], "province": "cr", "slug": "jitaree-guest-house-1188707070", "rank": 1}}, {"type": "Feature", "geometry": {"type": "Point", "coordinates": [99.82636, 19.89525]}, "properties": {"id": "cr-osm-way-391132812", "name": "La Luna", "nameTh": null, "nameEn": "La Luna", "cat": ["hotel"], "province": "cr", "slug": "la-luna-391132812", "rank": 4}}, {"type": "Feature", "geometry": {"type": "Point", "coordinates": [99.88114, 20.32437]}, "properties": {"id": "cr-osm-way-449294588", "name": "Maesai Orchid Hotel", "nameTh": null, "nameEn": "Maesai Orchid Hotel", "cat": ["hotel"], "province": "cr", "slug": "maesai-orchid-hotel-449294588", "rank": 1}}, {"type": "Feature", "geometry": {"type": "Point", "coordinates": [99.81766, 19.93583]}, "properties": {"id": "cr-osm-node-9472984448", "name": "Nanadoo", "nameTh": null, "nameEn": "Nanadoo", "cat": ["hotel"], "province": "cr", "slug": "nanadoo-9472984448", "rank": 1}}, {"type": "Feature", "geometry": {"type": "Point", "coordinates": [99.76567, 19.8203]}, "properties": {"id": "cr-osm-node-4751436686", "name": "Pak Ping Ing Jai", "nameTh": null, "nameEn": "Pak Ping Ing Jai", "cat": ["hotel"], "province": "cr", "slug": "pak-ping-ing-jai-4751436686", "rank": 1}}, {"type": "Feature", "geometry": {"type": "Point", "coordinates": [99.83342, 19.90669]}, "properties": {"id": "cr-osm-way-487636026", "name": "Thailand Tour Hotel", "nameTh": null, "nameEn": "Thailand Tour Hotel", "cat": ["hotel"], "province": "cr", "slug": "thailand-tour-hotel-487636026", "rank": 1}}, {"type": "Feature", "geometry": {"type": "Point", "coordinates": [99.85122, 19.89308]}, "properties": {"id": "cr-osm-way-1376968719", "name": "คงการ์เด้น วิว รีสอร์ท", "nameTh": "คงการ์เด้น วิว รีสอร์ท", "nameEn": "Kong Garden View Resort Chiang Rai", "cat": ["hotel"], "province": "cr", "slug": "kong-garden-view-resort-chiang-rai-1376968719", "rank": 4}}, {"type": "Feature", "geometry": {"type": "Point", "coordinates": [99.8363, 19.90278]}, "properties": {"id": "cr-osm-way-541553985", "name": "บ้านรินลดา", "nameTh": "บ้านรินลดา", "nameEn": "Rinlada House", "cat": ["hotel"], "province": "cr", "slug": "rinlada-house-541553985", "rank": 2}}, {"type": "Feature", "geometry": {"type": "Point", "coordinates": [100.08762, 20.28186]}, "properties": {"id": "cr-osm-way-542525064", "name": "พักพิงริมโขง", "nameTh": "พักพิงริมโขง", "nameEn": "Pak Ping Rim Khong Bed & Breakfast", "cat": ["hotel"], "province": "cr", "slug": "pak-ping-rim-khong-bed-breakfast-542525064", "rank": 3}}, {"type": "Feature", "geometry": {"type": "Point", "coordinates": [99.85093, 19.91962]}, "properties": {"id": "cr-osm-node-2140748944", "name": "อัมรินทร์ รีสอร์ท", "nameTh": "อัมรินทร์ รีสอร์ท", "nameEn": "Amarin Resort", "cat": ["hotel"], "province": "cr", "slug": "amarin-resort-2140748944", "rank": 3}}, {"type": "Feature", "geometry": {"type": "Point", "coordinates": [100.408, 20.26199]}, "properties": {"id": "cr-osm-way-547058929", "name": "โรงแรมบ้านริมน้ำ", "nameTh": "โรงแรมบ้านริมน้ำ", "nameEn": "Rimnam Guest House", "cat": ["hotel"], "province": "cr", "slug": "rimnam-guest-house-547058929", "rank": 2}}, {"type": "Feature", "geometry": {"type": "Point", "coordinates": [100.4082, 20.26078]}, "properties": {"id": "cr-osm-way-543650860", "name": "โรงแรมริมน้ำเฮ้าล์", "nameTh": "โรงแรมริมน้ำเฮ้าล์", "nameEn": "Rimnam House Hotel", "cat": ["hotel"], "province": "cr", "slug": "rimnam-house-hotel-543650860", "rank": 3}}, {"type": "Feature", "geometry": {"type": "Point", "coordinates": [99.8523, 19.92264]}, "properties": {"id": "cr-osm-way-1127661775", "name": "โรงแรมเดอะแกรนด์ดิโอส", "nameTh": "โรงแรมเดอะแกรนด์ดิโอส", "nameEn": "The Grandiose Hotel Chiang Rai", "cat": ["hotel"], "province": "cr", "slug": "the-grandiose-hotel-chiang-rai-1127661775", "rank": 4}}, {"type": "Feature", "geometry": {"type": "Point", "coordinates": [99.83407, 19.90384]}, "properties": {"id": "cr-osm-way-623835953", "name": "โรงแรมเวียงอินทร์", "nameTh": "โรงแรมเวียงอินทร์", "nameEn": "Wiang Inn Hotel", "cat": ["hotel"], "province": "cr", "slug": "wiang-inn-hotel-623835953", "rank": 4}}, {"type": "Feature", "geometry": {"type": "Point", "coordinates": [99.84494, 19.98282]}, "properties": {"id": "cr-osm-way-169801125", "name": "หอประชุมใหญ่", "nameTh": "หอประชุมใหญ่", "nameEn": null, "cat": ["school"], "province": "cr", "slug": "169801125", "rank": 1}}]}