{"type": "FeatureCollection", "features": [{"type": "Feature", "geometry": {"type": "Point", "coordinates": [99.82861, 19.90502]}, "properties": {"id": "cr-osm-node-10307977396", "name": "1055 brewing at corner", "nameTh": null, "nameEn": "1055 brewing at corner", "cat": ["food"], "province": "cr", "slug": "1055-brewing-at-corner-10307977396", "rank": 3}}, {"type": "Feature", "geometry": {"type": "Point", "coordinates": [99.83083, 19.90908]}, "properties": {"id": "cr-osm-node-6725738686", "name": "1:2 - กาดหลวง", "nameTh": "1:2 - กาดหลวง", "nameEn": "1:2 Chiang Rai Brew", "cat": ["food"], "province": "cr", "slug": "1-2-chiang-rai-brew-6725738686", "rank": 3}}, {"type": "Feature", "geometry": {"type": "Point", "coordinates": [99.83405, 19.88657]}, "properties": {"id": "cr-osm-node-8946453124", "name": "Bar-B-Q Plaza", "nameTh": null, "nameEn": "Bar-B-Q Plaza", "cat": ["food"], "province": "cr", "slug": "bar-b-q-plaza-8946453124", "rank": 1}}, {"type": "Feature", "geometry": {"type": "Point", "coordinates": [99.83318, 19.9045]}, "properties": {"id": "cr-osm-node-4415950789", "name": "Cat 'n' a cup", "nameTh": "Cat 'n' a cup", "nameEn": null, "cat": ["food"], "province": "cr", "slug": "cat-n-a-cup-4415950789", "rank": 1}}, {"type": "Feature", "geometry": {"type": "Point", "coordinates": [99.83371, 19.88651]}, "properties": {"id": "cr-osm-node-8938699740", "name": "IROHA Ramen & Izakaya Chiang Rai - อิโรฮะ ราเมง & อิซากายะ เชียงราย", "nameTh": "IROHA Ramen & Izakaya Chiang Rai - อิโรฮะ ราเมง & อิซากายะ เชียงราย", "nameEn": null, "cat": ["food"], "province": "cr", "slug": "iroha-ramen-izakaya-chiang-rai-8938699740", "rank": 2}}, {"type": "Feature", "geometry": {"type": "Point", "coordinates": [99.8962, 20.42432]}, "properties": {"id": "cr-osm-node-10244676324", "name": "Kampai", "nameTh": null, "nameEn": "Kampai", "cat": ["food"], "province": "cr", "slug": "kampai-10244676324", "rank": 1}}, {"type": "Feature", "geometry": {"type": "Point", "coordinates": [99.55783, 19.77518]}, "properties": {"id": "cr-osm-node-10538600384", "name": "Miyo Coffee & Bar", "nameTh": null, "nameEn": "Miyo Coffee & Bar", "cat": ["food"], "province": "cr", "slug": "miyo-coffee-bar-10538600384", "rank": 2}}, {"type": "Feature", "geometry": {"type": "Point", "coordinates": [99.75354, 19.44782]}, "properties": {"id": "cr-osm-node-10547552330", "name": "Mogami Cafe", "nameTh": null, "nameEn": "Mogami Cafe", "cat": ["food"], "province": "cr", "slug": "mogami-cafe-10547552330", "rank": 2}}, {"type": "Feature", "geometry": {"type": "Point", "coordinates": [99.82844, 19.90564]}, "properties": {"id": "cr-osm-node-3981494578", "name": "Pang Pond", "nameTh": null, "nameEn": "Pang Pond", "cat": ["food"], "province": "cr", "slug": "pang-pond-3981494578", "rank": 1}}, {"type": "Feature", "geometry": {"type": "Point", "coordinates": [99.87894, 19.95481]}, "properties": {"id": "cr-osm-node-5321292210", "name": "Rabika Coffee", "nameTh": null, "nameEn": "Rabika Coffee", "cat": ["food"], "province": "cr", "slug": "rabika-coffee-5321292210", "rank": 1}}, {"type": "Feature", "geometry": {"type": "Point", "coordinates": [99.8382, 19.91134]}, "properties": {"id": "cr-osm-node-10316298412", "name": "Rosie.cei", "nameTh": null, "nameEn": "Rosie.cei", "cat": ["food"], "province": "cr", "slug": "rosie-cei-10316298412", "rank": 1}}, {"type": "Feature", "geometry": {"type": "Point", "coordinates": [99.80212, 19.88729]}, "properties": {"id": "cr-osm-node-4652615988", "name": "Zoomkungten Nonpueng", "nameTh": null, "nameEn": "Zoomkungten Nonpueng", "cat": ["food"], "province": "cr", "slug": "zoomkungten-nonpueng-4652615988", "rank": 3}}, {"type": "Feature", "geometry": {"type": "Point", "coordinates": [99.83074, 19.88475]}, "properties": {"id": "cr-osm-node-9104729404", "name": "ก๋วยเตี๋ยวเรือ ๑๓ เหรียญ", "nameTh": "ก๋วยเตี๋ยวเรือ ๑๓ เหรียญ", "nameEn": null, "cat": ["food"], "province": "cr", "slug": "9104729404", "rank": 2}}, {"type": "Feature", "geometry": {"type": "Point", "coordinates": [99.83343, 19.88641]}, "properties": {"id": "cr-osm-node-9119957392", "name": "ฟูจิ", "nameTh": "ฟูจิ", "nameEn": "Fuji Restaurant", "cat": ["food"], "province": "cr", "slug": "fuji-restaurant-9119957392", "rank": 5}}, {"type": "Feature", "geometry": {"type": "Point", "coordinates": [99.83073, 19.8848]}, "properties": {"id": "cr-osm-node-9104746651", "name": "เตี๋ยวเรือ ๑๓ เหรียญ", "nameTh": "เตี๋ยวเรือ ๑๓ เหรียญ", "nameEn": "Tiew Raeur 13 rian", "cat": ["food"], "province": "cr", "slug": "tiew-raeur-13-rian-9104746651", "rank": 3}}, {"type": "Feature", "geometry": {"type": "Point", "coordinates": [99.83112, 19.89507]}, "properties": {"id": "cr-osm-node-6002648286", "name": "โรงพยาบาลเชียง รายอินเดอร์", "nameTh": "โรงพยาบาลเชียง รายอินเดอร์", "nameEn": "Chianglai Inter Hospital", "cat": ["medical"], "province": "cr", "slug": "chianglai-inter-hospital-6002648286", "rank": 2}}, {"type": "Feature", "geometry": {"type": "Point", "coordinates": [99.8225, 19.86389]}, "properties": {"id": "cr-osm-node-11602192607", "name": "7-Eleven", "nameTh": null, "nameEn": "7-Eleven", "cat": ["essentials"], "province": "cr", "slug": "7-eleven-11602192607", "rank": 1}}, {"type": "Feature", "geometry": {"type": "Point", "coordinates": [99.79478, 19.88022]}, "properties": {"id": "cr-osm-node-6052070140", "name": "7-Eleven", "nameTh": null, "nameEn": "7-Eleven", "cat": ["essentials"], "province": "cr", "slug": "7-eleven-6052070140", "rank": 1}}, {"type": "Feature", "geometry": {"type": "Point", "coordinates": [99.82903, 19.90639]}, "properties": {"id": "cr-osm-way-959733182", "name": "Hop Inn Clock Tower", "nameTh": null, "nameEn": "Hop Inn Clock Tower", "cat": ["hotel"], "province": "cr", "slug": "hop-inn-clock-tower-959733182", "rank": 3}}, {"type": "Feature", "geometry": {"type": "Point", "coordinates": [100.08313, 20.34826]}, "properties": {"id": "cr-osm-node-2210520856", "name": "Serene", "nameTh": null, "nameEn": "Serene", "cat": ["hotel"], "province": "cr", "slug": "serene-2210520856", "rank": 3}}, {"type": "Feature", "geometry": {"type": "Point", "coordinates": [99.87918, 19.9543]}, "properties": {"id": "cr-osm-way-87458645", "name": "อาคารผู้โดยสาร", "nameTh": "อาคารผู้โดยสาร", "nameEn": "Mae Fah Luang-Chiang Rai International Airport Terminal", "cat": ["transport"], "province": "cr", "slug": "mae-fah-luang-chiang-rai-international-airport-terminal-87458645", "rank": 2}}]}