{"type": "FeatureCollection", "features": [{"type": "Feature", "geometry": {"type": "Point", "coordinates": [99.8677, 20.07458]}, "properties": {"id": "cr-osm-node-11949871150", "name": "Hacienda Coffee House & Restaurant", "nameTh": null, "nameEn": "Hacienda Coffee House & Restaurant", "cat": ["food"], "province": "cr", "slug": "hacienda-coffee-house-restaurant-11949871150", "rank": 3}}, {"type": "Feature", "geometry": {"type": "Point", "coordinates": [99.76603, 19.83854]}, "properties": {"id": "cr-osm-node-8637049219", "name": "ครัวหอมใหญ่ :: Hom Yai Cuisine", "nameTh": "ครัวหอมใหญ่ :: Hom Yai Cuisine", "nameEn": null, "cat": ["food"], "province": "cr", "slug": "hom-yai-cuisine-8637049219", "rank": 3}}, {"type": "Feature", "geometry": {"type": "Point", "coordinates": [99.83799, 19.91415]}, "properties": {"id": "cr-osm-node-9703077817", "name": "ปังปอนด์สเต็ก", "nameTh": "ปังปอนด์สเต็ก", "nameEn": "Pangpond Steakhouse", "cat": ["food"], "province": "cr", "slug": "pangpond-steakhouse-9703077817", "rank": 2}}]}