{"type": "FeatureCollection", "features": [{"type": "Feature", "geometry": {"type": "Point", "coordinates": [99.8329, 19.90602]}, "properties": {"id": "cr-osm-node-10253210609", "name": "Big Noodle Cafe", "nameTh": null, "nameEn": "Big Noodle Cafe", "cat": ["food"], "province": "cr", "slug": "big-noodle-cafe-10253210609", "rank": 1}}, {"type": "Feature", "geometry": {"type": "Point", "coordinates": [99.62756, 20.16545]}, "properties": {"id": "cr-osm-node-4520373193", "name": "C&J", "nameTh": null, "nameEn": "C&J", "cat": ["food"], "province": "cr", "slug": "c-j-4520373193", "rank": 2}}, {"type": "Feature", "geometry": {"type": "Point", "coordinates": [99.84789, 19.9669]}, "properties": {"id": "cr-osm-node-4811264237", "name": "Hello coffee and noodles", "nameTh": null, "nameEn": "Hello coffee and noodles", "cat": ["food"], "province": "cr", "slug": "hello-coffee-and-noodles-4811264237", "rank": 2}}, {"type": "Feature", "geometry": {"type": "Point", "coordinates": [99.82942, 19.90723]}, "properties": {"id": "cr-osm-node-13304592201", "name": "Hoi Tot Fried Oyster Omelette", "nameTh": null, "nameEn": "Hoi Tot Fried Oyster Omelette", "cat": ["food"], "province": "cr", "slug": "hoi-tot-fried-oyster-omelette-13304592201", "rank": 1}}, {"type": "Feature", "geometry": {"type": "Point", "coordinates": [99.86027, 19.99235]}, "properties": {"id": "cr-osm-node-12860331935", "name": "Jack The Reaper", "nameTh": null, "nameEn": "Jack The Reaper", "cat": ["food"], "province": "cr", "slug": "jack-the-reaper-12860331935", "rank": 3}}, {"type": "Feature", "geometry": {"type": "Point", "coordinates": [99.83316, 19.90675]}, "properties": {"id": "cr-osm-node-4415950689", "name": "Jatujak", "nameTh": "Jatujak", "nameEn": null, "cat": ["food"], "province": "cr", "slug": "jatujak-4415950689", "rank": 1}}, {"type": "Feature", "geometry": {"type": "Point", "coordinates": [99.85965, 19.97867]}, "properties": {"id": "cr-osm-node-12606010962", "name": "MJ Shabu", "nameTh": null, "nameEn": "MJ Shabu", "cat": ["food"], "province": "cr", "slug": "mj-shabu-12606010962", "rank": 2}}, {"type": "Feature", "geometry": {"type": "Point", "coordinates": [100.40963, 20.25477]}, "properties": {"id": "cr-osm-node-4693772295", "name": "Mouth Muan", "nameTh": null, "nameEn": "Mouth Muan", "cat": ["food"], "province": "cr", "slug": "mouth-muan-4693772295", "rank": 1}}, {"type": "Feature", "geometry": {"type": "Point", "coordinates": [100.40579, 20.26785]}, "properties": {"id": "cr-osm-way-758294486", "name": "Rin Bar", "nameTh": null, "nameEn": "Rin Bar", "cat": ["food"], "province": "cr", "slug": "rin-bar-758294486", "rank": 1}}, {"type": "Feature", "geometry": {"type": "Point", "coordinates": [99.62309, 20.16394]}, "properties": {"id": "cr-osm-way-208495987", "name": "Salima Restaurant", "nameTh": null, "nameEn": "Salima Restaurant", "cat": ["food"], "province": "cr", "slug": "salima-restaurant-208495987", "rank": 1}}, {"type": "Feature", "geometry": {"type": "Point", "coordinates": [99.8859, 20.40979]}, "properties": {"id": "cr-osm-node-13011979301", "name": "Som Tum", "nameTh": null, "nameEn": "Som Tum", "cat": ["food"], "province": "cr", "slug": "som-tum-13011979301", "rank": 3}}, {"type": "Feature", "geometry": {"type": "Point", "coordinates": [100.4071, 20.25494]}, "properties": {"id": "cr-osm-node-4693747098", "name": "Soup Restaurant", "nameTh": null, "nameEn": "Soup Restaurant", "cat": ["food"], "province": "cr", "slug": "soup-restaurant-4693747098", "rank": 1}}, {"type": "Feature", "geometry": {"type": "Point", "coordinates": [99.8339, 19.90896]}, "properties": {"id": "cr-osm-node-3022782391", "name": "Stardust Bar & Grill", "nameTh": null, "nameEn": "Stardust Bar & Grill", "cat": ["food"], "province": "cr", "slug": "stardust-bar-grill-3022782391", "rank": 1}}, {"type": "Feature", "geometry": {"type": "Point", "coordinates": [99.8373, 19.90666]}, "properties": {"id": "cr-osm-node-4527667890", "name": "Thai restaurant", "nameTh": null, "nameEn": "Thai restaurant", "cat": ["food"], "province": "cr", "slug": "thai-restaurant-4527667890", "rank": 1}}, {"type": "Feature", "geometry": {"type": "Point", "coordinates": [99.62612, 20.16548]}, "properties": {"id": "cr-osm-node-4520375490", "name": "Xin Zhi Dai Bakery", "nameTh": null, "nameEn": "Xin Zhi Dai Bakery", "cat": ["food"], "province": "cr", "slug": "xin-zhi-dai-bakery-4520375490", "rank": 2}}, {"type": "Feature", "geometry": {"type": "Point", "coordinates": [99.88322, 20.44119]}, "properties": {"id": "cr-osm-node-7153718285", "name": "Y.G Restaurant", "nameTh": null, "nameEn": "Y.G Restaurant", "cat": ["food"], "province": "cr", "slug": "y-g-restaurant-7153718285", "rank": 1}}, {"type": "Feature", "geometry": {"type": "Point", "coordinates": [99.62285, 20.16368]}, "properties": {"id": "cr-osm-node-6290979685", "name": "Yang Ming Vegetarian Restaurant", "nameTh": null, "nameEn": "Yang Ming Vegetarian Restaurant", "cat": ["food"], "province": "cr", "slug": "yang-ming-vegetarian-restaurant-6290979685", "rank": 2}}, {"type": "Feature", "geometry": {"type": "Point", "coordinates": [100.08536, 20.27412]}, "properties": {"id": "cr-osm-node-5401620121", "name": "night and morning market", "nameTh": null, "nameEn": "night and morning market", "cat": ["food"], "province": "cr", "slug": "night-and-morning-market-5401620121", "rank": 1}}, {"type": "Feature", "geometry": {"type": "Point", "coordinates": [99.84914, 20.14437]}, "properties": {"id": "cr-osm-node-2148634162", "name": "ก๋วยเตี๋ยว", "nameTh": "ก๋วยเตี๋ยว", "nameEn": null, "cat": ["food"], "province": "cr", "slug": "2148634162", "rank": 1}}, {"type": "Feature", "geometry": {"type": "Point", "coordinates": [99.83077, 19.9073]}, "properties": {"id": "cr-osm-way-960935005", "name": "ข้าวมันไก่จักรพรรดิ", "nameTh": "ข้าวมันไก่จักรพรรดิ", "nameEn": "Chakrapad Chicken Rice", "cat": ["food"], "province": "cr", "slug": "chakrapad-chicken-rice-960935005", "rank": 4}}, {"type": "Feature", "geometry": {"type": "Point", "coordinates": [99.84615, 19.91368]}, "properties": {"id": "cr-osm-way-553068808", "name": "ซาลีมา", "nameTh": "ซาลีมา", "nameEn": "Saleema Muslim Food", "cat": ["food"], "province": "cr", "slug": "saleema-muslim-food-553068808", "rank": 2}}, {"type": "Feature", "geometry": {"type": "Point", "coordinates": [99.83285, 19.91124]}, "properties": {"id": "cr-osm-way-963829086", "name": "มด ข้าวต้มพุ้ย 2", "nameTh": "มด ข้าวต้มพุ้ย 2", "nameEn": "Mod Khaotom Pui 2", "cat": ["food"], "province": "cr", "slug": "mod-khaotom-pui-2-963829086", "rank": 2}}, {"type": "Feature", "geometry": {"type": "Point", "coordinates": [99.88558, 20.42746]}, "properties": {"id": "cr-osm-node-13154669401", "name": "ร้านกาแฟ BECAUSE COFFEE", "nameTh": "ร้านกาแฟ BECAUSE COFFEE", "nameEn": null, "cat": ["food"], "province": "cr", "slug": "because-coffee-13154669401", "rank": 2}}, {"type": "Feature", "geometry": {"type": "Point", "coordinates": [99.50926, 19.60338]}, "properties": {"id": "cr-osm-node-13040769261", "name": "หม่าล่าซ.8", "nameTh": "หม่าล่าซ.8", "nameEn": null, "cat": ["food"], "province": "cr", "slug": "8-13040769261", "rank": 3}}, {"type": "Feature", "geometry": {"type": "Point", "coordinates": [99.74124, 19.52266]}, "properties": {"id": "cr-osm-node-4546328890", "name": "ใบไม้", "nameTh": "ใบไม้", "nameEn": "Baimai", "cat": ["food"], "province": "cr", "slug": "baimai-4546328890", "rank": 2}}, {"type": "Feature", "geometry": {"type": "Point", "coordinates": [99.995, 20.24066]}, "properties": {"id": "cr-osm-node-13011251201", "name": "ไร่ฮักตี้ใจ๋", "nameTh": "ไร่ฮักตี้ใจ๋", "nameEn": "Hug Tee Jai", "cat": ["food"], "province": "cr", "slug": "hug-tee-jai-13011251201", "rank": 2}}]}