{"type": "FeatureCollection", "features": [{"type": "Feature", "geometry": {"type": "Point", "coordinates": [99.83808, 19.90628]}, "properties": {"id": "cr-osm-node-10743319577", "name": "Amici Pizza CEI อมีซี พิซซ่า เชียงราย", "nameTh": "Amici Pizza CEI อมีซี พิซซ่า เชียงราย", "nameEn": null, "cat": ["food"], "province": "cr", "slug": "amici-pizza-cei-10743319577", "rank": 3}}, {"type": "Feature", "geometry": {"type": "Point", "coordinates": [99.8329, 19.90472]}, "properties": {"id": "cr-osm-node-4662987919", "name": "Aye's Restaurant", "nameTh": null, "nameEn": "Aye's Restaurant", "cat": ["food"], "province": "cr", "slug": "aye-s-restaurant-4662987919", "rank": 1}}, {"type": "Feature", "geometry": {"type": "Point", "coordinates": [99.83352, 19.91279]}, "properties": {"id": "cr-osm-node-13651622201", "name": "Bella Pizza", "nameTh": null, "nameEn": "Bella Pizza", "cat": ["food"], "province": "cr", "slug": "bella-pizza-13651622201", "rank": 3}}, {"type": "Feature", "geometry": {"type": "Point", "coordinates": [99.82773, 19.89916]}, "properties": {"id": "cr-osm-node-7074459607", "name": "Bella Pizza", "nameTh": null, "nameEn": "Bella Pizza", "cat": ["food"], "province": "cr", "slug": "bella-pizza-7074459607", "rank": 1}}, {"type": "Feature", "geometry": {"type": "Point", "coordinates": [99.83308, 19.90398]}, "properties": {"id": "cr-osm-node-4043595789", "name": "Chef Sasa", "nameTh": null, "nameEn": "Chef Sasa", "cat": ["food"], "province": "cr", "slug": "chef-sasa-4043595789", "rank": 2}}, {"type": "Feature", "geometry": {"type": "Point", "coordinates": [100.30874, 19.92622]}, "properties": {"id": "cr-osm-node-12609083401", "name": "Fin'n Land", "nameTh": null, "nameEn": "Fin'n Land", "cat": ["food"], "province": "cr", "slug": "fin-n-land-12609083401", "rank": 1}}, {"type": "Feature", "geometry": {"type": "Point", "coordinates": [99.83105, 19.9061]}, "properties": {"id": "cr-osm-node-5320151028", "name": "Heaven Burger", "nameTh": null, "nameEn": "Heaven Burger", "cat": ["food"], "province": "cr", "slug": "heaven-burger-5320151028", "rank": 3}}, {"type": "Feature", "geometry": {"type": "Point", "coordinates": [100.08855, 20.28572]}, "properties": {"id": "cr-osm-node-5810517059", "name": "Hut of love", "nameTh": null, "nameEn": "Hut of love", "cat": ["food"], "province": "cr", "slug": "hut-of-love-5810517059", "rank": 1}}, {"type": "Feature", "geometry": {"type": "Point", "coordinates": [99.83193, 19.90607]}, "properties": {"id": "cr-osm-node-12718282001", "name": "La Gatta", "nameTh": null, "nameEn": "La Gatta", "cat": ["food"], "province": "cr", "slug": "la-gatta-12718282001", "rank": 1}}, {"type": "Feature", "geometry": {"type": "Point", "coordinates": [99.80273, 19.94347]}, "properties": {"id": "cr-osm-node-6424540488", "name": "Lee Hu Doichang Coffee", "nameTh": null, "nameEn": "Lee Hu Doichang Coffee", "cat": ["food"], "province": "cr", "slug": "lee-hu-doichang-coffee-6424540488", "rank": 1}}, {"type": "Feature", "geometry": {"type": "Point", "coordinates": [99.83694, 19.92769]}, "properties": {"id": "cr-osm-node-9141052700", "name": "No.444 Pizza", "nameTh": null, "nameEn": "No.444 Pizza", "cat": ["food"], "province": "cr", "slug": "no-444-pizza-9141052700", "rank": 3}}, {"type": "Feature", "geometry": {"type": "Point", "coordinates": [99.84391, 19.93087]}, "properties": {"id": "cr-osm-node-10291388608", "name": "Pizza Hut", "nameTh": null, "nameEn": "Pizza Hut", "cat": ["food"], "province": "cr", "slug": "pizza-hut-10291388608", "rank": 1}}, {"type": "Feature", "geometry": {"type": "Point", "coordinates": [99.83067, 19.90732]}, "properties": {"id": "cr-osm-way-960935004", "name": "Pizza Hut", "nameTh": null, "nameEn": "Pizza Hut", "cat": ["food"], "province": "cr", "slug": "pizza-hut-960935004", "rank": 1}}, {"type": "Feature", "geometry": {"type": "Point", "coordinates": [100.40602, 20.2562]}, "properties": {"id": "cr-osm-node-4693772294", "name": "Taxi Café", "nameTh": null, "nameEn": "Taxi Café", "cat": ["food"], "province": "cr", "slug": "taxi-caf-4693772294", "rank": 1}}, {"type": "Feature", "geometry": {"type": "Point", "coordinates": [99.82855, 19.91391]}, "properties": {"id": "cr-osm-way-551185211", "name": "The Hungry Wolf", "nameTh": "ฮังกรีวูฟล์ สเต็กเฮาส์", "nameEn": "The Hungry Wolf", "cat": ["food"], "province": "cr", "slug": "the-hungry-wolf-551185211", "rank": 4}}, {"type": "Feature", "geometry": {"type": "Point", "coordinates": [99.83311, 19.88616]}, "properties": {"id": "cr-osm-node-2334898017", "name": "The Pizza Company", "nameTh": "เดอะ พิซซ่า คอมปะนี", "nameEn": "The Pizza Company", "cat": ["food"], "province": "cr", "slug": "the-pizza-company-2334898017", "rank": 4}}, {"type": "Feature", "geometry": {"type": "Point", "coordinates": [99.85518, 19.96495]}, "properties": {"id": "cr-osm-node-4525382278", "name": "The Pizza Company", "nameTh": null, "nameEn": "The Pizza Company", "cat": ["food"], "province": "cr", "slug": "the-pizza-company-4525382278", "rank": 1}}, {"type": "Feature", "geometry": {"type": "Point", "coordinates": [99.83291, 19.90501]}, "properties": {"id": "cr-osm-node-6297472385", "name": "The Pizza Company", "nameTh": null, "nameEn": "pizza company", "cat": ["food"], "province": "cr", "slug": "pizza-company-6297472385", "rank": 1}}, {"type": "Feature", "geometry": {"type": "Point", "coordinates": [99.83078, 19.90684]}, "properties": {"id": "cr-osm-way-963169297", "name": "Yoddoi Coffee & Tea", "nameTh": "ยอดดอยกาแฟและชา", "nameEn": "Yoddoi Coffee & Tea", "cat": ["food"], "province": "cr", "slug": "yoddoi-coffee-tea-963169297", "rank": 4}}]}