{"type": "FeatureCollection", "features": [{"type": "Feature", "geometry": {"type": "Point", "coordinates": [99.82908, 19.91192]}, "properties": {"id": "cr-osm-relation-7165835", "name": "โรงพยาบาลโอเวอร์บรุ๊ค", "nameTh": "โรงพยาบาลโอเวอร์บรุ๊ค", "nameEn": "Overbrook Hospital", "cat": ["medical"], "province": "cr", "slug": "overbrook-hospital-7165835", "rank": 4}}, {"type": "Feature", "geometry": {"type": "Point", "coordinates": [99.84359, 19.92371]}, "properties": {"id": "cr-osm-node-12836625438", "name": "Greenhill", "nameTh": null, "nameEn": "Greenhill", "cat": ["cannabis"], "province": "cr", "slug": "greenhill-12836625438", "rank": 3}}, {"type": "Feature", "geometry": {"type": "Point", "coordinates": [99.8867, 20.43832]}, "properties": {"id": "cr-osm-node-12945750501", "name": "7-Eleven", "nameTh": null, "nameEn": "7-11 Namon Intersection", "cat": ["essentials"], "province": "cr", "slug": "7-11-namon-intersection-12945750501", "rank": 2}}, {"type": "Feature", "geometry": {"type": "Point", "coordinates": [99.85575, 19.9665]}, "properties": {"id": "cr-osm-node-1295676321", "name": "7-Eleven", "nameTh": null, "nameEn": "7-Eleven", "cat": ["essentials"], "province": "cr", "slug": "7-eleven-1295676321", "rank": 3}}, {"type": "Feature", "geometry": {"type": "Point", "coordinates": [99.85695, 19.96823]}, "properties": {"id": "cr-osm-node-1295698732", "name": "7-Eleven", "nameTh": null, "nameEn": "7-Eleven", "cat": ["essentials"], "province": "cr", "slug": "7-eleven-1295698732", "rank": 3}}, {"type": "Feature", "geometry": {"type": "Point", "coordinates": [99.51608, 19.19759]}, "properties": {"id": "cr-osm-node-2123248677", "name": "7-Eleven", "nameTh": null, "nameEn": "7-Eleven", "cat": ["essentials"], "province": "cr", "slug": "7-eleven-2123248677", "rank": 3}}, {"type": "Feature", "geometry": {"type": "Point", "coordinates": [99.50361, 19.3673]}, "properties": {"id": "cr-osm-node-2136711248", "name": "7-Eleven", "nameTh": null, "nameEn": "7-Eleven", "cat": ["essentials"], "province": "cr", "slug": "7-eleven-2136711248", "rank": 3}}, {"type": "Feature", "geometry": {"type": "Point", "coordinates": [99.83944, 19.91092]}, "properties": {"id": "cr-osm-node-2140653246", "name": "7-Eleven", "nameTh": null, "nameEn": "7-Eleven", "cat": ["essentials"], "province": "cr", "slug": "7-eleven-2140653246", "rank": 3}}, {"type": "Feature", "geometry": {"type": "Point", "coordinates": [99.87631, 20.04896]}, "properties": {"id": "cr-osm-node-2153737321", "name": "7-Eleven", "nameTh": null, "nameEn": "7-Eleven", "cat": ["essentials"], "province": "cr", "slug": "7-eleven-2153737321", "rank": 3}}, {"type": "Feature", "geometry": {"type": "Point", "coordinates": [99.87502, 20.0562]}, "properties": {"id": "cr-osm-node-2153746716", "name": "7-Eleven", "nameTh": null, "nameEn": "7-Eleven", "cat": ["essentials"], "province": "cr", "slug": "7-eleven-2153746716", "rank": 3}}, {"type": "Feature", "geometry": {"type": "Point", "coordinates": [99.88511, 20.42947]}, "properties": {"id": "cr-osm-node-2193469992", "name": "7-Eleven", "nameTh": null, "nameEn": "7-Eleven", "cat": ["essentials"], "province": "cr", "slug": "7-eleven-2193469992", "rank": 3}}, {"type": "Feature", "geometry": {"type": "Point", "coordinates": [99.88369, 20.43749]}, "properties": {"id": "cr-osm-node-2193469993", "name": "7-Eleven", "nameTh": null, "nameEn": "7-Eleven", "cat": ["essentials"], "province": "cr", "slug": "7-eleven-2193469993", "rank": 3}}, {"type": "Feature", "geometry": {"type": "Point", "coordinates": [99.88289, 20.43946]}, "properties": {"id": "cr-osm-node-2193469995", "name": "7-Eleven", "nameTh": null, "nameEn": "7-Eleven", "cat": ["essentials"], "province": "cr", "slug": "7-eleven-2193469995", "rank": 3}}, {"type": "Feature", "geometry": {"type": "Point", "coordinates": [100.08635, 20.27385]}, "properties": {"id": "cr-osm-node-2212067448", "name": "7-Eleven", "nameTh": null, "nameEn": "7-Eleven", "cat": ["essentials"], "province": "cr", "slug": "7-eleven-2212067448", "rank": 3}}, {"type": "Feature", "geometry": {"type": "Point", "coordinates": [100.40614, 20.25692]}, "properties": {"id": "cr-osm-node-2295433547", "name": "7-Eleven", "nameTh": null, "nameEn": "7-Eleven", "cat": ["essentials"], "province": "cr", "slug": "7-eleven-2295433547", "rank": 3}}, {"type": "Feature", "geometry": {"type": "Point", "coordinates": [99.72516, 19.74621]}, "properties": {"id": "cr-osm-node-2337598535", "name": "7-Eleven", "nameTh": null, "nameEn": "7-Eleven", "cat": ["essentials"], "province": "cr", "slug": "7-eleven-2337598535", "rank": 3}}, {"type": "Feature", "geometry": {"type": "Point", "coordinates": [99.74157, 19.54033]}, "properties": {"id": "cr-osm-node-4099352339", "name": "7-Eleven", "nameTh": null, "nameEn": "7-Eleven", "cat": ["essentials"], "province": "cr", "slug": "7-eleven-4099352339", "rank": 3}}, {"type": "Feature", "geometry": {"type": "Point", "coordinates": [99.81576, 19.9282]}, "properties": {"id": "cr-osm-node-4525360499", "name": "7-Eleven", "nameTh": null, "nameEn": "7-Eleven", "cat": ["essentials"], "province": "cr", "slug": "7-eleven-4525360499", "rank": 2}}, {"type": "Feature", "geometry": {"type": "Point", "coordinates": [99.856, 19.97766]}, "properties": {"id": "cr-osm-node-4530704344", "name": "7-Eleven", "nameTh": null, "nameEn": "7-Eleven", "cat": ["essentials"], "province": "cr", "slug": "7-eleven-4530704344", "rank": 2}}, {"type": "Feature", "geometry": {"type": "Point", "coordinates": [99.85356, 19.97809]}, "properties": {"id": "cr-osm-node-4530704345", "name": "7-Eleven", "nameTh": null, "nameEn": "7-Eleven", "cat": ["essentials"], "province": "cr", "slug": "7-eleven-4530704345", "rank": 2}}, {"type": "Feature", "geometry": {"type": "Point", "coordinates": [99.85466, 19.97843]}, "properties": {"id": "cr-osm-node-4530704346", "name": "7-Eleven", "nameTh": null, "nameEn": "7-Eleven", "cat": ["essentials"], "province": "cr", "slug": "7-eleven-4530704346", "rank": 2}}, {"type": "Feature", "geometry": {"type": "Point", "coordinates": [100.08311, 20.27423]}, "properties": {"id": "cr-osm-node-5257232007", "name": "7-Eleven", "nameTh": null, "nameEn": "7-Eleven", "cat": ["essentials"], "province": "cr", "slug": "7-eleven-5257232007", "rank": 2}}, {"type": "Feature", "geometry": {"type": "Point", "coordinates": [100.09062, 19.6539]}, "properties": {"id": "cr-osm-node-5300187687", "name": "7-Eleven", "nameTh": null, "nameEn": "7-Eleven", "cat": ["essentials"], "province": "cr", "slug": "7-eleven-5300187687", "rank": 2}}, {"type": "Feature", "geometry": {"type": "Point", "coordinates": [100.24114, 19.81345]}, "properties": {"id": "cr-osm-node-5302688175", "name": "7-Eleven", "nameTh": null, "nameEn": "7-Eleven", "cat": ["essentials"], "province": "cr", "slug": "7-eleven-5302688175", "rank": 2}}, {"type": "Feature", "geometry": {"type": "Point", "coordinates": [99.9928, 19.49967]}, "properties": {"id": "cr-osm-node-5304591193", "name": "7-Eleven", "nameTh": null, "nameEn": "7-Eleven", "cat": ["essentials"], "province": "cr", "slug": "7-eleven-5304591193", "rank": 2}}, {"type": "Feature", "geometry": {"type": "Point", "coordinates": [99.83683, 19.90075]}, "properties": {"id": "cr-osm-node-9512592444", "name": "7-Eleven", "nameTh": null, "nameEn": "7-Eleven", "cat": ["essentials"], "province": "cr", "slug": "7-eleven-9512592444", "rank": 2}}, {"type": "Feature", "geometry": {"type": "Point", "coordinates": [99.73127, 19.75246]}, "properties": {"id": "cr-osm-way-1013494820", "name": "7-Eleven", "nameTh": null, "nameEn": "7-Eleven", "cat": ["essentials"], "province": "cr", "slug": "7-eleven-1013494820", "rank": 3}}, {"type": "Feature", "geometry": {"type": "Point", "coordinates": [99.88309, 20.32602]}, "properties": {"id": "cr-osm-way-1112600960", "name": "7-Eleven", "nameTh": null, "nameEn": "7-Eleven", "cat": ["essentials"], "province": "cr", "slug": "7-eleven-1112600960", "rank": 3}}, {"type": "Feature", "geometry": {"type": "Point", "coordinates": [99.82713, 19.89438]}, "properties": {"id": "cr-osm-way-1125805639", "name": "7-Eleven", "nameTh": null, "nameEn": "7-Eleven", "cat": ["essentials"], "province": "cr", "slug": "7-eleven-1125805639", "rank": 2}}, {"type": "Feature", "geometry": {"type": "Point", "coordinates": [99.87575, 20.04847]}, "properties": {"id": "cr-osm-way-1459493692", "name": "7-Eleven", "nameTh": null, "nameEn": "7-Eleven", "cat": ["essentials"], "province": "cr", "slug": "7-eleven-1459493692", "rank": 3}}, {"type": "Feature", "geometry": {"type": "Point", "coordinates": [99.51383, 19.19312]}, "properties": {"id": "cr-osm-way-248181188", "name": "7-Eleven", "nameTh": null, "nameEn": "7-Eleven", "cat": ["essentials"], "province": "cr", "slug": "7-eleven-248181188", "rank": 3}}, {"type": "Feature", "geometry": {"type": "Point", "coordinates": [99.6611, 20.24548]}, "properties": {"id": "cr-osm-way-373628738", "name": "7-Eleven", "nameTh": null, "nameEn": "7-Eleven", "cat": ["essentials"], "province": "cr", "slug": "7-eleven-373628738", "rank": 4}}, {"type": "Feature", "geometry": {"type": "Point", "coordinates": [99.89336, 20.43888]}, "properties": {"id": "cr-osm-way-374815117", "name": "7-Eleven", "nameTh": null, "nameEn": "7-Eleven", "cat": ["essentials"], "province": "cr", "slug": "7-eleven-374815117", "rank": 3}}, {"type": "Feature", "geometry": {"type": "Point", "coordinates": [99.88482, 20.41802]}, "properties": {"id": "cr-osm-way-376357756", "name": "7-Eleven", "nameTh": null, "nameEn": "7-Eleven", "cat": ["essentials"], "province": "cr", "slug": "7-eleven-376357756", "rank": 3}}, {"type": "Feature", "geometry": {"type": "Point", "coordinates": [99.83885, 19.89601]}, "properties": {"id": "cr-osm-way-558431985", "name": "7-Eleven", "nameTh": null, "nameEn": "7-Eleven", "cat": ["essentials"], "province": "cr", "slug": "7-eleven-558431985", "rank": 3}}, {"type": "Feature", "geometry": {"type": "Point", "coordinates": [99.81679, 19.90402]}, "properties": {"id": "cr-osm-way-641594383", "name": "7-Eleven", "nameTh": null, "nameEn": "7-Eleven", "cat": ["essentials"], "province": "cr", "slug": "7-eleven-641594383", "rank": 3}}, {"type": "Feature", "geometry": {"type": "Point", "coordinates": [99.84423, 19.93174]}, "properties": {"id": "cr-osm-way-684872824", "name": "7-Eleven", "nameTh": null, "nameEn": "7-Eleven", "cat": ["essentials"], "province": "cr", "slug": "7-eleven-684872824", "rank": 3}}, {"type": "Feature", "geometry": {"type": "Point", "coordinates": [99.84126, 19.89803]}, "properties": {"id": "cr-osm-way-751054195", "name": "7-Eleven", "nameTh": null, "nameEn": "7-Eleven", "cat": ["essentials"], "province": "cr", "slug": "7-eleven-751054195", "rank": 2}}, {"type": "Feature", "geometry": {"type": "Point", "coordinates": [100.19605, 19.6845]}, "properties": {"id": "cr-osm-way-760186587", "name": "7-Eleven", "nameTh": null, "nameEn": "7-Eleven", "cat": ["essentials"], "province": "cr", "slug": "7-eleven-760186587", "rank": 3}}, {"type": "Feature", "geometry": {"type": "Point", "coordinates": [99.8449, 19.91428]}, "properties": {"id": "cr-osm-way-764360671", "name": "7-Eleven", "nameTh": null, "nameEn": "7-Eleven", "cat": ["essentials"], "province": "cr", "slug": "7-eleven-764360671", "rank": 3}}, {"type": "Feature", "geometry": {"type": "Point", "coordinates": [99.83427, 19.90419]}, "properties": {"id": "cr-osm-way-968332808", "name": "7-Eleven", "nameTh": null, "nameEn": "7-Eleven", "cat": ["essentials"], "province": "cr", "slug": "7-eleven-968332808", "rank": 3}}, {"type": "Feature", "geometry": {"type": "Point", "coordinates": [99.51639, 19.19749]}, "properties": {"id": "cr-osm-node-2123248671", "name": "Lotus's go fresh", "nameTh": null, "nameEn": "Lotus's go fresh", "cat": ["essentials"], "province": "cr", "slug": "lotus-s-go-fresh-2123248671", "rank": 2}}, {"type": "Feature", "geometry": {"type": "Point", "coordinates": [99.50326, 19.36715]}, "properties": {"id": "cr-osm-node-2136677524", "name": "Lotus's go fresh", "nameTh": null, "nameEn": "Lotus's go fresh", "cat": ["essentials"], "province": "cr", "slug": "lotus-s-go-fresh-2136677524", "rank": 2}}, {"type": "Feature", "geometry": {"type": "Point", "coordinates": [99.81582, 19.90337]}, "properties": {"id": "cr-osm-node-2140597873", "name": "Lotus's go fresh", "nameTh": null, "nameEn": "Lotus's go fresh", "cat": ["essentials"], "province": "cr", "slug": "lotus-s-go-fresh-2140597873", "rank": 2}}, {"type": "Feature", "geometry": {"type": "Point", "coordinates": [99.87632, 20.04866]}, "properties": {"id": "cr-osm-node-2153737311", "name": "Lotus's go fresh", "nameTh": null, "nameEn": "Lotus's go fresh", "cat": ["essentials"], "province": "cr", "slug": "lotus-s-go-fresh-2153737311", "rank": 2}}, {"type": "Feature", "geometry": {"type": "Point", "coordinates": [100.08608, 20.27384]}, "properties": {"id": "cr-osm-node-2212067418", "name": "Lotus's go fresh", "nameTh": null, "nameEn": "Lotus's go fresh", "cat": ["essentials"], "province": "cr", "slug": "lotus-s-go-fresh-2212067418", "rank": 2}}, {"type": "Feature", "geometry": {"type": "Point", "coordinates": [100.15413, 19.84703]}, "properties": {"id": "cr-osm-node-2319132228", "name": "Lotus's go fresh", "nameTh": null, "nameEn": "Lotus's go fresh", "cat": ["essentials"], "province": "cr", "slug": "lotus-s-go-fresh-2319132228", "rank": 2}}, {"type": "Feature", "geometry": {"type": "Point", "coordinates": [99.89267, 20.43909]}, "properties": {"id": "cr-osm-node-3725792270", "name": "Lotus's go fresh", "nameTh": null, "nameEn": "Lotus's go fresh", "cat": ["essentials"], "province": "cr", "slug": "lotus-s-go-fresh-3725792270", "rank": 2}}, {"type": "Feature", "geometry": {"type": "Point", "coordinates": [99.82791, 19.89942]}, "properties": {"id": "cr-osm-node-11556106720", "name": "Mini Big C", "nameTh": null, "nameEn": "Mini Big C", "cat": ["essentials"], "province": "cr", "slug": "mini-big-c-11556106720", "rank": 2}}]}