{"type": "FeatureCollection", "features": [{"type": "Feature", "geometry": {"type": "Point", "coordinates": [100.40707, 20.17858]}, "properties": {"id": "cr-osm-node-5302035088", "name": "CALTEX", "nameTh": "คาลเท็กซ์", "nameEn": "Caltex", "cat": ["transport"], "province": "cr", "slug": "caltex-5302035088", "rank": 2}}, {"type": "Feature", "geometry": {"type": "Point", "coordinates": [99.51155, 19.26973]}, "properties": {"id": "cr-osm-way-1013286536", "name": "Caltex", "nameTh": null, "nameEn": "Caltex", "cat": ["transport"], "province": "cr", "slug": "caltex-1013286536", "rank": 1}}, {"type": "Feature", "geometry": {"type": "Point", "coordinates": [99.78401, 19.86069]}, "properties": {"id": "cr-osm-way-1013478054", "name": "Caltex", "nameTh": null, "nameEn": "Caltex", "cat": ["transport"], "province": "cr", "slug": "caltex-1013478054", "rank": 1}}, {"type": "Feature", "geometry": {"type": "Point", "coordinates": [100.16014, 19.69151]}, "properties": {"id": "cr-osm-way-1013512277", "name": "Caltex", "nameTh": null, "nameEn": "Caltex", "cat": ["transport"], "province": "cr", "slug": "caltex-1013512277", "rank": 1}}, {"type": "Feature", "geometry": {"type": "Point", "coordinates": [99.90335, 19.87962]}, "properties": {"id": "cr-osm-way-1014613949", "name": "Caltex", "nameTh": null, "nameEn": "Caltex", "cat": ["transport"], "province": "cr", "slug": "caltex-1014613949", "rank": 1}}, {"type": "Feature", "geometry": {"type": "Point", "coordinates": [99.75142, 19.47836]}, "properties": {"id": "cr-osm-way-1444100283", "name": "Caltex", "nameTh": null, "nameEn": "Caltex", "cat": ["transport"], "province": "cr", "slug": "caltex-1444100283", "rank": 1}}, {"type": "Feature", "geometry": {"type": "Point", "coordinates": [99.85864, 20.15342]}, "properties": {"id": "cr-osm-way-314220024", "name": "Caltex", "nameTh": null, "nameEn": "Caltex", "cat": ["transport"], "province": "cr", "slug": "caltex-314220024", "rank": 1}}, {"type": "Feature", "geometry": {"type": "Point", "coordinates": [99.84562, 19.9146]}, "properties": {"id": "cr-osm-way-684852276", "name": "Caltex", "nameTh": "คาลเท็กซ์", "nameEn": "Caltex", "cat": ["transport"], "province": "cr", "slug": "caltex-684852276", "rank": 3}}, {"type": "Feature", "geometry": {"type": "Point", "coordinates": [99.86019, 19.9134]}, "properties": {"id": "cr-osm-way-1126851236", "name": "คาลเทกซ์", "nameTh": "คาลเทกซ์", "nameEn": "Caltex", "cat": ["transport"], "province": "cr", "slug": "caltex-1126851236", "rank": 2}}, {"type": "Feature", "geometry": {"type": "Point", "coordinates": [99.99137, 19.50813]}, "properties": {"id": "cr-osm-way-402084109", "name": "คาลเท็กซ์", "nameTh": "คาลเท็กซ์", "nameEn": "Caltex", "cat": ["transport"], "province": "cr", "slug": "caltex-402084109", "rank": 3}}, {"type": "Feature", "geometry": {"type": "Point", "coordinates": [99.8438, 19.93052]}, "properties": {"id": "cr-osm-way-1125407048", "name": "ปั้ม Caltex", "nameTh": "ปั้ม Caltex", "nameEn": "Caltex", "cat": ["transport"], "province": "cr", "slug": "caltex-1125407048", "rank": 2}}]}