{"type": "FeatureCollection", "features": [{"type": "Feature", "geometry": {"type": "Point", "coordinates": [99.82861, 19.90502]}, "properties": {"id": "cr-osm-node-10307977396", "name": "1055 brewing at corner", "nameTh": null, "nameEn": "1055 brewing at corner", "cat": ["food"], "province": "cr", "slug": "1055-brewing-at-corner-10307977396", "rank": 3}}, {"type": "Feature", "geometry": {"type": "Point", "coordinates": [99.83083, 19.90908]}, "properties": {"id": "cr-osm-node-6725738686", "name": "1:2 - กาดหลวง", "nameTh": "1:2 - กาดหลวง", "nameEn": "1:2 Chiang Rai Brew", "cat": ["food"], "province": "cr", "slug": "1-2-chiang-rai-brew-6725738686", "rank": 3}}, {"type": "Feature", "geometry": {"type": "Point", "coordinates": [99.83405, 19.88657]}, "properties": {"id": "cr-osm-node-8946453124", "name": "Bar-B-Q Plaza", "nameTh": null, "nameEn": "Bar-B-Q Plaza", "cat": ["food"], "province": "cr", "slug": "bar-b-q-plaza-8946453124", "rank": 1}}, {"type": "Feature", "geometry": {"type": "Point", "coordinates": [99.83371, 19.88651]}, "properties": {"id": "cr-osm-node-8938699740", "name": "IROHA Ramen & Izakaya Chiang Rai - อิโรฮะ ราเมง & อิซากายะ เชียงราย", "nameTh": "IROHA Ramen & Izakaya Chiang Rai - อิโรฮะ ราเมง & อิซากายะ เชียงราย", "nameEn": null, "cat": ["food"], "province": "cr", "slug": "iroha-ramen-izakaya-chiang-rai-8938699740", "rank": 2}}, {"type": "Feature", "geometry": {"type": "Point", "coordinates": [99.83694, 19.92769]}, "properties": {"id": "cr-osm-node-9141052700", "name": "No.444 Pizza", "nameTh": null, "nameEn": "No.444 Pizza", "cat": ["food"], "province": "cr", "slug": "no-444-pizza-9141052700", "rank": 3}}, {"type": "Feature", "geometry": {"type": "Point", "coordinates": [99.85893, 19.97772]}, "properties": {"id": "cr-osm-node-10770351663", "name": "TCOS Cafe", "nameTh": null, "nameEn": "TCOS Cafe", "cat": ["food"], "province": "cr", "slug": "tcos-cafe-10770351663", "rank": 2}}, {"type": "Feature", "geometry": {"type": "Point", "coordinates": [99.82492, 19.89837]}, "properties": {"id": "cr-osm-node-8922379214", "name": "กั๊ดจัง คาเร", "nameTh": "กั๊ดจัง คาเร", "nameEn": null, "cat": ["food"], "province": "cr", "slug": "8922379214", "rank": 1}}, {"type": "Feature", "geometry": {"type": "Point", "coordinates": [99.83536, 19.90713]}, "properties": {"id": "cr-osm-node-8929779417", "name": "เต็มอิ่มเลิศรสข้าวมันไก่", "nameTh": "เต็มอิ่มเลิศรสข้าวมันไก่", "nameEn": "Dtem Im Lert Rot Chicken Rice", "cat": ["food"], "province": "cr", "slug": "dtem-im-lert-rot-chicken-rice-8929779417", "rank": 2}}]}