{"type": "FeatureCollection", "features": [{"type": "Feature", "geometry": {"type": "Point", "coordinates": [99.83589, 19.91499]}, "properties": {"id": "cr-osm-node-9956676040", "name": "Boba On the Cloud", "nameTh": null, "nameEn": "Boba On the Cloud", "cat": ["food"], "province": "cr", "slug": "boba-on-the-cloud-9956676040", "rank": 1}}, {"type": "Feature", "geometry": {"type": "Point", "coordinates": [99.82369, 19.90228]}, "properties": {"id": "cr-osm-way-997955933", "name": "Gotcha", "nameTh": null, "nameEn": "Gotcha", "cat": ["food"], "province": "cr", "slug": "gotcha-997955933", "rank": 1}}, {"type": "Feature", "geometry": {"type": "Point", "coordinates": [99.83444, 19.90418]}, "properties": {"id": "cr-osm-way-968343202", "name": "Me Mango", "nameTh": null, "nameEn": "Me Mango", "cat": ["food"], "province": "cr", "slug": "me-mango-968343202", "rank": 1}}, {"type": "Feature", "geometry": {"type": "Point", "coordinates": [99.81549, 19.90334]}, "properties": {"id": "cr-osm-node-9166342526", "name": "Shong Cha", "nameTh": null, "nameEn": "Shong Cha", "cat": ["food"], "province": "cr", "slug": "shong-cha-9166342526", "rank": 1}}, {"type": "Feature", "geometry": {"type": "Point", "coordinates": [99.83319, 19.9042]}, "properties": {"id": "cr-osm-way-968331332", "name": "So Tea - ชานมไข่มุก", "nameTh": "So Tea - ชานมไข่มุก", "nameEn": "So Tea - tea and bubble tea", "cat": ["food"], "province": "cr", "slug": "so-tea-tea-and-bubble-tea-968331332", "rank": 2}}, {"type": "Feature", "geometry": {"type": "Point", "coordinates": [99.82068, 19.90354]}, "properties": {"id": "cr-osm-node-9152413268", "name": "ชลดา ชานมไข่มุก", "nameTh": "ชลดา ชานมไข่มุก", "nameEn": "Chonlada Bubble Tea", "cat": ["food"], "province": "cr", "slug": "chonlada-bubble-tea-9152413268", "rank": 3}}, {"type": "Feature", "geometry": {"type": "Point", "coordinates": [99.83386, 19.90894]}, "properties": {"id": "cr-osm-way-960070518", "name": "วัวล้วนๆ ไม่มีความผสม", "nameTh": "วัวล้วนๆ ไม่มีความผสม", "nameEn": null, "cat": ["food"], "province": "cr", "slug": "960070518", "rank": 1}}]}