{"type": "FeatureCollection", "features": [{"type": "Feature", "geometry": {"type": "Point", "coordinates": [99.83242, 19.89908]}, "properties": {"id": "cr-osm-node-13435252058", "name": "Good Carb", "nameTh": null, "nameEn": "Good Carb", "cat": ["food"], "province": "cr", "slug": "good-carb-13435252058", "rank": 3}}, {"type": "Feature", "geometry": {"type": "Point", "coordinates": [99.83105, 19.9061]}, "properties": {"id": "cr-osm-node-5320151028", "name": "Heaven Burger", "nameTh": null, "nameEn": "Heaven Burger", "cat": ["food"], "province": "cr", "slug": "heaven-burger-5320151028", "rank": 3}}, {"type": "Feature", "geometry": {"type": "Point", "coordinates": [99.86027, 19.99235]}, "properties": {"id": "cr-osm-node-12860331935", "name": "Jack The Reaper", "nameTh": null, "nameEn": "Jack The Reaper", "cat": ["food"], "province": "cr", "slug": "jack-the-reaper-12860331935", "rank": 3}}, {"type": "Feature", "geometry": {"type": "Point", "coordinates": [99.83661, 19.90371]}, "properties": {"id": "cr-osm-node-5470324922", "name": "Sound Brown Coffee", "nameTh": null, "nameEn": "Sound Brown Coffee", "cat": ["food"], "province": "cr", "slug": "sound-brown-coffee-5470324922", "rank": 2}}, {"type": "Feature", "geometry": {"type": "Point", "coordinates": [99.83078, 19.90684]}, "properties": {"id": "cr-osm-way-963169297", "name": "Yoddoi Coffee & Tea", "nameTh": "ยอดดอยกาแฟและชา", "nameEn": "Yoddoi Coffee & Tea", "cat": ["food"], "province": "cr", "slug": "yoddoi-coffee-tea-963169297", "rank": 4}}, {"type": "Feature", "geometry": {"type": "Point", "coordinates": [99.76603, 19.83854]}, "properties": {"id": "cr-osm-node-8637049219", "name": "ครัวหอมใหญ่ :: Hom Yai Cuisine", "nameTh": "ครัวหอมใหญ่ :: Hom Yai Cuisine", "nameEn": null, "cat": ["food"], "province": "cr", "slug": "hom-yai-cuisine-8637049219", "rank": 3}}]}