{"type": "FeatureCollection", "features": [{"type": "Feature", "geometry": {"type": "Point", "coordinates": [100.08801, 20.29049]}, "properties": {"id": "cr-osm-node-10196106137", "name": "Five Star Chicken", "nameTh": null, "nameEn": "Five Star Chicken", "cat": ["food"], "province": "cr", "slug": "five-star-chicken-10196106137", "rank": 1}}, {"type": "Feature", "geometry": {"type": "Point", "coordinates": [99.51758, 19.20591]}, "properties": {"id": "cr-osm-node-13387757782", "name": "Five Star Chicken", "nameTh": null, "nameEn": "Five Star Chicken", "cat": ["food"], "province": "cr", "slug": "five-star-chicken-13387757782", "rank": 1}}, {"type": "Feature", "geometry": {"type": "Point", "coordinates": [99.51475, 19.61931]}, "properties": {"id": "cr-osm-node-7079185685", "name": "Five Star Chicken", "nameTh": null, "nameEn": "Five Star Chicken", "cat": ["food"], "province": "cr", "slug": "five-star-chicken-7079185685", "rank": 1}}, {"type": "Feature", "geometry": {"type": "Point", "coordinates": [99.86027, 19.99235]}, "properties": {"id": "cr-osm-node-12860331935", "name": "Jack The Reaper", "nameTh": null, "nameEn": "Jack The Reaper", "cat": ["food"], "province": "cr", "slug": "jack-the-reaper-12860331935", "rank": 3}}, {"type": "Feature", "geometry": {"type": "Point", "coordinates": [99.73195, 19.75267]}, "properties": {"id": "cr-osm-node-11345485570", "name": "KFC", "nameTh": null, "nameEn": "KFC", "cat": ["food"], "province": "cr", "slug": "kfc-11345485570", "rank": 1}}, {"type": "Feature", "geometry": {"type": "Point", "coordinates": [99.88359, 20.40749]}, "properties": {"id": "cr-osm-node-2193422313", "name": "KFC", "nameTh": "เค เอฟ ซี", "nameEn": "KFC", "cat": ["food"], "province": "cr", "slug": "kfc-2193422313", "rank": 3}}, {"type": "Feature", "geometry": {"type": "Point", "coordinates": [99.83719, 19.8886]}, "properties": {"id": "cr-osm-node-2334898014", "name": "KFC", "nameTh": "เค เอฟ ซี", "nameEn": "KFC", "cat": ["food"], "province": "cr", "slug": "kfc-2334898014", "rank": 3}}, {"type": "Feature", "geometry": {"type": "Point", "coordinates": [99.83422, 19.88657]}, "properties": {"id": "cr-osm-node-3145141929", "name": "KFC", "nameTh": "เค เอฟ ซี", "nameEn": "KFC", "cat": ["food"], "province": "cr", "slug": "kfc-3145141929", "rank": 3}}, {"type": "Feature", "geometry": {"type": "Point", "coordinates": [99.86963, 20.01181]}, "properties": {"id": "cr-osm-node-6039357353", "name": "KFC", "nameTh": null, "nameEn": "KFC", "cat": ["food"], "province": "cr", "slug": "kfc-6039357353", "rank": 1}}, {"type": "Feature", "geometry": {"type": "Point", "coordinates": [99.51481, 19.19297]}, "properties": {"id": "cr-osm-node-9331635017", "name": "KFC", "nameTh": null, "nameEn": "KFC", "cat": ["food"], "province": "cr", "slug": "kfc-9331635017", "rank": 1}}, {"type": "Feature", "geometry": {"type": "Point", "coordinates": [99.8442, 19.93112]}, "properties": {"id": "cr-osm-way-1125407054", "name": "KFC", "nameTh": null, "nameEn": "KFC", "cat": ["food"], "province": "cr", "slug": "kfc-1125407054", "rank": 1}}, {"type": "Feature", "geometry": {"type": "Point", "coordinates": [99.83077, 19.9073]}, "properties": {"id": "cr-osm-way-960935005", "name": "ข้าวมันไก่จักรพรรดิ", "nameTh": "ข้าวมันไก่จักรพรรดิ", "nameEn": "Chakrapad Chicken Rice", "cat": ["food"], "province": "cr", "slug": "chakrapad-chicken-rice-960935005", "rank": 4}}]}