{"type": "FeatureCollection", "features": [{"type": "Feature", "geometry": {"type": "Point", "coordinates": [99.82886, 19.90447]}, "properties": {"id": "cr-osm-node-13389908501", "name": "Breakfast Factory", "nameTh": null, "nameEn": "Breakfast Factory", "cat": ["food"], "province": "cr", "slug": "breakfast-factory-13389908501", "rank": 1}}, {"type": "Feature", "geometry": {"type": "Point", "coordinates": [99.83788, 19.90095]}, "properties": {"id": "cr-osm-node-13463369506", "name": "Breakfast Monster", "nameTh": null, "nameEn": "Breakfast Monster", "cat": ["food"], "province": "cr", "slug": "breakfast-monster-13463369506", "rank": 1}}, {"type": "Feature", "geometry": {"type": "Point", "coordinates": [99.83242, 19.89908]}, "properties": {"id": "cr-osm-node-13435252058", "name": "Good Carb", "nameTh": null, "nameEn": "Good Carb", "cat": ["food"], "province": "cr", "slug": "good-carb-13435252058", "rank": 3}}, {"type": "Feature", "geometry": {"type": "Point", "coordinates": [99.83105, 19.9061]}, "properties": {"id": "cr-osm-node-5320151028", "name": "Heaven Burger", "nameTh": null, "nameEn": "Heaven Burger", "cat": ["food"], "province": "cr", "slug": "heaven-burger-5320151028", "rank": 3}}, {"type": "Feature", "geometry": {"type": "Point", "coordinates": [99.83661, 19.90371]}, "properties": {"id": "cr-osm-node-5470324922", "name": "Sound Brown Coffee", "nameTh": null, "nameEn": "Sound Brown Coffee", "cat": ["food"], "province": "cr", "slug": "sound-brown-coffee-5470324922", "rank": 2}}, {"type": "Feature", "geometry": {"type": "Point", "coordinates": [99.62612, 20.16548]}, "properties": {"id": "cr-osm-node-4520375490", "name": "Xin Zhi Dai Bakery", "nameTh": null, "nameEn": "Xin Zhi Dai Bakery", "cat": ["food"], "province": "cr", "slug": "xin-zhi-dai-bakery-4520375490", "rank": 2}}, {"type": "Feature", "geometry": {"type": "Point", "coordinates": [99.83115, 19.90701]}, "properties": {"id": "cr-osm-node-13261753744", "name": "Yellow Truck Coffee", "nameTh": null, "nameEn": "Yellow Truck Coffee", "cat": ["food"], "province": "cr", "slug": "yellow-truck-coffee-13261753744", "rank": 3}}, {"type": "Feature", "geometry": {"type": "Point", "coordinates": [99.83078, 19.90684]}, "properties": {"id": "cr-osm-way-963169297", "name": "Yoddoi Coffee & Tea", "nameTh": "ยอดดอยกาแฟและชา", "nameEn": "Yoddoi Coffee & Tea", "cat": ["food"], "province": "cr", "slug": "yoddoi-coffee-tea-963169297", "rank": 4}}, {"type": "Feature", "geometry": {"type": "Point", "coordinates": [100.08536, 20.27412]}, "properties": {"id": "cr-osm-node-5401620121", "name": "night and morning market", "nameTh": null, "nameEn": "night and morning market", "cat": ["food"], "province": "cr", "slug": "night-and-morning-market-5401620121", "rank": 1}}]}