{"type": "FeatureCollection", "features": [{"type": "Feature", "geometry": {"type": "Point", "coordinates": [99.86027, 19.99235]}, "properties": {"id": "cr-osm-node-12860331935", "name": "Jack The Reaper", "nameTh": null, "nameEn": "Jack The Reaper", "cat": ["food"], "province": "cr", "slug": "jack-the-reaper-12860331935", "rank": 3}}, {"type": "Feature", "geometry": {"type": "Point", "coordinates": [99.79478, 19.88022]}, "properties": {"id": "cr-osm-node-6052070140", "name": "7-Eleven", "nameTh": null, "nameEn": "7-Eleven", "cat": ["essentials"], "province": "cr", "slug": "7-eleven-6052070140", "rank": 1}}, {"type": "Feature", "geometry": {"type": "Point", "coordinates": [99.83683, 19.90075]}, "properties": {"id": "cr-osm-node-9512592444", "name": "7-Eleven", "nameTh": null, "nameEn": "7-Eleven", "cat": ["essentials"], "province": "cr", "slug": "7-eleven-9512592444", "rank": 2}}, {"type": "Feature", "geometry": {"type": "Point", "coordinates": [99.81062, 19.94206]}, "properties": {"id": "cr-osm-way-1230814626", "name": "7-Eleven", "nameTh": null, "nameEn": "7-Eleven", "cat": ["essentials"], "province": "cr", "slug": "7-eleven-1230814626", "rank": 1}}, {"type": "Feature", "geometry": {"type": "Point", "coordinates": [99.82903, 19.90639]}, "properties": {"id": "cr-osm-way-959733182", "name": "Hop Inn Clock Tower", "nameTh": null, "nameEn": "Hop Inn Clock Tower", "cat": ["hotel"], "province": "cr", "slug": "hop-inn-clock-tower-959733182", "rank": 3}}]}