{"type": "FeatureCollection", "features": [{"type": "Feature", "geometry": {"type": "Point", "coordinates": [99.83056, 19.91153]}, "properties": {"id": "cr-osm-way-712045323", "name": "วัดพระสิงห์", "nameTh": "วัดพระสิงห์", "nameEn": "Wat Phra Sing", "cat": ["wat"], "province": "cr", "slug": "wat-phra-sing-712045323", "rank": 3}}, {"type": "Feature", "geometry": {"type": "Point", "coordinates": [99.82702, 19.91166]}, "properties": {"id": "cr-osm-way-487642776", "name": "วัดพระแก้ว", "nameTh": "วัดพระแก้ว", "nameEn": "Wat Phra Kaew", "cat": ["wat"], "province": "cr", "slug": "wat-phra-kaew-487642776", "rank": 3}}, {"type": "Feature", "geometry": {"type": "Point", "coordinates": [99.8313, 19.90357]}, "properties": {"id": "cr-osm-way-330739409", "name": "วัดเจ็ดยอด", "nameTh": "วัดเจ็ดยอด", "nameEn": "Wat Chet Yot", "cat": ["wat"], "province": "cr", "slug": "wat-chet-yot-330739409", "rank": 3}}]}