{"type": "FeatureCollection", "features": [{"type": "Feature", "geometry": {"type": "Point", "coordinates": [100.19654, 19.68852]}, "properties": {"id": "cr-osm-node-2423417262", "name": "BAAC Bank", "nameTh": "ธนาคาร ธ.ก.ส.", "nameEn": "BAAC Bank", "cat": ["essentials"], "province": "cr", "slug": "baac-bank-2423417262", "rank": 2}}, {"type": "Feature", "geometry": {"type": "Point", "coordinates": [99.83285, 19.9042]}, "properties": {"id": "cr-osm-node-2321695199", "name": "CIMB Thai Bank", "nameTh": null, "nameEn": "CIMB Thai Bank", "cat": ["essentials"], "province": "cr", "slug": "cimb-thai-bank-2321695199", "rank": 2}}, {"type": "Feature", "geometry": {"type": "Point", "coordinates": [100.40573, 20.26651]}, "properties": {"id": "cr-osm-way-543650870", "name": "Government Savings Bank", "nameTh": null, "nameEn": "Government Savings Bank", "cat": ["essentials"], "province": "cr", "slug": "government-savings-bank-543650870", "rank": 1}}, {"type": "Feature", "geometry": {"type": "Point", "coordinates": [99.88528, 20.43314]}, "properties": {"id": "cr-osm-node-2207469416", "name": "Islamic Bank", "nameTh": null, "nameEn": "Islamic Bank", "cat": ["essentials"], "province": "cr", "slug": "islamic-bank-2207469416", "rank": 1}}, {"type": "Feature", "geometry": {"type": "Point", "coordinates": [99.99273, 19.50184]}, "properties": {"id": "cr-osm-node-3298093172", "name": "Kasikorn Bank", "nameTh": null, "nameEn": "Kasikorn Bank", "cat": ["essentials"], "province": "cr", "slug": "kasikorn-bank-3298093172", "rank": 1}}, {"type": "Feature", "geometry": {"type": "Point", "coordinates": [100.40686, 20.2624]}, "properties": {"id": "cr-osm-way-543650859", "name": "Kasikorn Bank", "nameTh": null, "nameEn": "Kasikorn Bank", "cat": ["essentials"], "province": "cr", "slug": "kasikorn-bank-543650859", "rank": 2}}, {"type": "Feature", "geometry": {"type": "Point", "coordinates": [100.407, 20.261]}, "properties": {"id": "cr-osm-way-543650864", "name": "Krungthai Bank", "nameTh": null, "nameEn": "Krungthai Bank", "cat": ["essentials"], "province": "cr", "slug": "krungthai-bank-543650864", "rank": 2}}, {"type": "Feature", "geometry": {"type": "Point", "coordinates": [100.40709, 20.26054]}, "properties": {"id": "cr-osm-way-543650861", "name": "Siam Commercial Bank", "nameTh": null, "nameEn": "Siam Commercial Bank", "cat": ["essentials"], "province": "cr", "slug": "siam-commercial-bank-543650861", "rank": 1}}, {"type": "Feature", "geometry": {"type": "Point", "coordinates": [100.1947, 19.68616]}, "properties": {"id": "cr-osm-node-2423417267", "name": "TMB", "nameTh": null, "nameEn": "TMB", "cat": ["essentials"], "province": "cr", "slug": "tmb-2423417267", "rank": 1}}, {"type": "Feature", "geometry": {"type": "Point", "coordinates": [99.83274, 19.9032]}, "properties": {"id": "cr-osm-way-484139941", "name": "TMB", "nameTh": null, "nameEn": "TMB", "cat": ["essentials"], "province": "cr", "slug": "tmb-484139941", "rank": 1}}, {"type": "Feature", "geometry": {"type": "Point", "coordinates": [99.84267, 19.91306]}, "properties": {"id": "cr-osm-node-2334888645", "name": "Thanachart Bank", "nameTh": null, "nameEn": "Thanachart Bank", "cat": ["essentials"], "province": "cr", "slug": "thanachart-bank-2334888645", "rank": 1}}, {"type": "Feature", "geometry": {"type": "Point", "coordinates": [99.84458, 19.91412]}, "properties": {"id": "cr-osm-node-2140653234", "name": "กรุงศรี", "nameTh": "กรุงศรี", "nameEn": "Krungsri", "cat": ["essentials"], "province": "cr", "slug": "krungsri-2140653234", "rank": 2}}, {"type": "Feature", "geometry": {"type": "Point", "coordinates": [99.74107, 19.54661]}, "properties": {"id": "cr-osm-node-4472048672", "name": "กรุงศรี", "nameTh": "กรุงศรี", "nameEn": "Krungsri", "cat": ["essentials"], "province": "cr", "slug": "krungsri-4472048672", "rank": 2}}, {"type": "Feature", "geometry": {"type": "Point", "coordinates": [99.88313, 20.43746]}, "properties": {"id": "cr-osm-node-2193469987", "name": "ซีไอเอ็มบี ไทย", "nameTh": "ซีไอเอ็มบี ไทย", "nameEn": "CIMB THAI", "cat": ["essentials"], "province": "cr", "slug": "cimb-thai-2193469987", "rank": 2}}, {"type": "Feature", "geometry": {"type": "Point", "coordinates": [99.85325, 20.14789]}, "properties": {"id": "cr-osm-node-2134740687", "name": "ธนาคาร ธ.ก.ส. สาขาแม่จัน", "nameTh": "ธนาคาร ธ.ก.ส. สาขาแม่จัน", "nameEn": null, "cat": ["essentials"], "province": "cr", "slug": "2134740687", "rank": 1}}, {"type": "Feature", "geometry": {"type": "Point", "coordinates": [99.85502, 20.14971]}, "properties": {"id": "cr-osm-node-2148622832", "name": "ธนาคารกรุงเทพ", "nameTh": "ธนาคารกรุงเทพ", "nameEn": null, "cat": ["essentials"], "province": "cr", "slug": "2148622832", "rank": 1}}, {"type": "Feature", "geometry": {"type": "Point", "coordinates": [99.85562, 19.96608]}, "properties": {"id": "cr-osm-node-2151125545", "name": "ธนาคารกรุงเทพ", "nameTh": "ธนาคารกรุงเทพ", "nameEn": "Bangkok Bank", "cat": ["essentials"], "province": "cr", "slug": "bangkok-bank-2151125545", "rank": 2}}, {"type": "Feature", "geometry": {"type": "Point", "coordinates": [100.08445, 20.27383]}, "properties": {"id": "cr-osm-node-2212090169", "name": "ธนาคารกรุงเทพ", "nameTh": "ธนาคารกรุงเทพ", "nameEn": "Bangkok Bank", "cat": ["essentials"], "province": "cr", "slug": "bangkok-bank-2212090169", "rank": 2}}, {"type": "Feature", "geometry": {"type": "Point", "coordinates": [99.83714, 19.88835]}, "properties": {"id": "cr-osm-node-2334898030", "name": "ธนาคารกรุงเทพ", "nameTh": "ธนาคารกรุงเทพ", "nameEn": "Bangkok Bank", "cat": ["essentials"], "province": "cr", "slug": "bangkok-bank-2334898030", "rank": 2}}, {"type": "Feature", "geometry": {"type": "Point", "coordinates": [99.53952, 19.65416]}, "properties": {"id": "cr-osm-node-4530950597", "name": "ธนาคารกรุงเทพ", "nameTh": "ธนาคารกรุงเทพ", "nameEn": "Bangkok Bank", "cat": ["essentials"], "province": "cr", "slug": "bangkok-bank-4530950597", "rank": 2}}, {"type": "Feature", "geometry": {"type": "Point", "coordinates": [99.51699, 19.20447]}, "properties": {"id": "cr-osm-way-1459699555", "name": "ธนาคารกรุงเทพ", "nameTh": "ธนาคารกรุงเทพ", "nameEn": "Bangkok Bank", "cat": ["essentials"], "province": "cr", "slug": "bangkok-bank-1459699555", "rank": 2}}, {"type": "Feature", "geometry": {"type": "Point", "coordinates": [99.84137, 19.90737]}, "properties": {"id": "cr-osm-way-488638453", "name": "ธนาคารกรุงเทพ", "nameTh": "ธนาคารกรุงเทพ", "nameEn": "Bangkok Bank", "cat": ["essentials"], "province": "cr", "slug": "bangkok-bank-488638453", "rank": 2}}, {"type": "Feature", "geometry": {"type": "Point", "coordinates": [99.50345, 19.36599]}, "properties": {"id": "cr-osm-node-2136711245", "name": "ธนาคารกรุงไทย", "nameTh": "ธนาคารกรุงไทย", "nameEn": "Krung Thai Bank", "cat": ["essentials"], "province": "cr", "slug": "krung-thai-bank-2136711245", "rank": 2}}, {"type": "Feature", "geometry": {"type": "Point", "coordinates": [99.81238, 19.89934]}, "properties": {"id": "cr-osm-node-2140553609", "name": "ธนาคารกรุงไทย", "nameTh": "ธนาคารกรุงไทย", "nameEn": "Krungthai Bank", "cat": ["essentials"], "province": "cr", "slug": "krungthai-bank-2140553609", "rank": 2}}, {"type": "Feature", "geometry": {"type": "Point", "coordinates": [100.08356, 20.27376]}, "properties": {"id": "cr-osm-node-2212090168", "name": "ธนาคารกรุงไทย", "nameTh": "ธนาคารกรุงไทย", "nameEn": "Krung Thai Bank", "cat": ["essentials"], "province": "cr", "slug": "krung-thai-bank-2212090168", "rank": 2}}, {"type": "Feature", "geometry": {"type": "Point", "coordinates": [99.8585, 19.97334]}, "properties": {"id": "cr-osm-node-4530793507", "name": "ธนาคารกรุงไทย", "nameTh": "ธนาคารกรุงไทย", "nameEn": "Krungthai Bank", "cat": ["essentials"], "province": "cr", "slug": "krungthai-bank-4530793507", "rank": 2}}, {"type": "Feature", "geometry": {"type": "Point", "coordinates": [99.85821, 20.15317]}, "properties": {"id": "cr-osm-way-456447074", "name": "ธนาคารกรุงไทย", "nameTh": "ธนาคารกรุงไทย", "nameEn": "Krungthai Bank", "cat": ["essentials"], "province": "cr", "slug": "krungthai-bank-456447074", "rank": 2}}, {"type": "Feature", "geometry": {"type": "Point", "coordinates": [99.84439, 19.9139]}, "properties": {"id": "cr-osm-way-456858792", "name": "ธนาคารกรุงไทย", "nameTh": "ธนาคารกรุงไทย", "nameEn": "Krungthai Bank", "cat": ["essentials"], "province": "cr", "slug": "krungthai-bank-456858792", "rank": 2}}, {"type": "Feature", "geometry": {"type": "Point", "coordinates": [99.74098, 19.54813]}, "properties": {"id": "cr-osm-node-4472048673", "name": "ธนาคารกรุงไทย @ พาน", "nameTh": "ธนาคารกรุงไทย", "nameEn": "Krungthai Bank @ phan", "cat": ["essentials"], "province": "cr", "slug": "krungthai-bank-phan-4472048673", "rank": 2}}, {"type": "Feature", "geometry": {"type": "Point", "coordinates": [99.84302, 19.91336]}, "properties": {"id": "cr-osm-node-2140653233", "name": "ธนาคารกสิกรไทย", "nameTh": "ธนาคารกสิกรไทย", "nameEn": "Kasikorn Bank", "cat": ["essentials"], "province": "cr", "slug": "kasikorn-bank-2140653233", "rank": 2}}, {"type": "Feature", "geometry": {"type": "Point", "coordinates": [99.8613, 20.27194]}, "properties": {"id": "cr-osm-node-2173996556", "name": "ธนาคารกสิกรไทย", "nameTh": "ธนาคารกสิกรไทย", "nameEn": "Kasikorn Bank", "cat": ["essentials"], "province": "cr", "slug": "kasikorn-bank-2173996556", "rank": 2}}, {"type": "Feature", "geometry": {"type": "Point", "coordinates": [99.88467, 20.43372]}, "properties": {"id": "cr-osm-node-2193469982", "name": "ธนาคารกสิกรไทย", "nameTh": "ธนาคารกสิกรไทย", "nameEn": "Kasikorn Bank", "cat": ["essentials"], "province": "cr", "slug": "kasikorn-bank-2193469982", "rank": 2}}, {"type": "Feature", "geometry": {"type": "Point", "coordinates": [99.85658, 19.96706]}, "properties": {"id": "cr-osm-node-4530793506", "name": "ธนาคารกสิกรไทย", "nameTh": "ธนาคารกสิกรไทย", "nameEn": "Kasikorn Bank", "cat": ["essentials"], "province": "cr", "slug": "kasikorn-bank-4530793506", "rank": 2}}, {"type": "Feature", "geometry": {"type": "Point", "coordinates": [99.50382, 19.36579]}, "properties": {"id": "cr-osm-node-4530966449", "name": "ธนาคารกสิกรไทย", "nameTh": "ธนาคารกสิกรไทย", "nameEn": "Kasikornbank", "cat": ["essentials"], "province": "cr", "slug": "kasikornbank-4530966449", "rank": 2}}, {"type": "Feature", "geometry": {"type": "Point", "coordinates": [99.8324, 19.90723]}, "properties": {"id": "cr-osm-way-487637530", "name": "ธนาคารกสิกรไทย", "nameTh": "ธนาคารกสิกรไทย", "nameEn": "Kasikornbank", "cat": ["essentials"], "province": "cr", "slug": "kasikornbank-487637530", "rank": 2}}, {"type": "Feature", "geometry": {"type": "Point", "coordinates": [99.74125, 19.54848]}, "properties": {"id": "cr-osm-node-4472048671", "name": "ธนาคารกสิกรไทย @ พาน", "nameTh": "ธนาคารกสิกรไทย", "nameEn": "Kasikorn Bank @ Phan", "cat": ["essentials"], "province": "cr", "slug": "kasikorn-bank-phan-4472048671", "rank": 2}}, {"type": "Feature", "geometry": {"type": "Point", "coordinates": [99.85468, 20.14977]}, "properties": {"id": "cr-osm-node-2134749972", "name": "ธนาคารกสิกรไทย สาขาแม่จัน", "nameTh": "ธนาคารกสิกรไทย สาขาแม่จัน", "nameEn": null, "cat": ["essentials"], "province": "cr", "slug": "2134749972", "rank": 1}}, {"type": "Feature", "geometry": {"type": "Point", "coordinates": [99.86073, 20.27085]}, "properties": {"id": "cr-osm-node-2173996555", "name": "ธนาคารทหารไทย", "nameTh": "ธนาคารทหารไทย", "nameEn": "TMB", "cat": ["essentials"], "province": "cr", "slug": "tmb-2173996555", "rank": 2}}, {"type": "Feature", "geometry": {"type": "Point", "coordinates": [99.88114, 20.4434]}, "properties": {"id": "cr-osm-node-2319586614", "name": "ธนาคารทหารไทย", "nameTh": "ธนาคารทหารไทย", "nameEn": "TMBThanachart Bank", "cat": ["essentials"], "province": "cr", "slug": "tmbthanachart-bank-2319586614", "rank": 2}}, {"type": "Feature", "geometry": {"type": "Point", "coordinates": [99.84064, 19.91146]}, "properties": {"id": "cr-osm-way-1109542746", "name": "ธนาคารทหารไทย", "nameTh": "ธนาคารทหารไทย", "nameEn": "TMBThanachart Bank", "cat": ["essentials"], "province": "cr", "slug": "tmbthanachart-bank-1109542746", "rank": 2}}, {"type": "Feature", "geometry": {"type": "Point", "coordinates": [99.82724, 19.90843]}, "properties": {"id": "cr-osm-way-625109724", "name": "ธนาคารทหารไทย", "nameTh": "ธนาคารทหารไทย", "nameEn": "TMBThanachart Bank", "cat": ["essentials"], "province": "cr", "slug": "tmbthanachart-bank-625109724", "rank": 2}}, {"type": "Feature", "geometry": {"type": "Point", "coordinates": [99.50504, 19.35609]}, "properties": {"id": "cr-osm-node-2136677525", "name": "ธนาคารออมสิน", "nameTh": "ธนาคารออมสิน", "nameEn": "Government Savings Bank", "cat": ["essentials"], "province": "cr", "slug": "government-savings-bank-2136677525", "rank": 2}}, {"type": "Feature", "geometry": {"type": "Point", "coordinates": [99.8832, 20.43699]}, "properties": {"id": "cr-osm-way-456738556", "name": "ธนาคารออมสิน", "nameTh": "ธนาคารออมสิน", "nameEn": "Government Savings Bank", "cat": ["essentials"], "province": "cr", "slug": "government-savings-bank-456738556", "rank": 2}}, {"type": "Feature", "geometry": {"type": "Point", "coordinates": [99.85291, 20.14573]}, "properties": {"id": "cr-osm-node-2134857689", "name": "ธนาคารออมสิน สาขาแม่จัน", "nameTh": "ธนาคารออมสิน สาขาแม่จัน", "nameEn": null, "cat": ["essentials"], "province": "cr", "slug": "2134857689", "rank": 1}}, {"type": "Feature", "geometry": {"type": "Point", "coordinates": [99.84175, 19.91208]}, "properties": {"id": "cr-osm-node-4530910931", "name": "ธนาคารอิสลามแห่งประเทศไทย", "nameTh": "ธนาคารอิสลามแห่งประเทศไทย", "nameEn": "Islamic Bank of Thailand", "cat": ["essentials"], "province": "cr", "slug": "islamic-bank-of-thailand-4530910931", "rank": 2}}, {"type": "Feature", "geometry": {"type": "Point", "coordinates": [99.50993, 19.33844]}, "properties": {"id": "cr-osm-node-4517964498", "name": "ธนาคารเพื่อการเกษตรและสหกรณ์การเกษตร ธ.ก.ส.", "nameTh": "ธนาคารเพื่อการเกษตรและสหกรณ์การเกษตร ธ.ก.ส.", "nameEn": "Bank for Agriculture and Agricultural Cooperatives (BAAC)", "cat": ["essentials"], "province": "cr", "slug": "bank-for-agriculture-and-agricultural-cooperatives-baac-4517964498", "rank": 2}}, {"type": "Feature", "geometry": {"type": "Point", "coordinates": [99.86481, 19.99387]}, "properties": {"id": "cr-osm-node-4527024911", "name": "ธนาคารเพื่อการเกษตรและสหกรณ์การเกษตร ธ.ก.ส.", "nameTh": "ธนาคารเพื่อการเกษตรและสหกรณ์การเกษตร ธ.ก.ส.", "nameEn": "Bank for Agriculture and Agricultural Cooperatives (BAAC)", "cat": ["essentials"], "province": "cr", "slug": "bank-for-agriculture-and-agricultural-cooperatives-baac-4527024911", "rank": 2}}, {"type": "Feature", "geometry": {"type": "Point", "coordinates": [99.53924, 19.65382]}, "properties": {"id": "cr-osm-node-4530950598", "name": "ธนาคารเพื่อการเกษตรและสหกรณ์การเกษตร ธ.ก.ส.", "nameTh": "ธนาคารเพื่อการเกษตรและสหกรณ์การเกษตร ธ.ก.ส.", "nameEn": "Bank for Agriculture and Agricultural Cooperatives (BAAC)", "cat": ["essentials"], "province": "cr", "slug": "bank-for-agriculture-and-agricultural-cooperatives-baac-4530950598", "rank": 2}}, {"type": "Feature", "geometry": {"type": "Point", "coordinates": [99.85571, 19.96643]}, "properties": {"id": "cr-osm-node-2151125546", "name": "ธนาคารไทยพาณิชย์", "nameTh": "ธนาคารไทยพาณิชย์", "nameEn": "Siam Commercial Bank", "cat": ["essentials"], "province": "cr", "slug": "siam-commercial-bank-2151125546", "rank": 2}}, {"type": "Feature", "geometry": {"type": "Point", "coordinates": [99.50727, 19.35106]}, "properties": {"id": "cr-osm-way-1013293661", "name": "ธนาคารไทยพาณิชย์", "nameTh": "ธนาคารไทยพาณิชย์", "nameEn": "Siam Commercial Bank", "cat": ["essentials"], "province": "cr", "slug": "siam-commercial-bank-1013293661", "rank": 2}}, {"type": "Feature", "geometry": {"type": "Point", "coordinates": [99.8365, 19.88831]}, "properties": {"id": "cr-osm-way-462018633", "name": "ธนาคารไทยพาณิชย์", "nameTh": "ธนาคารไทยพาณิชย์", "nameEn": "Siam Commercial Bank", "cat": ["essentials"], "province": "cr", "slug": "siam-commercial-bank-462018633", "rank": 2}}]}