{"type": "FeatureCollection", "features": [{"type": "Feature", "geometry": {"type": "Point", "coordinates": [99.50993, 19.33844]}, "properties": {"id": "cr-osm-node-4517964498", "name": "ธนาคารเพื่อการเกษตรและสหกรณ์การเกษตร ธ.ก.ส.", "nameTh": "ธนาคารเพื่อการเกษตรและสหกรณ์การเกษตร ธ.ก.ส.", "nameEn": "Bank for Agriculture and Agricultural Cooperatives (BAAC)", "cat": ["essentials"], "province": "cr", "slug": "bank-for-agriculture-and-agricultural-cooperatives-baac-4517964498", "rank": 2}}, {"type": "Feature", "geometry": {"type": "Point", "coordinates": [99.86481, 19.99387]}, "properties": {"id": "cr-osm-node-4527024911", "name": "ธนาคารเพื่อการเกษตรและสหกรณ์การเกษตร ธ.ก.ส.", "nameTh": "ธนาคารเพื่อการเกษตรและสหกรณ์การเกษตร ธ.ก.ส.", "nameEn": "Bank for Agriculture and Agricultural Cooperatives (BAAC)", "cat": ["essentials"], "province": "cr", "slug": "bank-for-agriculture-and-agricultural-cooperatives-baac-4527024911", "rank": 2}}, {"type": "Feature", "geometry": {"type": "Point", "coordinates": [99.53924, 19.65382]}, "properties": {"id": "cr-osm-node-4530950598", "name": "ธนาคารเพื่อการเกษตรและสหกรณ์การเกษตร ธ.ก.ส.", "nameTh": "ธนาคารเพื่อการเกษตรและสหกรณ์การเกษตร ธ.ก.ส.", "nameEn": "Bank for Agriculture and Agricultural Cooperatives (BAAC)", "cat": ["essentials"], "province": "cr", "slug": "bank-for-agriculture-and-agricultural-cooperatives-baac-4530950598", "rank": 2}}]}