{"type": "FeatureCollection", "features": [{"type": "Feature", "geometry": {"type": "Point", "coordinates": [99.83371, 19.88651]}, "properties": {"id": "cr-osm-node-8938699740", "name": "IROHA Ramen & Izakaya Chiang Rai - อิโรฮะ ราเมง & อิซากายะ เชียงราย", "nameTh": "IROHA Ramen & Izakaya Chiang Rai - อิโรฮะ ราเมง & อิซากายะ เชียงราย", "nameEn": null, "cat": ["food"], "province": "cr", "slug": "iroha-ramen-izakaya-chiang-rai-8938699740", "rank": 2}}, {"type": "Feature", "geometry": {"type": "Point", "coordinates": [99.82492, 19.89837]}, "properties": {"id": "cr-osm-node-8922379214", "name": "กั๊ดจัง คาเร", "nameTh": "กั๊ดจัง คาเร", "nameEn": null, "cat": ["food"], "province": "cr", "slug": "8922379214", "rank": 1}}, {"type": "Feature", "geometry": {"type": "Point", "coordinates": [99.85052, 19.92365]}, "properties": {"id": "cr-osm-node-4555833893", "name": "ดามา คาเฟ่ เชียงราย", "nameTh": "ดามา คาเฟ่ เชียงราย", "nameEn": "DaMa Cafe Chingrai", "cat": ["food"], "province": "cr", "slug": "dama-cafe-chingrai-4555833893", "rank": 3}}, {"type": "Feature", "geometry": {"type": "Point", "coordinates": [99.83343, 19.88641]}, "properties": {"id": "cr-osm-node-9119957392", "name": "ฟูจิ", "nameTh": "ฟูจิ", "nameEn": "Fuji Restaurant", "cat": ["food"], "province": "cr", "slug": "fuji-restaurant-9119957392", "rank": 5}}, {"type": "Feature", "geometry": {"type": "Point", "coordinates": [99.8333, 19.88627]}, "properties": {"id": "cr-osm-node-8946977328", "name": "ฮะจิบัง ราเมง", "nameTh": "ฮะจิบัง ราเมง", "nameEn": "Hachiban Ramen", "cat": ["food"], "province": "cr", "slug": "hachiban-ramen-8946977328", "rank": 2}}, {"type": "Feature", "geometry": {"type": "Point", "coordinates": [99.83294, 19.92885]}, "properties": {"id": "cr-osm-way-967419243", "name": "โอชิเน เชียงราย", "nameTh": "โอชิเน เชียงราย", "nameEn": "Oshine Chignarai", "cat": ["food"], "province": "cr", "slug": "oshine-chignarai-967419243", "rank": 3}}]}