{"type": "FeatureCollection", "features": [{"type": "Feature", "geometry": {"type": "Point", "coordinates": [99.68907, 19.74659]}, "properties": {"id": "cr-osm-node-11423023292", "name": "Cosmo", "nameTh": null, "nameEn": "Cosmo", "cat": ["transport"], "province": "cr", "slug": "cosmo-11423023292", "rank": 1}}, {"type": "Feature", "geometry": {"type": "Point", "coordinates": [99.509, 19.34611]}, "properties": {"id": "cr-osm-node-11432552379", "name": "Cosmo", "nameTh": null, "nameEn": "Cosmo", "cat": ["transport"], "province": "cr", "slug": "cosmo-11432552379", "rank": 1}}, {"type": "Feature", "geometry": {"type": "Point", "coordinates": [99.87452, 20.08214]}, "properties": {"id": "cr-osm-node-2153781723", "name": "Cosmo", "nameTh": "คอสโม", "nameEn": "Cosmo", "cat": ["transport"], "province": "cr", "slug": "cosmo-2153781723", "rank": 2}}, {"type": "Feature", "geometry": {"type": "Point", "coordinates": [99.99291, 20.27525]}, "properties": {"id": "cr-osm-node-2206759324", "name": "Cosmo", "nameTh": null, "nameEn": "Cosmo", "cat": ["transport"], "province": "cr", "slug": "cosmo-2206759324", "rank": 1}}, {"type": "Feature", "geometry": {"type": "Point", "coordinates": [100.40557, 20.19475]}, "properties": {"id": "cr-osm-node-2423510173", "name": "Cosmo", "nameTh": "คอสโม", "nameEn": "Cosmo", "cat": ["transport"], "province": "cr", "slug": "cosmo-2423510173", "rank": 2}}, {"type": "Feature", "geometry": {"type": "Point", "coordinates": [99.86776, 20.12619]}, "properties": {"id": "cr-osm-node-3202699603", "name": "Cosmo", "nameTh": null, "nameEn": "Cosmo", "cat": ["transport"], "province": "cr", "slug": "cosmo-3202699603", "rank": 1}}, {"type": "Feature", "geometry": {"type": "Point", "coordinates": [100.00597, 19.96378]}, "properties": {"id": "cr-osm-node-3214139850", "name": "Cosmo", "nameTh": null, "nameEn": "Cosmo", "cat": ["transport"], "province": "cr", "slug": "cosmo-3214139850", "rank": 1}}, {"type": "Feature", "geometry": {"type": "Point", "coordinates": [100.02087, 19.84632]}, "properties": {"id": "cr-osm-way-1014621141", "name": "Cosmo", "nameTh": null, "nameEn": "Cosmo", "cat": ["transport"], "province": "cr", "slug": "cosmo-1014621141", "rank": 1}}, {"type": "Feature", "geometry": {"type": "Point", "coordinates": [100.10116, 19.8911]}, "properties": {"id": "cr-osm-way-1014972494", "name": "Cosmo", "nameTh": null, "nameEn": "Cosmo", "cat": ["transport"], "province": "cr", "slug": "cosmo-1014972494", "rank": 1}}, {"type": "Feature", "geometry": {"type": "Point", "coordinates": [100.4011, 20.26756]}, "properties": {"id": "cr-osm-way-1014990987", "name": "Cosmo", "nameTh": null, "nameEn": "Cosmo", "cat": ["transport"], "province": "cr", "slug": "cosmo-1014990987", "rank": 1}}, {"type": "Feature", "geometry": {"type": "Point", "coordinates": [100.48729, 20.00499]}, "properties": {"id": "cr-osm-way-283436783", "name": "Cosmo", "nameTh": null, "nameEn": "Cosmo", "cat": ["transport"], "province": "cr", "slug": "cosmo-283436783", "rank": 1}}, {"type": "Feature", "geometry": {"type": "Point", "coordinates": [100.38814, 20.30186]}, "properties": {"id": "cr-osm-way-329988858", "name": "Cosmo", "nameTh": null, "nameEn": "Cosmo", "cat": ["transport"], "province": "cr", "slug": "cosmo-329988858", "rank": 1}}, {"type": "Feature", "geometry": {"type": "Point", "coordinates": [99.92853, 20.44174]}, "properties": {"id": "cr-osm-way-372685416", "name": "Cosmo", "nameTh": null, "nameEn": "Cosmo", "cat": ["transport"], "province": "cr", "slug": "cosmo-372685416", "rank": 1}}, {"type": "Feature", "geometry": {"type": "Point", "coordinates": [99.88411, 20.4202]}, "properties": {"id": "cr-osm-way-376183582", "name": "Cosmo", "nameTh": null, "nameEn": "Cosmo", "cat": ["transport"], "province": "cr", "slug": "cosmo-376183582", "rank": 1}}, {"type": "Feature", "geometry": {"type": "Point", "coordinates": [99.85436, 19.96086]}, "properties": {"id": "cr-osm-way-438889206", "name": "Cosmo", "nameTh": null, "nameEn": "Cosmo", "cat": ["transport"], "province": "cr", "slug": "cosmo-438889206", "rank": 1}}, {"type": "Feature", "geometry": {"type": "Point", "coordinates": [99.83208, 19.8997]}, "properties": {"id": "cr-osm-way-483841195", "name": "Cosmo", "nameTh": null, "nameEn": "Cosmo", "cat": ["transport"], "province": "cr", "slug": "cosmo-483841195", "rank": 1}}, {"type": "Feature", "geometry": {"type": "Point", "coordinates": [99.88094, 19.88003]}, "properties": {"id": "cr-osm-way-539335299", "name": "Cosmo", "nameTh": null, "nameEn": "Cosmo", "cat": ["transport"], "province": "cr", "slug": "cosmo-539335299", "rank": 1}}, {"type": "Feature", "geometry": {"type": "Point", "coordinates": [100.27398, 20.02346]}, "properties": {"id": "cr-osm-way-543648332", "name": "Cosmo", "nameTh": null, "nameEn": "Cosmo", "cat": ["transport"], "province": "cr", "slug": "cosmo-543648332", "rank": 1}}, {"type": "Feature", "geometry": {"type": "Point", "coordinates": [100.51087, 20.08348]}, "properties": {"id": "cr-osm-way-555852782", "name": "Cosmo", "nameTh": null, "nameEn": "Cosmo", "cat": ["transport"], "province": "cr", "slug": "cosmo-555852782", "rank": 1}}, {"type": "Feature", "geometry": {"type": "Point", "coordinates": [99.84194, 19.89801]}, "properties": {"id": "cr-osm-way-629517123", "name": "Cosmo", "nameTh": null, "nameEn": "Cosmo", "cat": ["transport"], "province": "cr", "slug": "cosmo-629517123", "rank": 1}}, {"type": "Feature", "geometry": {"type": "Point", "coordinates": [100.43654, 20.19674]}, "properties": {"id": "cr-osm-way-742585192", "name": "Cosmo", "nameTh": null, "nameEn": "Cosmo", "cat": ["transport"], "province": "cr", "slug": "cosmo-742585192", "rank": 1}}, {"type": "Feature", "geometry": {"type": "Point", "coordinates": [100.30254, 19.74535]}, "properties": {"id": "cr-osm-way-760190400", "name": "Cosmo", "nameTh": null, "nameEn": "Cosmo", "cat": ["transport"], "province": "cr", "slug": "cosmo-760190400", "rank": 1}}]}