{"type": "FeatureCollection", "features": [{"type": "Feature", "geometry": {"type": "Point", "coordinates": [99.82383, 19.90743]}, "properties": {"id": "cr-osm-way-959733157", "name": "Agape Coffee", "nameTh": null, "nameEn": "Agape Coffee", "cat": ["food"], "province": "cr", "slug": "agape-coffee-959733157", "rank": 1}}, {"type": "Feature", "geometry": {"type": "Point", "coordinates": [100.08349, 20.34699]}, "properties": {"id": "cr-osm-node-13356954201", "name": "Chewittitkong", "nameTh": null, "nameEn": "Chewittitkong", "cat": ["food"], "province": "cr", "slug": "chewittitkong-13356954201", "rank": 2}}, {"type": "Feature", "geometry": {"type": "Point", "coordinates": [100.03986, 19.99895]}, "properties": {"id": "cr-osm-node-4994531221", "name": "Chill Coffee & Bakery", "nameTh": null, "nameEn": "Chill Coffee & Bakery", "cat": ["food"], "province": "cr", "slug": "chill-coffee-bakery-4994531221", "rank": 1}}, {"type": "Feature", "geometry": {"type": "Point", "coordinates": [99.81683, 20.20012]}, "properties": {"id": "cr-osm-node-3968871249", "name": "Choui Fong", "nameTh": null, "nameEn": "Choui Fong", "cat": ["food"], "province": "cr", "slug": "choui-fong-3968871249", "rank": 4}}, {"type": "Feature", "geometry": {"type": "Point", "coordinates": [99.82438, 19.88209]}, "properties": {"id": "cr-osm-node-4558284402", "name": "Sa Par Cafe", "nameTh": null, "nameEn": "Sa Par Cafe", "cat": ["food"], "province": "cr", "slug": "sa-par-cafe-4558284402", "rank": 3}}, {"type": "Feature", "geometry": {"type": "Point", "coordinates": [99.832, 19.9447]}, "properties": {"id": "cr-osm-node-12438135601", "name": "Sawanbondin Farm&Tea house", "nameTh": null, "nameEn": "Sawanbondin Farm&Tea house", "cat": ["food"], "province": "cr", "slug": "sawanbondin-farm-tea-house-12438135601", "rank": 2}}, {"type": "Feature", "geometry": {"type": "Point", "coordinates": [99.8333, 19.90574]}, "properties": {"id": "cr-osm-node-9333272717", "name": "Soyi Pangkhon Coffee House", "nameTh": null, "nameEn": "Soyi Pangkhon Coffee House", "cat": ["food"], "province": "cr", "slug": "soyi-pangkhon-coffee-house-9333272717", "rank": 2}}, {"type": "Feature", "geometry": {"type": "Point", "coordinates": [99.62769, 19.74657]}, "properties": {"id": "cr-osm-way-758290635", "name": "Sparrow & Co.", "nameTh": null, "nameEn": "Sparrow & Co.", "cat": ["food"], "province": "cr", "slug": "sparrow-co-758290635", "rank": 2}}, {"type": "Feature", "geometry": {"type": "Point", "coordinates": [99.85893, 19.97772]}, "properties": {"id": "cr-osm-node-10770351663", "name": "TCOS Cafe", "nameTh": null, "nameEn": "TCOS Cafe", "cat": ["food"], "province": "cr", "slug": "tcos-cafe-10770351663", "rank": 2}}, {"type": "Feature", "geometry": {"type": "Point", "coordinates": [99.83199, 19.91869]}, "properties": {"id": "cr-osm-node-10973566605", "name": "Triple C", "nameTh": null, "nameEn": "Triple C", "cat": ["food"], "province": "cr", "slug": "triple-c-10973566605", "rank": 2}}, {"type": "Feature", "geometry": {"type": "Point", "coordinates": [99.64898, 20.16245]}, "properties": {"id": "cr-osm-node-5229745321", "name": "Yoddoi Coffee & Tea", "nameTh": null, "nameEn": "Yoddoi Coffee & Tea", "cat": ["food"], "province": "cr", "slug": "yoddoi-coffee-tea-5229745321", "rank": 2}}, {"type": "Feature", "geometry": {"type": "Point", "coordinates": [99.83078, 19.90684]}, "properties": {"id": "cr-osm-way-963169297", "name": "Yoddoi Coffee & Tea", "nameTh": "ยอดดอยกาแฟและชา", "nameEn": "Yoddoi Coffee & Tea", "cat": ["food"], "province": "cr", "slug": "yoddoi-coffee-tea-963169297", "rank": 4}}, {"type": "Feature", "geometry": {"type": "Point", "coordinates": [100.08536, 20.27412]}, "properties": {"id": "cr-osm-node-5401620121", "name": "night and morning market", "nameTh": null, "nameEn": "night and morning market", "cat": ["food"], "province": "cr", "slug": "night-and-morning-market-5401620121", "rank": 1}}, {"type": "Feature", "geometry": {"type": "Point", "coordinates": [99.83359, 19.9092]}, "properties": {"id": "cr-osm-way-960070519", "name": "ดอยช้างคาเฟ่ สวนตุง", "nameTh": "ดอยช้างคาเฟ่ สวนตุง", "nameEn": "Doi Chang Cafe Suan Tung", "cat": ["food"], "province": "cr", "slug": "doi-chang-cafe-suan-tung-960070519", "rank": 2}}, {"type": "Feature", "geometry": {"type": "Point", "coordinates": [99.77475, 20.23936]}, "properties": {"id": "cr-osm-node-9452135618", "name": "ตน", "nameTh": "คนภูเขา", "nameEn": "The Hill Tribes", "cat": ["food"], "province": "cr", "slug": "the-hill-tribes-9452135618", "rank": 4}}, {"type": "Feature", "geometry": {"type": "Point", "coordinates": [99.84782, 20.39878]}, "properties": {"id": "cr-osm-node-9451774317", "name": "ภู คุมะ", "nameTh": "ภู คุมะ", "nameEn": "Phukuma", "cat": ["food"], "province": "cr", "slug": "phukuma-9451774317", "rank": 4}}, {"type": "Feature", "geometry": {"type": "Point", "coordinates": [99.61754, 20.14774]}, "properties": {"id": "cr-osm-node-4164466592", "name": "ร้านชาหงษ์ฉี", "nameTh": "ร้านชาหงษ์ฉี", "nameEn": null, "cat": ["food"], "province": "cr", "slug": "4164466592", "rank": 3}}, {"type": "Feature", "geometry": {"type": "Point", "coordinates": [100.43855, 19.8379]}, "properties": {"id": "cr-osm-node-9448950317", "name": "ลักษณ์กาแฝสด", "nameTh": "ลักษณ์กาแฟสด", "nameEn": null, "cat": ["food"], "province": "cr", "slug": "9448950317", "rank": 1}}]}