{"type": "FeatureCollection", "features": [{"type": "Feature", "geometry": {"type": "Point", "coordinates": [99.82886, 19.90447]}, "properties": {"id": "cr-osm-node-13389908501", "name": "Breakfast Factory", "nameTh": null, "nameEn": "Breakfast Factory", "cat": ["food"], "province": "cr", "slug": "breakfast-factory-13389908501", "rank": 1}}, {"type": "Feature", "geometry": {"type": "Point", "coordinates": [99.83318, 19.9045]}, "properties": {"id": "cr-osm-node-4415950789", "name": "Cat 'n' a cup", "nameTh": "Cat 'n' a cup", "nameEn": null, "cat": ["food"], "province": "cr", "slug": "cat-n-a-cup-4415950789", "rank": 1}}, {"type": "Feature", "geometry": {"type": "Point", "coordinates": [99.83242, 19.89908]}, "properties": {"id": "cr-osm-node-13435252058", "name": "Good Carb", "nameTh": null, "nameEn": "Good Carb", "cat": ["food"], "province": "cr", "slug": "good-carb-13435252058", "rank": 3}}, {"type": "Feature", "geometry": {"type": "Point", "coordinates": [99.82965, 19.90711]}, "properties": {"id": "cr-osm-way-960934989", "name": "เนื้อวัวรสเยี่ยม", "nameTh": "เนื้อวัวรสเยี่ยม", "nameEn": "Rote Yiam Beef", "cat": ["food"], "province": "cr", "slug": "rote-yiam-beef-960934989", "rank": 3}}, {"type": "Feature", "geometry": {"type": "Point", "coordinates": [99.83626, 19.90089]}, "properties": {"id": "cr-osm-node-13475928474", "name": "White Bear", "nameTh": null, "nameEn": "White Bear", "cat": ["essentials"], "province": "cr", "slug": "white-bear-13475928474", "rank": 1}}, {"type": "Feature", "geometry": {"type": "Point", "coordinates": [99.8379, 19.90067]}, "properties": {"id": "cr-osm-node-4434661296", "name": "Pro Gym", "nameTh": null, "nameEn": "Pro Gym", "cat": ["sport"], "province": "cr", "slug": "pro-gym-4434661296", "rank": 1}}]}