{"type": "FeatureCollection", "features": [{"type": "Feature", "geometry": {"type": "Point", "coordinates": [99.83396, 20.18647]}, "properties": {"id": "cr-dgth-thongfah-0582379229", "name": "ก๋วยเตี๋ยวจันทรนิภา", "nameTh": "ก๋วยเตี๋ยวจันทรนิภา", "nameEn": null, "cat": ["food"], "province": "cr", "slug": "0582379229", "rank": 2}}, {"type": "Feature", "geometry": {"type": "Point", "coordinates": [99.80991, 19.88288]}, "properties": {"id": "cr-dgth-thongfah-2101934220", "name": "ขนมเส้น7น้ำ", "nameTh": "ขนมเส้น7น้ำ", "nameEn": null, "cat": ["food"], "province": "cr", "slug": "7-2101934220", "rank": 2}}, {"type": "Feature", "geometry": {"type": "Point", "coordinates": [99.80991, 19.88288]}, "properties": {"id": "cr-dgth-thongfah-2602023373", "name": "ข้าวซอยหนองบัว", "nameTh": "ข้าวซอยหนองบัว", "nameEn": null, "cat": ["food"], "province": "cr", "slug": "2602023373", "rank": 2}}, {"type": "Feature", "geometry": {"type": "Point", "coordinates": [99.80991, 19.88288]}, "properties": {"id": "cr-dgth-thongfah-1954682288", "name": "ข้าวมันไก่ฮ่องเต้", "nameTh": "ข้าวมันไก่ฮ่องเต้", "nameEn": null, "cat": ["food"], "province": "cr", "slug": "1954682288", "rank": 2}}, {"type": "Feature", "geometry": {"type": "Point", "coordinates": [99.80991, 19.88288]}, "properties": {"id": "cr-dgth-thongfah-2470060523", "name": "ข้าวแกงสุโขทัย หนองบัว", "nameTh": "ข้าวแกงสุโขทัย หนองบัว", "nameEn": null, "cat": ["food"], "province": "cr", "slug": "2470060523", "rank": 2}}, {"type": "Feature", "geometry": {"type": "Point", "coordinates": [99.84024, 19.93774]}, "properties": {"id": "cr-dgth-thongfah-2101236398", "name": "ครัวเจ๊ป้อก (น้ำเงี้ยวลำปาง ตามสั่ง)", "nameTh": "ครัวเจ๊ป้อก (น้ำเงี้ยวลำปาง ตามสั่ง)", "nameEn": null, "cat": ["food"], "province": "cr", "slug": "2101236398", "rank": 2}}, {"type": "Feature", "geometry": {"type": "Point", "coordinates": [98.98088, 18.74611]}, "properties": {"id": "cr-dgth-thongfah-0692916591", "name": "ตะวันแดง", "nameTh": "ตะวันแดง", "nameEn": null, "cat": ["food"], "province": "cr", "slug": "0692916591", "rank": 2}}, {"type": "Feature", "geometry": {"type": "Point", "coordinates": [99.80991, 19.88288]}, "properties": {"id": "cr-dgth-thongfah-0884507416", "name": "ต้อมพลอย", "nameTh": "ต้อมพลอย", "nameEn": null, "cat": ["food"], "province": "cr", "slug": "0884507416", "rank": 2}}, {"type": "Feature", "geometry": {"type": "Point", "coordinates": [99.84024, 19.93774]}, "properties": {"id": "cr-dgth-thongfah-0349834596", "name": "ป้าวัลย์", "nameTh": "ป้าวัลย์", "nameEn": null, "cat": ["food"], "province": "cr", "slug": "0349834596", "rank": 2}}, {"type": "Feature", "geometry": {"type": "Point", "coordinates": [99.88135, 20.4231]}, "properties": {"id": "cr-dgth-thongfah-3332785598", "name": "พี่นุช", "nameTh": "พี่นุช", "nameEn": null, "cat": ["food"], "province": "cr", "slug": "3332785598", "rank": 2}}, {"type": "Feature", "geometry": {"type": "Point", "coordinates": [99.80991, 19.88288]}, "properties": {"id": "cr-dgth-thongfah-1734151878", "name": "ริมรั้ว(เหมือนหมาย)", "nameTh": "ริมรั้ว(เหมือนหมาย)", "nameEn": null, "cat": ["food"], "province": "cr", "slug": "1734151878", "rank": 2}}, {"type": "Feature", "geometry": {"type": "Point", "coordinates": [99.84024, 19.93774]}, "properties": {"id": "cr-dgth-thongfah-0563212436", "name": "ร้านขนมจีนสี่น้ำ", "nameTh": "ร้านขนมจีนสี่น้ำ", "nameEn": null, "cat": ["food"], "province": "cr", "slug": "0563212436", "rank": 2}}, {"type": "Feature", "geometry": {"type": "Point", "coordinates": [99.80991, 19.88288]}, "properties": {"id": "cr-dgth-thongfah-2157345537", "name": "ร้านป้าเต็ม", "nameTh": "ร้านป้าเต็ม", "nameEn": null, "cat": ["food"], "province": "cr", "slug": "2157345537", "rank": 2}}, {"type": "Feature", "geometry": {"type": "Point", "coordinates": [99.84024, 19.93774]}, "properties": {"id": "cr-dgth-thongfah-1044148367", "name": "ลัดดาข้าวมันไก่เชียงราย", "nameTh": "ลัดดาข้าวมันไก่เชียงราย", "nameEn": null, "cat": ["food"], "province": "cr", "slug": "1044148367", "rank": 2}}, {"type": "Feature", "geometry": {"type": "Point", "coordinates": [99.80991, 19.88288]}, "properties": {"id": "cr-dgth-thongfah-0597573620", "name": "ลูกปลานานาขนมจีน", "nameTh": "ลูกปลานานาขนมจีน", "nameEn": null, "cat": ["food"], "province": "cr", "slug": "0597573620", "rank": 2}}, {"type": "Feature", "geometry": {"type": "Point", "coordinates": [99.49297, 19.57909]}, "properties": {"id": "cr-dgth-thongfah-4291431994", "name": "อาหลิวข้าวซอยไก่", "nameTh": "อาหลิวข้าวซอยไก่", "nameEn": null, "cat": ["food"], "province": "cr", "slug": "4291431994", "rank": 2}}, {"type": "Feature", "geometry": {"type": "Point", "coordinates": [99.80991, 19.88288]}, "properties": {"id": "cr-dgth-thongfah-2590895288", "name": "อาหารเจอาจารย์", "nameTh": "อาหารเจอาจารย์", "nameEn": null, "cat": ["food"], "province": "cr", "slug": "2590895288", "rank": 2}}, {"type": "Feature", "geometry": {"type": "Point", "coordinates": [99.88916, 20.44404]}, "properties": {"id": "cr-dgth-thongfah-1757761122", "name": "อาหารเจเพื่อสุขภาพ", "nameTh": "อาหารเจเพื่อสุขภาพ", "nameEn": null, "cat": ["food"], "province": "cr", "slug": "1757761122", "rank": 2}}, {"type": "Feature", "geometry": {"type": "Point", "coordinates": [99.88916, 20.44404]}, "properties": {"id": "cr-dgth-thongfah-0821498445", "name": "เหมืองแดงอาหารเจ", "nameTh": "เหมืองแดงอาหารเจ", "nameEn": null, "cat": ["food"], "province": "cr", "slug": "0821498445", "rank": 2}}, {"type": "Feature", "geometry": {"type": "Point", "coordinates": [99.88916, 20.44404]}, "properties": {"id": "cr-dgth-thongfah-2519552511", "name": "แม่สายอาหารเจ", "nameTh": "แม่สายอาหารเจ", "nameEn": null, "cat": ["food"], "province": "cr", "slug": "2519552511", "rank": 2}}, {"type": "Feature", "geometry": {"type": "Point", "coordinates": [99.80991, 19.88288]}, "properties": {"id": "cr-dgth-thongfah-1893340264", "name": "โกลี่", "nameTh": "โกลี่", "nameEn": null, "cat": ["food"], "province": "cr", "slug": "1893340264", "rank": 2}}]}