{"type": "FeatureCollection", "features": [{"type": "Feature", "geometry": {"type": "Point", "coordinates": [99.84458, 19.91412]}, "properties": {"id": "cr-osm-node-2140653234", "name": "กรุงศรี", "nameTh": "กรุงศรี", "nameEn": "Krungsri", "cat": ["essentials"], "province": "cr", "slug": "krungsri-2140653234", "rank": 2}}, {"type": "Feature", "geometry": {"type": "Point", "coordinates": [99.74107, 19.54661]}, "properties": {"id": "cr-osm-node-4472048672", "name": "กรุงศรี", "nameTh": "กรุงศรี", "nameEn": "Krungsri", "cat": ["essentials"], "province": "cr", "slug": "krungsri-4472048672", "rank": 2}}, {"type": "Feature", "geometry": {"type": "Point", "coordinates": [99.83021, 19.90884]}, "properties": {"id": "cr-osm-way-959660524", "name": "ธนาคารกรุงศรีอยุธยา", "nameTh": "ธนาคารกรุงศรีอยุธยา", "nameEn": "Krungsri Bank", "cat": ["essentials"], "province": "cr", "slug": "krungsri-bank-959660524", "rank": 2}}]}