{"type": "FeatureCollection", "features": [{"type": "Feature", "geometry": {"type": "Point", "coordinates": [100.1947, 19.68616]}, "properties": {"id": "cr-osm-node-2423417267", "name": "TMB", "nameTh": null, "nameEn": "TMB", "cat": ["essentials"], "province": "cr", "slug": "tmb-2423417267", "rank": 1}}, {"type": "Feature", "geometry": {"type": "Point", "coordinates": [99.83274, 19.9032]}, "properties": {"id": "cr-osm-way-484139941", "name": "TMB", "nameTh": null, "nameEn": "TMB", "cat": ["essentials"], "province": "cr", "slug": "tmb-484139941", "rank": 1}}, {"type": "Feature", "geometry": {"type": "Point", "coordinates": [99.86073, 20.27085]}, "properties": {"id": "cr-osm-node-2173996555", "name": "ธนาคารทหารไทย", "nameTh": "ธนาคารทหารไทย", "nameEn": "TMB", "cat": ["essentials"], "province": "cr", "slug": "tmb-2173996555", "rank": 2}}, {"type": "Feature", "geometry": {"type": "Point", "coordinates": [99.88114, 20.4434]}, "properties": {"id": "cr-osm-node-2319586614", "name": "ธนาคารทหารไทย", "nameTh": "ธนาคารทหารไทย", "nameEn": "TMBThanachart Bank", "cat": ["essentials"], "province": "cr", "slug": "tmbthanachart-bank-2319586614", "rank": 2}}, {"type": "Feature", "geometry": {"type": "Point", "coordinates": [99.84064, 19.91146]}, "properties": {"id": "cr-osm-way-1109542746", "name": "ธนาคารทหารไทย", "nameTh": "ธนาคารทหารไทย", "nameEn": "TMBThanachart Bank", "cat": ["essentials"], "province": "cr", "slug": "tmbthanachart-bank-1109542746", "rank": 2}}, {"type": "Feature", "geometry": {"type": "Point", "coordinates": [99.82724, 19.90843]}, "properties": {"id": "cr-osm-way-625109724", "name": "ธนาคารทหารไทย", "nameTh": "ธนาคารทหารไทย", "nameEn": "TMBThanachart Bank", "cat": ["essentials"], "province": "cr", "slug": "tmbthanachart-bank-625109724", "rank": 2}}]}