{"type": "FeatureCollection", "features": [{"type": "Feature", "geometry": {"type": "Point", "coordinates": [99.8329, 19.90472]}, "properties": {"id": "cr-osm-node-4662987919", "name": "Aye's Restaurant", "nameTh": null, "nameEn": "Aye's Restaurant", "cat": ["food"], "province": "cr", "slug": "aye-s-restaurant-4662987919", "rank": 1}}, {"type": "Feature", "geometry": {"type": "Point", "coordinates": [99.85905, 19.97462]}, "properties": {"id": "cr-osm-node-1484561524", "name": "Chiang Rai Steak", "nameTh": null, "nameEn": "Chiang Rai Steak", "cat": ["food"], "province": "cr", "slug": "chiang-rai-steak-1484561524", "rank": 1}}, {"type": "Feature", "geometry": {"type": "Point", "coordinates": [99.8677, 20.07458]}, "properties": {"id": "cr-osm-node-11949871150", "name": "Hacienda Coffee House & Restaurant", "nameTh": null, "nameEn": "Hacienda Coffee House & Restaurant", "cat": ["food"], "province": "cr", "slug": "hacienda-coffee-house-restaurant-11949871150", "rank": 3}}, {"type": "Feature", "geometry": {"type": "Point", "coordinates": [99.86027, 19.99235]}, "properties": {"id": "cr-osm-node-12860331935", "name": "Jack The Reaper", "nameTh": null, "nameEn": "Jack The Reaper", "cat": ["food"], "province": "cr", "slug": "jack-the-reaper-12860331935", "rank": 3}}, {"type": "Feature", "geometry": {"type": "Point", "coordinates": [99.87522, 20.06724]}, "properties": {"id": "cr-osm-node-1484574596", "name": "Rabbita Coffee &Steak House", "nameTh": null, "nameEn": "Rabbita Coffee &Steak House", "cat": ["food"], "province": "cr", "slug": "rabbita-coffee-steak-house-1484574596", "rank": 1}}, {"type": "Feature", "geometry": {"type": "Point", "coordinates": [99.83907, 19.89605]}, "properties": {"id": "cr-osm-node-5372494922", "name": "Sabai Steak House", "nameTh": null, "nameEn": "Sabai Steak House", "cat": ["food"], "province": "cr", "slug": "sabai-steak-house-5372494922", "rank": 1}}, {"type": "Feature", "geometry": {"type": "Point", "coordinates": [99.82855, 19.91391]}, "properties": {"id": "cr-osm-way-551185211", "name": "The Hungry Wolf", "nameTh": "ฮังกรีวูฟล์ สเต็กเฮาส์", "nameEn": "The Hungry Wolf", "cat": ["food"], "province": "cr", "slug": "the-hungry-wolf-551185211", "rank": 4}}, {"type": "Feature", "geometry": {"type": "Point", "coordinates": [99.83159, 19.90463]}, "properties": {"id": "cr-osm-way-387048493", "name": "The Saloon", "nameTh": null, "nameEn": "The Saloon", "cat": ["food"], "province": "cr", "slug": "the-saloon-387048493", "rank": 1}}, {"type": "Feature", "geometry": {"type": "Point", "coordinates": [99.80746, 19.88351]}, "properties": {"id": "cr-osm-node-4209107589", "name": "Uncle Dee Steak", "nameTh": null, "nameEn": "Uncle Dee Steak", "cat": ["food"], "province": "cr", "slug": "uncle-dee-steak-4209107589", "rank": 1}}, {"type": "Feature", "geometry": {"type": "Point", "coordinates": [100.08536, 20.27412]}, "properties": {"id": "cr-osm-node-5401620121", "name": "night and morning market", "nameTh": null, "nameEn": "night and morning market", "cat": ["food"], "province": "cr", "slug": "night-and-morning-market-5401620121", "rank": 1}}, {"type": "Feature", "geometry": {"type": "Point", "coordinates": [99.83799, 19.91415]}, "properties": {"id": "cr-osm-node-9703077817", "name": "ปังปอนด์สเต็ก", "nameTh": "ปังปอนด์สเต็ก", "nameEn": "Pangpond Steakhouse", "cat": ["food"], "province": "cr", "slug": "pangpond-steakhouse-9703077817", "rank": 2}}, {"type": "Feature", "geometry": {"type": "Point", "coordinates": [99.83799, 19.90908]}, "properties": {"id": "cr-osm-node-9097753203", "name": "สเต็กลุงหนวด", "nameTh": "สเต็กลุงหนวด", "nameEn": "Steak Lung Nhuad", "cat": ["food"], "province": "cr", "slug": "steak-lung-nhuad-9097753203", "rank": 2}}]}