{"type": "FeatureCollection", "features": [{"type": "Feature", "geometry": {"type": "Point", "coordinates": [99.99834, 19.51095]}, "properties": {"id": "cr-osm-way-402084119", "name": "Stupa", "nameTh": null, "nameEn": "Stupa", "cat": ["wat"], "province": "cr", "slug": "stupa-402084119", "rank": 1}}, {"type": "Feature", "geometry": {"type": "Point", "coordinates": [100.08804, 20.27774]}, "properties": {"id": "cr-osm-node-2212067430", "name": "Wat Pha Khao Pan", "nameTh": null, "nameEn": "Wat Pha Khao Pan", "cat": ["wat"], "province": "cr", "slug": "wat-pha-khao-pan-2212067430", "rank": 2}}, {"type": "Feature", "geometry": {"type": "Point", "coordinates": [100.08229, 20.27386]}, "properties": {"id": "cr-osm-node-2326555919", "name": "Wat Phra Buat", "nameTh": null, "nameEn": "Wat Phra Buat", "cat": ["wat"], "province": "cr", "slug": "wat-phra-buat-2326555919", "rank": 2}}, {"type": "Feature", "geometry": {"type": "Point", "coordinates": [100.08405, 20.27484]}, "properties": {"id": "cr-osm-way-527542325", "name": "Wat Phra Chao Lan Thong", "nameTh": null, "nameEn": "Wat Phra Chao Lan Thong", "cat": ["wat"], "province": "cr", "slug": "wat-phra-chao-lan-thong-527542325", "rank": 2}}, {"type": "Feature", "geometry": {"type": "Point", "coordinates": [100.08786, 20.2713]}, "properties": {"id": "cr-osm-node-2326558992", "name": "Wat Pong Sanuk", "nameTh": null, "nameEn": "Wat Pong Sanuk", "cat": ["wat"], "province": "cr", "slug": "wat-pong-sanuk-2326558992", "rank": 2}}, {"type": "Feature", "geometry": {"type": "Point", "coordinates": [99.82502, 19.91251]}, "properties": {"id": "cr-osm-way-487642343", "name": "วัดดอยงำเมือง", "nameTh": "วัดดอยงำเมือง", "nameEn": "Wat Ngam Muang", "cat": ["wat"], "province": "cr", "slug": "wat-ngam-muang-487642343", "rank": 3}}, {"type": "Feature", "geometry": {"type": "Point", "coordinates": [99.78886, 19.91763]}, "properties": {"id": "cr-osm-node-3939947273", "name": "วัดถ้ำพระ", "nameTh": "วัดถ้ำพระ", "nameEn": "Wat Tham Phra", "cat": ["wat"], "province": "cr", "slug": "wat-tham-phra-3939947273", "rank": 3}}, {"type": "Feature", "geometry": {"type": "Point", "coordinates": [99.86158, 19.68544]}, "properties": {"id": "cr-osm-way-760080779", "name": "วัดบ้านแม่อ้อใน", "nameTh": "วัดบ้านแม่อ้อใน", "nameEn": "Mae Ao Nai Temple", "cat": ["wat"], "province": "cr", "slug": "mae-ao-nai-temple-760080779", "rank": 3}}, {"type": "Feature", "geometry": {"type": "Point", "coordinates": [100.10883, 20.24433]}, "properties": {"id": "cr-osm-node-10542349151", "name": "วัดพระธาตุ ผาเงา", "nameTh": "วัดพระธาตุ ผาเงา", "nameEn": null, "cat": ["wat"], "province": "cr", "slug": "10542349151", "rank": 2}}, {"type": "Feature", "geometry": {"type": "Point", "coordinates": [100.07412, 20.28614]}, "properties": {"id": "cr-osm-node-5245080414", "name": "วัดพระธาตุจอมกิตติ", "nameTh": "วัดพระธาตุจอมกิตติ", "nameEn": "Wat Phra That Chom Kitti", "cat": ["wat"], "province": "cr", "slug": "wat-phra-that-chom-kitti-5245080414", "rank": 3}}, {"type": "Feature", "geometry": {"type": "Point", "coordinates": [100.18344, 19.6845]}, "properties": {"id": "cr-osm-way-1015382586", "name": "วัดพระธาตุจอมจ้อ", "nameTh": "วัดพระธาตุจอมจ้อ", "nameEn": null, "cat": ["wat"], "province": "cr", "slug": "1015382586", "rank": 1}}, {"type": "Feature", "geometry": {"type": "Point", "coordinates": [99.87831, 20.44255]}, "properties": {"id": "cr-osm-way-544168721", "name": "วัดพระธาตุดอยเวา", "nameTh": "วัดพระธาตุดอยเวา", "nameEn": "Wat Phra That Doi Wao", "cat": ["wat"], "province": "cr", "slug": "wat-phra-that-doi-wao-544168721", "rank": 3}}, {"type": "Feature", "geometry": {"type": "Point", "coordinates": [100.11843, 20.24531]}, "properties": {"id": "cr-osm-node-11442436442", "name": "วัดพระธาตุสองพี่น้อง", "nameTh": "วัดพระธาตุสองพี่น้อง", "nameEn": "Wat Phra That Song Phi Nong", "cat": ["wat"], "province": "cr", "slug": "wat-phra-that-song-phi-nong-11442436442", "rank": 3}}, {"type": "Feature", "geometry": {"type": "Point", "coordinates": [99.83056, 19.91153]}, "properties": {"id": "cr-osm-way-712045323", "name": "วัดพระสิงห์", "nameTh": "วัดพระสิงห์", "nameEn": "Wat Phra Sing", "cat": ["wat"], "province": "cr", "slug": "wat-phra-sing-712045323", "rank": 3}}, {"type": "Feature", "geometry": {"type": "Point", "coordinates": [99.82702, 19.91166]}, "properties": {"id": "cr-osm-way-487642776", "name": "วัดพระแก้ว", "nameTh": "วัดพระแก้ว", "nameEn": "Wat Phra Kaew", "cat": ["wat"], "province": "cr", "slug": "wat-phra-kaew-487642776", "rank": 3}}, {"type": "Feature", "geometry": {"type": "Point", "coordinates": [99.50651, 19.36682]}, "properties": {"id": "cr-osm-node-2136677527", "name": "วัดศรีสุทธาวาส", "nameTh": "วัดศรีสุทธาวาส", "nameEn": "Wat Si Sutthawat", "cat": ["wat"], "province": "cr", "slug": "wat-si-sutthawat-2136677527", "rank": 2}}, {"type": "Feature", "geometry": {"type": "Point", "coordinates": [100.08044, 20.27317]}, "properties": {"id": "cr-osm-way-714021490", "name": "วัดเจดีย์หลวง เชียงแสน", "nameTh": "วัดเจดีย์หลวง เชียงแสน", "nameEn": "Wat Chedi Luang", "cat": ["wat"], "province": "cr", "slug": "wat-chedi-luang-714021490", "rank": 3}}, {"type": "Feature", "geometry": {"type": "Point", "coordinates": [99.75939, 19.6065]}, "properties": {"id": "cr-osm-node-3842065883", "name": "วัดเจริญเมือง", "nameTh": "วัดเจริญเมือง", "nameEn": "Wat Charoen Mueang", "cat": ["wat"], "province": "cr", "slug": "wat-charoen-mueang-3842065883", "rank": 3}}]}