{"type": "FeatureCollection", "features": [{"type": "Feature", "geometry": {"type": "Point", "coordinates": [99.66122, 20.15933]}, "properties": {"id": "cr-osm-node-7895787785", "name": "101 Green View", "nameTh": null, "nameEn": "101 Green View", "cat": ["food"], "province": "cr", "slug": "101-green-view-7895787785", "rank": 2}}, {"type": "Feature", "geometry": {"type": "Point", "coordinates": [99.73007, 19.86346]}, "properties": {"id": "cr-osm-node-2208058446", "name": "Bhu Bhirom", "nameTh": null, "nameEn": "Bhu Bhirom", "cat": ["food"], "province": "cr", "slug": "bhu-bhirom-2208058446", "rank": 1}}, {"type": "Feature", "geometry": {"type": "Point", "coordinates": [99.83586, 19.90907]}, "properties": {"id": "cr-osm-node-2317829554", "name": "Cabbages & Condoms", "nameTh": null, "nameEn": "Cabbages & Condoms", "cat": ["food"], "province": "cr", "slug": "cabbages-condoms-2317829554", "rank": 1}}, {"type": "Feature", "geometry": {"type": "Point", "coordinates": [99.83288, 19.90439]}, "properties": {"id": "cr-osm-node-2320605713", "name": "Da Vinci", "nameTh": null, "nameEn": "Da Vinci", "cat": ["food"], "province": "cr", "slug": "da-vinci-2320605713", "rank": 2}}, {"type": "Feature", "geometry": {"type": "Point", "coordinates": [99.85894, 19.9924]}, "properties": {"id": "cr-osm-way-653519354", "name": "Give Green Farm House", "nameTh": null, "nameEn": "Give Green Farm House", "cat": ["food"], "province": "cr", "slug": "give-green-farm-house-653519354", "rank": 3}}, {"type": "Feature", "geometry": {"type": "Point", "coordinates": [99.83242, 19.89908]}, "properties": {"id": "cr-osm-node-13435252058", "name": "Good Carb", "nameTh": null, "nameEn": "Good Carb", "cat": ["food"], "province": "cr", "slug": "good-carb-13435252058", "rank": 3}}, {"type": "Feature", "geometry": {"type": "Point", "coordinates": [99.83105, 19.9061]}, "properties": {"id": "cr-osm-node-5320151028", "name": "Heaven Burger", "nameTh": null, "nameEn": "Heaven Burger", "cat": ["food"], "province": "cr", "slug": "heaven-burger-5320151028", "rank": 3}}, {"type": "Feature", "geometry": {"type": "Point", "coordinates": [99.86027, 19.99235]}, "properties": {"id": "cr-osm-node-12860331935", "name": "Jack The Reaper", "nameTh": null, "nameEn": "Jack The Reaper", "cat": ["food"], "province": "cr", "slug": "jack-the-reaper-12860331935", "rank": 3}}, {"type": "Feature", "geometry": {"type": "Point", "coordinates": [100.07832, 20.2749]}, "properties": {"id": "cr-osm-node-2313723098", "name": "Lan Gae", "nameTh": null, "nameEn": "Lan Gae", "cat": ["food"], "province": "cr", "slug": "lan-gae-2313723098", "rank": 1}}, {"type": "Feature", "geometry": {"type": "Point", "coordinates": [99.88642, 20.44236]}, "properties": {"id": "cr-osm-node-11118967325", "name": "Mae Sai Health", "nameTh": null, "nameEn": "Mae Sai Health", "cat": ["food"], "province": "cr", "slug": "mae-sai-health-11118967325", "rank": 1}}, {"type": "Feature", "geometry": {"type": "Point", "coordinates": [99.83479, 19.88642]}, "properties": {"id": "cr-osm-node-2334898016", "name": "McDonald's", "nameTh": "แมคโดนัลด์", "nameEn": "McDonald's", "cat": ["food"], "province": "cr", "slug": "mcdonald-s-2334898016", "rank": 4}}, {"type": "Feature", "geometry": {"type": "Point", "coordinates": [99.8306, 19.91215]}, "properties": {"id": "cr-osm-node-2316640505", "name": "Porwin Vegetarian", "nameTh": null, "nameEn": "Porwin Vegetarian", "cat": ["food"], "province": "cr", "slug": "porwin-vegetarian-2316640505", "rank": 1}}, {"type": "Feature", "geometry": {"type": "Point", "coordinates": [99.8285, 19.90623]}, "properties": {"id": "cr-osm-node-2319194977", "name": "Tamacha", "nameTh": null, "nameEn": "Tamacha", "cat": ["food"], "province": "cr", "slug": "tamacha-2319194977", "rank": 2}}, {"type": "Feature", "geometry": {"type": "Point", "coordinates": [100.40357, 20.27043]}, "properties": {"id": "cr-osm-node-2304875498", "name": "Vegetarian Food", "nameTh": null, "nameEn": "Vegetarian Food", "cat": ["food"], "province": "cr", "slug": "vegetarian-food-2304875498", "rank": 1}}, {"type": "Feature", "geometry": {"type": "Point", "coordinates": [99.83062, 19.9015]}, "properties": {"id": "cr-osm-node-4556487389", "name": "Vegetarian Restaurant", "nameTh": null, "nameEn": "Boonsita", "cat": ["food"], "province": "cr", "slug": "boonsita-4556487389", "rank": 2}}, {"type": "Feature", "geometry": {"type": "Point", "coordinates": [99.88322, 20.44119]}, "properties": {"id": "cr-osm-node-7153718285", "name": "Y.G Restaurant", "nameTh": null, "nameEn": "Y.G Restaurant", "cat": ["food"], "province": "cr", "slug": "y-g-restaurant-7153718285", "rank": 1}}, {"type": "Feature", "geometry": {"type": "Point", "coordinates": [99.62285, 20.16368]}, "properties": {"id": "cr-osm-node-6290979685", "name": "Yang Ming Vegetarian Restaurant", "nameTh": null, "nameEn": "Yang Ming Vegetarian Restaurant", "cat": ["food"], "province": "cr", "slug": "yang-ming-vegetarian-restaurant-6290979685", "rank": 2}}, {"type": "Feature", "geometry": {"type": "Point", "coordinates": [100.08536, 20.27412]}, "properties": {"id": "cr-osm-node-5401620121", "name": "night and morning market", "nameTh": null, "nameEn": "night and morning market", "cat": ["food"], "province": "cr", "slug": "night-and-morning-market-5401620121", "rank": 1}}, {"type": "Feature", "geometry": {"type": "Point", "coordinates": [99.82722, 19.90803]}, "properties": {"id": "cr-osm-way-960771490", "name": "ปฐมเจ สาขาเชียงราย", "nameTh": "ปฐมเจ สาขาเชียงราย", "nameEn": "Phartom vegetarian vegan restaurant", "cat": ["food"], "province": "cr", "slug": "phartom-vegetarian-vegan-restaurant-960771490", "rank": 3}}, {"type": "Feature", "geometry": {"type": "Point", "coordinates": [99.8231, 19.90747]}, "properties": {"id": "cr-osm-way-960685080", "name": "ร้านอาหารเจ", "nameTh": "ร้านอาหารเจ", "nameEn": "Vegetarian Food", "cat": ["food"], "province": "cr", "slug": "vegetarian-food-960685080", "rank": 2}}, {"type": "Feature", "geometry": {"type": "Point", "coordinates": [99.83138, 19.90612]}, "properties": {"id": "cr-osm-node-4787402026", "name": "Sabai Jai Guesthouse & Cafe", "nameTh": null, "nameEn": "Sabai Jai Guesthouse & Cafe", "cat": ["hotel"], "province": "cr", "slug": "sabai-jai-guesthouse-cafe-4787402026", "rank": 1}}]}