{"type": "FeatureCollection", "features": [{"type": "Feature", "geometry": {"type": "Point", "coordinates": [99.85454, 20.14961]}, "properties": {"id": "cr-osm-node-2148622826", "name": "Kasikorn Bank", "nameTh": null, "nameEn": "Kasikorn Bank", "cat": ["essentials"], "province": "cr", "slug": "kasikorn-bank-2148622826", "rank": 1}}, {"type": "Feature", "geometry": {"type": "Point", "coordinates": [99.99273, 19.50184]}, "properties": {"id": "cr-osm-node-3298093172", "name": "Kasikorn Bank", "nameTh": null, "nameEn": "Kasikorn Bank", "cat": ["essentials"], "province": "cr", "slug": "kasikorn-bank-3298093172", "rank": 1}}, {"type": "Feature", "geometry": {"type": "Point", "coordinates": [100.40686, 20.2624]}, "properties": {"id": "cr-osm-way-543650859", "name": "Kasikorn Bank", "nameTh": null, "nameEn": "Kasikorn Bank", "cat": ["essentials"], "province": "cr", "slug": "kasikorn-bank-543650859", "rank": 2}}, {"type": "Feature", "geometry": {"type": "Point", "coordinates": [99.84302, 19.91336]}, "properties": {"id": "cr-osm-node-2140653233", "name": "ธนาคารกสิกรไทย", "nameTh": "ธนาคารกสิกรไทย", "nameEn": "Kasikorn Bank", "cat": ["essentials"], "province": "cr", "slug": "kasikorn-bank-2140653233", "rank": 2}}, {"type": "Feature", "geometry": {"type": "Point", "coordinates": [99.8613, 20.27194]}, "properties": {"id": "cr-osm-node-2173996556", "name": "ธนาคารกสิกรไทย", "nameTh": "ธนาคารกสิกรไทย", "nameEn": "Kasikorn Bank", "cat": ["essentials"], "province": "cr", "slug": "kasikorn-bank-2173996556", "rank": 2}}, {"type": "Feature", "geometry": {"type": "Point", "coordinates": [99.88467, 20.43372]}, "properties": {"id": "cr-osm-node-2193469982", "name": "ธนาคารกสิกรไทย", "nameTh": "ธนาคารกสิกรไทย", "nameEn": "Kasikorn Bank", "cat": ["essentials"], "province": "cr", "slug": "kasikorn-bank-2193469982", "rank": 2}}, {"type": "Feature", "geometry": {"type": "Point", "coordinates": [99.85658, 19.96706]}, "properties": {"id": "cr-osm-node-4530793506", "name": "ธนาคารกสิกรไทย", "nameTh": "ธนาคารกสิกรไทย", "nameEn": "Kasikorn Bank", "cat": ["essentials"], "province": "cr", "slug": "kasikorn-bank-4530793506", "rank": 2}}, {"type": "Feature", "geometry": {"type": "Point", "coordinates": [99.50382, 19.36579]}, "properties": {"id": "cr-osm-node-4530966449", "name": "ธนาคารกสิกรไทย", "nameTh": "ธนาคารกสิกรไทย", "nameEn": "Kasikornbank", "cat": ["essentials"], "province": "cr", "slug": "kasikornbank-4530966449", "rank": 2}}, {"type": "Feature", "geometry": {"type": "Point", "coordinates": [99.88279, 20.43985]}, "properties": {"id": "cr-osm-way-223086364", "name": "ธนาคารกสิกรไทย", "nameTh": "ธนาคารกสิกรไทย", "nameEn": "Kasikornbank", "cat": ["essentials"], "province": "cr", "slug": "kasikornbank-223086364", "rank": 2}}, {"type": "Feature", "geometry": {"type": "Point", "coordinates": [99.8324, 19.90723]}, "properties": {"id": "cr-osm-way-487637530", "name": "ธนาคารกสิกรไทย", "nameTh": "ธนาคารกสิกรไทย", "nameEn": "Kasikornbank", "cat": ["essentials"], "province": "cr", "slug": "kasikornbank-487637530", "rank": 2}}, {"type": "Feature", "geometry": {"type": "Point", "coordinates": [99.74125, 19.54848]}, "properties": {"id": "cr-osm-node-4472048671", "name": "ธนาคารกสิกรไทย @ พาน", "nameTh": "ธนาคารกสิกรไทย", "nameEn": "Kasikorn Bank @ Phan", "cat": ["essentials"], "province": "cr", "slug": "kasikorn-bank-phan-4472048671", "rank": 2}}]}