{"type": "FeatureCollection", "features": [{"type": "Feature", "geometry": {"type": "Point", "coordinates": [99.53936, 19.65405]}, "properties": {"id": "cr-osm-node-12864929909", "name": "Lotus's go fresh", "nameTh": null, "nameEn": "Lotus's go fresh", "cat": ["essentials"], "province": "cr", "slug": "lotus-s-go-fresh-12864929909", "rank": 1}}, {"type": "Feature", "geometry": {"type": "Point", "coordinates": [99.51717, 19.20499]}, "properties": {"id": "cr-osm-node-13387757784", "name": "Lotus's go fresh", "nameTh": null, "nameEn": "Lotus's go fresh", "cat": ["essentials"], "province": "cr", "slug": "lotus-s-go-fresh-13387757784", "rank": 1}}, {"type": "Feature", "geometry": {"type": "Point", "coordinates": [99.81582, 19.90337]}, "properties": {"id": "cr-osm-node-2140597873", "name": "Lotus's go fresh", "nameTh": null, "nameEn": "Lotus's go fresh", "cat": ["essentials"], "province": "cr", "slug": "lotus-s-go-fresh-2140597873", "rank": 2}}, {"type": "Feature", "geometry": {"type": "Point", "coordinates": [99.87632, 20.04866]}, "properties": {"id": "cr-osm-node-2153737311", "name": "Lotus's go fresh", "nameTh": null, "nameEn": "Lotus's go fresh", "cat": ["essentials"], "province": "cr", "slug": "lotus-s-go-fresh-2153737311", "rank": 2}}, {"type": "Feature", "geometry": {"type": "Point", "coordinates": [99.88467, 20.42828]}, "properties": {"id": "cr-osm-node-2193469952", "name": "Lotus's go fresh", "nameTh": null, "nameEn": "Lotus's go fresh", "cat": ["essentials"], "province": "cr", "slug": "lotus-s-go-fresh-2193469952", "rank": 1}}, {"type": "Feature", "geometry": {"type": "Point", "coordinates": [100.08608, 20.27384]}, "properties": {"id": "cr-osm-node-2212067418", "name": "Lotus's go fresh", "nameTh": null, "nameEn": "Lotus's go fresh", "cat": ["essentials"], "province": "cr", "slug": "lotus-s-go-fresh-2212067418", "rank": 2}}, {"type": "Feature", "geometry": {"type": "Point", "coordinates": [100.15413, 19.84703]}, "properties": {"id": "cr-osm-node-2319132228", "name": "Lotus's go fresh", "nameTh": null, "nameEn": "Lotus's go fresh", "cat": ["essentials"], "province": "cr", "slug": "lotus-s-go-fresh-2319132228", "rank": 2}}, {"type": "Feature", "geometry": {"type": "Point", "coordinates": [99.89267, 20.43909]}, "properties": {"id": "cr-osm-node-3725792270", "name": "Lotus's go fresh", "nameTh": null, "nameEn": "Lotus's go fresh", "cat": ["essentials"], "province": "cr", "slug": "lotus-s-go-fresh-3725792270", "rank": 2}}, {"type": "Feature", "geometry": {"type": "Point", "coordinates": [99.74948, 19.854]}, "properties": {"id": "cr-osm-way-1459701951", "name": "Lotus's go fresh", "nameTh": null, "nameEn": "Lotus's go fresh", "cat": ["essentials"], "province": "cr", "slug": "lotus-s-go-fresh-1459701951", "rank": 1}}]}