{"type": "FeatureCollection", "features": [{"type": "Feature", "geometry": {"type": "Point", "coordinates": [99.8212971, 19.9011705]}, "properties": {"id": "cr-osm-node-6635204698", "name": "10x", "cat": ["tattoo"], "province": "cr"}}, {"type": "Feature", "geometry": {"type": "Point", "coordinates": [99.8216516, 19.9011162]}, "properties": {"id": "cr-osm-node-6635204796", "name": "Ghost tattoo", "cat": ["tattoo"], "province": "cr"}}, {"type": "Feature", "geometry": {"type": "Point", "coordinates": [99.8314853, 19.9051148]}, "properties": {"id": "cr-osm-way-387050250", "name": "Namtao Tattoo", "cat": ["tattoo"], "province": "cr"}}, {"type": "Feature", "geometry": {"type": "Point", "coordinates": [99.8235609, 19.907637]}, "properties": {"id": "cr-osm-way-960685090", "name": "เล็กคิ้วสวย & สปา", "cat": ["tattoo"], "province": "cr"}}]}