{"type": "FeatureCollection", "features": [{"type": "Feature", "geometry": {"type": "Point", "coordinates": [99.85732, 19.96928]}, "properties": {"id": "cr-onab-03570121004", "name": "วัดกู่ประสาท", "nameTh": "วัดกู่ประสาท", "nameEn": null, "cat": ["wat"], "province": "cr", "slug": "03570121004", "rank": 1}}, {"type": "Feature", "geometry": {"type": "Point", "coordinates": [99.50432, 19.20352]}, "properties": {"id": "cr-onab-67257110001", "name": "วัดกู่แก้ว", "nameTh": "วัดกู่แก้ว", "nameEn": null, "cat": ["wat"], "province": "cr", "slug": "67257110001", "rank": 1}}, {"type": "Feature", "geometry": {"type": "Point", "coordinates": [100.40969, 20.23271]}, "properties": {"id": "cr-onab-03570301011", "name": "วัดจำปา", "nameTh": "วัดจำปา", "nameEn": null, "cat": ["wat"], "province": "cr", "slug": "03570301011", "rank": 1}}, {"type": "Feature", "geometry": {"type": "Point", "coordinates": [99.50557, 19.36481]}, "properties": {"id": "cr-onab-03571102008", "name": "วัดนาถกรณธรรม", "nameTh": "วัดนาถกรณธรรม", "nameEn": null, "cat": ["wat"], "province": "cr", "slug": "03571102008", "rank": 1}}, {"type": "Feature", "geometry": {"type": "Point", "coordinates": [99.87394, 20.03628]}, "properties": {"id": "cr-onab-03570104013", "name": "วัดปฐมพุทธาราม", "nameTh": "วัดปฐมพุทธาราม", "nameEn": null, "cat": ["wat"], "province": "cr", "slug": "03570104013", "rank": 1}}, {"type": "Feature", "geometry": {"type": "Point", "coordinates": [100.07273, 20.29545]}, "properties": {"id": "cr-onab-03570806011", "name": "วัดป่าญาณสัมปันโนอารยาราม", "nameTh": "วัดป่าญาณสัมปันโนอารยาราม", "nameEn": null, "cat": ["wat"], "province": "cr", "slug": "03570806011", "rank": 1}}, {"type": "Feature", "geometry": {"type": "Point", "coordinates": [99.76429, 19.58743]}, "properties": {"id": "cr-onab-03570507007", "name": "วัดป่าฐานตะเคียนทอง", "nameTh": "วัดป่าฐานตะเคียนทอง", "nameEn": null, "cat": ["wat"], "province": "cr", "slug": "03570507007", "rank": 1}}, {"type": "Feature", "geometry": {"type": "Point", "coordinates": [99.85732, 19.96928]}, "properties": {"id": "cr-onab-66257010001", "name": "วัดป่าทรายมูลธรรมาราม", "nameTh": "วัดป่าทรายมูลธรรมาราม", "nameEn": null, "cat": ["wat"], "province": "cr", "slug": "66257010001", "rank": 1}}, {"type": "Feature", "geometry": {"type": "Point", "coordinates": [99.82783, 19.90127]}, "properties": {"id": "cr-onab-03570118009", "name": "วัดป่าธรรมประทีป", "nameTh": "วัดป่าธรรมประทีป", "nameEn": null, "cat": ["wat"], "province": "cr", "slug": "03570118009", "rank": 1}}, {"type": "Feature", "geometry": {"type": "Point", "coordinates": [99.85732, 19.96928]}, "properties": {"id": "cr-onab-03570105016", "name": "วัดป่ามหามงคล", "nameTh": "วัดป่ามหามงคล", "nameEn": null, "cat": ["wat"], "province": "cr", "slug": "03570105016", "rank": 1}}, {"type": "Feature", "geometry": {"type": "Point", "coordinates": [99.74362, 20.18]}, "properties": {"id": "cr-onab-03571801014", "name": "วัดป่าศรีธาตุไทรทอง", "nameTh": "วัดป่าศรีธาตุไทรทอง", "nameEn": null, "cat": ["wat"], "province": "cr", "slug": "03571801014", "rank": 1}}, {"type": "Feature", "geometry": {"type": "Point", "coordinates": [99.82783, 19.90127]}, "properties": {"id": "cr-onab-03570118005", "name": "วัดป่าหัวดอย", "nameTh": "วัดป่าหัวดอย", "nameEn": null, "cat": ["wat"], "province": "cr", "slug": "03570118005", "rank": 1}}, {"type": "Feature", "geometry": {"type": "Point", "coordinates": [99.82783, 19.90127]}, "properties": {"id": "cr-onab-03570118010", "name": "วัดป่าห้วยบง", "nameTh": "วัดป่าห้วยบง", "nameEn": null, "cat": ["wat"], "province": "cr", "slug": "03570118010", "rank": 1}}, {"type": "Feature", "geometry": {"type": "Point", "coordinates": [99.74362, 20.18]}, "properties": {"id": "cr-onab-03571801013", "name": "วัดป่าอรัญญวิเวก", "nameTh": "วัดป่าอรัญญวิเวก", "nameEn": null, "cat": ["wat"], "province": "cr", "slug": "03571801013", "rank": 1}}, {"type": "Feature", "geometry": {"type": "Point", "coordinates": [99.82783, 19.90127]}, "properties": {"id": "cr-onab-03570118008", "name": "วัดป่าเขื่อนแก้ว", "nameTh": "วัดป่าเขื่อนแก้ว", "nameEn": null, "cat": ["wat"], "province": "cr", "slug": "03570118008", "rank": 1}}, {"type": "Feature", "geometry": {"type": "Point", "coordinates": [99.74362, 20.18]}, "properties": {"id": "cr-onab-63257070002", "name": "วัดป่าแม่จันญานสัมปันโน", "nameTh": "วัดป่าแม่จันญานสัมปันโน", "nameEn": null, "cat": ["wat"], "province": "cr", "slug": "63257070002", "rank": 1}}, {"type": "Feature", "geometry": {"type": "Point", "coordinates": [99.85732, 19.96928]}, "properties": {"id": "cr-onab-03570105017", "name": "วัดพระธาตุกู่แก้วดอยงาม", "nameTh": "วัดพระธาตุกู่แก้วดอยงาม", "nameEn": null, "cat": ["wat"], "province": "cr", "slug": "03570105017", "rank": 1}}, {"type": "Feature", "geometry": {"type": "Point", "coordinates": [100.07273, 20.29545]}, "properties": {"id": "cr-onab-03570803010", "name": "วัดพระธาตุบรรพต", "nameTh": "วัดพระธาตุบรรพต", "nameEn": null, "cat": ["wat"], "province": "cr", "slug": "03570803010", "rank": 1}}, {"type": "Feature", "geometry": {"type": "Point", "coordinates": [100.07273, 20.29545]}, "properties": {"id": "cr-onab-03570806010", "name": "วัดพระธาตุศรีโยนก", "nameTh": "วัดพระธาตุศรีโยนก", "nameEn": null, "cat": ["wat"], "province": "cr", "slug": "03570806010", "rank": 1}}, {"type": "Feature", "geometry": {"type": "Point", "coordinates": [99.74362, 20.18]}, "properties": {"id": "cr-onab-03570706011", "name": "วัดพระพุทธบาทผาเรือ", "nameTh": "วัดพระพุทธบาทผาเรือ", "nameEn": null, "cat": ["wat"], "province": "cr", "slug": "03570706011", "rank": 1}}, {"type": "Feature", "geometry": {"type": "Point", "coordinates": [99.49144, 19.20718]}, "properties": {"id": "cr-osm-node-1224687597", "name": "วัดพระเจ้าหลวง", "nameTh": "วัดพระเจ้าหลวง", "nameEn": "Wat Prachaoluang", "cat": ["wat"], "province": "cr", "slug": "wat-prachaoluang-1224687597", "rank": 2}}, {"type": "Feature", "geometry": {"type": "Point", "coordinates": [99.82783, 19.90127]}, "properties": {"id": "cr-onab-67257010001", "name": "วัดภูทอกธรรมจริยา", "nameTh": "วัดภูทอกธรรมจริยา", "nameEn": null, "cat": ["wat"], "province": "cr", "slug": "67257010001", "rank": 1}}, {"type": "Feature", "geometry": {"type": "Point", "coordinates": [99.74362, 20.18]}, "properties": {"id": "cr-onab-03571803012", "name": "วัดศรีสว่างวัฒนา", "nameTh": "วัดศรีสว่างวัฒนา", "nameEn": null, "cat": ["wat"], "province": "cr", "slug": "03571803012", "rank": 1}}, {"type": "Feature", "geometry": {"type": "Point", "coordinates": [99.50432, 19.20352]}, "properties": {"id": "cr-onab-03571106010", "name": "วัดหลวงราษฎร์เจริญธรรม", "nameTh": "วัดหลวงราษฎร์เจริญธรรม", "nameEn": null, "cat": ["wat"], "province": "cr", "slug": "03571106010", "rank": 1}}, {"type": "Feature", "geometry": {"type": "Point", "coordinates": [99.95801, 20.23172]}, "properties": {"id": "cr-osm-way-1230429436", "name": "วัดเชื้อเจ็ดตน", "nameTh": "วัดเชื้อเจ็ดตน", "nameEn": "Wat chu shet", "cat": ["wat"], "province": "cr", "slug": "wat-chu-shet-1230429436", "rank": 2}}, {"type": "Feature", "geometry": {"type": "Point", "coordinates": [100.40969, 20.23271]}, "properties": {"id": "cr-onab-63257030001", "name": "วัดเทพนิมิตสุดเขตสยาม", "nameTh": "วัดเทพนิมิตสุดเขตสยาม", "nameEn": null, "cat": ["wat"], "province": "cr", "slug": "63257030001", "rank": 1}}, {"type": "Feature", "geometry": {"type": "Point", "coordinates": [100.19503, 19.68562]}, "properties": {"id": "cr-onab-03570401007", "name": "วัดเทิง", "nameTh": "วัดเทิง", "nameEn": null, "cat": ["wat"], "province": "cr", "slug": "03570401007", "rank": 1}}, {"type": "Feature", "geometry": {"type": "Point", "coordinates": [99.80991, 19.88288]}, "properties": {"id": "cr-onab-03570102010", "name": "วัดเม็งรายมหาราช", "nameTh": "วัดเม็งรายมหาราช", "nameEn": null, "cat": ["wat"], "province": "cr", "slug": "03570102010", "rank": 1}}]}