{"type": "FeatureCollection", "features": [{"type": "Feature", "geometry": {"type": "Point", "coordinates": [99.82861, 19.90502]}, "properties": {"id": "cr-osm-node-10307977396", "name": "1055 brewing at corner", "nameTh": null, "nameEn": "1055 brewing at corner", "cat": ["food"], "province": "cr", "slug": "1055-brewing-at-corner-10307977396", "rank": 3}}, {"type": "Feature", "geometry": {"type": "Point", "coordinates": [99.83083, 19.90908]}, "properties": {"id": "cr-osm-node-6725738686", "name": "1:2 - กาดหลวง", "nameTh": "1:2 - กาดหลวง", "nameEn": "1:2 Chiang Rai Brew", "cat": ["food"], "province": "cr", "slug": "1-2-chiang-rai-brew-6725738686", "rank": 3}}, {"type": "Feature", "geometry": {"type": "Point", "coordinates": [99.83357, 19.88648]}, "properties": {"id": "cr-osm-node-4578404090", "name": "Dairy Queen", "nameTh": null, "nameEn": "Dairy Queen", "cat": ["food"], "province": "cr", "slug": "dairy-queen-4578404090", "rank": 1}}, {"type": "Feature", "geometry": {"type": "Point", "coordinates": [99.74815, 19.8233]}, "properties": {"id": "cr-osm-node-13093773836", "name": "Doofeel", "nameTh": null, "nameEn": "Doofeel", "cat": ["food"], "province": "cr", "slug": "doofeel-13093773836", "rank": 1}}, {"type": "Feature", "geometry": {"type": "Point", "coordinates": [99.51445, 19.19275]}, "properties": {"id": "cr-osm-node-11345588169", "name": "Dunkin'", "nameTh": null, "nameEn": "Dunkin'", "cat": ["food"], "province": "cr", "slug": "dunkin-11345588169", "rank": 1}}, {"type": "Feature", "geometry": {"type": "Point", "coordinates": [99.83371, 19.88651]}, "properties": {"id": "cr-osm-node-8938699740", "name": "IROHA Ramen & Izakaya Chiang Rai - อิโรฮะ ราเมง & อิซากายะ เชียงราย", "nameTh": "IROHA Ramen & Izakaya Chiang Rai - อิโรฮะ ราเมง & อิซากายะ เชียงราย", "nameEn": null, "cat": ["food"], "province": "cr", "slug": "iroha-ramen-izakaya-chiang-rai-8938699740", "rank": 2}}, {"type": "Feature", "geometry": {"type": "Point", "coordinates": [99.73195, 19.75267]}, "properties": {"id": "cr-osm-node-11345485570", "name": "KFC", "nameTh": null, "nameEn": "KFC", "cat": ["food"], "province": "cr", "slug": "kfc-11345485570", "rank": 1}}, {"type": "Feature", "geometry": {"type": "Point", "coordinates": [99.88359, 20.40749]}, "properties": {"id": "cr-osm-node-2193422313", "name": "KFC", "nameTh": "เค เอฟ ซี", "nameEn": "KFC", "cat": ["food"], "province": "cr", "slug": "kfc-2193422313", "rank": 3}}, {"type": "Feature", "geometry": {"type": "Point", "coordinates": [99.83719, 19.8886]}, "properties": {"id": "cr-osm-node-2334898014", "name": "KFC", "nameTh": "เค เอฟ ซี", "nameEn": "KFC", "cat": ["food"], "province": "cr", "slug": "kfc-2334898014", "rank": 3}}, {"type": "Feature", "geometry": {"type": "Point", "coordinates": [99.83422, 19.88657]}, "properties": {"id": "cr-osm-node-3145141929", "name": "KFC", "nameTh": "เค เอฟ ซี", "nameEn": "KFC", "cat": ["food"], "province": "cr", "slug": "kfc-3145141929", "rank": 3}}, {"type": "Feature", "geometry": {"type": "Point", "coordinates": [99.86963, 20.01181]}, "properties": {"id": "cr-osm-node-6039357353", "name": "KFC", "nameTh": null, "nameEn": "KFC", "cat": ["food"], "province": "cr", "slug": "kfc-6039357353", "rank": 1}}, {"type": "Feature", "geometry": {"type": "Point", "coordinates": [99.51481, 19.19297]}, "properties": {"id": "cr-osm-node-9331635017", "name": "KFC", "nameTh": null, "nameEn": "KFC", "cat": ["food"], "province": "cr", "slug": "kfc-9331635017", "rank": 1}}, {"type": "Feature", "geometry": {"type": "Point", "coordinates": [99.8442, 19.93112]}, "properties": {"id": "cr-osm-way-1125407054", "name": "KFC", "nameTh": null, "nameEn": "KFC", "cat": ["food"], "province": "cr", "slug": "kfc-1125407054", "rank": 1}}, {"type": "Feature", "geometry": {"type": "Point", "coordinates": [99.83127, 19.90692]}, "properties": {"id": "cr-osm-node-10199600350", "name": "La Ola", "nameTh": null, "nameEn": "La Ola", "cat": ["food"], "province": "cr", "slug": "la-ola-10199600350", "rank": 3}}, {"type": "Feature", "geometry": {"type": "Point", "coordinates": [99.83479, 19.88642]}, "properties": {"id": "cr-osm-node-2334898016", "name": "McDonald's", "nameTh": "แมคโดนัลด์", "nameEn": "McDonald's", "cat": ["food"], "province": "cr", "slug": "mcdonald-s-2334898016", "rank": 4}}, {"type": "Feature", "geometry": {"type": "Point", "coordinates": [99.83694, 19.92769]}, "properties": {"id": "cr-osm-node-9141052700", "name": "No.444 Pizza", "nameTh": null, "nameEn": "No.444 Pizza", "cat": ["food"], "province": "cr", "slug": "no-444-pizza-9141052700", "rank": 3}}, {"type": "Feature", "geometry": {"type": "Point", "coordinates": [99.49289, 19.57844]}, "properties": {"id": "cr-osm-node-13460387261", "name": "Story 4len", "nameTh": null, "nameEn": "Story 4len", "cat": ["food"], "province": "cr", "slug": "story-4len-13460387261", "rank": 1}}, {"type": "Feature", "geometry": {"type": "Point", "coordinates": [99.83311, 19.88616]}, "properties": {"id": "cr-osm-node-2334898017", "name": "The Pizza Company", "nameTh": "เดอะ พิซซ่า คอมปะนี", "nameEn": "The Pizza Company", "cat": ["food"], "province": "cr", "slug": "the-pizza-company-2334898017", "rank": 4}}, {"type": "Feature", "geometry": {"type": "Point", "coordinates": [99.83291, 19.90501]}, "properties": {"id": "cr-osm-node-6297472385", "name": "The Pizza Company", "nameTh": null, "nameEn": "pizza company", "cat": ["food"], "province": "cr", "slug": "pizza-company-6297472385", "rank": 1}}, {"type": "Feature", "geometry": {"type": "Point", "coordinates": [99.67554, 19.80755]}, "properties": {"id": "cr-osm-node-7931705724", "name": "silpasa café", "nameTh": null, "nameEn": "silpasa café", "cat": ["food"], "province": "cr", "slug": "silpasa-caf-7931705724", "rank": 2}}, {"type": "Feature", "geometry": {"type": "Point", "coordinates": [99.82492, 19.89837]}, "properties": {"id": "cr-osm-node-8922379214", "name": "กั๊ดจัง คาเร", "nameTh": "กั๊ดจัง คาเร", "nameEn": null, "cat": ["food"], "province": "cr", "slug": "8922379214", "rank": 1}}, {"type": "Feature", "geometry": {"type": "Point", "coordinates": [99.83824, 19.91109]}, "properties": {"id": "cr-osm-node-9131881434", "name": "ก๋วยเตี๋ยวต้มยำสุโขทัย", "nameTh": "ก๋วยเตี๋ยวต้มยำสุโขทัย", "nameEn": "Sukhothai Tom Yum Noodles", "cat": ["food"], "province": "cr", "slug": "sukhothai-tom-yum-noodles-9131881434", "rank": 2}}, {"type": "Feature", "geometry": {"type": "Point", "coordinates": [99.83074, 19.88475]}, "properties": {"id": "cr-osm-node-9104729404", "name": "ก๋วยเตี๋ยวเรือ ๑๓ เหรียญ", "nameTh": "ก๋วยเตี๋ยวเรือ ๑๓ เหรียญ", "nameEn": null, "cat": ["food"], "province": "cr", "slug": "9104729404", "rank": 2}}, {"type": "Feature", "geometry": {"type": "Point", "coordinates": [99.82815, 19.9021]}, "properties": {"id": "cr-osm-node-8963043354", "name": "ข้าวต้มปลา 164", "nameTh": "ข้าวต้มปลา 164", "nameEn": "Khao Tom Pla 164", "cat": ["food"], "province": "cr", "slug": "khao-tom-pla-164-8963043354", "rank": 2}}, {"type": "Feature", "geometry": {"type": "Point", "coordinates": [99.85493, 19.92978]}, "properties": {"id": "cr-osm-node-11475932637", "name": "คาเฟ่ อเมซอน", "nameTh": "คาเฟ่ อเมซอน", "nameEn": "Café Amazon", "cat": ["food"], "province": "cr", "slug": "caf-amazon-11475932637", "rank": 2}}, {"type": "Feature", "geometry": {"type": "Point", "coordinates": [99.82903, 19.87497]}, "properties": {"id": "cr-osm-node-1295675148", "name": "คาเฟ่ อเมซอน", "nameTh": "คาเฟ่ อเมซอน", "nameEn": "Café Amazon", "cat": ["food"], "province": "cr", "slug": "caf-amazon-1295675148", "rank": 2}}, {"type": "Feature", "geometry": {"type": "Point", "coordinates": [100.03367, 19.99126]}, "properties": {"id": "cr-osm-node-13568706687", "name": "คาเฟ่ อเมซอน", "nameTh": "คาเฟ่ อเมซอน", "nameEn": "Café Amazon", "cat": ["food"], "province": "cr", "slug": "caf-amazon-13568706687", "rank": 2}}, {"type": "Feature", "geometry": {"type": "Point", "coordinates": [100.15368, 19.69047]}, "properties": {"id": "cr-osm-node-3149135731", "name": "คาเฟ่ อเมซอน", "nameTh": "คาเฟ่ อเมซอน", "nameEn": "Café Amazon", "cat": ["food"], "province": "cr", "slug": "caf-amazon-3149135731", "rank": 2}}, {"type": "Feature", "geometry": {"type": "Point", "coordinates": [99.86016, 20.26761]}, "properties": {"id": "cr-osm-node-3218711088", "name": "คาเฟ่ อเมซอน", "nameTh": "คาเฟ่ อเมซอน", "nameEn": "Café Amazon", "cat": ["food"], "province": "cr", "slug": "caf-amazon-3218711088", "rank": 2}}, {"type": "Feature", "geometry": {"type": "Point", "coordinates": [100.37813, 20.03732]}, "properties": {"id": "cr-osm-node-5005082100", "name": "คาเฟ่ อเมซอน", "nameTh": "คาเฟ่ อเมซอน", "nameEn": "Café Amazon", "cat": ["food"], "province": "cr", "slug": "caf-amazon-5005082100", "rank": 2}}, {"type": "Feature", "geometry": {"type": "Point", "coordinates": [100.50472, 20.10399]}, "properties": {"id": "cr-osm-node-5358725222", "name": "คาเฟ่ อเมซอน", "nameTh": "คาเฟ่ อเมซอน", "nameEn": "Café Amazon", "cat": ["food"], "province": "cr", "slug": "caf-amazon-5358725222", "rank": 3}}, {"type": "Feature", "geometry": {"type": "Point", "coordinates": [99.53199, 19.64804]}, "properties": {"id": "cr-osm-node-5397821305", "name": "คาเฟ่ อเมซอน", "nameTh": "คาเฟ่ อเมซอน", "nameEn": "Café Amazon", "cat": ["food"], "province": "cr", "slug": "caf-amazon-5397821305", "rank": 2}}, {"type": "Feature", "geometry": {"type": "Point", "coordinates": [99.87557, 20.03375]}, "properties": {"id": "cr-osm-node-6039288924", "name": "คาเฟ่ อเมซอน", "nameTh": "คาเฟ่ อเมซอน", "nameEn": "Café Amazon", "cat": ["food"], "province": "cr", "slug": "caf-amazon-6039288924", "rank": 2}}, {"type": "Feature", "geometry": {"type": "Point", "coordinates": [99.51505, 19.61931]}, "properties": {"id": "cr-osm-node-7079176685", "name": "คาเฟ่ อเมซอน", "nameTh": "คาเฟ่ อเมซอน", "nameEn": "Café Amazon", "cat": ["food"], "province": "cr", "slug": "caf-amazon-7079176685", "rank": 3}}, {"type": "Feature", "geometry": {"type": "Point", "coordinates": [99.50956, 19.33749]}, "properties": {"id": "cr-osm-node-7257657611", "name": "คาเฟ่ อเมซอน", "nameTh": "คาเฟ่ อเมซอน", "nameEn": "Café Amazon", "cat": ["food"], "province": "cr", "slug": "caf-amazon-7257657611", "rank": 3}}, {"type": "Feature", "geometry": {"type": "Point", "coordinates": [99.51435, 19.19284]}, "properties": {"id": "cr-osm-way-1012165004", "name": "คาเฟ่ อเมซอน", "nameTh": "คาเฟ่ อเมซอน", "nameEn": "Café Amazon", "cat": ["food"], "province": "cr", "slug": "caf-amazon-1012165004", "rank": 3}}, {"type": "Feature", "geometry": {"type": "Point", "coordinates": [99.73178, 19.75239]}, "properties": {"id": "cr-osm-way-1013494816", "name": "คาเฟ่ อเมซอน", "nameTh": "คาเฟ่ อเมซอน", "nameEn": "Café Amazon", "cat": ["food"], "province": "cr", "slug": "caf-amazon-1013494816", "rank": 2}}, {"type": "Feature", "geometry": {"type": "Point", "coordinates": [100.41218, 20.24347]}, "properties": {"id": "cr-osm-way-1013618599", "name": "คาเฟ่ อเมซอน", "nameTh": "คาเฟ่ อเมซอน", "nameEn": "Café Amazon", "cat": ["food"], "province": "cr", "slug": "caf-amazon-1013618599", "rank": 2}}, {"type": "Feature", "geometry": {"type": "Point", "coordinates": [99.82986, 19.89971]}, "properties": {"id": "cr-osm-way-1075277177", "name": "คาเฟ่ อเมซอน", "nameTh": "คาเฟ่ อเมซอน", "nameEn": "Café Amazon", "cat": ["food"], "province": "cr", "slug": "caf-amazon-1075277177", "rank": 2}}, {"type": "Feature", "geometry": {"type": "Point", "coordinates": [99.73324, 19.84739]}, "properties": {"id": "cr-osm-way-1157127036", "name": "คาเฟ่ อเมซอน", "nameTh": "คาเฟ่ อเมซอน", "nameEn": "Café Amazon", "cat": ["food"], "province": "cr", "slug": "caf-amazon-1157127036", "rank": 2}}, {"type": "Feature", "geometry": {"type": "Point", "coordinates": [99.84124, 19.90297]}, "properties": {"id": "cr-osm-way-751053182", "name": "คาเฟ่ อเมซอน", "nameTh": "คาเฟ่ อเมซอน", "nameEn": "Café Amazon", "cat": ["food"], "province": "cr", "slug": "caf-amazon-751053182", "rank": 2}}, {"type": "Feature", "geometry": {"type": "Point", "coordinates": [99.82986, 19.90672]}, "properties": {"id": "cr-osm-way-963169302", "name": "คาเฟ่ อเมซอน", "nameTh": "คาเฟ่ อเมซอน", "nameEn": "Café Amazon", "cat": ["food"], "province": "cr", "slug": "caf-amazon-963169302", "rank": 2}}, {"type": "Feature", "geometry": {"type": "Point", "coordinates": [99.83343, 19.88641]}, "properties": {"id": "cr-osm-node-9119957392", "name": "ฟูจิ", "nameTh": "ฟูจิ", "nameEn": "Fuji Restaurant", "cat": ["food"], "province": "cr", "slug": "fuji-restaurant-9119957392", "rank": 5}}, {"type": "Feature", "geometry": {"type": "Point", "coordinates": [99.86607, 20.32502]}, "properties": {"id": "cr-osm-node-5260239218", "name": "ร้านต้นโพธิ์", "nameTh": "ร้านต้นโพธิ์", "nameEn": null, "cat": ["food"], "province": "cr", "slug": "5260239218", "rank": 2}}, {"type": "Feature", "geometry": {"type": "Point", "coordinates": [99.82183, 19.90334]}, "properties": {"id": "cr-osm-way-997641687", "name": "ลาบปลาดอยตอง", "nameTh": "ลาบปลาดอยตอง", "nameEn": "Lap Pla Doi Tong", "cat": ["food"], "province": "cr", "slug": "lap-pla-doi-tong-997641687", "rank": 4}}, {"type": "Feature", "geometry": {"type": "Point", "coordinates": [99.81762, 19.90197]}, "properties": {"id": "cr-osm-node-8947728129", "name": "ส้มตำป้าเบ๊อะ", "nameTh": "ส้มตำป้าเบ๊อะ", "nameEn": "Pa Boe Somtam", "cat": ["food"], "province": "cr", "slug": "pa-boe-somtam-8947728129", "rank": 2}}, {"type": "Feature", "geometry": {"type": "Point", "coordinates": [99.83176, 19.9033]}, "properties": {"id": "cr-osm-node-9136808621", "name": "ส้มตำเจ็ดยอด", "nameTh": "ส้มตำเจ็ดยอด", "nameEn": "Somtam Jedyod", "cat": ["food"], "province": "cr", "slug": "somtam-jedyod-9136808621", "rank": 3}}, {"type": "Feature", "geometry": {"type": "Point", "coordinates": [99.82787, 19.89912]}, "properties": {"id": "cr-osm-node-6282356485", "name": "ออมละไม", "nameTh": "ออมละไม", "nameEn": "Om La-Mai (homemade ice cream)", "cat": ["food"], "province": "cr", "slug": "om-la-mai-homemade-ice-cream-6282356485", "rank": 2}}, {"type": "Feature", "geometry": {"type": "Point", "coordinates": [99.83073, 19.8848]}, "properties": {"id": "cr-osm-node-9104746651", "name": "เตี๋ยวเรือ ๑๓ เหรียญ", "nameTh": "เตี๋ยวเรือ ๑๓ เหรียญ", "nameEn": "Tiew Raeur 13 rian", "cat": ["food"], "province": "cr", "slug": "tiew-raeur-13-rian-9104746651", "rank": 3}}]}