{"type": "FeatureCollection", "features": [{"type": "Feature", "geometry": {"type": "Point", "coordinates": [99.8733, 20.107]}, "properties": {"id": "cr-osm-node-2153801712", "name": "All about sweet", "nameTh": null, "nameEn": "All about sweet", "cat": ["food"], "province": "cr", "slug": "all-about-sweet-2153801712", "rank": 1}}, {"type": "Feature", "geometry": {"type": "Point", "coordinates": [99.51141, 19.30849]}, "properties": {"id": "cr-osm-node-3286887484", "name": "Bruno coffee & Italian restaurant", "nameTh": null, "nameEn": "Bruno coffee & Italian restaurant", "cat": ["food"], "province": "cr", "slug": "bruno-coffee-italian-restaurant-3286887484", "rank": 1}}, {"type": "Feature", "geometry": {"type": "Point", "coordinates": [99.85, 19.9234]}, "properties": {"id": "cr-osm-node-13184024816", "name": "Bundarnjai - Coffee Eatery Bingsu", "nameTh": null, "nameEn": "Bundarnjai - Coffee Eatery Bingsu", "cat": ["food"], "province": "cr", "slug": "bundarnjai-coffee-eatery-bingsu-13184024816", "rank": 3}}, {"type": "Feature", "geometry": {"type": "Point", "coordinates": [99.62701, 20.16569]}, "properties": {"id": "cr-osm-node-4739149121", "name": "Café The Local", "nameTh": null, "nameEn": "Café The Local", "cat": ["food"], "province": "cr", "slug": "caf-the-local-4739149121", "rank": 1}}, {"type": "Feature", "geometry": {"type": "Point", "coordinates": [99.83288, 19.90439]}, "properties": {"id": "cr-osm-node-2320605713", "name": "Da Vinci", "nameTh": null, "nameEn": "Da Vinci", "cat": ["food"], "province": "cr", "slug": "da-vinci-2320605713", "rank": 2}}, {"type": "Feature", "geometry": {"type": "Point", "coordinates": [99.83193, 19.90607]}, "properties": {"id": "cr-osm-node-12718282001", "name": "La Gatta", "nameTh": null, "nameEn": "La Gatta", "cat": ["food"], "province": "cr", "slug": "la-gatta-12718282001", "rank": 1}}, {"type": "Feature", "geometry": {"type": "Point", "coordinates": [99.83127, 19.90692]}, "properties": {"id": "cr-osm-node-10199600350", "name": "La Ola", "nameTh": null, "nameEn": "La Ola", "cat": ["food"], "province": "cr", "slug": "la-ola-10199600350", "rank": 3}}, {"type": "Feature", "geometry": {"type": "Point", "coordinates": [100.40963, 20.25477]}, "properties": {"id": "cr-osm-node-4693772295", "name": "Mouth Muan", "nameTh": null, "nameEn": "Mouth Muan", "cat": ["food"], "province": "cr", "slug": "mouth-muan-4693772295", "rank": 1}}, {"type": "Feature", "geometry": {"type": "Point", "coordinates": [100.40596, 20.26588]}, "properties": {"id": "cr-osm-node-5544865921", "name": "Natale Restaurant", "nameTh": null, "nameEn": "Natale Italian Restaurant", "cat": ["food"], "province": "cr", "slug": "natale-italian-restaurant-5544865921", "rank": 1}}, {"type": "Feature", "geometry": {"type": "Point", "coordinates": [99.8339, 19.90896]}, "properties": {"id": "cr-osm-node-3022782391", "name": "Stardust Bar & Grill", "nameTh": null, "nameEn": "Stardust Bar & Grill", "cat": ["food"], "province": "cr", "slug": "stardust-bar-grill-3022782391", "rank": 1}}, {"type": "Feature", "geometry": {"type": "Point", "coordinates": [99.84035, 19.9183]}, "properties": {"id": "cr-osm-way-298357691", "name": "Wine Casa", "nameTh": null, "nameEn": "Wine Casa", "cat": ["food"], "province": "cr", "slug": "wine-casa-298357691", "rank": 1}}]}