{"type": "FeatureCollection", "features": [{"type": "Feature", "geometry": {"type": "Point", "coordinates": [99.88358, 20.40711]}, "properties": {"id": "cr-osm-node-2193422312", "name": "MK Restaurants", "nameTh": null, "nameEn": "MK Restaurants", "cat": ["food"], "province": "cr", "slug": "mk-restaurants-2193422312", "rank": 3}}, {"type": "Feature", "geometry": {"type": "Point", "coordinates": [99.83726, 19.88889]}, "properties": {"id": "cr-osm-node-2334898015", "name": "MK Restaurants", "nameTh": null, "nameEn": "MK Restaurants", "cat": ["food"], "province": "cr", "slug": "mk-restaurants-2334898015", "rank": 3}}, {"type": "Feature", "geometry": {"type": "Point", "coordinates": [99.83365, 19.8865]}, "properties": {"id": "cr-osm-node-8946977332", "name": "MK Restaurants", "nameTh": null, "nameEn": "MK Restaurants", "cat": ["food"], "province": "cr", "slug": "mk-restaurants-8946977332", "rank": 1}}]}