{"type": "FeatureCollection", "features": [{"type": "Feature", "geometry": {"type": "Point", "coordinates": [99.85, 19.9234]}, "properties": {"id": "cr-osm-node-13184024816", "name": "Bundarnjai - Coffee Eatery Bingsu", "nameTh": null, "nameEn": "Bundarnjai - Coffee Eatery Bingsu", "cat": ["food"], "province": "cr", "slug": "bundarnjai-coffee-eatery-bingsu-13184024816", "rank": 3}}, {"type": "Feature", "geometry": {"type": "Point", "coordinates": [99.52949, 19.64553]}, "properties": {"id": "cr-osm-node-13294498796", "name": "Hom Coffee", "nameTh": null, "nameEn": "Hom Coffee", "cat": ["food"], "province": "cr", "slug": "hom-coffee-13294498796", "rank": 3}}, {"type": "Feature", "geometry": {"type": "Point", "coordinates": [99.86027, 19.99235]}, "properties": {"id": "cr-osm-node-12860331935", "name": "Jack The Reaper", "nameTh": null, "nameEn": "Jack The Reaper", "cat": ["food"], "province": "cr", "slug": "jack-the-reaper-12860331935", "rank": 3}}, {"type": "Feature", "geometry": {"type": "Point", "coordinates": [99.81309, 19.90378]}, "properties": {"id": "cr-osm-node-13086518748", "name": "James Art Coffee", "nameTh": null, "nameEn": "James Art Coffee", "cat": ["food"], "province": "cr", "slug": "james-art-coffee-13086518748", "rank": 3}}, {"type": "Feature", "geometry": {"type": "Point", "coordinates": [99.83836, 19.90003]}, "properties": {"id": "cr-osm-node-14038470991", "name": "Yannin Bakery House", "nameTh": "ญาณิน เบเกอรี่ เฮ้าส์", "nameEn": "Yannin Bakery House", "cat": ["food"], "province": "cr", "slug": "yannin-bakery-house-14038470991", "rank": 4}}, {"type": "Feature", "geometry": {"type": "Point", "coordinates": [99.80992, 19.90488]}, "properties": {"id": "cr-osm-node-13088652944", "name": "กวางตุ้ง", "nameTh": "กวางตุ้ง", "nameEn": "Kwangtung", "cat": ["food"], "province": "cr", "slug": "kwangtung-13088652944", "rank": 4}}, {"type": "Feature", "geometry": {"type": "Point", "coordinates": [99.7936, 19.90682]}, "properties": {"id": "cr-osm-node-13180119312", "name": "ครัวคุณยาย ก๋วยเตี๋ยว อาหารตามสั่ง", "nameTh": "ครัวคุณยาย ก๋วยเตี๋ยว อาหารตามสั่ง", "nameEn": null, "cat": ["food"], "province": "cr", "slug": "13180119312", "rank": 3}}, {"type": "Feature", "geometry": {"type": "Point", "coordinates": [99.83706, 19.90643]}, "properties": {"id": "cr-osm-node-12886029150", "name": "ฟู่หมูย่างฮ่องกง", "nameTh": "ฟู่หมูย่างฮ่องกง", "nameEn": null, "cat": ["food"], "province": "cr", "slug": "12886029150", "rank": 3}}, {"type": "Feature", "geometry": {"type": "Point", "coordinates": [99.53972, 19.65572]}, "properties": {"id": "cr-osm-node-13176378333", "name": "ร้านนับทอง ข้าวหมูกรอบหมูแดง ก๋วยเตี๋ยว", "nameTh": "ร้านนับทอง ข้าวหมูกรอบหมูแดง ก๋วยเตี๋ยว", "nameEn": null, "cat": ["food"], "province": "cr", "slug": "13176378333", "rank": 3}}, {"type": "Feature", "geometry": {"type": "Point", "coordinates": [99.7936, 19.90685]}, "properties": {"id": "cr-osm-node-13180132664", "name": "เจ๊ติ๋ม ข้าวมันไก่ ข้าวขาหมู ชา กาแฟ", "nameTh": "เจ๊ติ๋ม ข้าวมันไก่ ข้าวขาหมู ชา กาแฟ", "nameEn": null, "cat": ["food"], "province": "cr", "slug": "13180132664", "rank": 3}}, {"type": "Feature", "geometry": {"type": "Point", "coordinates": [99.49267, 19.57562]}, "properties": {"id": "cr-osm-node-13155175874", "name": "มีทรัพย์การค้า เจดีย์หลวง", "nameTh": "มีทรัพย์การค้า เจดีย์หลวง", "nameEn": null, "cat": ["essentials"], "province": "cr", "slug": "13155175874", "rank": 3}}, {"type": "Feature", "geometry": {"type": "Point", "coordinates": [100.48895, 19.94013]}, "properties": {"id": "cr-osm-node-13204024686", "name": "ร้านขายของชำ พ่อ แม่ น้องวี", "nameTh": "ร้านขายของชำ พ่อ แม่ น้องวี", "nameEn": null, "cat": ["essentials"], "province": "cr", "slug": "13204024686", "rank": 3}}, {"type": "Feature", "geometry": {"type": "Point", "coordinates": [99.5144, 19.6257]}, "properties": {"id": "cr-osm-node-13155162510", "name": "ร้านเพิ่มพรการค้า", "nameTh": "ร้านเพิ่มพรการค้า", "nameEn": null, "cat": ["essentials"], "province": "cr", "slug": "13155162510", "rank": 3}}, {"type": "Feature", "geometry": {"type": "Point", "coordinates": [99.83049, 19.90461]}, "properties": {"id": "cr-osm-way-387049084", "name": "Mercy Hostel", "nameTh": null, "nameEn": "Mercy Hostel", "cat": ["hotel"], "province": "cr", "slug": "mercy-hostel-387049084", "rank": 2}}, {"type": "Feature", "geometry": {"type": "Point", "coordinates": [99.77083, 19.8522]}, "properties": {"id": "cr-osm-node-13167472670", "name": "อู่เจเอส เซอร์วิส เชียงราย", "nameTh": "อู่เจเอส เซอร์วิส เชียงราย", "nameEn": null, "cat": ["repair"], "province": "cr", "slug": "13167472670", "rank": 3}}]}