{"type": "FeatureCollection", "features": [{"type": "Feature", "geometry": {"type": "Point", "coordinates": [99.82908, 19.91192]}, "properties": {"id": "cr-osm-relation-7165835", "name": "โรงพยาบาลโอเวอร์บรุ๊ค", "nameTh": "โรงพยาบาลโอเวอร์บรุ๊ค", "nameEn": "Overbrook Hospital", "cat": ["medical"], "province": "cr", "slug": "overbrook-hospital-7165835", "rank": 4}}, {"type": "Feature", "geometry": {"type": "Point", "coordinates": [99.84359, 19.92371]}, "properties": {"id": "cr-osm-node-12836625438", "name": "Greenhill", "nameTh": null, "nameEn": "Greenhill", "cat": ["cannabis"], "province": "cr", "slug": "greenhill-12836625438", "rank": 3}}, {"type": "Feature", "geometry": {"type": "Point", "coordinates": [99.83336, 19.90655]}, "properties": {"id": "cr-osm-node-11556106719", "name": "In-N-Out Cannabis Thailand", "nameTh": null, "nameEn": "In-N-Out Cannabis Thailand", "cat": ["cannabis"], "province": "cr", "slug": "in-n-out-cannabis-thailand-11556106719", "rank": 2}}]}