{"type": "FeatureCollection", "features": [{"type": "Feature", "geometry": {"type": "Point", "coordinates": [100.40525, 20.26907]}, "properties": {"id": "cr-osm-node-7012851785", "name": "Kerry Express", "nameTh": null, "nameEn": "Kerry Express", "cat": ["essentials"], "province": "cr", "slug": "kerry-express-7012851785", "rank": 1}}, {"type": "Feature", "geometry": {"type": "Point", "coordinates": [99.81921, 19.90374]}, "properties": {"id": "cr-osm-node-9121767524", "name": "Kerry Express", "nameTh": null, "nameEn": "Kerry Express", "cat": ["essentials"], "province": "cr", "slug": "kerry-express-9121767524", "rank": 1}}, {"type": "Feature", "geometry": {"type": "Point", "coordinates": [100.40613, 20.26449]}, "properties": {"id": "cr-osm-way-758296302", "name": "Kerry Express", "nameTh": null, "nameEn": "Kerry Express", "cat": ["essentials"], "province": "cr", "slug": "kerry-express-758296302", "rank": 1}}, {"type": "Feature", "geometry": {"type": "Point", "coordinates": [99.74729, 19.54938]}, "properties": {"id": "cr-osm-node-6631508922", "name": "Kerry express", "nameTh": null, "nameEn": "Kerry express", "cat": ["essentials"], "province": "cr", "slug": "kerry-express-6631508922", "rank": 1}}]}