{"type": "FeatureCollection", "features": [{"type": "Feature", "geometry": {"type": "Point", "coordinates": [99.8714939, 19.9568158]}, "properties": {"id": "cr-osm-node-11212239840", "name": "At car rental", "cat": ["transport"], "province": "cr"}}, {"type": "Feature", "geometry": {"type": "Point", "coordinates": [99.878795, 19.954048]}, "properties": {"id": "cr-osm-node-6633383689", "name": "Avis", "cat": ["transport"], "province": "cr"}}, {"type": "Feature", "geometry": {"type": "Point", "coordinates": [99.8337771, 19.8826957]}, "properties": {"id": "cr-osm-way-281180873", "name": "Bangchak", "cat": ["transport"], "province": "cr"}}, {"type": "Feature", "geometry": {"type": "Point", "coordinates": [99.8939493, 19.8107398]}, "properties": {"id": "cr-osm-way-309580442", "name": "Bangchak", "cat": ["transport"], "province": "cr"}}, {"type": "Feature", "geometry": {"type": "Point", "coordinates": [99.8125795, 19.8520725]}, "properties": {"id": "cr-osm-way-583670719", "name": "Bangchak", "cat": ["transport"], "province": "cr"}}, {"type": "Feature", "geometry": {"type": "Point", "coordinates": [99.8600819, 19.9166343]}, "properties": {"id": "cr-osm-way-666390713", "name": "Bangchak", "cat": ["transport"], "province": "cr"}}, {"type": "Feature", "geometry": {"type": "Point", "coordinates": [99.8329622, 19.9078579]}, "properties": {"id": "cr-osm-node-6222470055", "name": "Budget", "cat": ["transport"], "province": "cr"}}, {"type": "Feature", "geometry": {"type": "Point", "coordinates": [99.7840142, 19.860687]}, "properties": {"id": "cr-osm-way-1013478054", "name": "Caltex", "cat": ["transport"], "province": "cr"}}, {"type": "Feature", "geometry": {"type": "Point", "coordinates": [99.9033513, 19.8796157]}, "properties": {"id": "cr-osm-way-1014613949", "name": "Caltex", "cat": ["transport"], "province": "cr"}}, {"type": "Feature", "geometry": {"type": "Point", "coordinates": [99.8456206, 19.9145984]}, "properties": {"id": "cr-osm-way-684852276", "name": "Caltex", "cat": ["transport"], "province": "cr"}}, {"type": "Feature", "geometry": {"type": "Point", "coordinates": [99.854362, 19.9608567]}, "properties": {"id": "cr-osm-way-438889206", "name": "Cosmo", "cat": ["transport"], "province": "cr"}}, {"type": "Feature", "geometry": {"type": "Point", "coordinates": [99.83208, 19.8996984]}, "properties": {"id": "cr-osm-way-483841195", "name": "Cosmo", "cat": ["transport"], "province": "cr"}}, {"type": "Feature", "geometry": {"type": "Point", "coordinates": [99.8809418, 19.8800327]}, "properties": {"id": "cr-osm-way-539335299", "name": "Cosmo", "cat": ["transport"], "province": "cr"}}, {"type": "Feature", "geometry": {"type": "Point", "coordinates": [99.8419355, 19.8980056]}, "properties": {"id": "cr-osm-way-629517123", "name": "Cosmo", "cat": ["transport"], "province": "cr"}}, {"type": "Feature", "geometry": {"type": "Point", "coordinates": [99.8014207, 19.9439628]}, "properties": {"id": "cr-osm-node-4505411389", "name": "Fuel Station", "cat": ["transport"], "province": "cr"}}, {"type": "Feature", "geometry": {"type": "Point", "coordinates": [99.8752133, 19.9525575]}, "properties": {"id": "cr-osm-node-12894211901", "name": "Hertz", "cat": ["transport"], "province": "cr"}}, {"type": "Feature", "geometry": {"type": "Point", "coordinates": [99.878765, 19.9540134]}, "properties": {"id": "cr-osm-node-3494158372", "name": "Hertz", "cat": ["transport"], "province": "cr"}}, {"type": "Feature", "geometry": {"type": "Point", "coordinates": [99.8345186, 19.9823881]}, "properties": {"id": "cr-osm-node-3379546131", "name": "Independent Fuel Station", "cat": ["transport"], "province": "cr"}}, {"type": "Feature", "geometry": {"type": "Point", "coordinates": [99.8310175, 19.9062422]}, "properties": {"id": "cr-osm-node-7083810786", "name": "K Buddy bike rental", "cat": ["transport"], "province": "cr"}}, {"type": "Feature", "geometry": {"type": "Point", "coordinates": [99.7542817, 19.8063729]}, "properties": {"id": "cr-osm-node-3339667040", "name": "LPG Station", "cat": ["transport"], "province": "cr"}}, {"type": "Feature", "geometry": {"type": "Point", "coordinates": [99.8235944, 19.8674073]}, "properties": {"id": "cr-osm-way-583670715", "name": "LPG Station", "cat": ["transport"], "province": "cr"}}, {"type": "Feature", "geometry": {"type": "Point", "coordinates": [99.8581564, 19.8272637]}, "properties": {"id": "cr-osm-node-2851732608", "name": "Minipump", "cat": ["transport"], "province": "cr"}}, {"type": "Feature", "geometry": {"type": "Point", "coordinates": [99.8086188, 19.9388184]}, "properties": {"id": "cr-osm-node-3377361770", "name": "Minipump", "cat": ["transport"], "province": "cr"}}, {"type": "Feature", "geometry": {"type": "Point", "coordinates": [99.9130955, 19.9402147]}, "properties": {"id": "cr-osm-node-3603645175", "name": "Minipump", "cat": ["transport"], "province": "cr"}}, {"type": "Feature", "geometry": {"type": "Point", "coordinates": [99.7729796, 19.934814]}, "properties": {"id": "cr-osm-node-3881898837", "name": "Minipump", "cat": ["transport"], "province": "cr"}}, {"type": "Feature", "geometry": {"type": "Point", "coordinates": [99.7316546, 19.9817596]}, "properties": {"id": "cr-osm-node-3997535520", "name": "Minipump", "cat": ["transport"], "province": "cr"}}, {"type": "Feature", "geometry": {"type": "Point", "coordinates": [99.8787368, 19.953945]}, "properties": {"id": "cr-osm-node-6633501385", "name": "National", "cat": ["transport"], "province": "cr"}}, {"type": "Feature", "geometry": {"type": "Point", "coordinates": [99.8328794, 19.9035976]}, "properties": {"id": "cr-osm-node-4725603490", "name": "P S Car Rent", "cat": ["transport"], "province": "cr"}}, {"type": "Feature", "geometry": {"type": "Point", "coordinates": [99.8326882, 19.9053788]}, "properties": {"id": "cr-osm-node-5384727946", "name": "P.D. Car for rent", "cat": ["transport"], "province": "cr"}}, {"type": "Feature", "geometry": {"type": "Point", "coordinates": [99.7958604, 19.8403415]}, "properties": {"id": "cr-osm-node-11345485269", "name": "PT", "cat": ["transport"], "province": "cr"}}, {"type": "Feature", "geometry": {"type": "Point", "coordinates": [99.7821244, 19.8901554]}, "properties": {"id": "cr-osm-node-11726714538", "name": "PT", "cat": ["transport"], "province": "cr"}}, {"type": "Feature", "geometry": {"type": "Point", "coordinates": [99.8473076, 19.8744543]}, "properties": {"id": "cr-osm-way-1014990988", "name": "PT", "cat": ["transport"], "province": "cr"}}, {"type": "Feature", "geometry": {"type": "Point", "coordinates": [99.7823793, 19.8905969]}, "properties": {"id": "cr-osm-way-1262529630", "name": "PT", "cat": ["transport"], "province": "cr"}}, {"type": "Feature", "geometry": {"type": "Point", "coordinates": [99.7534108, 19.8024365]}, "properties": {"id": "cr-osm-way-1356383594", "name": "PT", "cat": ["transport"], "province": "cr"}}, {"type": "Feature", "geometry": {"type": "Point", "coordinates": [99.9477437, 19.9720772]}, "properties": {"id": "cr-osm-way-354676850", "name": "PT", "cat": ["transport"], "province": "cr"}}, {"type": "Feature", "geometry": {"type": "Point", "coordinates": [99.8389852, 19.8963949]}, "properties": {"id": "cr-osm-way-460263838", "name": "PT", "cat": ["transport"], "province": "cr"}}, {"type": "Feature", "geometry": {"type": "Point", "coordinates": [99.7649809, 19.8598755]}, "properties": {"id": "cr-osm-way-486079460", "name": "PT", "cat": ["transport"], "province": "cr"}}, {"type": "Feature", "geometry": {"type": "Point", "coordinates": [99.7145747, 19.8390108]}, "properties": {"id": "cr-osm-way-486082736", "name": "PT", "cat": ["transport"], "province": "cr"}}, {"type": "Feature", "geometry": {"type": "Point", "coordinates": [99.869099, 19.8436593]}, "properties": {"id": "cr-osm-way-543635484", "name": "PT", "cat": ["transport"], "province": "cr"}}, {"type": "Feature", "geometry": {"type": "Point", "coordinates": [99.8270256, 19.8713842]}, "properties": {"id": "cr-osm-way-558431976", "name": "PT", "cat": ["transport"], "province": "cr"}}, {"type": "Feature", "geometry": {"type": "Point", "coordinates": [99.8126262, 19.8535919]}, "properties": {"id": "cr-osm-way-558431978", "name": "PT", "cat": ["transport"], "province": "cr"}}, {"type": "Feature", "geometry": {"type": "Point", "coordinates": [99.847153, 19.9466647]}, "properties": {"id": "cr-osm-way-584176176", "name": "PT", "cat": ["transport"], "province": "cr"}}, {"type": "Feature", "geometry": {"type": "Point", "coordinates": [99.8662347, 19.9982637]}, "properties": {"id": "cr-osm-way-641234913", "name": "PT", "cat": ["transport"], "province": "cr"}}, {"type": "Feature", "geometry": {"type": "Point", "coordinates": [99.9138276, 19.8619506]}, "properties": {"id": "cr-osm-way-672844446", "name": "PT", "cat": ["transport"], "province": "cr"}}, {"type": "Feature", "geometry": {"type": "Point", "coordinates": [99.8437731, 19.9143076]}, "properties": {"id": "cr-osm-way-684663846", "name": "PT", "cat": ["transport"], "province": "cr"}}, {"type": "Feature", "geometry": {"type": "Point", "coordinates": [99.8452068, 19.9335786]}, "properties": {"id": "cr-osm-way-684839166", "name": "PT", "cat": ["transport"], "province": "cr"}}, {"type": "Feature", "geometry": {"type": "Point", "coordinates": [99.8233168, 19.9071396]}, "properties": {"id": "cr-osm-way-960685118", "name": "PT", "cat": ["transport"], "province": "cr"}}, {"type": "Feature", "geometry": {"type": "Point", "coordinates": [99.841098, 19.9558327]}, "properties": {"id": "cr-osm-node-9748928451", "name": "PTT", "cat": ["transport"], "province": "cr"}}, {"type": "Feature", "geometry": {"type": "Point", "coordinates": [99.8384471, 19.9101618]}, "properties": {"id": "cr-osm-way-317482968", "name": "PTT", "cat": ["transport"], "province": "cr"}}, {"type": "Feature", "geometry": {"type": "Point", "coordinates": [99.8307839, 19.8870357]}, "properties": {"id": "cr-osm-way-558429805", "name": "PTT", "cat": ["transport"], "province": "cr"}}, {"type": "Feature", "geometry": {"type": "Point", "coordinates": [99.8168931, 19.9041331]}, "properties": {"id": "cr-osm-way-641594395", "name": "PTT", "cat": ["transport"], "province": "cr"}}, {"type": "Feature", "geometry": {"type": "Point", "coordinates": [99.8505037, 19.8796818]}, "properties": {"id": "cr-osm-way-665558453", "name": "PTT", "cat": ["transport"], "province": "cr"}}, {"type": "Feature", "geometry": {"type": "Point", "coordinates": [99.8647367, 19.8938928]}, "properties": {"id": "cr-osm-way-961314545", "name": "PTT", "cat": ["transport"], "province": "cr"}}, {"type": "Feature", "geometry": {"type": "Point", "coordinates": [99.8299072, 19.9100832]}, "properties": {"id": "cr-osm-node-4983069122", "name": "Songtaew Station", "cat": ["transport"], "province": "cr"}}, {"type": "Feature", "geometry": {"type": "Point", "coordinates": [99.8787082, 19.953884]}, "properties": {"id": "cr-osm-node-6633383688", "name": "ThaiRent", "cat": ["transport"], "province": "cr"}}, {"type": "Feature", "geometry": {"type": "Point", "coordinates": [99.8601913, 19.9133997]}, "properties": {"id": "cr-osm-way-1126851236", "name": "คาลเทกซ์", "cat": ["transport"], "province": "cr"}}, {"type": "Feature", "geometry": {"type": "Point", "coordinates": [99.7950732, 19.8399874]}, "properties": {"id": "cr-osm-node-11416776920", "name": "บางจาก", "cat": ["transport"], "province": "cr"}}, {"type": "Feature", "geometry": {"type": "Point", "coordinates": [99.8610412, 19.8944413]}, "properties": {"id": "cr-osm-way-665558448", "name": "บางจาก", "cat": ["transport"], "province": "cr"}}, {"type": "Feature", "geometry": {"type": "Point", "coordinates": [99.8292285, 19.8753673]}, "properties": {"id": "cr-osm-way-281165406", "name": "ป.ต.ท.", "cat": ["transport"], "province": "cr"}}, {"type": "Feature", "geometry": {"type": "Point", "coordinates": [99.8411054, 19.9032946]}, "properties": {"id": "cr-osm-way-391457069", "name": "ป.ต.ท.", "cat": ["transport"], "province": "cr"}}, {"type": "Feature", "geometry": {"type": "Point", "coordinates": [99.7332397, 19.8476431]}, "properties": {"id": "cr-osm-way-486082693", "name": "ป.ต.ท.", "cat": ["transport"], "province": "cr"}}, {"type": "Feature", "geometry": {"type": "Point", "coordinates": [99.8797924, 19.8354969]}, "properties": {"id": "cr-osm-way-543635491", "name": "ป.ต.ท.", "cat": ["transport"], "province": "cr"}}, {"type": "Feature", "geometry": {"type": "Point", "coordinates": [99.8547354, 19.9294848]}, "properties": {"id": "cr-osm-way-584176186", "name": "ป.ต.ท.", "cat": ["transport"], "province": "cr"}}, {"type": "Feature", "geometry": {"type": "Point", "coordinates": [99.8442235, 19.9315507]}, "properties": {"id": "cr-osm-way-684872821", "name": "ป.ต.ท.", "cat": ["transport"], "province": "cr"}}, {"type": "Feature", "geometry": {"type": "Point", "coordinates": [99.8438043, 19.9305175]}, "properties": {"id": "cr-osm-way-1125407048", "name": "ปั้ม Caltex", "cat": ["transport"], "province": "cr"}}, {"type": "Feature", "geometry": {"type": "Point", "coordinates": [99.834473, 19.9046593]}, "properties": {"id": "cr-osm-way-105137199", "name": "สถานีขนส่งผู้โดยสารจังหวัดเชียงราย 1", "cat": ["transport"], "province": "cr"}}, {"type": "Feature", "geometry": {"type": "Point", "coordinates": [99.821032, 19.8581553]}, "properties": {"id": "cr-osm-node-6052190386", "name": "สถานีขนส่งผู้โดยสารจังหวัดเชียงราย แห่งที่ 2", "cat": ["transport"], "province": "cr"}}, {"type": "Feature", "geometry": {"type": "Point", "coordinates": [99.8210589, 19.8581307]}, "properties": {"id": "cr-osm-way-256549552", "name": "สถานีขนส่งผู้โดยสารจังหวัดเชียงราย แห่งที่ 2", "cat": ["transport"], "province": "cr"}}, {"type": "Feature", "geometry": {"type": "Point", "coordinates": [99.7734635, 19.8263481]}, "properties": {"id": "cr-osm-way-1013480694", "name": "สยามแก๊ส", "cat": ["transport"], "province": "cr"}}, {"type": "Feature", "geometry": {"type": "Point", "coordinates": [99.8466193, 19.9450962]}, "properties": {"id": "cr-osm-way-829961541", "name": "เชลล์", "cat": ["transport"], "province": "cr"}}, {"type": "Feature", "geometry": {"type": "Point", "coordinates": [99.8447355, 19.9377705]}, "properties": {"id": "cr-osm-way-584176188", "name": "เอสโซ่", "cat": ["transport"], "province": "cr"}}]}