{"type": "FeatureCollection", "features": [{"type": "Feature", "geometry": {"type": "Point", "coordinates": [99.83454, 19.86803]}, "properties": {"id": "cr-osm-node-10201669214", "name": "A.NA cuisine & coffee", "nameTh": null, "nameEn": "A.NA cuisine & coffee", "cat": ["food"], "province": "cr", "slug": "a-na-cuisine-coffee-10201669214", "rank": 3}}, {"type": "Feature", "geometry": {"type": "Point", "coordinates": [99.62701, 20.16569]}, "properties": {"id": "cr-osm-node-4739149121", "name": "Café The Local", "nameTh": null, "nameEn": "Café The Local", "cat": ["food"], "province": "cr", "slug": "caf-the-local-4739149121", "rank": 1}}, {"type": "Feature", "geometry": {"type": "Point", "coordinates": [99.71861, 20.16602]}, "properties": {"id": "cr-osm-node-9899500877", "name": "Daddy's Coffee House / A-Pa Coffee", "nameTh": null, "nameEn": "Daddy's Coffee House / A-Pa Coffee", "cat": ["food"], "province": "cr", "slug": "daddy-s-coffee-house-a-pa-coffee-9899500877", "rank": 1}}, {"type": "Feature", "geometry": {"type": "Point", "coordinates": [99.49374, 19.56004]}, "properties": {"id": "cr-osm-node-2081340989", "name": "Doi Chaang Café", "nameTh": null, "nameEn": "Doi Chaang Coffee House @ Maesuai", "cat": ["food"], "province": "cr", "slug": "doi-chaang-coffee-house-maesuai-2081340989", "rank": 2}}, {"type": "Feature", "geometry": {"type": "Point", "coordinates": [99.81123, 20.28953]}, "properties": {"id": "cr-osm-node-2316793623", "name": "Doi Tung Cafeteria", "nameTh": null, "nameEn": "Doi Tung Cafeteria", "cat": ["food"], "province": "cr", "slug": "doi-tung-cafeteria-2316793623", "rank": 1}}, {"type": "Feature", "geometry": {"type": "Point", "coordinates": [99.85302, 19.90871]}, "properties": {"id": "cr-osm-node-6822960510", "name": "Jianghai Kitchen", "nameTh": null, "nameEn": "Jianghai Kitchen", "cat": ["food"], "province": "cr", "slug": "jianghai-kitchen-6822960510", "rank": 3}}, {"type": "Feature", "geometry": {"type": "Point", "coordinates": [100.09186, 20.3242]}, "properties": {"id": "cr-osm-node-2327148021", "name": "Jinda's Kitchen", "nameTh": null, "nameEn": "Jinda's Kitchen", "cat": ["food"], "province": "cr", "slug": "jinda-s-kitchen-2327148021", "rank": 2}}, {"type": "Feature", "geometry": {"type": "Point", "coordinates": [99.80273, 19.94347]}, "properties": {"id": "cr-osm-node-6424540488", "name": "Lee Hu Doichang Coffee", "nameTh": null, "nameEn": "Lee Hu Doichang Coffee", "cat": ["food"], "province": "cr", "slug": "lee-hu-doichang-coffee-6424540488", "rank": 1}}, {"type": "Feature", "geometry": {"type": "Point", "coordinates": [100.0885, 20.33382]}, "properties": {"id": "cr-osm-node-13264567982", "name": "Madoobar & Restaurant", "nameTh": null, "nameEn": "Madoobar & Restaurant", "cat": ["food"], "province": "cr", "slug": "madoobar-restaurant-13264567982", "rank": 1}}, {"type": "Feature", "geometry": {"type": "Point", "coordinates": [99.88292, 20.42375]}, "properties": {"id": "cr-osm-node-2207469425", "name": "Mr Boyd", "nameTh": null, "nameEn": "Mr Boyd", "cat": ["food"], "province": "cr", "slug": "mr-boyd-2207469425", "rank": 1}}, {"type": "Feature", "geometry": {"type": "Point", "coordinates": [100.30847, 20.08368]}, "properties": {"id": "cr-osm-node-7262882886", "name": "Restaurant", "nameTh": null, "nameEn": "Restaurant", "cat": ["food"], "province": "cr", "slug": "restaurant-7262882886", "rank": 1}}, {"type": "Feature", "geometry": {"type": "Point", "coordinates": [99.51016, 19.33981]}, "properties": {"id": "cr-osm-node-7273438685", "name": "Restaurant", "nameTh": null, "nameEn": "Restaurant", "cat": ["food"], "province": "cr", "slug": "restaurant-7273438685", "rank": 1}}, {"type": "Feature", "geometry": {"type": "Point", "coordinates": [100.44086, 19.8476]}, "properties": {"id": "cr-osm-way-555858290", "name": "Restaurant and Coffee Shop", "nameTh": null, "nameEn": "Restaurant and Coffee Shop", "cat": ["food"], "province": "cr", "slug": "restaurant-and-coffee-shop-555858290", "rank": 1}}, {"type": "Feature", "geometry": {"type": "Point", "coordinates": [100.40782, 20.26231]}, "properties": {"id": "cr-osm-node-1517556675", "name": "Rimkong", "nameTh": null, "nameEn": "Rimkong", "cat": ["food"], "province": "cr", "slug": "rimkong-1517556675", "rank": 2}}, {"type": "Feature", "geometry": {"type": "Point", "coordinates": [99.62309, 20.16394]}, "properties": {"id": "cr-osm-way-208495987", "name": "Salima Restaurant", "nameTh": null, "nameEn": "Salima Restaurant", "cat": ["food"], "province": "cr", "slug": "salima-restaurant-208495987", "rank": 1}}, {"type": "Feature", "geometry": {"type": "Point", "coordinates": [99.51067, 19.18939]}, "properties": {"id": "cr-osm-way-1126136468", "name": "South North", "nameTh": null, "nameEn": "South North", "cat": ["food"], "province": "cr", "slug": "south-north-1126136468", "rank": 2}}, {"type": "Feature", "geometry": {"type": "Point", "coordinates": [99.49289, 19.57844]}, "properties": {"id": "cr-osm-node-13460387261", "name": "Story 4len", "nameTh": null, "nameEn": "Story 4len", "cat": ["food"], "province": "cr", "slug": "story-4len-13460387261", "rank": 1}}, {"type": "Feature", "geometry": {"type": "Point", "coordinates": [99.87498, 20.08402]}, "properties": {"id": "cr-osm-node-3202760711", "name": "Teak Cafe", "nameTh": null, "nameEn": "Teak Cafe", "cat": ["food"], "province": "cr", "slug": "teak-cafe-3202760711", "rank": 1}}, {"type": "Feature", "geometry": {"type": "Point", "coordinates": [100.09261, 20.31059]}, "properties": {"id": "cr-osm-node-2206759323", "name": "Thai Kitchen", "nameTh": null, "nameEn": "Thai Kitchen", "cat": ["food"], "province": "cr", "slug": "thai-kitchen-2206759323", "rank": 1}}, {"type": "Feature", "geometry": {"type": "Point", "coordinates": [99.55664, 19.81179]}, "properties": {"id": "cr-osm-node-3323406386", "name": "The View Restaurant", "nameTh": null, "nameEn": "The View Restaurant", "cat": ["food"], "province": "cr", "slug": "the-view-restaurant-3323406386", "rank": 1}}, {"type": "Feature", "geometry": {"type": "Point", "coordinates": [100.08814, 20.27925]}, "properties": {"id": "cr-osm-node-13358760101", "name": "Tiewfokodum", "nameTh": null, "nameEn": "Tiewfokodum", "cat": ["food"], "province": "cr", "slug": "tiewfokodum-13358760101", "rank": 1}}, {"type": "Feature", "geometry": {"type": "Point", "coordinates": [99.62612, 20.16548]}, "properties": {"id": "cr-osm-node-4520375490", "name": "Xin Zhi Dai Bakery", "nameTh": null, "nameEn": "Xin Zhi Dai Bakery", "cat": ["food"], "province": "cr", "slug": "xin-zhi-dai-bakery-4520375490", "rank": 2}}, {"type": "Feature", "geometry": {"type": "Point", "coordinates": [99.84473, 19.93569]}, "properties": {"id": "cr-osm-node-2148831301", "name": "ก๋วยเตี๋ยวเนื้อหมู อันเจริญ", "nameTh": "ก๋วยเตี๋ยวเนื้อหมู อันเจริญ", "nameEn": null, "cat": ["food"], "province": "cr", "slug": "2148831301", "rank": 1}}, {"type": "Feature", "geometry": {"type": "Point", "coordinates": [99.83113, 19.90568]}, "properties": {"id": "cr-osm-node-4504116382", "name": "ข้าวซอยพอใจ", "nameTh": "ข้าวซอยพอใจ", "nameEn": "Khao Soi Phor Jai", "cat": ["food"], "province": "cr", "slug": "khao-soi-phor-jai-4504116382", "rank": 2}}, {"type": "Feature", "geometry": {"type": "Point", "coordinates": [99.85053, 19.92214]}, "properties": {"id": "cr-osm-way-1127661768", "name": "ร้านอาหาร​ หลู้ลำ", "nameTh": "ร้านหลู้ลำ", "nameEn": "Lu Lum", "cat": ["food"], "province": "cr", "slug": "lu-lum-1127661768", "rank": 4}}, {"type": "Feature", "geometry": {"type": "Point", "coordinates": [99.73989, 19.55155]}, "properties": {"id": "cr-osm-node-5782374054", "name": "อาหารเจป้านาง", "nameTh": "อาหารเจป้านาง", "nameEn": "pa nang J food", "cat": ["food"], "province": "cr", "slug": "pa-nang-j-food-5782374054", "rank": 4}}]}