{"type": "FeatureCollection", "features": [{"type": "Feature", "geometry": {"type": "Point", "coordinates": [99.82946, 19.90821]}, "properties": {"id": "cr-osm-node-2716451601", "name": "Rosprasert Muslim Food", "nameTh": null, "nameEn": "Rosprasert Muslim Food", "cat": ["food"], "province": "cr", "slug": "rosprasert-muslim-food-2716451601", "rank": 3}}, {"type": "Feature", "geometry": {"type": "Point", "coordinates": [99.62309, 20.16394]}, "properties": {"id": "cr-osm-way-208495987", "name": "Salima Restaurant", "nameTh": null, "nameEn": "Salima Restaurant", "cat": ["food"], "province": "cr", "slug": "salima-restaurant-208495987", "rank": 1}}, {"type": "Feature", "geometry": {"type": "Point", "coordinates": [99.82945, 19.90798]}, "properties": {"id": "cr-osm-node-9688293017", "name": "หน้าสุเหร่า", "nameTh": "หน้าสุเหร่า", "nameEn": "Na Surao", "cat": ["food"], "province": "cr", "slug": "na-surao-9688293017", "rank": 2}}, {"type": "Feature", "geometry": {"type": "Point", "coordinates": [99.84943, 19.91698]}, "properties": {"id": "cr-osm-node-11409659187", "name": "โรตีป้าใหญ่", "nameTh": "โรตีป้าใหญ่", "nameEn": "Roti Pa Yai", "cat": ["food"], "province": "cr", "slug": "roti-pa-yai-11409659187", "rank": 2}}]}