{"type": "FeatureCollection", "features": [{"type": "Feature", "geometry": {"type": "Point", "coordinates": [99.66122, 20.15933]}, "properties": {"id": "cr-osm-node-7895787785", "name": "101 Green View", "nameTh": null, "nameEn": "101 Green View", "cat": ["food"], "province": "cr", "slug": "101-green-view-7895787785", "rank": 2}}, {"type": "Feature", "geometry": {"type": "Point", "coordinates": [99.85894, 19.9924]}, "properties": {"id": "cr-osm-way-653519354", "name": "Give Green Farm House", "nameTh": null, "nameEn": "Give Green Farm House", "cat": ["food"], "province": "cr", "slug": "give-green-farm-house-653519354", "rank": 3}}, {"type": "Feature", "geometry": {"type": "Point", "coordinates": [99.83105, 19.9061]}, "properties": {"id": "cr-osm-node-5320151028", "name": "Heaven Burger", "nameTh": null, "nameEn": "Heaven Burger", "cat": ["food"], "province": "cr", "slug": "heaven-burger-5320151028", "rank": 3}}, {"type": "Feature", "geometry": {"type": "Point", "coordinates": [99.8288, 19.90712]}, "properties": {"id": "cr-osm-node-13389915801", "name": "Kunda Vegetarian Café", "nameTh": null, "nameEn": "Kunda Vegetarian Café", "cat": ["food"], "province": "cr", "slug": "kunda-vegetarian-caf-13389915801", "rank": 1}}, {"type": "Feature", "geometry": {"type": "Point", "coordinates": [100.07832, 20.2749]}, "properties": {"id": "cr-osm-node-2313723098", "name": "Lan Gae", "nameTh": null, "nameEn": "Lan Gae", "cat": ["food"], "province": "cr", "slug": "lan-gae-2313723098", "rank": 1}}, {"type": "Feature", "geometry": {"type": "Point", "coordinates": [99.88642, 20.44236]}, "properties": {"id": "cr-osm-node-11118967325", "name": "Mae Sai Health", "nameTh": null, "nameEn": "Mae Sai Health", "cat": ["food"], "province": "cr", "slug": "mae-sai-health-11118967325", "rank": 1}}, {"type": "Feature", "geometry": {"type": "Point", "coordinates": [99.8306, 19.91215]}, "properties": {"id": "cr-osm-node-2316640505", "name": "Porwin Vegetarian", "nameTh": null, "nameEn": "Porwin Vegetarian", "cat": ["food"], "province": "cr", "slug": "porwin-vegetarian-2316640505", "rank": 1}}, {"type": "Feature", "geometry": {"type": "Point", "coordinates": [99.8285, 19.90623]}, "properties": {"id": "cr-osm-node-2319194977", "name": "Tamacha", "nameTh": null, "nameEn": "Tamacha", "cat": ["food"], "province": "cr", "slug": "tamacha-2319194977", "rank": 2}}, {"type": "Feature", "geometry": {"type": "Point", "coordinates": [100.40357, 20.27043]}, "properties": {"id": "cr-osm-node-2304875498", "name": "Vegetarian Food", "nameTh": null, "nameEn": "Vegetarian Food", "cat": ["food"], "province": "cr", "slug": "vegetarian-food-2304875498", "rank": 1}}, {"type": "Feature", "geometry": {"type": "Point", "coordinates": [99.83062, 19.9015]}, "properties": {"id": "cr-osm-node-4556487389", "name": "Vegetarian Restaurant", "nameTh": null, "nameEn": "Boonsita", "cat": ["food"], "province": "cr", "slug": "boonsita-4556487389", "rank": 2}}, {"type": "Feature", "geometry": {"type": "Point", "coordinates": [99.62612, 20.16548]}, "properties": {"id": "cr-osm-node-4520375490", "name": "Xin Zhi Dai Bakery", "nameTh": null, "nameEn": "Xin Zhi Dai Bakery", "cat": ["food"], "province": "cr", "slug": "xin-zhi-dai-bakery-4520375490", "rank": 2}}, {"type": "Feature", "geometry": {"type": "Point", "coordinates": [99.62285, 20.16368]}, "properties": {"id": "cr-osm-node-6290979685", "name": "Yang Ming Vegetarian Restaurant", "nameTh": null, "nameEn": "Yang Ming Vegetarian Restaurant", "cat": ["food"], "province": "cr", "slug": "yang-ming-vegetarian-restaurant-6290979685", "rank": 2}}, {"type": "Feature", "geometry": {"type": "Point", "coordinates": [99.82758, 19.91228]}, "properties": {"id": "cr-osm-node-5436937745", "name": "บาลาบ", "nameTh": "บาลาบ", "nameEn": "Barrab", "cat": ["food"], "province": "cr", "slug": "barrab-5436937745", "rank": 3}}, {"type": "Feature", "geometry": {"type": "Point", "coordinates": [99.82722, 19.90803]}, "properties": {"id": "cr-osm-way-960771490", "name": "ปฐมเจ สาขาเชียงราย", "nameTh": "ปฐมเจ สาขาเชียงราย", "nameEn": "Phartom vegetarian vegan restaurant", "cat": ["food"], "province": "cr", "slug": "phartom-vegetarian-vegan-restaurant-960771490", "rank": 3}}, {"type": "Feature", "geometry": {"type": "Point", "coordinates": [99.8231, 19.90747]}, "properties": {"id": "cr-osm-way-960685080", "name": "ร้านอาหารเจ", "nameTh": "ร้านอาหารเจ", "nameEn": "Vegetarian Food", "cat": ["food"], "province": "cr", "slug": "vegetarian-food-960685080", "rank": 2}}, {"type": "Feature", "geometry": {"type": "Point", "coordinates": [99.83511, 19.90549]}, "properties": {"id": "cr-osm-node-2301371485", "name": "ร้านอาหารเจ โอเอซิส", "nameTh": "ร้านอาหารเจ โอเอซิส", "nameEn": "Oasis Vegetaurant", "cat": ["food"], "province": "cr", "slug": "oasis-vegetaurant-2301371485", "rank": 3}}, {"type": "Feature", "geometry": {"type": "Point", "coordinates": [99.73989, 19.55155]}, "properties": {"id": "cr-osm-node-5782374054", "name": "อาหารเจป้านาง", "nameTh": "อาหารเจป้านาง", "nameEn": "pa nang J food", "cat": ["food"], "province": "cr", "slug": "pa-nang-j-food-5782374054", "rank": 4}}]}