{"type": "FeatureCollection", "features": [{"type": "Feature", "geometry": {"type": "Point", "coordinates": [99.82861, 19.90502]}, "properties": {"id": "cr-osm-node-10307977396", "name": "1055 brewing at corner", "nameTh": null, "nameEn": "1055 brewing at corner", "cat": ["food"], "province": "cr", "slug": "1055-brewing-at-corner-10307977396", "rank": 3}}, {"type": "Feature", "geometry": {"type": "Point", "coordinates": [99.83083, 19.90908]}, "properties": {"id": "cr-osm-node-6725738686", "name": "1:2 - กาดหลวง", "nameTh": "1:2 - กาดหลวง", "nameEn": "1:2 Chiang Rai Brew", "cat": ["food"], "province": "cr", "slug": "1-2-chiang-rai-brew-6725738686", "rank": 3}}, {"type": "Feature", "geometry": {"type": "Point", "coordinates": [99.55783, 19.77518]}, "properties": {"id": "cr-osm-node-10538600384", "name": "Miyo Coffee & Bar", "nameTh": null, "nameEn": "Miyo Coffee & Bar", "cat": ["food"], "province": "cr", "slug": "miyo-coffee-bar-10538600384", "rank": 2}}, {"type": "Feature", "geometry": {"type": "Point", "coordinates": [99.75354, 19.44782]}, "properties": {"id": "cr-osm-node-10547552330", "name": "Mogami Cafe", "nameTh": null, "nameEn": "Mogami Cafe", "cat": ["food"], "province": "cr", "slug": "mogami-cafe-10547552330", "rank": 2}}, {"type": "Feature", "geometry": {"type": "Point", "coordinates": [99.82844, 19.90564]}, "properties": {"id": "cr-osm-node-3981494578", "name": "Pang Pond", "nameTh": null, "nameEn": "Pang Pond", "cat": ["food"], "province": "cr", "slug": "pang-pond-3981494578", "rank": 1}}, {"type": "Feature", "geometry": {"type": "Point", "coordinates": [99.8382, 19.91134]}, "properties": {"id": "cr-osm-node-10316298412", "name": "Rosie.cei", "nameTh": null, "nameEn": "Rosie.cei", "cat": ["food"], "province": "cr", "slug": "rosie-cei-10316298412", "rank": 1}}, {"type": "Feature", "geometry": {"type": "Point", "coordinates": [99.84084, 19.91204]}, "properties": {"id": "cr-osm-way-643043417", "name": "Rasa Hotel", "nameTh": null, "nameEn": "Rasa Hotel", "cat": ["hotel"], "province": "cr", "slug": "rasa-hotel-643043417", "rank": 3}}, {"type": "Feature", "geometry": {"type": "Point", "coordinates": [100.08885, 20.29059]}, "properties": {"id": "cr-osm-way-1114778424", "name": "Sabai@Chiang Saen", "nameTh": "สบาย@เชียงแสน", "nameEn": "Sabai@Chiang Saen", "cat": ["hotel"], "province": "cr", "slug": "sabai-chiang-saen-1114778424", "rank": 2}}, {"type": "Feature", "geometry": {"type": "Point", "coordinates": [100.07933, 20.27353]}, "properties": {"id": "cr-osm-node-2313723117", "name": "พิพิธภัณฑสถานแห่งชาติ เชียงแสน", "nameTh": "พิพิธภัณฑสถานแห่งชาติ เชียงแสน", "nameEn": "Chiang Saen National Museum", "cat": ["museums-galleries"], "province": "cr", "slug": "chiang-saen-national-museum-2313723117", "rank": 3}}]}