{"type": "FeatureCollection", "features": [{"type": "Feature", "geometry": {"type": "Point", "coordinates": [99.85282, 20.16811]}, "properties": {"id": "cr-osm-node-2171582063", "name": "Bangchak", "nameTh": "บางจาก", "nameEn": "Bangchak", "cat": ["transport"], "province": "cr", "slug": "bangchak-2171582063", "rank": 2}}, {"type": "Feature", "geometry": {"type": "Point", "coordinates": [99.95752, 19.56636]}, "properties": {"id": "cr-osm-node-4045047473", "name": "Bangchak", "nameTh": null, "nameEn": "Bangchak", "cat": ["transport"], "province": "cr", "slug": "bangchak-4045047473", "rank": 1}}, {"type": "Feature", "geometry": {"type": "Point", "coordinates": [99.54951, 19.66237]}, "properties": {"id": "cr-osm-node-631562401", "name": "Bangchak", "nameTh": null, "nameEn": "Bangchak", "cat": ["transport"], "province": "cr", "slug": "bangchak-631562401", "rank": 1}}, {"type": "Feature", "geometry": {"type": "Point", "coordinates": [99.73458, 19.75944]}, "properties": {"id": "cr-osm-way-1013494831", "name": "Bangchak", "nameTh": "บางจาก", "nameEn": "Bangchak", "cat": ["transport"], "province": "cr", "slug": "bangchak-1013494831", "rank": 2}}, {"type": "Feature", "geometry": {"type": "Point", "coordinates": [99.51199, 19.30505]}, "properties": {"id": "cr-osm-way-1157124935", "name": "Bangchak", "nameTh": "บางจาก", "nameEn": "Bangchak", "cat": ["transport"], "province": "cr", "slug": "bangchak-1157124935", "rank": 2}}, {"type": "Feature", "geometry": {"type": "Point", "coordinates": [99.83378, 19.8827]}, "properties": {"id": "cr-osm-way-281180873", "name": "Bangchak", "nameTh": "บางจาก", "nameEn": "Bangchak", "cat": ["transport"], "province": "cr", "slug": "bangchak-281180873", "rank": 2}}, {"type": "Feature", "geometry": {"type": "Point", "coordinates": [100.41117, 20.24521]}, "properties": {"id": "cr-osm-way-283763998", "name": "Bangchak", "nameTh": "บางจาก", "nameEn": "Bangchak", "cat": ["transport"], "province": "cr", "slug": "bangchak-283763998", "rank": 2}}, {"type": "Feature", "geometry": {"type": "Point", "coordinates": [99.89395, 19.81074]}, "properties": {"id": "cr-osm-way-309580442", "name": "Bangchak", "nameTh": "บางจาก", "nameEn": "Bangchak", "cat": ["transport"], "province": "cr", "slug": "bangchak-309580442", "rank": 2}}, {"type": "Feature", "geometry": {"type": "Point", "coordinates": [100.19923, 19.6913]}, "properties": {"id": "cr-osm-way-317396506", "name": "Bangchak", "nameTh": "บางจาก", "nameEn": "Bangchak", "cat": ["transport"], "province": "cr", "slug": "bangchak-317396506", "rank": 2}}, {"type": "Feature", "geometry": {"type": "Point", "coordinates": [99.74391, 19.52634]}, "properties": {"id": "cr-osm-way-327230658", "name": "Bangchak", "nameTh": "บางจาก", "nameEn": "Bangchak", "cat": ["transport"], "province": "cr", "slug": "bangchak-327230658", "rank": 2}}, {"type": "Feature", "geometry": {"type": "Point", "coordinates": [99.99131, 20.27365]}, "properties": {"id": "cr-osm-way-449291285", "name": "Bangchak", "nameTh": "บางจาก", "nameEn": "Bangchak", "cat": ["transport"], "province": "cr", "slug": "bangchak-449291285", "rank": 2}}, {"type": "Feature", "geometry": {"type": "Point", "coordinates": [100.1514, 19.84797]}, "properties": {"id": "cr-osm-way-527456349", "name": "Bangchak", "nameTh": "บางจาก", "nameEn": "Bangchak", "cat": ["transport"], "province": "cr", "slug": "bangchak-527456349", "rank": 2}}, {"type": "Feature", "geometry": {"type": "Point", "coordinates": [100.08841, 19.65116]}, "properties": {"id": "cr-osm-way-537564312", "name": "Bangchak", "nameTh": null, "nameEn": "Bangchak", "cat": ["transport"], "province": "cr", "slug": "bangchak-537564312", "rank": 1}}, {"type": "Feature", "geometry": {"type": "Point", "coordinates": [99.81258, 19.85207]}, "properties": {"id": "cr-osm-way-583670719", "name": "Bangchak", "nameTh": "บางจาก", "nameEn": "Bangchak", "cat": ["transport"], "province": "cr", "slug": "bangchak-583670719", "rank": 2}}, {"type": "Feature", "geometry": {"type": "Point", "coordinates": [99.50311, 19.38989]}, "properties": {"id": "cr-osm-way-657099440", "name": "Bangchak", "nameTh": "บางจาก", "nameEn": "Bangchak", "cat": ["transport"], "province": "cr", "slug": "bangchak-657099440", "rank": 2}}, {"type": "Feature", "geometry": {"type": "Point", "coordinates": [99.86008, 19.91663]}, "properties": {"id": "cr-osm-way-666390713", "name": "Bangchak", "nameTh": "บางจาก", "nameEn": "Bangchak", "cat": ["transport"], "province": "cr", "slug": "bangchak-666390713", "rank": 2}}, {"type": "Feature", "geometry": {"type": "Point", "coordinates": [99.92197, 19.68793]}, "properties": {"id": "cr-osm-way-739012124", "name": "Bangchak", "nameTh": null, "nameEn": "Bangchak", "cat": ["transport"], "province": "cr", "slug": "bangchak-739012124", "rank": 1}}, {"type": "Feature", "geometry": {"type": "Point", "coordinates": [99.85764, 20.14532]}, "properties": {"id": "cr-osm-node-2148626577", "name": "PT", "nameTh": "พีที", "nameEn": "PT", "cat": ["transport"], "province": "cr", "slug": "pt-2148626577", "rank": 2}}, {"type": "Feature", "geometry": {"type": "Point", "coordinates": [99.79507, 19.83999]}, "properties": {"id": "cr-osm-node-11416776920", "name": "บางจาก", "nameTh": "บางจาก", "nameEn": "Bangchak", "cat": ["transport"], "province": "cr", "slug": "bangchak-11416776920", "rank": 2}}, {"type": "Feature", "geometry": {"type": "Point", "coordinates": [99.71568, 19.72448]}, "properties": {"id": "cr-osm-way-1013494828", "name": "บางจาก", "nameTh": "บางจาก", "nameEn": "Bangchak", "cat": ["transport"], "province": "cr", "slug": "bangchak-1013494828", "rank": 2}}, {"type": "Feature", "geometry": {"type": "Point", "coordinates": [100.2237, 20.29727]}, "properties": {"id": "cr-osm-way-1013505706", "name": "บางจาก", "nameTh": "บางจาก", "nameEn": "Bangchak", "cat": ["transport"], "province": "cr", "slug": "bangchak-1013505706", "rank": 2}}, {"type": "Feature", "geometry": {"type": "Point", "coordinates": [99.75046, 19.56338]}, "properties": {"id": "cr-osm-way-1237721732", "name": "บางจาก", "nameTh": "บางจาก", "nameEn": "Bangchak", "cat": ["transport"], "province": "cr", "slug": "bangchak-1237721732", "rank": 2}}, {"type": "Feature", "geometry": {"type": "Point", "coordinates": [100.06287, 20.26925]}, "properties": {"id": "cr-osm-way-1348429515", "name": "บางจาก", "nameTh": "บางจาก", "nameEn": "Bangchak", "cat": ["transport"], "province": "cr", "slug": "bangchak-1348429515", "rank": 2}}, {"type": "Feature", "geometry": {"type": "Point", "coordinates": [100.49098, 20.02614]}, "properties": {"id": "cr-osm-way-1359245830", "name": "บางจาก", "nameTh": "บางจาก", "nameEn": "Bangchak", "cat": ["transport"], "province": "cr", "slug": "bangchak-1359245830", "rank": 2}}, {"type": "Feature", "geometry": {"type": "Point", "coordinates": [100.09248, 20.11506]}, "properties": {"id": "cr-osm-way-1359247714", "name": "บางจาก", "nameTh": "บางจาก", "nameEn": "Bangchak", "cat": ["transport"], "province": "cr", "slug": "bangchak-1359247714", "rank": 2}}, {"type": "Feature", "geometry": {"type": "Point", "coordinates": [100.25577, 19.67546]}, "properties": {"id": "cr-osm-way-1360845575", "name": "บางจาก", "nameTh": "บางจาก", "nameEn": "Bangchak", "cat": ["transport"], "province": "cr", "slug": "bangchak-1360845575", "rank": 2}}, {"type": "Feature", "geometry": {"type": "Point", "coordinates": [100.17925, 19.69021]}, "properties": {"id": "cr-osm-way-1446683251", "name": "บางจาก", "nameTh": "บางจาก", "nameEn": "Bangchak", "cat": ["transport"], "province": "cr", "slug": "bangchak-1446683251", "rank": 2}}, {"type": "Feature", "geometry": {"type": "Point", "coordinates": [100.48439, 20.00506]}, "properties": {"id": "cr-osm-way-283436785", "name": "บางจาก", "nameTh": "บางจาก", "nameEn": "Bangchak", "cat": ["transport"], "province": "cr", "slug": "bangchak-283436785", "rank": 2}}, {"type": "Feature", "geometry": {"type": "Point", "coordinates": [99.73122, 19.75437]}, "properties": {"id": "cr-osm-way-284191241", "name": "บางจาก", "nameTh": "บางจาก", "nameEn": "Bangchak", "cat": ["transport"], "province": "cr", "slug": "bangchak-284191241", "rank": 2}}, {"type": "Feature", "geometry": {"type": "Point", "coordinates": [100.11907, 19.74512]}, "properties": {"id": "cr-osm-way-527084449", "name": "บางจาก", "nameTh": "บางจาก", "nameEn": "Bangchak", "cat": ["transport"], "province": "cr", "slug": "bangchak-527084449", "rank": 4}}, {"type": "Feature", "geometry": {"type": "Point", "coordinates": [99.98998, 19.5104]}, "properties": {"id": "cr-osm-way-537550945", "name": "บางจาก", "nameTh": "บางจาก", "nameEn": "Bangchak", "cat": ["transport"], "province": "cr", "slug": "bangchak-537550945", "rank": 2}}, {"type": "Feature", "geometry": {"type": "Point", "coordinates": [99.86104, 19.89444]}, "properties": {"id": "cr-osm-way-665558448", "name": "บางจาก", "nameTh": "บางจาก", "nameEn": "Bangchak", "cat": ["transport"], "province": "cr", "slug": "bangchak-665558448", "rank": 2}}, {"type": "Feature", "geometry": {"type": "Point", "coordinates": [99.86932, 20.01171]}, "properties": {"id": "cr-osm-way-758286288", "name": "บางจาก", "nameTh": "บางจาก", "nameEn": "Bangchak", "cat": ["transport"], "province": "cr", "slug": "bangchak-758286288", "rank": 2}}, {"type": "Feature", "geometry": {"type": "Point", "coordinates": [100.25158, 19.97644]}, "properties": {"id": "cr-osm-way-543641540", "name": "ปั้มน้ำมันสหกรณ์การเกษตรพญาเม็งราย", "nameTh": "ปั้มน้ำมันสหกรณ์การเกษตรพญาเม็งราย", "nameEn": null, "cat": ["transport"], "province": "cr", "slug": "543641540", "rank": 1}}]}