{"type": "FeatureCollection", "features": [{"type": "Feature", "geometry": {"type": "Point", "coordinates": [99.51639, 19.19749]}, "properties": {"id": "cr-osm-node-2123248671", "name": "Lotus's go fresh", "nameTh": null, "nameEn": "Lotus's go fresh", "cat": ["essentials"], "province": "cr", "slug": "lotus-s-go-fresh-2123248671", "rank": 2}}, {"type": "Feature", "geometry": {"type": "Point", "coordinates": [99.50326, 19.36715]}, "properties": {"id": "cr-osm-node-2136677524", "name": "Lotus's go fresh", "nameTh": null, "nameEn": "Lotus's go fresh", "cat": ["essentials"], "province": "cr", "slug": "lotus-s-go-fresh-2136677524", "rank": 2}}, {"type": "Feature", "geometry": {"type": "Point", "coordinates": [99.84089, 19.89801]}, "properties": {"id": "cr-osm-node-7057535387", "name": "TESCO Lotus Express", "nameTh": null, "nameEn": "TESCO Lotus Express", "cat": ["essentials"], "province": "cr", "slug": "tesco-lotus-express-7057535387", "rank": 1}}]}