{"type": "FeatureCollection", "features": [{"type": "Feature", "geometry": {"type": "Point", "coordinates": [99.82915, 19.90696]}, "properties": {"id": "cr-osm-way-960934978", "name": "Chai Si", "nameTh": "ชายสี่ หมี่เกี้ยว", "nameEn": "Chai Si", "cat": ["food"], "province": "cr", "slug": "chai-si-960934978", "rank": 2}}, {"type": "Feature", "geometry": {"type": "Point", "coordinates": [99.84789, 19.9669]}, "properties": {"id": "cr-osm-node-4811264237", "name": "Hello coffee and noodles", "nameTh": null, "nameEn": "Hello coffee and noodles", "cat": ["food"], "province": "cr", "slug": "hello-coffee-and-noodles-4811264237", "rank": 2}}, {"type": "Feature", "geometry": {"type": "Point", "coordinates": [99.829, 19.9073]}, "properties": {"id": "cr-osm-way-960934959", "name": "Pa Pai", "nameTh": "บะหมี่ป้าไพ", "nameEn": "Pa Pai", "cat": ["food"], "province": "cr", "slug": "pa-pai-960934959", "rank": 2}}, {"type": "Feature", "geometry": {"type": "Point", "coordinates": [99.83907, 19.91059]}, "properties": {"id": "cr-osm-node-9455323820", "name": "Pad Thai Restaurant", "nameTh": null, "nameEn": "Pad Thai Restaurant", "cat": ["food"], "province": "cr", "slug": "pad-thai-restaurant-9455323820", "rank": 1}}, {"type": "Feature", "geometry": {"type": "Point", "coordinates": [99.82845, 19.90786]}, "properties": {"id": "cr-osm-way-960934982", "name": "Por Look Chin Pa", "nameTh": "ป.ลูกชิ้นปลา", "nameEn": "Por Look Chin Pa", "cat": ["food"], "province": "cr", "slug": "por-look-chin-pa-960934982", "rank": 2}}, {"type": "Feature", "geometry": {"type": "Point", "coordinates": [99.62612, 20.16548]}, "properties": {"id": "cr-osm-node-4520375490", "name": "Xin Zhi Dai Bakery", "nameTh": null, "nameEn": "Xin Zhi Dai Bakery", "cat": ["food"], "province": "cr", "slug": "xin-zhi-dai-bakery-4520375490", "rank": 2}}, {"type": "Feature", "geometry": {"type": "Point", "coordinates": [100.08536, 20.27412]}, "properties": {"id": "cr-osm-node-5401620121", "name": "night and morning market", "nameTh": null, "nameEn": "night and morning market", "cat": ["food"], "province": "cr", "slug": "night-and-morning-market-5401620121", "rank": 1}}, {"type": "Feature", "geometry": {"type": "Point", "coordinates": [99.80992, 19.90488]}, "properties": {"id": "cr-osm-node-13088652944", "name": "กวางตุ้ง", "nameTh": "กวางตุ้ง", "nameEn": "Kwangtung", "cat": ["food"], "province": "cr", "slug": "kwangtung-13088652944", "rank": 4}}, {"type": "Feature", "geometry": {"type": "Point", "coordinates": [99.83875, 19.91565]}, "properties": {"id": "cr-osm-node-9956681349", "name": "ก๋วยเตี๋ยว ป้าอร", "nameTh": "ก๋วยเตี๋ยว ป้าอร", "nameEn": "Pa Orn's Noodle", "cat": ["food"], "province": "cr", "slug": "pa-orn-s-noodle-9956681349", "rank": 2}}, {"type": "Feature", "geometry": {"type": "Point", "coordinates": [99.84028, 19.91677]}, "properties": {"id": "cr-osm-node-10223255212", "name": "ก๋วยเตี๋ยว ในฝัน", "nameTh": "ก๋วยเตี๋ยว ในฝัน", "nameEn": "Naifan Noodle", "cat": ["food"], "province": "cr", "slug": "naifan-noodle-10223255212", "rank": 2}}, {"type": "Feature", "geometry": {"type": "Point", "coordinates": [99.83824, 19.91109]}, "properties": {"id": "cr-osm-node-9131881434", "name": "ก๋วยเตี๋ยวต้มยำสุโขทัย", "nameTh": "ก๋วยเตี๋ยวต้มยำสุโขทัย", "nameEn": "Sukhothai Tom Yum Noodles", "cat": ["food"], "province": "cr", "slug": "sukhothai-tom-yum-noodles-9131881434", "rank": 2}}, {"type": "Feature", "geometry": {"type": "Point", "coordinates": [99.80267, 19.88225]}, "properties": {"id": "cr-osm-node-13724825735", "name": "ก๋วยเตี๋ยวเนื้อตุ๋น", "nameTh": "ก๋วยเตี๋ยวเนื้อตุ๋น", "nameEn": null, "cat": ["food"], "province": "cr", "slug": "13724825735", "rank": 1}}, {"type": "Feature", "geometry": {"type": "Point", "coordinates": [99.83074, 19.88475]}, "properties": {"id": "cr-osm-node-9104729404", "name": "ก๋วยเตี๋ยวเรือ ๑๓ เหรียญ", "nameTh": "ก๋วยเตี๋ยวเรือ ๑๓ เหรียญ", "nameEn": null, "cat": ["food"], "province": "cr", "slug": "9104729404", "rank": 2}}, {"type": "Feature", "geometry": {"type": "Point", "coordinates": [99.83001, 19.90143]}, "properties": {"id": "cr-osm-node-9223231635", "name": "ก๋วยเตี๋ยวไก่มะระ ข้างโรงบาล", "nameTh": "ก๋วยเตี๋ยวไก่มะระ ข้างโรงบาล", "nameEn": "Bitter gourd chicken noodles", "cat": ["food"], "province": "cr", "slug": "bitter-gourd-chicken-noodles-9223231635", "rank": 2}}, {"type": "Feature", "geometry": {"type": "Point", "coordinates": [99.82757, 19.89412]}, "properties": {"id": "cr-osm-node-10294851199", "name": "ชายสี่", "nameTh": "ชายสี่", "nameEn": "Chai Xi", "cat": ["food"], "province": "cr", "slug": "chai-xi-10294851199", "rank": 2}}, {"type": "Feature", "geometry": {"type": "Point", "coordinates": [99.83066, 19.90686]}, "properties": {"id": "cr-osm-way-963169299", "name": "นายฮั่ง", "nameTh": "นายฮั่ง", "nameEn": "Nai Hang Noodle", "cat": ["food"], "province": "cr", "slug": "nai-hang-noodle-963169299", "rank": 2}}, {"type": "Feature", "geometry": {"type": "Point", "coordinates": [99.85852, 19.95633]}, "properties": {"id": "cr-osm-node-11951217744", "name": "บะหมี่ 88", "nameTh": "บะหมี่ 88", "nameEn": null, "cat": ["food"], "province": "cr", "slug": "88-11951217744", "rank": 1}}, {"type": "Feature", "geometry": {"type": "Point", "coordinates": [99.81885, 19.90471]}, "properties": {"id": "cr-osm-node-9790527206", "name": "พฤกษา", "nameTh": "พฤกษา", "nameEn": "Pruksa", "cat": ["food"], "province": "cr", "slug": "pruksa-9790527206", "rank": 2}}, {"type": "Feature", "geometry": {"type": "Point", "coordinates": [99.82534, 19.90776]}, "properties": {"id": "cr-osm-way-960771467", "name": "ราชวงศ์ลูกชิ้นปลา", "nameTh": "ราชวงศ์ลูกชิ้นปลา", "nameEn": "Ratchawong", "cat": ["food"], "province": "cr", "slug": "ratchawong-960771467", "rank": 2}}, {"type": "Feature", "geometry": {"type": "Point", "coordinates": [99.84528, 19.92478]}, "properties": {"id": "cr-osm-node-4420657409", "name": "สุดยอดเนื้อตุ๋น2016", "nameTh": "สุดยอดเนื้อตุ๋น2016", "nameEn": "Jane Beef 2016", "cat": ["food"], "province": "cr", "slug": "jane-beef-2016-4420657409", "rank": 3}}, {"type": "Feature", "geometry": {"type": "Point", "coordinates": [99.81893, 19.90335]}, "properties": {"id": "cr-osm-node-10099999779", "name": "หมูย่างอัมพวา", "nameTh": "หมูย่างอัมพวา", "nameEn": "Amphawa Grilled Pork Noodle", "cat": ["food"], "province": "cr", "slug": "amphawa-grilled-pork-noodle-10099999779", "rank": 2}}, {"type": "Feature", "geometry": {"type": "Point", "coordinates": [99.88401, 20.43771]}, "properties": {"id": "cr-osm-node-5237462321", "name": "อันเจริญ แม่สาย", "nameTh": "อันเจริญ แม่สาย", "nameEn": "An Charoen Mae Sai", "cat": ["food"], "province": "cr", "slug": "an-charoen-mae-sai-5237462321", "rank": 4}}, {"type": "Feature", "geometry": {"type": "Point", "coordinates": [99.83164, 19.90731]}, "properties": {"id": "cr-osm-way-963169269", "name": "ฮุยเม้ง", "nameTh": "ฮุยเม้ง", "nameEn": "Hiu Meng", "cat": ["food"], "province": "cr", "slug": "hiu-meng-963169269", "rank": 2}}, {"type": "Feature", "geometry": {"type": "Point", "coordinates": [99.83465, 19.90419]}, "properties": {"id": "cr-osm-way-968343205", "name": "เจ๊เฮียง", "nameTh": "เจ๊เฮียง", "nameEn": "Jay Hieng", "cat": ["food"], "province": "cr", "slug": "jay-hieng-968343205", "rank": 2}}, {"type": "Feature", "geometry": {"type": "Point", "coordinates": [99.83073, 19.8848]}, "properties": {"id": "cr-osm-node-9104746651", "name": "เตี๋ยวเรือ ๑๓ เหรียญ", "nameTh": "เตี๋ยวเรือ ๑๓ เหรียญ", "nameEn": "Tiew Raeur 13 rian", "cat": ["food"], "province": "cr", "slug": "tiew-raeur-13-rian-9104746651", "rank": 3}}, {"type": "Feature", "geometry": {"type": "Point", "coordinates": [99.82965, 19.90711]}, "properties": {"id": "cr-osm-way-960934989", "name": "เนื้อวัวรสเยี่ยม", "nameTh": "เนื้อวัวรสเยี่ยม", "nameEn": "Rote Yiam Beef", "cat": ["food"], "province": "cr", "slug": "rote-yiam-beef-960934989", "rank": 3}}, {"type": "Feature", "geometry": {"type": "Point", "coordinates": [99.83766, 19.88868]}, "properties": {"id": "cr-osm-node-8946980124", "name": "โออิชิ ราเมง", "nameTh": "โออิชิ ราเมง", "nameEn": "Oishi Ramen", "cat": ["food"], "province": "cr", "slug": "oishi-ramen-8946980124", "rank": 2}}]}