{"type": "FeatureCollection", "features": [{"type": "Feature", "geometry": {"type": "Point", "coordinates": [100.29847, 20.05231]}, "properties": {"id": "cr-osm-node-10556863203", "name": "Cafe Amazon", "nameTh": null, "nameEn": "Cafe Amazon", "cat": ["food"], "province": "cr", "slug": "cafe-amazon-10556863203", "rank": 1}}, {"type": "Feature", "geometry": {"type": "Point", "coordinates": [99.83828, 19.91033]}, "properties": {"id": "cr-osm-node-7028962731", "name": "Cafe Amazon", "nameTh": null, "nameEn": "Cafe Amazon", "cat": ["food"], "province": "cr", "slug": "cafe-amazon-7028962731", "rank": 1}}, {"type": "Feature", "geometry": {"type": "Point", "coordinates": [99.8511, 19.8795]}, "properties": {"id": "cr-osm-way-1014990984", "name": "Cafe Amazon", "nameTh": null, "nameEn": "Cafe Amazon", "cat": ["food"], "province": "cr", "slug": "cafe-amazon-1014990984", "rank": 1}}, {"type": "Feature", "geometry": {"type": "Point", "coordinates": [100.08758, 20.29034]}, "properties": {"id": "cr-osm-way-1114778421", "name": "Cafe Amazon", "nameTh": null, "nameEn": "Cafe Amazon", "cat": ["food"], "province": "cr", "slug": "cafe-amazon-1114778421", "rank": 1}}, {"type": "Feature", "geometry": {"type": "Point", "coordinates": [99.81694, 19.90391]}, "properties": {"id": "cr-osm-way-641594379", "name": "Cafe Amazon", "nameTh": null, "nameEn": "Cafe Amazon", "cat": ["food"], "province": "cr", "slug": "cafe-amazon-641594379", "rank": 1}}, {"type": "Feature", "geometry": {"type": "Point", "coordinates": [99.86506, 19.89428]}, "properties": {"id": "cr-osm-way-961314551", "name": "Cafe Amazon", "nameTh": null, "nameEn": "Cafe Amazon", "cat": ["food"], "province": "cr", "slug": "cafe-amazon-961314551", "rank": 1}}, {"type": "Feature", "geometry": {"type": "Point", "coordinates": [99.87469, 20.05594]}, "properties": {"id": "cr-osm-node-3217413985", "name": "Café Amazon", "nameTh": "คาเฟ่ อเมซอน", "nameEn": "Café Amazon", "cat": ["food"], "province": "cr", "slug": "caf-amazon-3217413985", "rank": 2}}, {"type": "Feature", "geometry": {"type": "Point", "coordinates": [99.74115, 19.54019]}, "properties": {"id": "cr-osm-node-4099350657", "name": "Café Amazon", "nameTh": "คาเฟ่ อเมซอน", "nameEn": "Café Amazon", "cat": ["food"], "province": "cr", "slug": "caf-amazon-4099350657", "rank": 2}}, {"type": "Feature", "geometry": {"type": "Point", "coordinates": [99.88533, 20.41813]}, "properties": {"id": "cr-osm-way-376357761", "name": "Café Amazon", "nameTh": null, "nameEn": "Café Amazon", "cat": ["food"], "province": "cr", "slug": "caf-amazon-376357761", "rank": 1}}, {"type": "Feature", "geometry": {"type": "Point", "coordinates": [99.85493, 19.92978]}, "properties": {"id": "cr-osm-node-11475932637", "name": "คาเฟ่ อเมซอน", "nameTh": "คาเฟ่ อเมซอน", "nameEn": "Café Amazon", "cat": ["food"], "province": "cr", "slug": "caf-amazon-11475932637", "rank": 2}}, {"type": "Feature", "geometry": {"type": "Point", "coordinates": [99.82903, 19.87497]}, "properties": {"id": "cr-osm-node-1295675148", "name": "คาเฟ่ อเมซอน", "nameTh": "คาเฟ่ อเมซอน", "nameEn": "Café Amazon", "cat": ["food"], "province": "cr", "slug": "caf-amazon-1295675148", "rank": 2}}, {"type": "Feature", "geometry": {"type": "Point", "coordinates": [100.03367, 19.99126]}, "properties": {"id": "cr-osm-node-13568706687", "name": "คาเฟ่ อเมซอน", "nameTh": "คาเฟ่ อเมซอน", "nameEn": "Café Amazon", "cat": ["food"], "province": "cr", "slug": "caf-amazon-13568706687", "rank": 2}}, {"type": "Feature", "geometry": {"type": "Point", "coordinates": [100.15368, 19.69047]}, "properties": {"id": "cr-osm-node-3149135731", "name": "คาเฟ่ อเมซอน", "nameTh": "คาเฟ่ อเมซอน", "nameEn": "Café Amazon", "cat": ["food"], "province": "cr", "slug": "caf-amazon-3149135731", "rank": 2}}, {"type": "Feature", "geometry": {"type": "Point", "coordinates": [99.86016, 20.26761]}, "properties": {"id": "cr-osm-node-3218711088", "name": "คาเฟ่ อเมซอน", "nameTh": "คาเฟ่ อเมซอน", "nameEn": "Café Amazon", "cat": ["food"], "province": "cr", "slug": "caf-amazon-3218711088", "rank": 2}}, {"type": "Feature", "geometry": {"type": "Point", "coordinates": [100.37813, 20.03732]}, "properties": {"id": "cr-osm-node-5005082100", "name": "คาเฟ่ อเมซอน", "nameTh": "คาเฟ่ อเมซอน", "nameEn": "Café Amazon", "cat": ["food"], "province": "cr", "slug": "caf-amazon-5005082100", "rank": 2}}, {"type": "Feature", "geometry": {"type": "Point", "coordinates": [100.50472, 20.10399]}, "properties": {"id": "cr-osm-node-5358725222", "name": "คาเฟ่ อเมซอน", "nameTh": "คาเฟ่ อเมซอน", "nameEn": "Café Amazon", "cat": ["food"], "province": "cr", "slug": "caf-amazon-5358725222", "rank": 3}}, {"type": "Feature", "geometry": {"type": "Point", "coordinates": [99.53199, 19.64804]}, "properties": {"id": "cr-osm-node-5397821305", "name": "คาเฟ่ อเมซอน", "nameTh": "คาเฟ่ อเมซอน", "nameEn": "Café Amazon", "cat": ["food"], "province": "cr", "slug": "caf-amazon-5397821305", "rank": 2}}, {"type": "Feature", "geometry": {"type": "Point", "coordinates": [99.87557, 20.03375]}, "properties": {"id": "cr-osm-node-6039288924", "name": "คาเฟ่ อเมซอน", "nameTh": "คาเฟ่ อเมซอน", "nameEn": "Café Amazon", "cat": ["food"], "province": "cr", "slug": "caf-amazon-6039288924", "rank": 2}}, {"type": "Feature", "geometry": {"type": "Point", "coordinates": [99.51505, 19.61931]}, "properties": {"id": "cr-osm-node-7079176685", "name": "คาเฟ่ อเมซอน", "nameTh": "คาเฟ่ อเมซอน", "nameEn": "Café Amazon", "cat": ["food"], "province": "cr", "slug": "caf-amazon-7079176685", "rank": 3}}, {"type": "Feature", "geometry": {"type": "Point", "coordinates": [99.50956, 19.33749]}, "properties": {"id": "cr-osm-node-7257657611", "name": "คาเฟ่ อเมซอน", "nameTh": "คาเฟ่ อเมซอน", "nameEn": "Café Amazon", "cat": ["food"], "province": "cr", "slug": "caf-amazon-7257657611", "rank": 3}}, {"type": "Feature", "geometry": {"type": "Point", "coordinates": [99.51435, 19.19284]}, "properties": {"id": "cr-osm-way-1012165004", "name": "คาเฟ่ อเมซอน", "nameTh": "คาเฟ่ อเมซอน", "nameEn": "Café Amazon", "cat": ["food"], "province": "cr", "slug": "caf-amazon-1012165004", "rank": 3}}, {"type": "Feature", "geometry": {"type": "Point", "coordinates": [99.73178, 19.75239]}, "properties": {"id": "cr-osm-way-1013494816", "name": "คาเฟ่ อเมซอน", "nameTh": "คาเฟ่ อเมซอน", "nameEn": "Café Amazon", "cat": ["food"], "province": "cr", "slug": "caf-amazon-1013494816", "rank": 2}}, {"type": "Feature", "geometry": {"type": "Point", "coordinates": [100.41218, 20.24347]}, "properties": {"id": "cr-osm-way-1013618599", "name": "คาเฟ่ อเมซอน", "nameTh": "คาเฟ่ อเมซอน", "nameEn": "Café Amazon", "cat": ["food"], "province": "cr", "slug": "caf-amazon-1013618599", "rank": 2}}, {"type": "Feature", "geometry": {"type": "Point", "coordinates": [99.82986, 19.89971]}, "properties": {"id": "cr-osm-way-1075277177", "name": "คาเฟ่ อเมซอน", "nameTh": "คาเฟ่ อเมซอน", "nameEn": "Café Amazon", "cat": ["food"], "province": "cr", "slug": "caf-amazon-1075277177", "rank": 2}}, {"type": "Feature", "geometry": {"type": "Point", "coordinates": [99.73324, 19.84739]}, "properties": {"id": "cr-osm-way-1157127036", "name": "คาเฟ่ อเมซอน", "nameTh": "คาเฟ่ อเมซอน", "nameEn": "Café Amazon", "cat": ["food"], "province": "cr", "slug": "caf-amazon-1157127036", "rank": 2}}, {"type": "Feature", "geometry": {"type": "Point", "coordinates": [99.84124, 19.90297]}, "properties": {"id": "cr-osm-way-751053182", "name": "คาเฟ่ อเมซอน", "nameTh": "คาเฟ่ อเมซอน", "nameEn": "Café Amazon", "cat": ["food"], "province": "cr", "slug": "caf-amazon-751053182", "rank": 2}}, {"type": "Feature", "geometry": {"type": "Point", "coordinates": [99.82986, 19.90672]}, "properties": {"id": "cr-osm-way-963169302", "name": "คาเฟ่ อเมซอน", "nameTh": "คาเฟ่ อเมซอน", "nameEn": "Café Amazon", "cat": ["food"], "province": "cr", "slug": "caf-amazon-963169302", "rank": 2}}]}