{"type": "FeatureCollection", "features": [{"type": "Feature", "geometry": {"type": "Point", "coordinates": [99.83454, 19.86803]}, "properties": {"id": "cr-osm-node-10201669214", "name": "A.NA cuisine & coffee", "nameTh": null, "nameEn": "A.NA cuisine & coffee", "cat": ["food"], "province": "cr", "slug": "a-na-cuisine-coffee-10201669214", "rank": 3}}, {"type": "Feature", "geometry": {"type": "Point", "coordinates": [99.84959, 19.96914]}, "properties": {"id": "cr-osm-way-1197823633", "name": "Heaven Café : Marble", "nameTh": null, "nameEn": "Heaven Café : Marble", "cat": ["food"], "province": "cr", "slug": "heaven-caf-marble-1197823633", "rank": 3}}, {"type": "Feature", "geometry": {"type": "Point", "coordinates": [99.82973, 19.89902]}, "properties": {"id": "cr-osm-node-11893650113", "name": "หมีเพลิน MeehPloen Cafe", "nameTh": "หมีเพลิน MeehPloen Cafe", "nameEn": null, "cat": ["food"], "province": "cr", "slug": "meehploen-cafe-11893650113", "rank": 3}}, {"type": "Feature", "geometry": {"type": "Point", "coordinates": [99.82769, 19.90641]}, "properties": {"id": "cr-osm-node-9124114260", "name": "หอมจันทร์", "nameTh": "หอมจันทร์", "nameEn": "Homchan", "cat": ["food"], "province": "cr", "slug": "homchan-9124114260", "rank": 4}}]}