{"type": "FeatureCollection", "features": [{"type": "Feature", "geometry": {"type": "Point", "coordinates": [99.82861, 19.90502]}, "properties": {"id": "cr-osm-node-10307977396", "name": "1055 brewing at corner", "nameTh": null, "nameEn": "1055 brewing at corner", "cat": ["food"], "province": "cr", "slug": "1055-brewing-at-corner-10307977396", "rank": 3}}, {"type": "Feature", "geometry": {"type": "Point", "coordinates": [99.83083, 19.90908]}, "properties": {"id": "cr-osm-node-6725738686", "name": "1:2 - กาดหลวง", "nameTh": "1:2 - กาดหลวง", "nameEn": "1:2 Chiang Rai Brew", "cat": ["food"], "province": "cr", "slug": "1-2-chiang-rai-brew-6725738686", "rank": 3}}, {"type": "Feature", "geometry": {"type": "Point", "coordinates": [99.83405, 19.88657]}, "properties": {"id": "cr-osm-node-8946453124", "name": "Bar-B-Q Plaza", "nameTh": null, "nameEn": "Bar-B-Q Plaza", "cat": ["food"], "province": "cr", "slug": "bar-b-q-plaza-8946453124", "rank": 1}}, {"type": "Feature", "geometry": {"type": "Point", "coordinates": [99.87469, 20.05594]}, "properties": {"id": "cr-osm-node-3217413985", "name": "Café Amazon", "nameTh": "คาเฟ่ อเมซอน", "nameEn": "Café Amazon", "cat": ["food"], "province": "cr", "slug": "caf-amazon-3217413985", "rank": 2}}, {"type": "Feature", "geometry": {"type": "Point", "coordinates": [99.74115, 19.54019]}, "properties": {"id": "cr-osm-node-4099350657", "name": "Café Amazon", "nameTh": "คาเฟ่ อเมซอน", "nameEn": "Café Amazon", "cat": ["food"], "province": "cr", "slug": "caf-amazon-4099350657", "rank": 2}}, {"type": "Feature", "geometry": {"type": "Point", "coordinates": [99.88359, 20.40749]}, "properties": {"id": "cr-osm-node-2193422313", "name": "KFC", "nameTh": "เค เอฟ ซี", "nameEn": "KFC", "cat": ["food"], "province": "cr", "slug": "kfc-2193422313", "rank": 3}}, {"type": "Feature", "geometry": {"type": "Point", "coordinates": [99.83719, 19.8886]}, "properties": {"id": "cr-osm-node-2334898014", "name": "KFC", "nameTh": "เค เอฟ ซี", "nameEn": "KFC", "cat": ["food"], "province": "cr", "slug": "kfc-2334898014", "rank": 3}}, {"type": "Feature", "geometry": {"type": "Point", "coordinates": [99.83422, 19.88657]}, "properties": {"id": "cr-osm-node-3145141929", "name": "KFC", "nameTh": "เค เอฟ ซี", "nameEn": "KFC", "cat": ["food"], "province": "cr", "slug": "kfc-3145141929", "rank": 3}}, {"type": "Feature", "geometry": {"type": "Point", "coordinates": [99.83479, 19.88642]}, "properties": {"id": "cr-osm-node-2334898016", "name": "McDonald's", "nameTh": "แมคโดนัลด์", "nameEn": "McDonald's", "cat": ["food"], "province": "cr", "slug": "mcdonald-s-2334898016", "rank": 4}}, {"type": "Feature", "geometry": {"type": "Point", "coordinates": [99.83311, 19.88616]}, "properties": {"id": "cr-osm-node-2334898017", "name": "The Pizza Company", "nameTh": "เดอะ พิซซ่า คอมปะนี", "nameEn": "The Pizza Company", "cat": ["food"], "province": "cr", "slug": "the-pizza-company-2334898017", "rank": 4}}, {"type": "Feature", "geometry": {"type": "Point", "coordinates": [99.80212, 19.88729]}, "properties": {"id": "cr-osm-node-4652615988", "name": "Zoomkungten Nonpueng", "nameTh": null, "nameEn": "Zoomkungten Nonpueng", "cat": ["food"], "province": "cr", "slug": "zoomkungten-nonpueng-4652615988", "rank": 3}}, {"type": "Feature", "geometry": {"type": "Point", "coordinates": [99.82492, 19.89837]}, "properties": {"id": "cr-osm-node-8922379214", "name": "กั๊ดจัง คาเร", "nameTh": "กั๊ดจัง คาเร", "nameEn": null, "cat": ["food"], "province": "cr", "slug": "8922379214", "rank": 1}}, {"type": "Feature", "geometry": {"type": "Point", "coordinates": [99.83824, 19.91109]}, "properties": {"id": "cr-osm-node-9131881434", "name": "ก๋วยเตี๋ยวต้มยำสุโขทัย", "nameTh": "ก๋วยเตี๋ยวต้มยำสุโขทัย", "nameEn": "Sukhothai Tom Yum Noodles", "cat": ["food"], "province": "cr", "slug": "sukhothai-tom-yum-noodles-9131881434", "rank": 2}}, {"type": "Feature", "geometry": {"type": "Point", "coordinates": [99.85763, 20.14934]}, "properties": {"id": "cr-osm-node-2150597982", "name": "ขาหมูแสนคำ (หน้าศาลเจ้าแม่จัน)", "nameTh": "ขาหมูแสนคำ (หน้าศาลเจ้าแม่จัน)", "nameEn": null, "cat": ["food"], "province": "cr", "slug": "2150597982", "rank": 2}}, {"type": "Feature", "geometry": {"type": "Point", "coordinates": [100.15368, 19.69047]}, "properties": {"id": "cr-osm-node-3149135731", "name": "คาเฟ่ อเมซอน", "nameTh": "คาเฟ่ อเมซอน", "nameEn": "Café Amazon", "cat": ["food"], "province": "cr", "slug": "caf-amazon-3149135731", "rank": 2}}, {"type": "Feature", "geometry": {"type": "Point", "coordinates": [99.86016, 20.26761]}, "properties": {"id": "cr-osm-node-3218711088", "name": "คาเฟ่ อเมซอน", "nameTh": "คาเฟ่ อเมซอน", "nameEn": "Café Amazon", "cat": ["food"], "province": "cr", "slug": "caf-amazon-3218711088", "rank": 2}}, {"type": "Feature", "geometry": {"type": "Point", "coordinates": [99.73178, 19.75239]}, "properties": {"id": "cr-osm-way-1013494816", "name": "คาเฟ่ อเมซอน", "nameTh": "คาเฟ่ อเมซอน", "nameEn": "Café Amazon", "cat": ["food"], "province": "cr", "slug": "caf-amazon-1013494816", "rank": 2}}, {"type": "Feature", "geometry": {"type": "Point", "coordinates": [99.83343, 19.88641]}, "properties": {"id": "cr-osm-node-9119957392", "name": "ฟูจิ", "nameTh": "ฟูจิ", "nameEn": "Fuji Restaurant", "cat": ["food"], "province": "cr", "slug": "fuji-restaurant-9119957392", "rank": 5}}, {"type": "Feature", "geometry": {"type": "Point", "coordinates": [99.82183, 19.90334]}, "properties": {"id": "cr-osm-way-997641687", "name": "ลาบปลาดอยตอง", "nameTh": "ลาบปลาดอยตอง", "nameEn": "Lap Pla Doi Tong", "cat": ["food"], "province": "cr", "slug": "lap-pla-doi-tong-997641687", "rank": 4}}, {"type": "Feature", "geometry": {"type": "Point", "coordinates": [99.82229, 19.90127]}, "properties": {"id": "cr-osm-node-4648347234", "name": "สบันงาขันโตก", "nameTh": "สบันงาขันโตก", "nameEn": "Sabun-Nga Khantok", "cat": ["food"], "province": "cr", "slug": "sabun-nga-khantok-4648347234", "rank": 4}}, {"type": "Feature", "geometry": {"type": "Point", "coordinates": [99.81762, 19.90197]}, "properties": {"id": "cr-osm-node-8947728129", "name": "ส้มตำป้าเบ๊อะ", "nameTh": "ส้มตำป้าเบ๊อะ", "nameEn": "Pa Boe Somtam", "cat": ["food"], "province": "cr", "slug": "pa-boe-somtam-8947728129", "rank": 2}}, {"type": "Feature", "geometry": {"type": "Point", "coordinates": [99.88042, 20.42008]}, "properties": {"id": "cr-osm-node-3726320431", "name": "เมล็ดชา", "nameTh": "เมล็ดชา", "nameEn": "Maletcha", "cat": ["food"], "province": "cr", "slug": "maletcha-3726320431", "rank": 2}}, {"type": "Feature", "geometry": {"type": "Point", "coordinates": [99.83294, 19.92885]}, "properties": {"id": "cr-osm-way-967419243", "name": "โอชิเน เชียงราย", "nameTh": "โอชิเน เชียงราย", "nameEn": "Oshine Chignarai", "cat": ["food"], "province": "cr", "slug": "oshine-chignarai-967419243", "rank": 3}}, {"type": "Feature", "geometry": {"type": "Point", "coordinates": [99.85093, 19.91962]}, "properties": {"id": "cr-osm-node-2140748944", "name": "อัมรินทร์ รีสอร์ท", "nameTh": "อัมรินทร์ รีสอร์ท", "nameEn": "Amarin Resort", "cat": ["hotel"], "province": "cr", "slug": "amarin-resort-2140748944", "rank": 3}}]}