{"type": "FeatureCollection", "features": [{"type": "Feature", "geometry": {"type": "Point", "coordinates": [99.62756, 20.16545]}, "properties": {"id": "cr-osm-node-4520373193", "name": "C&J", "nameTh": null, "nameEn": "C&J", "cat": ["food"], "province": "cr", "slug": "c-j-4520373193", "rank": 2}}, {"type": "Feature", "geometry": {"type": "Point", "coordinates": [99.50704, 19.3515]}, "properties": {"id": "cr-osm-way-1349668543", "name": "Hong Kong roaster", "nameTh": null, "nameEn": "Hong Kong roaster", "cat": ["food"], "province": "cr", "slug": "hong-kong-roaster-1349668543", "rank": 1}}, {"type": "Feature", "geometry": {"type": "Point", "coordinates": [99.62763, 20.16547]}, "properties": {"id": "cr-osm-node-5393424221", "name": "Mr. Ho", "nameTh": null, "nameEn": "Mr. Ho", "cat": ["food"], "province": "cr", "slug": "mr-ho-5393424221", "rank": 1}}, {"type": "Feature", "geometry": {"type": "Point", "coordinates": [99.83312, 19.90335]}, "properties": {"id": "cr-osm-way-484139943", "name": "Muang Thong", "nameTh": null, "nameEn": "Muang Thong", "cat": ["food"], "province": "cr", "slug": "muang-thong-484139943", "rank": 1}}, {"type": "Feature", "geometry": {"type": "Point", "coordinates": [99.62309, 20.16394]}, "properties": {"id": "cr-osm-way-208495987", "name": "Salima Restaurant", "nameTh": null, "nameEn": "Salima Restaurant", "cat": ["food"], "province": "cr", "slug": "salima-restaurant-208495987", "rank": 1}}, {"type": "Feature", "geometry": {"type": "Point", "coordinates": [99.63058, 20.16517]}, "properties": {"id": "cr-osm-node-2077399212", "name": "Sue Hai", "nameTh": null, "nameEn": "Sue Hai", "cat": ["food"], "province": "cr", "slug": "sue-hai-2077399212", "rank": 1}}, {"type": "Feature", "geometry": {"type": "Point", "coordinates": [99.62612, 20.16548]}, "properties": {"id": "cr-osm-node-4520375490", "name": "Xin Zhi Dai Bakery", "nameTh": null, "nameEn": "Xin Zhi Dai Bakery", "cat": ["food"], "province": "cr", "slug": "xin-zhi-dai-bakery-4520375490", "rank": 2}}, {"type": "Feature", "geometry": {"type": "Point", "coordinates": [99.67554, 19.80755]}, "properties": {"id": "cr-osm-node-7931705724", "name": "silpasa café", "nameTh": null, "nameEn": "silpasa café", "cat": ["food"], "province": "cr", "slug": "silpasa-caf-7931705724", "rank": 2}}, {"type": "Feature", "geometry": {"type": "Point", "coordinates": [99.83218, 19.90331]}, "properties": {"id": "cr-osm-node-8955693296", "name": "จีบ Dimsum", "nameTh": "จีบ Dimsum", "nameEn": "Jeep Dimsum", "cat": ["food"], "province": "cr", "slug": "jeep-dimsum-8955693296", "rank": 2}}, {"type": "Feature", "geometry": {"type": "Point", "coordinates": [99.82758, 19.91228]}, "properties": {"id": "cr-osm-node-5436937745", "name": "บาลาบ", "nameTh": "บาลาบ", "nameEn": "Barrab", "cat": ["food"], "province": "cr", "slug": "barrab-5436937745", "rank": 3}}, {"type": "Feature", "geometry": {"type": "Point", "coordinates": [99.83706, 19.90643]}, "properties": {"id": "cr-osm-node-12886029150", "name": "ฟู่หมูย่างฮ่องกง", "nameTh": "ฟู่หมูย่างฮ่องกง", "nameEn": null, "cat": ["food"], "province": "cr", "slug": "12886029150", "rank": 3}}, {"type": "Feature", "geometry": {"type": "Point", "coordinates": [99.61754, 20.14774]}, "properties": {"id": "cr-osm-node-4164466592", "name": "ร้านชาหงษ์ฉี", "nameTh": "ร้านชาหงษ์ฉี", "nameEn": null, "cat": ["food"], "province": "cr", "slug": "4164466592", "rank": 3}}, {"type": "Feature", "geometry": {"type": "Point", "coordinates": [99.50926, 19.60338]}, "properties": {"id": "cr-osm-node-13040769261", "name": "หม่าล่าซ.8", "nameTh": "หม่าล่าซ.8", "nameEn": null, "cat": ["food"], "province": "cr", "slug": "8-13040769261", "rank": 3}}, {"type": "Feature", "geometry": {"type": "Point", "coordinates": [99.82979, 19.90713]}, "properties": {"id": "cr-osm-way-960934991", "name": "เหล่าม่า เอ็กซ์เพรส", "nameTh": "เหล่าม่า เอ็กซ์เพรส", "nameEn": "Laoma Express", "cat": ["food"], "province": "cr", "slug": "laoma-express-960934991", "rank": 2}}]}