{"type": "FeatureCollection", "features": [{"type": "Feature", "geometry": {"type": "Point", "coordinates": [99.82861, 19.90502]}, "properties": {"id": "cr-osm-node-10307977396", "name": "1055 brewing at corner", "nameTh": null, "nameEn": "1055 brewing at corner", "cat": ["food"], "province": "cr", "slug": "1055-brewing-at-corner-10307977396", "rank": 3}}, {"type": "Feature", "geometry": {"type": "Point", "coordinates": [99.8804, 20.3222]}, "properties": {"id": "cr-osm-way-702969689", "name": "11Coffee Roasters", "nameTh": null, "nameEn": "11Coffee Roasters", "cat": ["food"], "province": "cr", "slug": "11coffee-roasters-702969689", "rank": 1}}, {"type": "Feature", "geometry": {"type": "Point", "coordinates": [99.83083, 19.90908]}, "properties": {"id": "cr-osm-node-6725738686", "name": "1:2 - กาดหลวง", "nameTh": "1:2 - กาดหลวง", "nameEn": "1:2 Chiang Rai Brew", "cat": ["food"], "province": "cr", "slug": "1-2-chiang-rai-brew-6725738686", "rank": 3}}, {"type": "Feature", "geometry": {"type": "Point", "coordinates": [99.82659, 19.90706]}, "properties": {"id": "cr-osm-node-9941448217", "name": "Akha Hill", "nameTh": null, "nameEn": "Akha Hill", "cat": ["food"], "province": "cr", "slug": "akha-hill-9941448217", "rank": 3}}, {"type": "Feature", "geometry": {"type": "Point", "coordinates": [99.83405, 19.88657]}, "properties": {"id": "cr-osm-node-8946453124", "name": "Bar-B-Q Plaza", "nameTh": null, "nameEn": "Bar-B-Q Plaza", "cat": ["food"], "province": "cr", "slug": "bar-b-q-plaza-8946453124", "rank": 1}}, {"type": "Feature", "geometry": {"type": "Point", "coordinates": [99.82886, 19.90447]}, "properties": {"id": "cr-osm-node-13389908501", "name": "Breakfast Factory", "nameTh": null, "nameEn": "Breakfast Factory", "cat": ["food"], "province": "cr", "slug": "breakfast-factory-13389908501", "rank": 1}}, {"type": "Feature", "geometry": {"type": "Point", "coordinates": [99.83286, 19.92829]}, "properties": {"id": "cr-osm-way-967419247", "name": "Cafe number Ei8ht", "nameTh": null, "nameEn": "Cafe number Ei8ht", "cat": ["food"], "province": "cr", "slug": "cafe-number-ei8ht-967419247", "rank": 2}}, {"type": "Feature", "geometry": {"type": "Point", "coordinates": [99.83318, 19.9045]}, "properties": {"id": "cr-osm-node-4415950789", "name": "Cat 'n' a cup", "nameTh": "Cat 'n' a cup", "nameEn": null, "cat": ["food"], "province": "cr", "slug": "cat-n-a-cup-4415950789", "rank": 1}}, {"type": "Feature", "geometry": {"type": "Point", "coordinates": [99.74815, 19.8233]}, "properties": {"id": "cr-osm-node-13093773836", "name": "Doofeel", "nameTh": null, "nameEn": "Doofeel", "cat": ["food"], "province": "cr", "slug": "doofeel-13093773836", "rank": 1}}, {"type": "Feature", "geometry": {"type": "Point", "coordinates": [99.83242, 19.9009]}, "properties": {"id": "cr-osm-node-10296478235", "name": "Fallen Fruit", "nameTh": null, "nameEn": "Fallen Fruit", "cat": ["food"], "province": "cr", "slug": "fallen-fruit-10296478235", "rank": 2}}, {"type": "Feature", "geometry": {"type": "Point", "coordinates": [99.83242, 19.89908]}, "properties": {"id": "cr-osm-node-13435252058", "name": "Good Carb", "nameTh": null, "nameEn": "Good Carb", "cat": ["food"], "province": "cr", "slug": "good-carb-13435252058", "rank": 3}}, {"type": "Feature", "geometry": {"type": "Point", "coordinates": [99.83371, 19.88651]}, "properties": {"id": "cr-osm-node-8938699740", "name": "IROHA Ramen & Izakaya Chiang Rai - อิโรฮะ ราเมง & อิซากายะ เชียงราย", "nameTh": "IROHA Ramen & Izakaya Chiang Rai - อิโรฮะ ราเมง & อิซากายะ เชียงราย", "nameEn": null, "cat": ["food"], "province": "cr", "slug": "iroha-ramen-izakaya-chiang-rai-8938699740", "rank": 2}}, {"type": "Feature", "geometry": {"type": "Point", "coordinates": [99.86027, 19.99235]}, "properties": {"id": "cr-osm-node-12860331935", "name": "Jack The Reaper", "nameTh": null, "nameEn": "Jack The Reaper", "cat": ["food"], "province": "cr", "slug": "jack-the-reaper-12860331935", "rank": 3}}, {"type": "Feature", "geometry": {"type": "Point", "coordinates": [99.83479, 19.88642]}, "properties": {"id": "cr-osm-node-2334898016", "name": "McDonald's", "nameTh": "แมคโดนัลด์", "nameEn": "McDonald's", "cat": ["food"], "province": "cr", "slug": "mcdonald-s-2334898016", "rank": 4}}, {"type": "Feature", "geometry": {"type": "Point", "coordinates": [99.67554, 19.80755]}, "properties": {"id": "cr-osm-node-7931705724", "name": "silpasa café", "nameTh": null, "nameEn": "silpasa café", "cat": ["food"], "province": "cr", "slug": "silpasa-caf-7931705724", "rank": 2}}, {"type": "Feature", "geometry": {"type": "Point", "coordinates": [99.85774, 19.90879]}, "properties": {"id": "cr-osm-node-9144488192", "name": "สะหลุงแดง", "nameTh": "สะหลุงแดง", "nameEn": "Salungdaeng", "cat": ["food"], "province": "cr", "slug": "salungdaeng-9144488192", "rank": 4}}, {"type": "Feature", "geometry": {"type": "Point", "coordinates": [99.82769, 19.90641]}, "properties": {"id": "cr-osm-node-9124114260", "name": "หอมจันทร์", "nameTh": "หอมจันทร์", "nameEn": "Homchan", "cat": ["food"], "province": "cr", "slug": "homchan-9124114260", "rank": 4}}, {"type": "Feature", "geometry": {"type": "Point", "coordinates": [99.83294, 19.92885]}, "properties": {"id": "cr-osm-way-967419243", "name": "โอชิเน เชียงราย", "nameTh": "โอชิเน เชียงราย", "nameEn": "Oshine Chignarai", "cat": ["food"], "province": "cr", "slug": "oshine-chignarai-967419243", "rank": 3}}, {"type": "Feature", "geometry": {"type": "Point", "coordinates": [99.84359, 19.92371]}, "properties": {"id": "cr-osm-node-12836625438", "name": "Greenhill", "nameTh": null, "nameEn": "Greenhill", "cat": ["cannabis"], "province": "cr", "slug": "greenhill-12836625438", "rank": 3}}, {"type": "Feature", "geometry": {"type": "Point", "coordinates": [99.62691, 20.16632]}, "properties": {"id": "cr-osm-node-9338015555", "name": "AMA Maesalong", "nameTh": null, "nameEn": "AMA Maesalong", "cat": ["hotel"], "province": "cr", "slug": "ama-maesalong-9338015555", "rank": 2}}, {"type": "Feature", "geometry": {"type": "Point", "coordinates": [99.84141, 19.89893]}, "properties": {"id": "cr-osm-node-5177891324", "name": "Adchara Mansion", "nameTh": null, "nameEn": "Adchara Mansion", "cat": ["hotel"], "province": "cr", "slug": "adchara-mansion-5177891324", "rank": 2}}, {"type": "Feature", "geometry": {"type": "Point", "coordinates": [99.83503, 19.90075]}, "properties": {"id": "cr-osm-node-12531973317", "name": "Grow", "nameTh": null, "nameEn": "Grow", "cat": ["hotel"], "province": "cr", "slug": "grow-12531973317", "rank": 2}}, {"type": "Feature", "geometry": {"type": "Point", "coordinates": [99.82903, 19.90639]}, "properties": {"id": "cr-osm-way-959733182", "name": "Hop Inn Clock Tower", "nameTh": null, "nameEn": "Hop Inn Clock Tower", "cat": ["hotel"], "province": "cr", "slug": "hop-inn-clock-tower-959733182", "rank": 3}}, {"type": "Feature", "geometry": {"type": "Point", "coordinates": [100.1571, 19.65721]}, "properties": {"id": "cr-osm-node-6282957185", "name": "Rai Ruen Rom", "nameTh": null, "nameEn": "Rai Ruen Rom", "cat": ["hotel"], "province": "cr", "slug": "rai-ruen-rom-6282957185", "rank": 3}}, {"type": "Feature", "geometry": {"type": "Point", "coordinates": [100.08056, 20.35485]}, "properties": {"id": "cr-osm-node-361390988", "name": "The Imperial Golden Triangle Resort", "nameTh": null, "nameEn": "The Imperial Golden Triangle Resort", "cat": ["hotel"], "province": "cr", "slug": "the-imperial-golden-triangle-resort-361390988", "rank": 3}}, {"type": "Feature", "geometry": {"type": "Point", "coordinates": [99.85122, 19.89308]}, "properties": {"id": "cr-osm-way-1376968719", "name": "คงการ์เด้น วิว รีสอร์ท", "nameTh": "คงการ์เด้น วิว รีสอร์ท", "nameEn": "Kong Garden View Resort Chiang Rai", "cat": ["hotel"], "province": "cr", "slug": "kong-garden-view-resort-chiang-rai-1376968719", "rank": 4}}, {"type": "Feature", "geometry": {"type": "Point", "coordinates": [99.83006, 19.90112]}, "properties": {"id": "cr-osm-node-6325000596", "name": "เลอเทอราเนียม", "nameTh": "เลอเทอราเนียม", "nameEn": "Le Terrarium", "cat": ["hotel"], "province": "cr", "slug": "le-terrarium-6325000596", "rank": 3}}]}