{"type": "FeatureCollection", "features": [{"type": "Feature", "geometry": {"type": "Point", "coordinates": [99.88738, 20.43017]}, "properties": {"id": "cr-osm-way-376360297", "name": "Coffee Time", "nameTh": null, "nameEn": "Coffee Time", "cat": ["food"], "province": "cr", "slug": "coffee-time-376360297", "rank": 2}}, {"type": "Feature", "geometry": {"type": "Point", "coordinates": [99.85894, 19.9924]}, "properties": {"id": "cr-osm-way-653519354", "name": "Give Green Farm House", "nameTh": null, "nameEn": "Give Green Farm House", "cat": ["food"], "province": "cr", "slug": "give-green-farm-house-653519354", "rank": 3}}, {"type": "Feature", "geometry": {"type": "Point", "coordinates": [99.84195, 19.89191]}, "properties": {"id": "cr-osm-way-436490687", "name": "Loft Loft coffee & car wash", "nameTh": null, "nameEn": "Loft Loft coffee & car wash", "cat": ["food"], "province": "cr", "slug": "loft-loft-coffee-car-wash-436490687", "rank": 2}}, {"type": "Feature", "geometry": {"type": "Point", "coordinates": [99.8584, 20.26645]}, "properties": {"id": "cr-osm-node-3745984035", "name": "MoCafe", "nameTh": null, "nameEn": "MoCafe", "cat": ["food"], "province": "cr", "slug": "mocafe-3745984035", "rank": 2}}, {"type": "Feature", "geometry": {"type": "Point", "coordinates": [99.83312, 19.90335]}, "properties": {"id": "cr-osm-way-484139943", "name": "Muang Thong", "nameTh": null, "nameEn": "Muang Thong", "cat": ["food"], "province": "cr", "slug": "muang-thong-484139943", "rank": 1}}, {"type": "Feature", "geometry": {"type": "Point", "coordinates": [99.87522, 20.06724]}, "properties": {"id": "cr-osm-node-1484574596", "name": "Rabbita Coffee &Steak House", "nameTh": null, "nameEn": "Rabbita Coffee &Steak House", "cat": ["food"], "province": "cr", "slug": "rabbita-coffee-steak-house-1484574596", "rank": 1}}, {"type": "Feature", "geometry": {"type": "Point", "coordinates": [99.49289, 19.57844]}, "properties": {"id": "cr-osm-node-13460387261", "name": "Story 4len", "nameTh": null, "nameEn": "Story 4len", "cat": ["food"], "province": "cr", "slug": "story-4len-13460387261", "rank": 1}}, {"type": "Feature", "geometry": {"type": "Point", "coordinates": [99.88417, 20.4382]}, "properties": {"id": "cr-osm-node-3726038746", "name": "กรีนเฮ้าส์", "nameTh": "กรีนเฮ้าส์", "nameEn": "Green House", "cat": ["food"], "province": "cr", "slug": "green-house-3726038746", "rank": 2}}, {"type": "Feature", "geometry": {"type": "Point", "coordinates": [99.88439, 20.43797]}, "properties": {"id": "cr-osm-node-3727749988", "name": "ร้านกาแฟแม่สายน่าอยู่", "nameTh": "ร้านกาแฟแม่สายน่าอยู่", "nameEn": "Mae Sai Nayew Café", "cat": ["food"], "province": "cr", "slug": "mae-sai-nayew-caf-3727749988", "rank": 3}}, {"type": "Feature", "geometry": {"type": "Point", "coordinates": [99.86607, 20.32502]}, "properties": {"id": "cr-osm-node-5260239218", "name": "ร้านต้นโพธิ์", "nameTh": "ร้านต้นโพธิ์", "nameEn": null, "cat": ["food"], "province": "cr", "slug": "5260239218", "rank": 2}}, {"type": "Feature", "geometry": {"type": "Point", "coordinates": [99.8771, 20.42323]}, "properties": {"id": "cr-osm-node-3733189687", "name": "ร้านบุญนำ", "nameTh": "ร้านบุญนำ", "nameEn": "Boon Nam Restaurant", "cat": ["food"], "province": "cr", "slug": "boon-nam-restaurant-3733189687", "rank": 2}}, {"type": "Feature", "geometry": {"type": "Point", "coordinates": [99.72487, 20.11146]}, "properties": {"id": "cr-osm-node-2148624722", "name": "ร้านสะดวกซื้อ", "nameTh": "ร้านสะดวกซื้อ", "nameEn": null, "cat": ["food"], "province": "cr", "slug": "2148624722", "rank": 1}}, {"type": "Feature", "geometry": {"type": "Point", "coordinates": [99.87582, 20.42496]}, "properties": {"id": "cr-osm-node-3728754133", "name": "หอมปากหอมคอ", "nameTh": "หอมปากหอมคอ", "nameEn": null, "cat": ["food"], "province": "cr", "slug": "3728754133", "rank": 1}}, {"type": "Feature", "geometry": {"type": "Point", "coordinates": [99.84212, 19.9166]}, "properties": {"id": "cr-osm-node-3426154627", "name": "Baan Nuk Anong Hotel", "nameTh": null, "nameEn": "Baan Nuk Anong Hotel", "cat": ["hotel"], "province": "cr", "slug": "baan-nuk-anong-hotel-3426154627", "rank": 3}}, {"type": "Feature", "geometry": {"type": "Point", "coordinates": [99.84228, 19.89718]}, "properties": {"id": "cr-osm-way-276673612", "name": "Baanpinkaew rental room chaingrai", "nameTh": null, "nameEn": "Baanpinkaew rental room chaingrai", "cat": ["hotel"], "province": "cr", "slug": "baanpinkaew-rental-room-chaingrai-276673612", "rank": 3}}, {"type": "Feature", "geometry": {"type": "Point", "coordinates": [99.75779, 19.90796]}, "properties": {"id": "cr-osm-node-12450861584", "name": "Bamboo Nest", "nameTh": null, "nameEn": "Bamboo Nest", "cat": ["hotel"], "province": "cr", "slug": "bamboo-nest-12450861584", "rank": 3}}, {"type": "Feature", "geometry": {"type": "Point", "coordinates": [99.8177, 19.8935]}, "properties": {"id": "cr-osm-way-638740452", "name": "Chayadol Resort", "nameTh": null, "nameEn": "Chayadol Resort", "cat": ["hotel"], "province": "cr", "slug": "chayadol-resort-638740452", "rank": 2}}, {"type": "Feature", "geometry": {"type": "Point", "coordinates": [99.83444, 19.907]}, "properties": {"id": "cr-osm-node-4709226957", "name": "Golden Triangle Inn", "nameTh": null, "nameEn": "Golden Triangle Inn", "cat": ["hotel"], "province": "cr", "slug": "golden-triangle-inn-4709226957", "rank": 1}}, {"type": "Feature", "geometry": {"type": "Point", "coordinates": [99.8171, 19.89486]}, "properties": {"id": "cr-osm-node-3339347495", "name": "Saikaew Resort", "nameTh": null, "nameEn": "Saikaew Resort", "cat": ["hotel"], "province": "cr", "slug": "saikaew-resort-3339347495", "rank": 1}}, {"type": "Feature", "geometry": {"type": "Point", "coordinates": [99.8363, 19.90278]}, "properties": {"id": "cr-osm-way-541553985", "name": "บ้านรินลดา", "nameTh": "บ้านรินลดา", "nameEn": "Rinlada House", "cat": ["hotel"], "province": "cr", "slug": "rinlada-house-541553985", "rank": 2}}, {"type": "Feature", "geometry": {"type": "Point", "coordinates": [99.73313, 19.68273]}, "properties": {"id": "cr-osm-way-1368610347", "name": "M2", "nameTh": null, "nameEn": "M2", "cat": ["realestate"], "province": "cr", "slug": "m2-1368610347", "rank": 1}}]}