{"type": "FeatureCollection", "features": [{"type": "Feature", "geometry": {"type": "Point", "coordinates": [99.97342, 19.55015]}, "properties": {"id": "cr-osm-node-3298093174", "name": "PTT", "nameTh": "ปตท", "nameEn": "PTT", "cat": ["transport"], "province": "cr", "slug": "ptt-3298093174", "rank": 2}}, {"type": "Feature", "geometry": {"type": "Point", "coordinates": [99.89496, 20.4391]}, "properties": {"id": "cr-osm-node-3725763496", "name": "PTT", "nameTh": null, "nameEn": "PTT", "cat": ["transport"], "province": "cr", "slug": "ptt-3725763496", "rank": 1}}, {"type": "Feature", "geometry": {"type": "Point", "coordinates": [99.8411, 19.95583]}, "properties": {"id": "cr-osm-node-9748928451", "name": "PTT", "nameTh": null, "nameEn": "PTT", "cat": ["transport"], "province": "cr", "slug": "ptt-9748928451", "rank": 1}}, {"type": "Feature", "geometry": {"type": "Point", "coordinates": [99.99021, 19.50944]}, "properties": {"id": "cr-osm-way-1013514068", "name": "PTT", "nameTh": "ป.ต.ท.", "nameEn": "PTT", "cat": ["transport"], "province": "cr", "slug": "ptt-1013514068", "rank": 2}}, {"type": "Feature", "geometry": {"type": "Point", "coordinates": [100.08812, 20.29023]}, "properties": {"id": "cr-osm-way-1114778434", "name": "PTT", "nameTh": null, "nameEn": "PTT", "cat": ["transport"], "province": "cr", "slug": "ptt-1114778434", "rank": 1}}, {"type": "Feature", "geometry": {"type": "Point", "coordinates": [99.87506, 20.03407]}, "properties": {"id": "cr-osm-way-1459493706", "name": "PTT", "nameTh": "ป.ต.ท.", "nameEn": "PTT", "cat": ["transport"], "province": "cr", "slug": "ptt-1459493706", "rank": 2}}, {"type": "Feature", "geometry": {"type": "Point", "coordinates": [100.50512, 20.10409]}, "properties": {"id": "cr-osm-way-283553188", "name": "PTT", "nameTh": "ปั้มน้ำมัน ป.ต.ท.", "nameEn": "PTT", "cat": ["transport"], "province": "cr", "slug": "ptt-283553188", "rank": 2}}, {"type": "Feature", "geometry": {"type": "Point", "coordinates": [99.83845, 19.91016]}, "properties": {"id": "cr-osm-way-317482968", "name": "PTT", "nameTh": "ป.ต.ท.", "nameEn": "PTT", "cat": ["transport"], "province": "cr", "slug": "ptt-317482968", "rank": 2}}, {"type": "Feature", "geometry": {"type": "Point", "coordinates": [99.75194, 19.56536]}, "properties": {"id": "cr-osm-way-327230906", "name": "PTT", "nameTh": "ป.ต.ท.", "nameEn": "PTT", "cat": ["transport"], "province": "cr", "slug": "ptt-327230906", "rank": 2}}, {"type": "Feature", "geometry": {"type": "Point", "coordinates": [99.88475, 20.41828]}, "properties": {"id": "cr-osm-way-376357755", "name": "PTT", "nameTh": "ปตท", "nameEn": "PTT", "cat": ["transport"], "province": "cr", "slug": "ptt-376357755", "rank": 2}}, {"type": "Feature", "geometry": {"type": "Point", "coordinates": [100.37847, 20.03735]}, "properties": {"id": "cr-osm-way-511750525", "name": "PTT", "nameTh": "ป.ต.ท.", "nameEn": "PTT", "cat": ["transport"], "province": "cr", "slug": "ptt-511750525", "rank": 2}}, {"type": "Feature", "geometry": {"type": "Point", "coordinates": [100.14925, 19.84777]}, "properties": {"id": "cr-osm-way-527456376", "name": "PTT", "nameTh": "ปตท", "nameEn": "PTT", "cat": ["transport"], "province": "cr", "slug": "ptt-527456376", "rank": 2}}, {"type": "Feature", "geometry": {"type": "Point", "coordinates": [100.29835, 20.05263]}, "properties": {"id": "cr-osm-way-543649459", "name": "PTT", "nameTh": null, "nameEn": "PTT", "cat": ["transport"], "province": "cr", "slug": "ptt-543649459", "rank": 1}}, {"type": "Feature", "geometry": {"type": "Point", "coordinates": [99.83078, 19.88704]}, "properties": {"id": "cr-osm-way-558429805", "name": "PTT", "nameTh": "ปตท", "nameEn": "PTT", "cat": ["transport"], "province": "cr", "slug": "ptt-558429805", "rank": 2}}, {"type": "Feature", "geometry": {"type": "Point", "coordinates": [99.81689, 19.90413]}, "properties": {"id": "cr-osm-way-641594395", "name": "PTT", "nameTh": "ปตท", "nameEn": "PTT", "cat": ["transport"], "province": "cr", "slug": "ptt-641594395", "rank": 2}}, {"type": "Feature", "geometry": {"type": "Point", "coordinates": [99.8505, 19.87968]}, "properties": {"id": "cr-osm-way-665558453", "name": "PTT", "nameTh": "ป.ต.ท.", "nameEn": "PTT", "cat": ["transport"], "province": "cr", "slug": "ptt-665558453", "rank": 2}}, {"type": "Feature", "geometry": {"type": "Point", "coordinates": [100.41183, 20.24378]}, "properties": {"id": "cr-osm-way-665873457", "name": "PTT", "nameTh": "ป.ต.ท.", "nameEn": "PTT", "cat": ["transport"], "province": "cr", "slug": "ptt-665873457", "rank": 2}}, {"type": "Feature", "geometry": {"type": "Point", "coordinates": [100.15371, 19.69093]}, "properties": {"id": "cr-osm-way-760181680", "name": "PTT", "nameTh": "ปตท", "nameEn": "PTT", "cat": ["transport"], "province": "cr", "slug": "ptt-760181680", "rank": 2}}, {"type": "Feature", "geometry": {"type": "Point", "coordinates": [99.86474, 19.89389]}, "properties": {"id": "cr-osm-way-961314545", "name": "PTT", "nameTh": null, "nameEn": "PTT", "cat": ["transport"], "province": "cr", "slug": "ptt-961314545", "rank": 1}}, {"type": "Feature", "geometry": {"type": "Point", "coordinates": [99.73636, 19.76894]}, "properties": {"id": "cr-osm-node-11410724202", "name": "ป.ต.ท.", "nameTh": "ป.ต.ท.", "nameEn": "PTT", "cat": ["transport"], "province": "cr", "slug": "ptt-11410724202", "rank": 2}}, {"type": "Feature", "geometry": {"type": "Point", "coordinates": [99.51463, 19.61961]}, "properties": {"id": "cr-osm-node-11432076636", "name": "ป.ต.ท.", "nameTh": "ป.ต.ท.", "nameEn": "PTT", "cat": ["transport"], "province": "cr", "slug": "ptt-11432076636", "rank": 2}}, {"type": "Feature", "geometry": {"type": "Point", "coordinates": [99.50997, 19.33741]}, "properties": {"id": "cr-osm-node-11432552428", "name": "ป.ต.ท.", "nameTh": "ป.ต.ท.", "nameEn": "PTT", "cat": ["transport"], "province": "cr", "slug": "ptt-11432552428", "rank": 2}}, {"type": "Feature", "geometry": {"type": "Point", "coordinates": [99.51405, 19.19333]}, "properties": {"id": "cr-osm-node-11432552854", "name": "ป.ต.ท.", "nameTh": "ป.ต.ท.", "nameEn": "PTT", "cat": ["transport"], "province": "cr", "slug": "ptt-11432552854", "rank": 2}}, {"type": "Feature", "geometry": {"type": "Point", "coordinates": [99.87506, 20.05592]}, "properties": {"id": "cr-osm-node-2153746712", "name": "ป.ต.ท.", "nameTh": "ป.ต.ท.", "nameEn": "PTT", "cat": ["transport"], "province": "cr", "slug": "ptt-2153746712", "rank": 3}}, {"type": "Feature", "geometry": {"type": "Point", "coordinates": [99.8831, 20.32588]}, "properties": {"id": "cr-osm-way-1112600965", "name": "ป.ต.ท.", "nameTh": "ป.ต.ท.", "nameEn": "PTT", "cat": ["transport"], "province": "cr", "slug": "ptt-1112600965", "rank": 3}}, {"type": "Feature", "geometry": {"type": "Point", "coordinates": [100.03361, 19.99187]}, "properties": {"id": "cr-osm-way-1124893170", "name": "ป.ต.ท.", "nameTh": "ป.ต.ท.", "nameEn": "PTT", "cat": ["transport"], "province": "cr", "slug": "ptt-1124893170", "rank": 2}}, {"type": "Feature", "geometry": {"type": "Point", "coordinates": [99.85995, 20.26778]}, "properties": {"id": "cr-osm-way-1473783327", "name": "ป.ต.ท.", "nameTh": "ป.ต.ท.", "nameEn": "PTT", "cat": ["transport"], "province": "cr", "slug": "ptt-1473783327", "rank": 2}}, {"type": "Feature", "geometry": {"type": "Point", "coordinates": [99.7416, 19.54006]}, "properties": {"id": "cr-osm-way-1484004783", "name": "ป.ต.ท.", "nameTh": "ป.ต.ท.", "nameEn": "PTT", "cat": ["transport"], "province": "cr", "slug": "ptt-1484004783", "rank": 2}}, {"type": "Feature", "geometry": {"type": "Point", "coordinates": [99.82923, 19.87537]}, "properties": {"id": "cr-osm-way-281165406", "name": "ป.ต.ท.", "nameTh": "ป.ต.ท.", "nameEn": "PTT", "cat": ["transport"], "province": "cr", "slug": "ptt-281165406", "rank": 2}}, {"type": "Feature", "geometry": {"type": "Point", "coordinates": [99.73139, 19.75278]}, "properties": {"id": "cr-osm-way-284191232", "name": "ป.ต.ท.", "nameTh": "ป.ต.ท.", "nameEn": "PTT", "cat": ["transport"], "province": "cr", "slug": "ptt-284191232", "rank": 2}}, {"type": "Feature", "geometry": {"type": "Point", "coordinates": [99.84111, 19.90329]}, "properties": {"id": "cr-osm-way-391457069", "name": "ป.ต.ท.", "nameTh": "ป.ต.ท.", "nameEn": "PTT", "cat": ["transport"], "province": "cr", "slug": "ptt-391457069", "rank": 3}}, {"type": "Feature", "geometry": {"type": "Point", "coordinates": [99.73324, 19.84764]}, "properties": {"id": "cr-osm-way-486082693", "name": "ป.ต.ท.", "nameTh": "ป.ต.ท.", "nameEn": "PTT", "cat": ["transport"], "province": "cr", "slug": "ptt-486082693", "rank": 3}}, {"type": "Feature", "geometry": {"type": "Point", "coordinates": [99.87979, 19.8355]}, "properties": {"id": "cr-osm-way-543635491", "name": "ป.ต.ท.", "nameTh": "ป.ต.ท.", "nameEn": "PTT", "cat": ["transport"], "province": "cr", "slug": "ptt-543635491", "rank": 3}}, {"type": "Feature", "geometry": {"type": "Point", "coordinates": [99.85474, 19.92948]}, "properties": {"id": "cr-osm-way-584176186", "name": "ป.ต.ท.", "nameTh": "ป.ต.ท.", "nameEn": "PTT", "cat": ["transport"], "province": "cr", "slug": "ptt-584176186", "rank": 2}}, {"type": "Feature", "geometry": {"type": "Point", "coordinates": [99.53192, 19.64769]}, "properties": {"id": "cr-osm-way-643046392", "name": "ป.ต.ท.", "nameTh": "ป.ต.ท.", "nameEn": "PTT", "cat": ["transport"], "province": "cr", "slug": "ptt-643046392", "rank": 2}}, {"type": "Feature", "geometry": {"type": "Point", "coordinates": [99.84422, 19.93155]}, "properties": {"id": "cr-osm-way-684872821", "name": "ป.ต.ท.", "nameTh": "ป.ต.ท.", "nameEn": "PTT", "cat": ["transport"], "province": "cr", "slug": "ptt-684872821", "rank": 3}}]}