{"type": "FeatureCollection", "features": [{"type": "Feature", "geometry": {"type": "Point", "coordinates": [99.83311, 19.88616]}, "properties": {"id": "cr-osm-node-2334898017", "name": "The Pizza Company", "nameTh": "เดอะ พิซซ่า คอมปะนี", "nameEn": "The Pizza Company", "cat": ["food"], "province": "cr", "slug": "the-pizza-company-2334898017", "rank": 4}}, {"type": "Feature", "geometry": {"type": "Point", "coordinates": [99.85518, 19.96495]}, "properties": {"id": "cr-osm-node-4525382278", "name": "The Pizza Company", "nameTh": null, "nameEn": "The Pizza Company", "cat": ["food"], "province": "cr", "slug": "the-pizza-company-4525382278", "rank": 1}}, {"type": "Feature", "geometry": {"type": "Point", "coordinates": [99.83291, 19.90501]}, "properties": {"id": "cr-osm-node-6297472385", "name": "The Pizza Company", "nameTh": null, "nameEn": "pizza company", "cat": ["food"], "province": "cr", "slug": "pizza-company-6297472385", "rank": 1}}]}