{"type": "FeatureCollection", "features": [{"type": "Feature", "geometry": {"type": "Point", "coordinates": [100.08857, 20.26921]}, "properties": {"id": "cr-osm-node-6322906086", "name": "Nongnuch Bar BQ Buffet", "nameTh": null, "nameEn": "Nongnuch Bar BQ Buffet", "cat": ["food"], "province": "cr", "slug": "nongnuch-bar-bq-buffet-6322906086", "rank": 2}}, {"type": "Feature", "geometry": {"type": "Point", "coordinates": [99.83661, 19.90371]}, "properties": {"id": "cr-osm-node-5470324922", "name": "Sound Brown Coffee", "nameTh": null, "nameEn": "Sound Brown Coffee", "cat": ["food"], "province": "cr", "slug": "sound-brown-coffee-5470324922", "rank": 2}}, {"type": "Feature", "geometry": {"type": "Point", "coordinates": [99.76603, 19.83854]}, "properties": {"id": "cr-osm-node-8637049219", "name": "ครัวหอมใหญ่ :: Hom Yai Cuisine", "nameTh": "ครัวหอมใหญ่ :: Hom Yai Cuisine", "nameEn": null, "cat": ["food"], "province": "cr", "slug": "hom-yai-cuisine-8637049219", "rank": 3}}]}