{"type": "FeatureCollection", "features": [{"type": "Feature", "geometry": {"type": "Point", "coordinates": [99.83693, 19.9062]}, "properties": {"id": "cr-osm-node-10232750717", "name": "7 Eleven", "nameTh": null, "nameEn": "7 Eleven", "cat": ["essentials"], "province": "cr", "slug": "7-eleven-10232750717", "rank": 1}}, {"type": "Feature", "geometry": {"type": "Point", "coordinates": [99.84553, 19.9412]}, "properties": {"id": "cr-osm-node-6632634495", "name": "7 eleven", "nameTh": null, "nameEn": "7 eleven", "cat": ["essentials"], "province": "cr", "slug": "7-eleven-6632634495", "rank": 1}}, {"type": "Feature", "geometry": {"type": "Point", "coordinates": [99.85083, 19.95392]}, "properties": {"id": "cr-osm-node-6632634589", "name": "7 eleven", "nameTh": null, "nameEn": "7 eleven", "cat": ["essentials"], "province": "cr", "slug": "7-eleven-6632634589", "rank": 1}}, {"type": "Feature", "geometry": {"type": "Point", "coordinates": [99.85495, 19.92949]}, "properties": {"id": "cr-osm-node-10188046127", "name": "7-Eleven", "nameTh": null, "nameEn": "7-Eleven", "cat": ["essentials"], "province": "cr", "slug": "7-eleven-10188046127", "rank": 1}}, {"type": "Feature", "geometry": {"type": "Point", "coordinates": [100.29827, 20.05247]}, "properties": {"id": "cr-osm-node-10243746826", "name": "7-Eleven", "nameTh": null, "nameEn": "7-Eleven", "cat": ["essentials"], "province": "cr", "slug": "7-eleven-10243746826", "rank": 1}}, {"type": "Feature", "geometry": {"type": "Point", "coordinates": [100.22559, 20.29937]}, "properties": {"id": "cr-osm-node-11142730915", "name": "7-Eleven", "nameTh": null, "nameEn": "7-11", "cat": ["essentials"], "province": "cr", "slug": "7-11-11142730915", "rank": 1}}, {"type": "Feature", "geometry": {"type": "Point", "coordinates": [99.87363, 20.03135]}, "properties": {"id": "cr-osm-node-11342852269", "name": "7-Eleven", "nameTh": null, "nameEn": "7 Eleven", "cat": ["essentials"], "province": "cr", "slug": "7-eleven-11342852269", "rank": 1}}, {"type": "Feature", "geometry": {"type": "Point", "coordinates": [99.80267, 20.19972]}, "properties": {"id": "cr-osm-node-11343062469", "name": "7-Eleven", "nameTh": null, "nameEn": "7 eleven", "cat": ["essentials"], "province": "cr", "slug": "7-eleven-11343062469", "rank": 1}}, {"type": "Feature", "geometry": {"type": "Point", "coordinates": [99.80571, 19.84689]}, "properties": {"id": "cr-osm-node-11345485072", "name": "7-Eleven", "nameTh": null, "nameEn": "7-Eleven", "cat": ["essentials"], "province": "cr", "slug": "7-eleven-11345485072", "rank": 1}}, {"type": "Feature", "geometry": {"type": "Point", "coordinates": [99.76459, 19.82216]}, "properties": {"id": "cr-osm-node-11345485074", "name": "7-Eleven", "nameTh": null, "nameEn": "7 eleven", "cat": ["essentials"], "province": "cr", "slug": "7-eleven-11345485074", "rank": 1}}, {"type": "Feature", "geometry": {"type": "Point", "coordinates": [99.8225, 19.86389]}, "properties": {"id": "cr-osm-node-11602192607", "name": "7-Eleven", "nameTh": null, "nameEn": "7-Eleven", "cat": ["essentials"], "province": "cr", "slug": "7-eleven-11602192607", "rank": 1}}, {"type": "Feature", "geometry": {"type": "Point", "coordinates": [99.9097, 19.93851]}, "properties": {"id": "cr-osm-node-11980280011", "name": "7-Eleven", "nameTh": null, "nameEn": "7-Eleven", "cat": ["essentials"], "province": "cr", "slug": "7-eleven-11980280011", "rank": 1}}, {"type": "Feature", "geometry": {"type": "Point", "coordinates": [99.74917, 19.60382]}, "properties": {"id": "cr-osm-node-12550149267", "name": "7-Eleven", "nameTh": null, "nameEn": "7-Eleven", "cat": ["essentials"], "province": "cr", "slug": "7-eleven-12550149267", "rank": 1}}, {"type": "Feature", "geometry": {"type": "Point", "coordinates": [99.8867, 20.43832]}, "properties": {"id": "cr-osm-node-12945750501", "name": "7-Eleven", "nameTh": null, "nameEn": "7-11 Namon Intersection", "cat": ["essentials"], "province": "cr", "slug": "7-11-namon-intersection-12945750501", "rank": 2}}, {"type": "Feature", "geometry": {"type": "Point", "coordinates": [99.82939, 19.87562]}, "properties": {"id": "cr-osm-node-1295675376", "name": "7-Eleven", "nameTh": null, "nameEn": "7-Eleven", "cat": ["essentials"], "province": "cr", "slug": "7-eleven-1295675376", "rank": 2}}, {"type": "Feature", "geometry": {"type": "Point", "coordinates": [99.85575, 19.9665]}, "properties": {"id": "cr-osm-node-1295676321", "name": "7-Eleven", "nameTh": null, "nameEn": "7-Eleven", "cat": ["essentials"], "province": "cr", "slug": "7-eleven-1295676321", "rank": 3}}, {"type": "Feature", "geometry": {"type": "Point", "coordinates": [99.85695, 19.96823]}, "properties": {"id": "cr-osm-node-1295698732", "name": "7-Eleven", "nameTh": null, "nameEn": "7-Eleven", "cat": ["essentials"], "province": "cr", "slug": "7-eleven-1295698732", "rank": 3}}, {"type": "Feature", "geometry": {"type": "Point", "coordinates": [99.8799, 19.83521]}, "properties": {"id": "cr-osm-node-1295923933", "name": "7-Eleven", "nameTh": null, "nameEn": "7-Eleven", "cat": ["essentials"], "province": "cr", "slug": "7-eleven-1295923933", "rank": 2}}, {"type": "Feature", "geometry": {"type": "Point", "coordinates": [100.4067, 20.26301]}, "properties": {"id": "cr-osm-node-13506750321", "name": "7-Eleven", "nameTh": null, "nameEn": "7-Eleven", "cat": ["essentials"], "province": "cr", "slug": "7-eleven-13506750321", "rank": 2}}, {"type": "Feature", "geometry": {"type": "Point", "coordinates": [99.62243, 20.15956]}, "properties": {"id": "cr-osm-node-13524227071", "name": "7-Eleven", "nameTh": null, "nameEn": "7-Eleven", "cat": ["essentials"], "province": "cr", "slug": "7-eleven-13524227071", "rank": 1}}, {"type": "Feature", "geometry": {"type": "Point", "coordinates": [100.08338, 20.34526]}, "properties": {"id": "cr-osm-node-2078690887", "name": "7-Eleven", "nameTh": null, "nameEn": "7-Eleven", "cat": ["essentials"], "province": "cr", "slug": "7-eleven-2078690887", "rank": 2}}, {"type": "Feature", "geometry": {"type": "Point", "coordinates": [99.51608, 19.19759]}, "properties": {"id": "cr-osm-node-2123248677", "name": "7-Eleven", "nameTh": null, "nameEn": "7-Eleven", "cat": ["essentials"], "province": "cr", "slug": "7-eleven-2123248677", "rank": 3}}, {"type": "Feature", "geometry": {"type": "Point", "coordinates": [99.50361, 19.3673]}, "properties": {"id": "cr-osm-node-2136711248", "name": "7-Eleven", "nameTh": null, "nameEn": "7-Eleven", "cat": ["essentials"], "province": "cr", "slug": "7-eleven-2136711248", "rank": 3}}, {"type": "Feature", "geometry": {"type": "Point", "coordinates": [99.83944, 19.91092]}, "properties": {"id": "cr-osm-node-2140653246", "name": "7-Eleven", "nameTh": null, "nameEn": "7-Eleven", "cat": ["essentials"], "province": "cr", "slug": "7-eleven-2140653246", "rank": 3}}, {"type": "Feature", "geometry": {"type": "Point", "coordinates": [99.8528, 20.14545]}, "properties": {"id": "cr-osm-node-2148546806", "name": "7-Eleven", "nameTh": null, "nameEn": "7-Eleven", "cat": ["essentials"], "province": "cr", "slug": "7-eleven-2148546806", "rank": 1}}, {"type": "Feature", "geometry": {"type": "Point", "coordinates": [99.87631, 20.04896]}, "properties": {"id": "cr-osm-node-2153737321", "name": "7-Eleven", "nameTh": null, "nameEn": "7-Eleven", "cat": ["essentials"], "province": "cr", "slug": "7-eleven-2153737321", "rank": 3}}, {"type": "Feature", "geometry": {"type": "Point", "coordinates": [99.87502, 20.0562]}, "properties": {"id": "cr-osm-node-2153746716", "name": "7-Eleven", "nameTh": null, "nameEn": "7-Eleven", "cat": ["essentials"], "province": "cr", "slug": "7-eleven-2153746716", "rank": 3}}, {"type": "Feature", "geometry": {"type": "Point", "coordinates": [99.88511, 20.42947]}, "properties": {"id": "cr-osm-node-2193469992", "name": "7-Eleven", "nameTh": null, "nameEn": "7-Eleven", "cat": ["essentials"], "province": "cr", "slug": "7-eleven-2193469992", "rank": 3}}, {"type": "Feature", "geometry": {"type": "Point", "coordinates": [99.88369, 20.43749]}, "properties": {"id": "cr-osm-node-2193469993", "name": "7-Eleven", "nameTh": null, "nameEn": "7-Eleven", "cat": ["essentials"], "province": "cr", "slug": "7-eleven-2193469993", "rank": 3}}, {"type": "Feature", "geometry": {"type": "Point", "coordinates": [99.88289, 20.43946]}, "properties": {"id": "cr-osm-node-2193469995", "name": "7-Eleven", "nameTh": null, "nameEn": "7-Eleven", "cat": ["essentials"], "province": "cr", "slug": "7-eleven-2193469995", "rank": 3}}, {"type": "Feature", "geometry": {"type": "Point", "coordinates": [100.08312, 20.34577]}, "properties": {"id": "cr-osm-node-2206759336", "name": "7-Eleven", "nameTh": null, "nameEn": "7-Eleven", "cat": ["essentials"], "province": "cr", "slug": "7-eleven-2206759336", "rank": 2}}, {"type": "Feature", "geometry": {"type": "Point", "coordinates": [100.08635, 20.27385]}, "properties": {"id": "cr-osm-node-2212067448", "name": "7-Eleven", "nameTh": null, "nameEn": "7-Eleven", "cat": ["essentials"], "province": "cr", "slug": "7-eleven-2212067448", "rank": 3}}, {"type": "Feature", "geometry": {"type": "Point", "coordinates": [100.40614, 20.25692]}, "properties": {"id": "cr-osm-node-2295433547", "name": "7-Eleven", "nameTh": null, "nameEn": "7-Eleven", "cat": ["essentials"], "province": "cr", "slug": "7-eleven-2295433547", "rank": 3}}, {"type": "Feature", "geometry": {"type": "Point", "coordinates": [99.88135, 20.44288]}, "properties": {"id": "cr-osm-node-2319580775", "name": "7-Eleven", "nameTh": null, "nameEn": "7-Eleven", "cat": ["essentials"], "province": "cr", "slug": "7-eleven-2319580775", "rank": 2}}, {"type": "Feature", "geometry": {"type": "Point", "coordinates": [99.83292, 19.90489]}, "properties": {"id": "cr-osm-node-2321380714", "name": "7-Eleven", "nameTh": null, "nameEn": "7-Eleven", "cat": ["essentials"], "province": "cr", "slug": "7-eleven-2321380714", "rank": 2}}, {"type": "Feature", "geometry": {"type": "Point", "coordinates": [99.72516, 19.74621]}, "properties": {"id": "cr-osm-node-2337598535", "name": "7-Eleven", "nameTh": null, "nameEn": "7-Eleven", "cat": ["essentials"], "province": "cr", "slug": "7-eleven-2337598535", "rank": 3}}, {"type": "Feature", "geometry": {"type": "Point", "coordinates": [99.73901, 19.77507]}, "properties": {"id": "cr-osm-node-2476374701", "name": "7-Eleven", "nameTh": null, "nameEn": "7-Eleven", "cat": ["essentials"], "province": "cr", "slug": "7-eleven-2476374701", "rank": 2}}, {"type": "Feature", "geometry": {"type": "Point", "coordinates": [100.15524, 19.84705]}, "properties": {"id": "cr-osm-node-2831790117", "name": "7-Eleven", "nameTh": null, "nameEn": "7-Eleven", "cat": ["essentials"], "province": "cr", "slug": "7-eleven-2831790117", "rank": 2}}, {"type": "Feature", "geometry": {"type": "Point", "coordinates": [99.62721, 20.16551]}, "properties": {"id": "cr-osm-node-361377599", "name": "7-Eleven", "nameTh": null, "nameEn": "7-Eleven", "cat": ["essentials"], "province": "cr", "slug": "7-eleven-361377599", "rank": 2}}, {"type": "Feature", "geometry": {"type": "Point", "coordinates": [99.74082, 19.55051]}, "properties": {"id": "cr-osm-node-3840319436", "name": "7-Eleven", "nameTh": null, "nameEn": "7-Eleven", "cat": ["essentials"], "province": "cr", "slug": "7-eleven-3840319436", "rank": 2}}, {"type": "Feature", "geometry": {"type": "Point", "coordinates": [99.82261, 19.90134]}, "properties": {"id": "cr-osm-node-3993176464", "name": "7-Eleven", "nameTh": null, "nameEn": "7-Eleven", "cat": ["essentials"], "province": "cr", "slug": "7-eleven-3993176464", "rank": 2}}, {"type": "Feature", "geometry": {"type": "Point", "coordinates": [99.74157, 19.54033]}, "properties": {"id": "cr-osm-node-4099352339", "name": "7-Eleven", "nameTh": null, "nameEn": "7-Eleven", "cat": ["essentials"], "province": "cr", "slug": "7-eleven-4099352339", "rank": 3}}, {"type": "Feature", "geometry": {"type": "Point", "coordinates": [99.46248, 19.11479]}, "properties": {"id": "cr-osm-node-4214740989", "name": "7-Eleven", "nameTh": null, "nameEn": "7-Eleven", "cat": ["essentials"], "province": "cr", "slug": "7-eleven-4214740989", "rank": 2}}, {"type": "Feature", "geometry": {"type": "Point", "coordinates": [100.08238, 20.35136]}, "properties": {"id": "cr-osm-node-4359090290", "name": "7-Eleven", "nameTh": null, "nameEn": "7-Eleven", "cat": ["essentials"], "province": "cr", "slug": "7-eleven-4359090290", "rank": 2}}, {"type": "Feature", "geometry": {"type": "Point", "coordinates": [99.83601, 19.92557]}, "properties": {"id": "cr-osm-node-4395544220", "name": "7-Eleven", "nameTh": null, "nameEn": "7-Eleven", "cat": ["essentials"], "province": "cr", "slug": "7-eleven-4395544220", "rank": 1}}, {"type": "Feature", "geometry": {"type": "Point", "coordinates": [99.81576, 19.9282]}, "properties": {"id": "cr-osm-node-4525360499", "name": "7-Eleven", "nameTh": null, "nameEn": "7-Eleven", "cat": ["essentials"], "province": "cr", "slug": "7-eleven-4525360499", "rank": 2}}, {"type": "Feature", "geometry": {"type": "Point", "coordinates": [99.856, 19.97766]}, "properties": {"id": "cr-osm-node-4530704344", "name": "7-Eleven", "nameTh": null, "nameEn": "7-Eleven", "cat": ["essentials"], "province": "cr", "slug": "7-eleven-4530704344", "rank": 2}}, {"type": "Feature", "geometry": {"type": "Point", "coordinates": [99.85356, 19.97809]}, "properties": {"id": "cr-osm-node-4530704345", "name": "7-Eleven", "nameTh": null, "nameEn": "7-Eleven", "cat": ["essentials"], "province": "cr", "slug": "7-eleven-4530704345", "rank": 2}}, {"type": "Feature", "geometry": {"type": "Point", "coordinates": [99.85466, 19.97843]}, "properties": {"id": "cr-osm-node-4530704346", "name": "7-Eleven", "nameTh": null, "nameEn": "7-Eleven", "cat": ["essentials"], "province": "cr", "slug": "7-eleven-4530704346", "rank": 2}}, {"type": "Feature", "geometry": {"type": "Point", "coordinates": [100.37816, 20.03746]}, "properties": {"id": "cr-osm-node-5005082099", "name": "7-Eleven", "nameTh": null, "nameEn": "7-Eleven", "cat": ["essentials"], "province": "cr", "slug": "7-eleven-5005082099", "rank": 1}}, {"type": "Feature", "geometry": {"type": "Point", "coordinates": [100.08311, 20.27423]}, "properties": {"id": "cr-osm-node-5257232007", "name": "7-Eleven", "nameTh": null, "nameEn": "7-Eleven", "cat": ["essentials"], "province": "cr", "slug": "7-eleven-5257232007", "rank": 2}}, {"type": "Feature", "geometry": {"type": "Point", "coordinates": [100.09062, 19.6539]}, "properties": {"id": "cr-osm-node-5300187687", "name": "7-Eleven", "nameTh": null, "nameEn": "7-Eleven", "cat": ["essentials"], "province": "cr", "slug": "7-eleven-5300187687", "rank": 2}}, {"type": "Feature", "geometry": {"type": "Point", "coordinates": [100.24114, 19.81345]}, "properties": {"id": "cr-osm-node-5302688175", "name": "7-Eleven", "nameTh": null, "nameEn": "7-Eleven", "cat": ["essentials"], "province": "cr", "slug": "7-eleven-5302688175", "rank": 2}}, {"type": "Feature", "geometry": {"type": "Point", "coordinates": [99.9928, 19.49967]}, "properties": {"id": "cr-osm-node-5304591193", "name": "7-Eleven", "nameTh": null, "nameEn": "7-Eleven", "cat": ["essentials"], "province": "cr", "slug": "7-eleven-5304591193", "rank": 2}}, {"type": "Feature", "geometry": {"type": "Point", "coordinates": [99.79478, 19.88022]}, "properties": {"id": "cr-osm-node-6052070140", "name": "7-Eleven", "nameTh": null, "nameEn": "7-Eleven", "cat": ["essentials"], "province": "cr", "slug": "7-eleven-6052070140", "rank": 1}}, {"type": "Feature", "geometry": {"type": "Point", "coordinates": [99.83017, 19.90145]}, "properties": {"id": "cr-osm-node-6291000616", "name": "7-Eleven", "nameTh": null, "nameEn": "7-Eleven", "cat": ["essentials"], "province": "cr", "slug": "7-eleven-6291000616", "rank": 1}}, {"type": "Feature", "geometry": {"type": "Point", "coordinates": [99.75191, 19.56516]}, "properties": {"id": "cr-osm-node-6631591501", "name": "7-Eleven", "nameTh": null, "nameEn": "7-Eleven", "cat": ["essentials"], "province": "cr", "slug": "7-eleven-6631591501", "rank": 1}}, {"type": "Feature", "geometry": {"type": "Point", "coordinates": [99.83796, 19.89603]}, "properties": {"id": "cr-osm-node-6632629890", "name": "7-Eleven", "nameTh": null, "nameEn": "7 eleven", "cat": ["essentials"], "province": "cr", "slug": "7-eleven-6632629890", "rank": 1}}, {"type": "Feature", "geometry": {"type": "Point", "coordinates": [99.82232, 19.90018]}, "properties": {"id": "cr-osm-node-6690089185", "name": "7-Eleven", "nameTh": null, "nameEn": "7-Eleven", "cat": ["essentials"], "province": "cr", "slug": "7-eleven-6690089185", "rank": 1}}, {"type": "Feature", "geometry": {"type": "Point", "coordinates": [99.51016, 19.33767]}, "properties": {"id": "cr-osm-node-7086386309", "name": "7-Eleven", "nameTh": null, "nameEn": "7-Eleven", "cat": ["essentials"], "province": "cr", "slug": "7-eleven-7086386309", "rank": 1}}, {"type": "Feature", "geometry": {"type": "Point", "coordinates": [99.47615, 19.49169]}, "properties": {"id": "cr-osm-node-7086442172", "name": "7-Eleven", "nameTh": null, "nameEn": "7-Eleven", "cat": ["essentials"], "province": "cr", "slug": "7-eleven-7086442172", "rank": 1}}, {"type": "Feature", "geometry": {"type": "Point", "coordinates": [99.85756, 19.8948]}, "properties": {"id": "cr-osm-node-8928531141", "name": "7-Eleven", "nameTh": null, "nameEn": "7-Eleven", "cat": ["essentials"], "province": "cr", "slug": "7-eleven-8928531141", "rank": 1}}, {"type": "Feature", "geometry": {"type": "Point", "coordinates": [99.81324, 19.90022]}, "properties": {"id": "cr-osm-node-9473042084", "name": "7-Eleven", "nameTh": null, "nameEn": "7-Eleven", "cat": ["essentials"], "province": "cr", "slug": "7-eleven-9473042084", "rank": 1}}, {"type": "Feature", "geometry": {"type": "Point", "coordinates": [99.83683, 19.90075]}, "properties": {"id": "cr-osm-node-9512592444", "name": "7-Eleven", "nameTh": null, "nameEn": "7-Eleven", "cat": ["essentials"], "province": "cr", "slug": "7-eleven-9512592444", "rank": 2}}, {"type": "Feature", "geometry": {"type": "Point", "coordinates": [99.84097, 19.95577]}, "properties": {"id": "cr-osm-node-9748971871", "name": "7-Eleven", "nameTh": null, "nameEn": "7-Eleven", "cat": ["essentials"], "province": "cr", "slug": "7-eleven-9748971871", "rank": 1}}, {"type": "Feature", "geometry": {"type": "Point", "coordinates": [99.86309, 19.98772]}, "properties": {"id": "cr-osm-node-9982567030", "name": "7-Eleven", "nameTh": null, "nameEn": "7-Eleven", "cat": ["essentials"], "province": "cr", "slug": "7-eleven-9982567030", "rank": 1}}, {"type": "Feature", "geometry": {"type": "Point", "coordinates": [99.5138, 19.25059]}, "properties": {"id": "cr-osm-way-1013286022", "name": "7-Eleven", "nameTh": null, "nameEn": "7-Eleven", "cat": ["essentials"], "province": "cr", "slug": "7-eleven-1013286022", "rank": 1}}, {"type": "Feature", "geometry": {"type": "Point", "coordinates": [99.50696, 19.35184]}, "properties": {"id": "cr-osm-way-1013293665", "name": "7-Eleven", "nameTh": null, "nameEn": "7-Eleven", "cat": ["essentials"], "province": "cr", "slug": "7-eleven-1013293665", "rank": 1}}, {"type": "Feature", "geometry": {"type": "Point", "coordinates": [99.73127, 19.75246]}, "properties": {"id": "cr-osm-way-1013494820", "name": "7-Eleven", "nameTh": null, "nameEn": "7-Eleven", "cat": ["essentials"], "province": "cr", "slug": "7-eleven-1013494820", "rank": 3}}, {"type": "Feature", "geometry": {"type": "Point", "coordinates": [100.41178, 20.24343]}, "properties": {"id": "cr-osm-way-1013618592", "name": "7-Eleven", "nameTh": null, "nameEn": "7-Eleven", "cat": ["essentials"], "province": "cr", "slug": "7-eleven-1013618592", "rank": 1}}, {"type": "Feature", "geometry": {"type": "Point", "coordinates": [99.73294, 19.84751]}, "properties": {"id": "cr-osm-way-1014606582", "name": "7-Eleven", "nameTh": null, "nameEn": "7-Eleven", "cat": ["essentials"], "province": "cr", "slug": "7-eleven-1014606582", "rank": 1}}, {"type": "Feature", "geometry": {"type": "Point", "coordinates": [99.85034, 19.87936]}, "properties": {"id": "cr-osm-way-1014990980", "name": "7-Eleven", "nameTh": null, "nameEn": "7-Eleven", "cat": ["essentials"], "province": "cr", "slug": "7-eleven-1014990980", "rank": 1}}, {"type": "Feature", "geometry": {"type": "Point", "coordinates": [99.66, 19.78826]}, "properties": {"id": "cr-osm-way-1027571547", "name": "7-Eleven", "nameTh": null, "nameEn": "7-Eleven", "cat": ["essentials"], "province": "cr", "slug": "7-eleven-1027571547", "rank": 1}}, {"type": "Feature", "geometry": {"type": "Point", "coordinates": [99.49248, 19.57815]}, "properties": {"id": "cr-osm-way-1028244370", "name": "7-Eleven", "nameTh": null, "nameEn": "7-Eleven", "cat": ["essentials"], "province": "cr", "slug": "7-eleven-1028244370", "rank": 1}}, {"type": "Feature", "geometry": {"type": "Point", "coordinates": [100.04169, 20.00573]}, "properties": {"id": "cr-osm-way-1033387178", "name": "7-Eleven", "nameTh": null, "nameEn": "7-Eleven", "cat": ["essentials"], "province": "cr", "slug": "7-eleven-1033387178", "rank": 1}}, {"type": "Feature", "geometry": {"type": "Point", "coordinates": [99.91754, 20.44202]}, "properties": {"id": "cr-osm-way-1112441628", "name": "7-Eleven", "nameTh": null, "nameEn": "7-Eleven", "cat": ["essentials"], "province": "cr", "slug": "7-eleven-1112441628", "rank": 1}}, {"type": "Feature", "geometry": {"type": "Point", "coordinates": [99.88309, 20.32602]}, "properties": {"id": "cr-osm-way-1112600960", "name": "7-Eleven", "nameTh": null, "nameEn": "7-Eleven", "cat": ["essentials"], "province": "cr", "slug": "7-eleven-1112600960", "rank": 3}}, {"type": "Feature", "geometry": {"type": "Point", "coordinates": [100.08814, 20.29053]}, "properties": {"id": "cr-osm-way-1114778441", "name": "7-Eleven", "nameTh": null, "nameEn": "7-Eleven", "cat": ["essentials"], "province": "cr", "slug": "7-eleven-1114778441", "rank": 1}}, {"type": "Feature", "geometry": {"type": "Point", "coordinates": [99.85478, 19.9082]}, "properties": {"id": "cr-osm-way-1123332444", "name": "7-Eleven", "nameTh": null, "nameEn": "7-Eleven", "cat": ["essentials"], "province": "cr", "slug": "7-eleven-1123332444", "rank": 1}}, {"type": "Feature", "geometry": {"type": "Point", "coordinates": [99.84406, 19.90924]}, "properties": {"id": "cr-osm-way-1123348593", "name": "7-Eleven", "nameTh": null, "nameEn": "7-Eleven", "cat": ["essentials"], "province": "cr", "slug": "7-eleven-1123348593", "rank": 1}}, {"type": "Feature", "geometry": {"type": "Point", "coordinates": [99.82713, 19.89438]}, "properties": {"id": "cr-osm-way-1125805639", "name": "7-Eleven", "nameTh": null, "nameEn": "7-Eleven", "cat": ["essentials"], "province": "cr", "slug": "7-eleven-1125805639", "rank": 2}}, {"type": "Feature", "geometry": {"type": "Point", "coordinates": [99.76229, 19.85828]}, "properties": {"id": "cr-osm-way-1157130130", "name": "7-Eleven", "nameTh": null, "nameEn": "7-Eleven", "cat": ["essentials"], "province": "cr", "slug": "7-eleven-1157130130", "rank": 1}}, {"type": "Feature", "geometry": {"type": "Point", "coordinates": [99.81062, 19.94206]}, "properties": {"id": "cr-osm-way-1230814626", "name": "7-Eleven", "nameTh": null, "nameEn": "7-Eleven", "cat": ["essentials"], "province": "cr", "slug": "7-eleven-1230814626", "rank": 1}}, {"type": "Feature", "geometry": {"type": "Point", "coordinates": [99.8057, 19.84689]}, "properties": {"id": "cr-osm-way-1231045489", "name": "7-Eleven", "nameTh": null, "nameEn": "7-Eleven", "cat": ["essentials"], "province": "cr", "slug": "7-eleven-1231045489", "rank": 1}}, {"type": "Feature", "geometry": {"type": "Point", "coordinates": [99.99005, 19.50979]}, "properties": {"id": "cr-osm-way-1237717330", "name": "7-Eleven", "nameTh": null, "nameEn": "7-Eleven", "cat": ["essentials"], "province": "cr", "slug": "7-eleven-1237717330", "rank": 1}}, {"type": "Feature", "geometry": {"type": "Point", "coordinates": [100.28712, 19.7114]}, "properties": {"id": "cr-osm-way-1344986549", "name": "7-Eleven", "nameTh": null, "nameEn": "7-Eleven", "cat": ["essentials"], "province": "cr", "slug": "7-eleven-1344986549", "rank": 1}}, {"type": "Feature", "geometry": {"type": "Point", "coordinates": [99.53066, 19.65851]}, "properties": {"id": "cr-osm-way-1349687824", "name": "7-Eleven", "nameTh": null, "nameEn": "7-Eleven", "cat": ["essentials"], "province": "cr", "slug": "7-eleven-1349687824", "rank": 1}}, {"type": "Feature", "geometry": {"type": "Point", "coordinates": [99.91059, 19.7784]}, "properties": {"id": "cr-osm-way-1360542695", "name": "7-Eleven", "nameTh": null, "nameEn": "7-Eleven", "cat": ["essentials"], "province": "cr", "slug": "7-eleven-1360542695", "rank": 1}}, {"type": "Feature", "geometry": {"type": "Point", "coordinates": [99.81305, 19.93352]}, "properties": {"id": "cr-osm-way-1361051488", "name": "7-Eleven", "nameTh": null, "nameEn": "7-Eleven", "cat": ["essentials"], "province": "cr", "slug": "7-eleven-1361051488", "rank": 1}}, {"type": "Feature", "geometry": {"type": "Point", "coordinates": [99.87575, 20.04847]}, "properties": {"id": "cr-osm-way-1459493692", "name": "7-Eleven", "nameTh": null, "nameEn": "7-Eleven", "cat": ["essentials"], "province": "cr", "slug": "7-eleven-1459493692", "rank": 3}}, {"type": "Feature", "geometry": {"type": "Point", "coordinates": [99.87498, 20.03374]}, "properties": {"id": "cr-osm-way-1459493707", "name": "7-Eleven", "nameTh": null, "nameEn": "7-Eleven", "cat": ["essentials"], "province": "cr", "slug": "7-eleven-1459493707", "rank": 1}}, {"type": "Feature", "geometry": {"type": "Point", "coordinates": [99.51144, 19.29766]}, "properties": {"id": "cr-osm-way-1459699543", "name": "7-Eleven", "nameTh": null, "nameEn": "7-Eleven", "cat": ["essentials"], "province": "cr", "slug": "7-eleven-1459699543", "rank": 1}}, {"type": "Feature", "geometry": {"type": "Point", "coordinates": [99.51767, 19.20573]}, "properties": {"id": "cr-osm-way-1459699561", "name": "7-Eleven", "nameTh": null, "nameEn": "7-Eleven", "cat": ["essentials"], "province": "cr", "slug": "7-eleven-1459699561", "rank": 1}}, {"type": "Feature", "geometry": {"type": "Point", "coordinates": [100.18063, 20.25797]}, "properties": {"id": "cr-osm-way-1472869913", "name": "7-Eleven", "nameTh": null, "nameEn": "7-Eleven", "cat": ["essentials"], "province": "cr", "slug": "7-eleven-1472869913", "rank": 1}}, {"type": "Feature", "geometry": {"type": "Point", "coordinates": [99.85983, 20.26755]}, "properties": {"id": "cr-osm-way-1473783328", "name": "7-Eleven", "nameTh": null, "nameEn": "7-Eleven", "cat": ["essentials"], "province": "cr", "slug": "7-eleven-1473783328", "rank": 1}}, {"type": "Feature", "geometry": {"type": "Point", "coordinates": [100.48877, 20.02186]}, "properties": {"id": "cr-osm-way-1476333665", "name": "7-Eleven", "nameTh": null, "nameEn": "7-Eleven", "cat": ["essentials"], "province": "cr", "slug": "7-eleven-1476333665", "rank": 1}}, {"type": "Feature", "geometry": {"type": "Point", "coordinates": [100.12149, 19.76204]}, "properties": {"id": "cr-osm-way-1478742684", "name": "7-Eleven", "nameTh": null, "nameEn": "7-Eleven", "cat": ["essentials"], "province": "cr", "slug": "7-eleven-1478742684", "rank": 1}}, {"type": "Feature", "geometry": {"type": "Point", "coordinates": [100.03327, 19.99148]}, "properties": {"id": "cr-osm-way-1479090827", "name": "7-Eleven", "nameTh": null, "nameEn": "7-Eleven", "cat": ["essentials"], "province": "cr", "slug": "7-eleven-1479090827", "rank": 1}}, {"type": "Feature", "geometry": {"type": "Point", "coordinates": [99.74583, 19.58957]}, "properties": {"id": "cr-osm-way-1491381765", "name": "7-Eleven", "nameTh": null, "nameEn": "7-Eleven", "cat": ["essentials"], "province": "cr", "slug": "7-eleven-1491381765", "rank": 1}}, {"type": "Feature", "geometry": {"type": "Point", "coordinates": [99.51383, 19.19312]}, "properties": {"id": "cr-osm-way-248181188", "name": "7-Eleven", "nameTh": null, "nameEn": "7-Eleven", "cat": ["essentials"], "province": "cr", "slug": "7-eleven-248181188", "rank": 3}}, {"type": "Feature", "geometry": {"type": "Point", "coordinates": [99.83083, 19.88679]}, "properties": {"id": "cr-osm-way-330740633", "name": "7-Eleven", "nameTh": null, "nameEn": "7-Eleven", "cat": ["essentials"], "province": "cr", "slug": "7-eleven-330740633", "rank": 2}}, {"type": "Feature", "geometry": {"type": "Point", "coordinates": [99.6611, 20.24548]}, "properties": {"id": "cr-osm-way-373628738", "name": "7-Eleven", "nameTh": null, "nameEn": "7-Eleven", "cat": ["essentials"], "province": "cr", "slug": "7-eleven-373628738", "rank": 4}}, {"type": "Feature", "geometry": {"type": "Point", "coordinates": [99.89336, 20.43888]}, "properties": {"id": "cr-osm-way-374815117", "name": "7-Eleven", "nameTh": null, "nameEn": "7-Eleven", "cat": ["essentials"], "province": "cr", "slug": "7-eleven-374815117", "rank": 3}}, {"type": "Feature", "geometry": {"type": "Point", "coordinates": [99.88482, 20.41802]}, "properties": {"id": "cr-osm-way-376357756", "name": "7-Eleven", "nameTh": null, "nameEn": "7-Eleven", "cat": ["essentials"], "province": "cr", "slug": "7-eleven-376357756", "rank": 3}}, {"type": "Feature", "geometry": {"type": "Point", "coordinates": [99.84098, 19.90296]}, "properties": {"id": "cr-osm-way-391457076", "name": "7-Eleven", "nameTh": null, "nameEn": "7-Eleven", "cat": ["essentials"], "province": "cr", "slug": "7-eleven-391457076", "rank": 2}}, {"type": "Feature", "geometry": {"type": "Point", "coordinates": [100.40653, 20.25671]}, "properties": {"id": "cr-osm-way-537568599", "name": "7-Eleven", "nameTh": null, "nameEn": "7-Eleven", "cat": ["essentials"], "province": "cr", "slug": "7-eleven-537568599", "rank": 2}}, {"type": "Feature", "geometry": {"type": "Point", "coordinates": [100.40675, 20.26301]}, "properties": {"id": "cr-osm-way-543650858", "name": "7-Eleven", "nameTh": null, "nameEn": "7-Eleven", "cat": ["essentials"], "province": "cr", "slug": "7-eleven-543650858", "rank": 2}}, {"type": "Feature", "geometry": {"type": "Point", "coordinates": [100.50485, 20.10417]}, "properties": {"id": "cr-osm-way-555851921", "name": "7-Eleven", "nameTh": null, "nameEn": "7-Eleven", "cat": ["essentials"], "province": "cr", "slug": "7-eleven-555851921", "rank": 1}}, {"type": "Feature", "geometry": {"type": "Point", "coordinates": [99.83885, 19.89601]}, "properties": {"id": "cr-osm-way-558431985", "name": "7-Eleven", "nameTh": null, "nameEn": "7-Eleven", "cat": ["essentials"], "province": "cr", "slug": "7-eleven-558431985", "rank": 3}}, {"type": "Feature", "geometry": {"type": "Point", "coordinates": [99.48812, 19.93064]}, "properties": {"id": "cr-osm-way-560566657", "name": "7-Eleven", "nameTh": null, "nameEn": "7-Eleven", "cat": ["essentials"], "province": "cr", "slug": "7-eleven-560566657", "rank": 1}}, {"type": "Feature", "geometry": {"type": "Point", "coordinates": [99.81679, 19.90402]}, "properties": {"id": "cr-osm-way-641594383", "name": "7-Eleven", "nameTh": null, "nameEn": "7-Eleven", "cat": ["essentials"], "province": "cr", "slug": "7-eleven-641594383", "rank": 3}}, {"type": "Feature", "geometry": {"type": "Point", "coordinates": [99.74695, 19.85325]}, "properties": {"id": "cr-osm-way-643008545", "name": "7-Eleven", "nameTh": null, "nameEn": "7-Eleven", "cat": ["essentials"], "province": "cr", "slug": "7-eleven-643008545", "rank": 1}}, {"type": "Feature", "geometry": {"type": "Point", "coordinates": [99.78432, 19.95435]}, "properties": {"id": "cr-osm-way-643036851", "name": "7-Eleven", "nameTh": null, "nameEn": "7-Eleven", "cat": ["essentials"], "province": "cr", "slug": "7-eleven-643036851", "rank": 1}}, {"type": "Feature", "geometry": {"type": "Point", "coordinates": [99.53223, 19.64776]}, "properties": {"id": "cr-osm-way-643046393", "name": "7-Eleven", "nameTh": null, "nameEn": "7-Eleven", "cat": ["essentials"], "province": "cr", "slug": "7-eleven-643046393", "rank": 2}}, {"type": "Feature", "geometry": {"type": "Point", "coordinates": [99.84423, 19.93174]}, "properties": {"id": "cr-osm-way-684872824", "name": "7-Eleven", "nameTh": null, "nameEn": "7-Eleven", "cat": ["essentials"], "province": "cr", "slug": "7-eleven-684872824", "rank": 3}}, {"type": "Feature", "geometry": {"type": "Point", "coordinates": [100.40988, 20.24069]}, "properties": {"id": "cr-osm-way-742559261", "name": "7-Eleven", "nameTh": null, "nameEn": "7-Eleven", "cat": ["essentials"], "province": "cr", "slug": "7-eleven-742559261", "rank": 1}}, {"type": "Feature", "geometry": {"type": "Point", "coordinates": [99.84126, 19.89803]}, "properties": {"id": "cr-osm-way-751054195", "name": "7-Eleven", "nameTh": null, "nameEn": "7-Eleven", "cat": ["essentials"], "province": "cr", "slug": "7-eleven-751054195", "rank": 2}}, {"type": "Feature", "geometry": {"type": "Point", "coordinates": [99.94712, 20.22342]}, "properties": {"id": "cr-osm-way-758317685", "name": "7-Eleven", "nameTh": null, "nameEn": "7-Eleven", "cat": ["essentials"], "province": "cr", "slug": "7-eleven-758317685", "rank": 1}}, {"type": "Feature", "geometry": {"type": "Point", "coordinates": [99.51438, 19.61937]}, "properties": {"id": "cr-osm-way-758738094", "name": "7-Eleven", "nameTh": null, "nameEn": "7-Eleven", "cat": ["essentials"], "province": "cr", "slug": "7-eleven-758738094", "rank": 1}}, {"type": "Feature", "geometry": {"type": "Point", "coordinates": [100.15338, 19.69094]}, "properties": {"id": "cr-osm-way-760181681", "name": "7-Eleven", "nameTh": null, "nameEn": "7-Eleven", "cat": ["essentials"], "province": "cr", "slug": "7-eleven-760181681", "rank": 2}}, {"type": "Feature", "geometry": {"type": "Point", "coordinates": [100.17593, 19.69141]}, "properties": {"id": "cr-osm-way-760183798", "name": "7-Eleven", "nameTh": null, "nameEn": "7-Eleven", "cat": ["essentials"], "province": "cr", "slug": "7-eleven-760183798", "rank": 1}}, {"type": "Feature", "geometry": {"type": "Point", "coordinates": [100.19605, 19.6845]}, "properties": {"id": "cr-osm-way-760186587", "name": "7-Eleven", "nameTh": null, "nameEn": "7-Eleven", "cat": ["essentials"], "province": "cr", "slug": "7-eleven-760186587", "rank": 3}}, {"type": "Feature", "geometry": {"type": "Point", "coordinates": [99.8449, 19.91428]}, "properties": {"id": "cr-osm-way-764360671", "name": "7-Eleven", "nameTh": null, "nameEn": "7-Eleven", "cat": ["essentials"], "province": "cr", "slug": "7-eleven-764360671", "rank": 3}}, {"type": "Feature", "geometry": {"type": "Point", "coordinates": [99.83816, 19.91016]}, "properties": {"id": "cr-osm-way-837528527", "name": "7-Eleven", "nameTh": null, "nameEn": "7-Eleven", "cat": ["essentials"], "province": "cr", "slug": "7-eleven-837528527", "rank": 1}}, {"type": "Feature", "geometry": {"type": "Point", "coordinates": [99.83796, 19.89604]}, "properties": {"id": "cr-osm-way-959789651", "name": "7-Eleven", "nameTh": null, "nameEn": "7-Eleven", "cat": ["essentials"], "province": "cr", "slug": "7-eleven-959789651", "rank": 1}}, {"type": "Feature", "geometry": {"type": "Point", "coordinates": [99.83547, 19.90908]}, "properties": {"id": "cr-osm-way-960019792", "name": "7-Eleven", "nameTh": null, "nameEn": "7-Eleven", "cat": ["essentials"], "province": "cr", "slug": "7-eleven-960019792", "rank": 1}}, {"type": "Feature", "geometry": {"type": "Point", "coordinates": [99.82954, 19.91024]}, "properties": {"id": "cr-osm-way-960101638", "name": "7-Eleven", "nameTh": null, "nameEn": "7-Eleven", "cat": ["essentials"], "province": "cr", "slug": "7-eleven-960101638", "rank": 1}}, {"type": "Feature", "geometry": {"type": "Point", "coordinates": [99.82917, 19.90706]}, "properties": {"id": "cr-osm-way-960934977", "name": "7-Eleven", "nameTh": null, "nameEn": "7-Eleven", "cat": ["essentials"], "province": "cr", "slug": "7-eleven-960934977", "rank": 1}}, {"type": "Feature", "geometry": {"type": "Point", "coordinates": [99.86506, 19.89383]}, "properties": {"id": "cr-osm-way-961314547", "name": "7-Eleven", "nameTh": null, "nameEn": "7-Eleven", "cat": ["essentials"], "province": "cr", "slug": "7-eleven-961314547", "rank": 1}}, {"type": "Feature", "geometry": {"type": "Point", "coordinates": [99.83187, 19.90678]}, "properties": {"id": "cr-osm-way-963169284", "name": "7-Eleven", "nameTh": null, "nameEn": "7-Eleven", "cat": ["essentials"], "province": "cr", "slug": "7-eleven-963169284", "rank": 1}}, {"type": "Feature", "geometry": {"type": "Point", "coordinates": [99.83427, 19.90419]}, "properties": {"id": "cr-osm-way-968332808", "name": "7-Eleven", "nameTh": null, "nameEn": "7-Eleven", "cat": ["essentials"], "province": "cr", "slug": "7-eleven-968332808", "rank": 3}}, {"type": "Feature", "geometry": {"type": "Point", "coordinates": [99.55059, 19.67316]}, "properties": {"id": "cr-osm-node-12517748901", "name": "7-eleven", "nameTh": null, "nameEn": "7-eleven", "cat": ["essentials"], "province": "cr", "slug": "7-eleven-12517748901", "rank": 1}}]}