{"type": "FeatureCollection", "features": [{"type": "Feature", "geometry": {"type": "Point", "coordinates": [100.40573, 20.26651]}, "properties": {"id": "cr-osm-way-543650870", "name": "Government Savings Bank", "nameTh": null, "nameEn": "Government Savings Bank", "cat": ["essentials"], "province": "cr", "slug": "government-savings-bank-543650870", "rank": 1}}, {"type": "Feature", "geometry": {"type": "Point", "coordinates": [99.50504, 19.35609]}, "properties": {"id": "cr-osm-node-2136677525", "name": "ธนาคารออมสิน", "nameTh": "ธนาคารออมสิน", "nameEn": "Government Savings Bank", "cat": ["essentials"], "province": "cr", "slug": "government-savings-bank-2136677525", "rank": 2}}, {"type": "Feature", "geometry": {"type": "Point", "coordinates": [99.77576, 19.82799]}, "properties": {"id": "cr-osm-way-1013482858", "name": "ธนาคารออมสิน", "nameTh": "ธนาคารออมสิน", "nameEn": "Government Savings Bank", "cat": ["essentials"], "province": "cr", "slug": "government-savings-bank-1013482858", "rank": 2}}, {"type": "Feature", "geometry": {"type": "Point", "coordinates": [99.8832, 20.43699]}, "properties": {"id": "cr-osm-way-456738556", "name": "ธนาคารออมสิน", "nameTh": "ธนาคารออมสิน", "nameEn": "Government Savings Bank", "cat": ["essentials"], "province": "cr", "slug": "government-savings-bank-456738556", "rank": 2}}, {"type": "Feature", "geometry": {"type": "Point", "coordinates": [99.83345, 19.91136]}, "properties": {"id": "cr-osm-way-965305263", "name": "ธนาคารออมสิน", "nameTh": "ธนาคารออมสิน", "nameEn": "Government Savings Bank", "cat": ["essentials"], "province": "cr", "slug": "government-savings-bank-965305263", "rank": 2}}]}