{"type": "FeatureCollection", "features": [{"type": "Feature", "geometry": {"type": "Point", "coordinates": [100.40709, 20.26054]}, "properties": {"id": "cr-osm-way-543650861", "name": "Siam Commercial Bank", "nameTh": null, "nameEn": "Siam Commercial Bank", "cat": ["essentials"], "province": "cr", "slug": "siam-commercial-bank-543650861", "rank": 1}}, {"type": "Feature", "geometry": {"type": "Point", "coordinates": [99.85571, 19.96643]}, "properties": {"id": "cr-osm-node-2151125546", "name": "ธนาคารไทยพาณิชย์", "nameTh": "ธนาคารไทยพาณิชย์", "nameEn": "Siam Commercial Bank", "cat": ["essentials"], "province": "cr", "slug": "siam-commercial-bank-2151125546", "rank": 2}}, {"type": "Feature", "geometry": {"type": "Point", "coordinates": [99.50727, 19.35106]}, "properties": {"id": "cr-osm-way-1013293661", "name": "ธนาคารไทยพาณิชย์", "nameTh": "ธนาคารไทยพาณิชย์", "nameEn": "Siam Commercial Bank", "cat": ["essentials"], "province": "cr", "slug": "siam-commercial-bank-1013293661", "rank": 2}}, {"type": "Feature", "geometry": {"type": "Point", "coordinates": [99.8365, 19.88831]}, "properties": {"id": "cr-osm-way-462018633", "name": "ธนาคารไทยพาณิชย์", "nameTh": "ธนาคารไทยพาณิชย์", "nameEn": "Siam Commercial Bank", "cat": ["essentials"], "province": "cr", "slug": "siam-commercial-bank-462018633", "rank": 2}}]}