{"type": "FeatureCollection", "features": [{"type": "Feature", "geometry": {"type": "Point", "coordinates": [100.19522, 19.68499]}, "properties": {"id": "cr-osm-node-7013432085", "name": "Krungthai Bank", "nameTh": null, "nameEn": "Krungthai Bank", "cat": ["essentials"], "province": "cr", "slug": "krungthai-bank-7013432085", "rank": 1}}, {"type": "Feature", "geometry": {"type": "Point", "coordinates": [100.407, 20.261]}, "properties": {"id": "cr-osm-way-543650864", "name": "Krungthai Bank", "nameTh": null, "nameEn": "Krungthai Bank", "cat": ["essentials"], "province": "cr", "slug": "krungthai-bank-543650864", "rank": 2}}, {"type": "Feature", "geometry": {"type": "Point", "coordinates": [99.50345, 19.36599]}, "properties": {"id": "cr-osm-node-2136711245", "name": "ธนาคารกรุงไทย", "nameTh": "ธนาคารกรุงไทย", "nameEn": "Krung Thai Bank", "cat": ["essentials"], "province": "cr", "slug": "krung-thai-bank-2136711245", "rank": 2}}, {"type": "Feature", "geometry": {"type": "Point", "coordinates": [99.81238, 19.89934]}, "properties": {"id": "cr-osm-node-2140553609", "name": "ธนาคารกรุงไทย", "nameTh": "ธนาคารกรุงไทย", "nameEn": "Krungthai Bank", "cat": ["essentials"], "province": "cr", "slug": "krungthai-bank-2140553609", "rank": 2}}, {"type": "Feature", "geometry": {"type": "Point", "coordinates": [100.08356, 20.27376]}, "properties": {"id": "cr-osm-node-2212090168", "name": "ธนาคารกรุงไทย", "nameTh": "ธนาคารกรุงไทย", "nameEn": "Krung Thai Bank", "cat": ["essentials"], "province": "cr", "slug": "krung-thai-bank-2212090168", "rank": 2}}, {"type": "Feature", "geometry": {"type": "Point", "coordinates": [99.8585, 19.97334]}, "properties": {"id": "cr-osm-node-4530793507", "name": "ธนาคารกรุงไทย", "nameTh": "ธนาคารกรุงไทย", "nameEn": "Krungthai Bank", "cat": ["essentials"], "province": "cr", "slug": "krungthai-bank-4530793507", "rank": 2}}, {"type": "Feature", "geometry": {"type": "Point", "coordinates": [99.85821, 20.15317]}, "properties": {"id": "cr-osm-way-456447074", "name": "ธนาคารกรุงไทย", "nameTh": "ธนาคารกรุงไทย", "nameEn": "Krungthai Bank", "cat": ["essentials"], "province": "cr", "slug": "krungthai-bank-456447074", "rank": 2}}, {"type": "Feature", "geometry": {"type": "Point", "coordinates": [99.84439, 19.9139]}, "properties": {"id": "cr-osm-way-456858792", "name": "ธนาคารกรุงไทย", "nameTh": "ธนาคารกรุงไทย", "nameEn": "Krungthai Bank", "cat": ["essentials"], "province": "cr", "slug": "krungthai-bank-456858792", "rank": 2}}, {"type": "Feature", "geometry": {"type": "Point", "coordinates": [99.74098, 19.54813]}, "properties": {"id": "cr-osm-node-4472048673", "name": "ธนาคารกรุงไทย @ พาน", "nameTh": "ธนาคารกรุงไทย", "nameEn": "Krungthai Bank @ phan", "cat": ["essentials"], "province": "cr", "slug": "krungthai-bank-phan-4472048673", "rank": 2}}]}