{"type": "FeatureCollection", "features": [{"type": "Feature", "geometry": {"type": "Point", "coordinates": [99.66122, 20.15933]}, "properties": {"id": "cr-osm-node-7895787785", "name": "101 Green View", "nameTh": null, "nameEn": "101 Green View", "cat": ["food"], "province": "cr", "slug": "101-green-view-7895787785", "rank": 2}}, {"type": "Feature", "geometry": {"type": "Point", "coordinates": [99.82861, 19.90502]}, "properties": {"id": "cr-osm-node-10307977396", "name": "1055 brewing at corner", "nameTh": null, "nameEn": "1055 brewing at corner", "cat": ["food"], "province": "cr", "slug": "1055-brewing-at-corner-10307977396", "rank": 3}}, {"type": "Feature", "geometry": {"type": "Point", "coordinates": [99.8804, 20.3222]}, "properties": {"id": "cr-osm-way-702969689", "name": "11Coffee Roasters", "nameTh": null, "nameEn": "11Coffee Roasters", "cat": ["food"], "province": "cr", "slug": "11coffee-roasters-702969689", "rank": 1}}, {"type": "Feature", "geometry": {"type": "Point", "coordinates": [99.83083, 19.90908]}, "properties": {"id": "cr-osm-node-6725738686", "name": "1:2 - กาดหลวง", "nameTh": "1:2 - กาดหลวง", "nameEn": "1:2 Chiang Rai Brew", "cat": ["food"], "province": "cr", "slug": "1-2-chiang-rai-brew-6725738686", "rank": 3}}, {"type": "Feature", "geometry": {"type": "Point", "coordinates": [99.86008, 19.99284]}, "properties": {"id": "cr-osm-node-4002104815", "name": "9Cafe", "nameTh": null, "nameEn": "9Cafe", "cat": ["food"], "province": "cr", "slug": "9cafe-4002104815", "rank": 1}}, {"type": "Feature", "geometry": {"type": "Point", "coordinates": [99.81164, 19.9028]}, "properties": {"id": "cr-osm-node-4991765121", "name": "@Home", "nameTh": null, "nameEn": "@Home", "cat": ["food"], "province": "cr", "slug": "home-4991765121", "rank": 1}}, {"type": "Feature", "geometry": {"type": "Point", "coordinates": [100.40606, 20.25588]}, "properties": {"id": "cr-osm-node-4693779291", "name": "ACK Zone - Coffee shop", "nameTh": null, "nameEn": "ACK Zone - Coffee shop", "cat": ["food"], "province": "cr", "slug": "ack-zone-coffee-shop-4693779291", "rank": 2}}, {"type": "Feature", "geometry": {"type": "Point", "coordinates": [99.82383, 19.90743]}, "properties": {"id": "cr-osm-way-959733157", "name": "Agape Coffee", "nameTh": null, "nameEn": "Agape Coffee", "cat": ["food"], "province": "cr", "slug": "agape-coffee-959733157", "rank": 1}}, {"type": "Feature", "geometry": {"type": "Point", "coordinates": [99.82659, 19.90706]}, "properties": {"id": "cr-osm-node-9941448217", "name": "Akha Hill", "nameTh": null, "nameEn": "Akha Hill", "cat": ["food"], "province": "cr", "slug": "akha-hill-9941448217", "rank": 3}}, {"type": "Feature", "geometry": {"type": "Point", "coordinates": [99.82084, 19.85982]}, "properties": {"id": "cr-osm-node-7130093485", "name": "Alexta Coffee", "nameTh": null, "nameEn": "Alexta Coffee", "cat": ["food"], "province": "cr", "slug": "alexta-coffee-7130093485", "rank": 2}}, {"type": "Feature", "geometry": {"type": "Point", "coordinates": [99.83121, 19.9066]}, "properties": {"id": "cr-osm-node-12718713901", "name": "Alley bar", "nameTh": null, "nameEn": "Alley bar", "cat": ["food"], "province": "cr", "slug": "alley-bar-12718713901", "rank": 2}}, {"type": "Feature", "geometry": {"type": "Point", "coordinates": [99.88126, 20.3147]}, "properties": {"id": "cr-osm-node-2174080831", "name": "Banoffee Coffee", "nameTh": null, "nameEn": "Banoffee Coffee", "cat": ["food"], "province": "cr", "slug": "banoffee-coffee-2174080831", "rank": 1}}, {"type": "Feature", "geometry": {"type": "Point", "coordinates": [99.83352, 19.91279]}, "properties": {"id": "cr-osm-node-13651622201", "name": "Bella Pizza", "nameTh": null, "nameEn": "Bella Pizza", "cat": ["food"], "province": "cr", "slug": "bella-pizza-13651622201", "rank": 3}}, {"type": "Feature", "geometry": {"type": "Point", "coordinates": [99.83272, 19.91035]}, "properties": {"id": "cr-osm-node-4631200289", "name": "Betty Coffee", "nameTh": "Betty Coffee", "nameEn": null, "cat": ["food"], "province": "cr", "slug": "betty-coffee-4631200289", "rank": 1}}, {"type": "Feature", "geometry": {"type": "Point", "coordinates": [100.26227, 19.83513]}, "properties": {"id": "cr-osm-node-5527926921", "name": "Bicycle shop & fresh coffee!", "nameTh": null, "nameEn": "Bicycle shop & fresh coffee!", "cat": ["food"], "province": "cr", "slug": "bicycle-shop-fresh-coffee-5527926921", "rank": 1}}, {"type": "Feature", "geometry": {"type": "Point", "coordinates": [99.84276, 19.92347]}, "properties": {"id": "cr-osm-node-11577997795", "name": "Bike coffee", "nameTh": null, "nameEn": "Bike coffee", "cat": ["food"], "province": "cr", "slug": "bike-coffee-11577997795", "rank": 1}}, {"type": "Feature", "geometry": {"type": "Point", "coordinates": [99.83788, 19.90095]}, "properties": {"id": "cr-osm-node-13463369506", "name": "Breakfast Monster", "nameTh": null, "nameEn": "Breakfast Monster", "cat": ["food"], "province": "cr", "slug": "breakfast-monster-13463369506", "rank": 1}}, {"type": "Feature", "geometry": {"type": "Point", "coordinates": [99.82746, 19.89486]}, "properties": {"id": "cr-osm-node-4208309896", "name": "Bua Coffee House", "nameTh": null, "nameEn": "Bua Coffee House", "cat": ["food"], "province": "cr", "slug": "bua-coffee-house-4208309896", "rank": 2}}, {"type": "Feature", "geometry": {"type": "Point", "coordinates": [99.85, 19.9234]}, "properties": {"id": "cr-osm-node-13184024816", "name": "Bundarnjai - Coffee Eatery Bingsu", "nameTh": null, "nameEn": "Bundarnjai - Coffee Eatery Bingsu", "cat": ["food"], "province": "cr", "slug": "bundarnjai-coffee-eatery-bingsu-13184024816", "rank": 3}}, {"type": "Feature", "geometry": {"type": "Point", "coordinates": [99.62756, 20.16545]}, "properties": {"id": "cr-osm-node-4520373193", "name": "C&J", "nameTh": null, "nameEn": "C&J", "cat": ["food"], "province": "cr", "slug": "c-j-4520373193", "rank": 2}}, {"type": "Feature", "geometry": {"type": "Point", "coordinates": [99.51164, 19.26756]}, "properties": {"id": "cr-osm-node-2081341004", "name": "Cabbages & Condoms", "nameTh": null, "nameEn": "Cabbages & Condoms", "cat": ["food"], "province": "cr", "slug": "cabbages-condoms-2081341004", "rank": 2}}, {"type": "Feature", "geometry": {"type": "Point", "coordinates": [99.85556, 20.24361]}, "properties": {"id": "cr-osm-node-2172458862", "name": "Cabbages & Condoms", "nameTh": null, "nameEn": "Cabbages & Condoms", "cat": ["food"], "province": "cr", "slug": "cabbages-condoms-2172458862", "rank": 2}}, {"type": "Feature", "geometry": {"type": "Point", "coordinates": [100.40538, 20.27141]}, "properties": {"id": "cr-osm-node-3289826877", "name": "Cafe de Lao", "nameTh": null, "nameEn": "Cafe de Lao", "cat": ["food"], "province": "cr", "slug": "cafe-de-lao-3289826877", "rank": 1}}, {"type": "Feature", "geometry": {"type": "Point", "coordinates": [99.83286, 19.92829]}, "properties": {"id": "cr-osm-way-967419247", "name": "Cafe number Ei8ht", "nameTh": null, "nameEn": "Cafe number Ei8ht", "cat": ["food"], "province": "cr", "slug": "cafe-number-ei8ht-967419247", "rank": 2}}, {"type": "Feature", "geometry": {"type": "Point", "coordinates": [99.74115, 19.54019]}, "properties": {"id": "cr-osm-node-4099350657", "name": "Café Amazon", "nameTh": "คาเฟ่ อเมซอน", "nameEn": "Café Amazon", "cat": ["food"], "province": "cr", "slug": "caf-amazon-4099350657", "rank": 2}}, {"type": "Feature", "geometry": {"type": "Point", "coordinates": [99.62701, 20.16569]}, "properties": {"id": "cr-osm-node-4739149121", "name": "Café The Local", "nameTh": null, "nameEn": "Café The Local", "cat": ["food"], "province": "cr", "slug": "caf-the-local-4739149121", "rank": 1}}, {"type": "Feature", "geometry": {"type": "Point", "coordinates": [99.82024, 19.89909]}, "properties": {"id": "cr-osm-node-5470310925", "name": "Café de Mow", "nameTh": null, "nameEn": "Café de Mow", "cat": ["food"], "province": "cr", "slug": "caf-de-mow-5470310925", "rank": 3}}, {"type": "Feature", "geometry": {"type": "Point", "coordinates": [99.83318, 19.9045]}, "properties": {"id": "cr-osm-node-4415950789", "name": "Cat 'n' a cup", "nameTh": "Cat 'n' a cup", "nameEn": null, "cat": ["food"], "province": "cr", "slug": "cat-n-a-cup-4415950789", "rank": 1}}, {"type": "Feature", "geometry": {"type": "Point", "coordinates": [100.08349, 20.34699]}, "properties": {"id": "cr-osm-node-13356954201", "name": "Chewittitkong", "nameTh": null, "nameEn": "Chewittitkong", "cat": ["food"], "province": "cr", "slug": "chewittitkong-13356954201", "rank": 2}}, {"type": "Feature", "geometry": {"type": "Point", "coordinates": [100.03986, 19.99895]}, "properties": {"id": "cr-osm-node-4994531221", "name": "Chill Coffee & Bakery", "nameTh": null, "nameEn": "Chill Coffee & Bakery", "cat": ["food"], "province": "cr", "slug": "chill-coffee-bakery-4994531221", "rank": 1}}, {"type": "Feature", "geometry": {"type": "Point", "coordinates": [100.40647, 20.26302]}, "properties": {"id": "cr-osm-node-7012940185", "name": "Chim Coffee", "nameTh": null, "nameEn": "Chim Coffee", "cat": ["food"], "province": "cr", "slug": "chim-coffee-7012940185", "rank": 1}}, {"type": "Feature", "geometry": {"type": "Point", "coordinates": [99.81683, 20.20012]}, "properties": {"id": "cr-osm-node-3968871249", "name": "Choui Fong", "nameTh": null, "nameEn": "Choui Fong", "cat": ["food"], "province": "cr", "slug": "choui-fong-3968871249", "rank": 4}}, {"type": "Feature", "geometry": {"type": "Point", "coordinates": [100.13014, 20.06577]}, "properties": {"id": "cr-osm-node-6253108386", "name": "Coffee", "nameTh": null, "nameEn": "Coffee", "cat": ["food"], "province": "cr", "slug": "coffee-6253108386", "rank": 1}}, {"type": "Feature", "geometry": {"type": "Point", "coordinates": [99.83727, 19.9088]}, "properties": {"id": "cr-osm-node-3214139849", "name": "Coffee Bright", "nameTh": null, "nameEn": "Coffee Bright", "cat": ["food"], "province": "cr", "slug": "coffee-bright-3214139849", "rank": 1}}, {"type": "Feature", "geometry": {"type": "Point", "coordinates": [100.19553, 19.68689]}, "properties": {"id": "cr-osm-node-5234776025", "name": "Coffee Dad", "nameTh": null, "nameEn": "Coffee Dad", "cat": ["food"], "province": "cr", "slug": "coffee-dad-5234776025", "rank": 1}}, {"type": "Feature", "geometry": {"type": "Point", "coordinates": [99.87967, 20.44321]}, "properties": {"id": "cr-osm-node-4920242722", "name": "Cowboy Café", "nameTh": null, "nameEn": "Cowboy Café", "cat": ["food"], "province": "cr", "slug": "cowboy-caf-4920242722", "rank": 1}}, {"type": "Feature", "geometry": {"type": "Point", "coordinates": [99.83, 19.90376]}, "properties": {"id": "cr-osm-node-5038499822", "name": "Crepe Corner", "nameTh": null, "nameEn": "Crepe Corner", "cat": ["food"], "province": "cr", "slug": "crepe-corner-5038499822", "rank": 1}}, {"type": "Feature", "geometry": {"type": "Point", "coordinates": [99.71861, 20.16602]}, "properties": {"id": "cr-osm-node-9899500877", "name": "Daddy's Coffee House / A-Pa Coffee", "nameTh": null, "nameEn": "Daddy's Coffee House / A-Pa Coffee", "cat": ["food"], "province": "cr", "slug": "daddy-s-coffee-house-a-pa-coffee-9899500877", "rank": 1}}, {"type": "Feature", "geometry": {"type": "Point", "coordinates": [99.88412, 20.42719]}, "properties": {"id": "cr-osm-node-8185761118", "name": "Delicious Family Restaurant", "nameTh": null, "nameEn": "Delicious Family Restaurant", "cat": ["food"], "province": "cr", "slug": "delicious-family-restaurant-8185761118", "rank": 1}}, {"type": "Feature", "geometry": {"type": "Point", "coordinates": [99.49374, 19.56004]}, "properties": {"id": "cr-osm-node-2081340989", "name": "Doi Chaang Café", "nameTh": null, "nameEn": "Doi Chaang Coffee House @ Maesuai", "cat": ["food"], "province": "cr", "slug": "doi-chaang-coffee-house-maesuai-2081340989", "rank": 2}}, {"type": "Feature", "geometry": {"type": "Point", "coordinates": [99.56485, 19.81345]}, "properties": {"id": "cr-osm-node-4411165689", "name": "Doi Chang View Food & Coffee", "nameTh": null, "nameEn": "Doi Chang View Food & Coffee", "cat": ["food"], "province": "cr", "slug": "doi-chang-view-food-coffee-4411165689", "rank": 2}}, {"type": "Feature", "geometry": {"type": "Point", "coordinates": [99.86019, 19.99281]}, "properties": {"id": "cr-osm-node-4002104814", "name": "Dolce Cafe", "nameTh": null, "nameEn": "Dolce Cafe", "cat": ["food"], "province": "cr", "slug": "dolce-cafe-4002104814", "rank": 1}}, {"type": "Feature", "geometry": {"type": "Point", "coordinates": [99.74815, 19.8233]}, "properties": {"id": "cr-osm-node-13093773836", "name": "Doofeel", "nameTh": null, "nameEn": "Doofeel", "cat": ["food"], "province": "cr", "slug": "doofeel-13093773836", "rank": 1}}, {"type": "Feature", "geometry": {"type": "Point", "coordinates": [99.83242, 19.9009]}, "properties": {"id": "cr-osm-node-10296478235", "name": "Fallen Fruit", "nameTh": null, "nameEn": "Fallen Fruit", "cat": ["food"], "province": "cr", "slug": "fallen-fruit-10296478235", "rank": 2}}, {"type": "Feature", "geometry": {"type": "Point", "coordinates": [100.30874, 19.92622]}, "properties": {"id": "cr-osm-node-12609083401", "name": "Fin'n Land", "nameTh": null, "nameEn": "Fin'n Land", "cat": ["food"], "province": "cr", "slug": "fin-n-land-12609083401", "rank": 1}}, {"type": "Feature", "geometry": {"type": "Point", "coordinates": [99.85894, 19.9924]}, "properties": {"id": "cr-osm-way-653519354", "name": "Give Green Farm House", "nameTh": null, "nameEn": "Give Green Farm House", "cat": ["food"], "province": "cr", "slug": "give-green-farm-house-653519354", "rank": 3}}, {"type": "Feature", "geometry": {"type": "Point", "coordinates": [99.88504, 20.04336]}, "properties": {"id": "cr-osm-node-3881555739", "name": "Good Belly b Tharnn", "nameTh": null, "nameEn": "Good Belly b Tharnn", "cat": ["food"], "province": "cr", "slug": "good-belly-b-tharnn-3881555739", "rank": 1}}, {"type": "Feature", "geometry": {"type": "Point", "coordinates": [99.83242, 19.89908]}, "properties": {"id": "cr-osm-node-13435252058", "name": "Good Carb", "nameTh": null, "nameEn": "Good Carb", "cat": ["food"], "province": "cr", "slug": "good-carb-13435252058", "rank": 3}}, {"type": "Feature", "geometry": {"type": "Point", "coordinates": [100.12975, 20.06365]}, "properties": {"id": "cr-osm-node-4590099194", "name": "Green Hut", "nameTh": null, "nameEn": "Green Hut", "cat": ["food"], "province": "cr", "slug": "green-hut-4590099194", "rank": 1}}, {"type": "Feature", "geometry": {"type": "Point", "coordinates": [99.6843, 19.74609]}, "properties": {"id": "cr-osm-node-5307804222", "name": "Green Nat Cafe", "nameTh": null, "nameEn": "Green Nat Cafe", "cat": ["food"], "province": "cr", "slug": "green-nat-cafe-5307804222", "rank": 1}}, {"type": "Feature", "geometry": {"type": "Point", "coordinates": [99.83105, 19.9061]}, "properties": {"id": "cr-osm-node-5320151028", "name": "Heaven Burger", "nameTh": null, "nameEn": "Heaven Burger", "cat": ["food"], "province": "cr", "slug": "heaven-burger-5320151028", "rank": 3}}, {"type": "Feature", "geometry": {"type": "Point", "coordinates": [99.84959, 19.96914]}, "properties": {"id": "cr-osm-way-1197823633", "name": "Heaven Café : Marble", "nameTh": null, "nameEn": "Heaven Café : Marble", "cat": ["food"], "province": "cr", "slug": "heaven-caf-marble-1197823633", "rank": 3}}, {"type": "Feature", "geometry": {"type": "Point", "coordinates": [99.84789, 19.9669]}, "properties": {"id": "cr-osm-node-4811264237", "name": "Hello coffee and noodles", "nameTh": null, "nameEn": "Hello coffee and noodles", "cat": ["food"], "province": "cr", "slug": "hello-coffee-and-noodles-4811264237", "rank": 2}}, {"type": "Feature", "geometry": {"type": "Point", "coordinates": [99.50704, 19.3515]}, "properties": {"id": "cr-osm-way-1349668543", "name": "Hong Kong roaster", "nameTh": null, "nameEn": "Hong Kong roaster", "cat": ["food"], "province": "cr", "slug": "hong-kong-roaster-1349668543", "rank": 1}}, {"type": "Feature", "geometry": {"type": "Point", "coordinates": [99.88878, 20.43888]}, "properties": {"id": "cr-osm-node-13523431001", "name": "Hoppy Cafe cake coffee tea", "nameTh": null, "nameEn": "Hoppy Cafe cake coffee tea", "cat": ["food"], "province": "cr", "slug": "hoppy-cafe-cake-coffee-tea-13523431001", "rank": 3}}, {"type": "Feature", "geometry": {"type": "Point", "coordinates": [99.91815, 19.94571]}, "properties": {"id": "cr-osm-node-13523596601", "name": "Horizon Cafe & Restaurant", "nameTh": null, "nameEn": "Horizon Cafe & Restaurant", "cat": ["food"], "province": "cr", "slug": "horizon-cafe-restaurant-13523596601", "rank": 1}}, {"type": "Feature", "geometry": {"type": "Point", "coordinates": [100.08855, 20.28572]}, "properties": {"id": "cr-osm-node-5810517059", "name": "Hut of love", "nameTh": null, "nameEn": "Hut of love", "cat": ["food"], "province": "cr", "slug": "hut-of-love-5810517059", "rank": 1}}, {"type": "Feature", "geometry": {"type": "Point", "coordinates": [99.77245, 19.92819]}, "properties": {"id": "cr-osm-node-13114007001", "name": "Inspire by PRINCESS @Doi Hang", "nameTh": null, "nameEn": "Inspire by PRINCESS @Doi Hang", "cat": ["food"], "province": "cr", "slug": "inspire-by-princess-doi-hang-13114007001", "rank": 1}}, {"type": "Feature", "geometry": {"type": "Point", "coordinates": [99.86027, 19.99235]}, "properties": {"id": "cr-osm-node-12860331935", "name": "Jack The Reaper", "nameTh": null, "nameEn": "Jack The Reaper", "cat": ["food"], "province": "cr", "slug": "jack-the-reaper-12860331935", "rank": 3}}, {"type": "Feature", "geometry": {"type": "Point", "coordinates": [99.80262, 19.89007]}, "properties": {"id": "cr-osm-way-666388688", "name": "Kane Car Care & Cafe", "nameTh": null, "nameEn": "Kane Car Care & Cafe", "cat": ["food"], "province": "cr", "slug": "kane-car-care-cafe-666388688", "rank": 2}}, {"type": "Feature", "geometry": {"type": "Point", "coordinates": [99.83085, 19.90734]}, "properties": {"id": "cr-osm-way-959733189", "name": "Knifeshift", "nameTh": null, "nameEn": "Knifeshift", "cat": ["food"], "province": "cr", "slug": "knifeshift-959733189", "rank": 1}}, {"type": "Feature", "geometry": {"type": "Point", "coordinates": [99.83193, 19.90607]}, "properties": {"id": "cr-osm-node-12718282001", "name": "La Gatta", "nameTh": null, "nameEn": "La Gatta", "cat": ["food"], "province": "cr", "slug": "la-gatta-12718282001", "rank": 1}}, {"type": "Feature", "geometry": {"type": "Point", "coordinates": [100.04375, 20.34922]}, "properties": {"id": "cr-osm-node-4920242721", "name": "La Vallee", "nameTh": null, "nameEn": "La Vallee", "cat": ["food"], "province": "cr", "slug": "la-vallee-4920242721", "rank": 3}}, {"type": "Feature", "geometry": {"type": "Point", "coordinates": [99.86076, 20.04239]}, "properties": {"id": "cr-osm-node-4805513821", "name": "Lake Hill Resort", "nameTh": "Lake Hill Resort", "nameEn": null, "cat": ["food"], "province": "cr", "slug": "lake-hill-resort-4805513821", "rank": 1}}, {"type": "Feature", "geometry": {"type": "Point", "coordinates": [99.53145, 19.64749]}, "properties": {"id": "cr-osm-node-4946533121", "name": "Lam-Tho-Noodle & Coffee", "nameTh": null, "nameEn": "Lam-Tho-Noodle & Coffee", "cat": ["food"], "province": "cr", "slug": "lam-tho-noodle-coffee-4946533121", "rank": 1}}, {"type": "Feature", "geometry": {"type": "Point", "coordinates": [99.82121, 19.90676]}, "properties": {"id": "cr-osm-way-960625768", "name": "Little Home", "nameTh": null, "nameEn": "Little Home", "cat": ["food"], "province": "cr", "slug": "little-home-960625768", "rank": 1}}, {"type": "Feature", "geometry": {"type": "Point", "coordinates": [99.84195, 19.89191]}, "properties": {"id": "cr-osm-way-436490687", "name": "Loft Loft coffee & car wash", "nameTh": null, "nameEn": "Loft Loft coffee & car wash", "cat": ["food"], "province": "cr", "slug": "loft-loft-coffee-car-wash-436490687", "rank": 2}}, {"type": "Feature", "geometry": {"type": "Point", "coordinates": [99.51635, 19.22415]}, "properties": {"id": "cr-osm-way-675078299", "name": "Love Spoon Coffee House & Restaurant", "nameTh": null, "nameEn": "Love Spoon Coffee House & Restaurant", "cat": ["food"], "province": "cr", "slug": "love-spoon-coffee-house-restaurant-675078299", "rank": 1}}, {"type": "Feature", "geometry": {"type": "Point", "coordinates": [99.83565, 19.94032]}, "properties": {"id": "cr-osm-node-13114007401", "name": "Makao Coffee Retro", "nameTh": "ม่ะเก่า Coffee & Retro", "nameEn": "Makao Coffee Retro", "cat": ["food"], "province": "cr", "slug": "makao-coffee-retro-13114007401", "rank": 4}}, {"type": "Feature", "geometry": {"type": "Point", "coordinates": [99.72131, 19.84259]}, "properties": {"id": "cr-osm-node-4542952739", "name": "Melody Coffee", "nameTh": null, "nameEn": "Melody Coffee", "cat": ["food"], "province": "cr", "slug": "melody-coffee-4542952739", "rank": 1}}, {"type": "Feature", "geometry": {"type": "Point", "coordinates": [99.50461, 19.59605]}, "properties": {"id": "cr-osm-node-5338616583", "name": "Mim Cafe & Bakery", "nameTh": null, "nameEn": "Mim Cafe & Bakery", "cat": ["food"], "province": "cr", "slug": "mim-cafe-bakery-5338616583", "rank": 2}}, {"type": "Feature", "geometry": {"type": "Point", "coordinates": [99.8584, 20.26645]}, "properties": {"id": "cr-osm-node-3745984035", "name": "MoCafe", "nameTh": null, "nameEn": "MoCafe", "cat": ["food"], "province": "cr", "slug": "mocafe-3745984035", "rank": 2}}, {"type": "Feature", "geometry": {"type": "Point", "coordinates": [99.75354, 19.44782]}, "properties": {"id": "cr-osm-node-10547552330", "name": "Mogami Cafe", "nameTh": null, "nameEn": "Mogami Cafe", "cat": ["food"], "province": "cr", "slug": "mogami-cafe-10547552330", "rank": 2}}, {"type": "Feature", "geometry": {"type": "Point", "coordinates": [100.40963, 20.25477]}, "properties": {"id": "cr-osm-node-4693772295", "name": "Mouth Muan", "nameTh": null, "nameEn": "Mouth Muan", "cat": ["food"], "province": "cr", "slug": "mouth-muan-4693772295", "rank": 1}}, {"type": "Feature", "geometry": {"type": "Point", "coordinates": [99.62763, 20.16547]}, "properties": {"id": "cr-osm-node-5393424221", "name": "Mr. Ho", "nameTh": null, "nameEn": "Mr. Ho", "cat": ["food"], "province": "cr", "slug": "mr-ho-5393424221", "rank": 1}}, {"type": "Feature", "geometry": {"type": "Point", "coordinates": [99.86025, 19.99242]}, "properties": {"id": "cr-osm-node-5327019121", "name": "Nanglae Coffee House", "nameTh": null, "nameEn": "Nanglae Coffee House", "cat": ["food"], "province": "cr", "slug": "nanglae-coffee-house-5327019121", "rank": 2}}, {"type": "Feature", "geometry": {"type": "Point", "coordinates": [100.08857, 20.26921]}, "properties": {"id": "cr-osm-node-6322906086", "name": "Nongnuch Bar BQ Buffet", "nameTh": null, "nameEn": "Nongnuch Bar BQ Buffet", "cat": ["food"], "province": "cr", "slug": "nongnuch-bar-bq-buffet-6322906086", "rank": 2}}, {"type": "Feature", "geometry": {"type": "Point", "coordinates": [99.84417, 19.91081]}, "properties": {"id": "cr-osm-node-5995247340", "name": "One Café", "nameTh": null, "nameEn": "One Café", "cat": ["food"], "province": "cr", "slug": "one-caf-5995247340", "rank": 2}}, {"type": "Feature", "geometry": {"type": "Point", "coordinates": [99.51194, 19.3042]}, "properties": {"id": "cr-osm-node-5397821283", "name": "Orange House", "nameTh": null, "nameEn": "Orange House", "cat": ["food"], "province": "cr", "slug": "orange-house-5397821283", "rank": 2}}, {"type": "Feature", "geometry": {"type": "Point", "coordinates": [99.62108, 19.89941]}, "properties": {"id": "cr-osm-node-4716170090", "name": "Paangkhon Coffee", "nameTh": null, "nameEn": "Paangkhon Coffee", "cat": ["food"], "province": "cr", "slug": "paangkhon-coffee-4716170090", "rank": 1}}, {"type": "Feature", "geometry": {"type": "Point", "coordinates": [99.82844, 19.90564]}, "properties": {"id": "cr-osm-node-3981494578", "name": "Pang Pond", "nameTh": null, "nameEn": "Pang Pond", "cat": ["food"], "province": "cr", "slug": "pang-pond-3981494578", "rank": 1}}, {"type": "Feature", "geometry": {"type": "Point", "coordinates": [99.83112, 19.90682]}, "properties": {"id": "cr-osm-node-13624994701", "name": "Pinan thaifood (พินันท์ ไทยฟู้ด)", "nameTh": "Pinan thaifood (พินันท์ ไทยฟู้ด)", "nameEn": null, "cat": ["food"], "province": "cr", "slug": "pinan-thaifood-13624994701", "rank": 3}}, {"type": "Feature", "geometry": {"type": "Point", "coordinates": [99.84174, 19.98201]}, "properties": {"id": "cr-osm-node-5293790524", "name": "RPJ Café", "nameTh": null, "nameEn": "RPJ Café", "cat": ["food"], "province": "cr", "slug": "rpj-caf-5293790524", "rank": 2}}, {"type": "Feature", "geometry": {"type": "Point", "coordinates": [99.87522, 20.06724]}, "properties": {"id": "cr-osm-node-1484574596", "name": "Rabbita Coffee &Steak House", "nameTh": null, "nameEn": "Rabbita Coffee &Steak House", "cat": ["food"], "province": "cr", "slug": "rabbita-coffee-steak-house-1484574596", "rank": 1}}, {"type": "Feature", "geometry": {"type": "Point", "coordinates": [99.87894, 19.95481]}, "properties": {"id": "cr-osm-node-5321292210", "name": "Rabika Coffee", "nameTh": null, "nameEn": "Rabika Coffee", "cat": ["food"], "province": "cr", "slug": "rabika-coffee-5321292210", "rank": 1}}, {"type": "Feature", "geometry": {"type": "Point", "coordinates": [99.8327, 19.90604]}, "properties": {"id": "cr-osm-node-4559979989", "name": "Reggae Home & Bar", "nameTh": null, "nameEn": "Reggae Home & Bar", "cat": ["food"], "province": "cr", "slug": "reggae-home-bar-4559979989", "rank": 3}}, {"type": "Feature", "geometry": {"type": "Point", "coordinates": [99.85809, 20.21061]}, "properties": {"id": "cr-osm-node-5345965822", "name": "Restaurant", "nameTh": null, "nameEn": "Restaurant", "cat": ["food"], "province": "cr", "slug": "restaurant-5345965822", "rank": 1}}, {"type": "Feature", "geometry": {"type": "Point", "coordinates": [100.30847, 20.08368]}, "properties": {"id": "cr-osm-node-7262882886", "name": "Restaurant", "nameTh": null, "nameEn": "Restaurant", "cat": ["food"], "province": "cr", "slug": "restaurant-7262882886", "rank": 1}}, {"type": "Feature", "geometry": {"type": "Point", "coordinates": [100.2972, 20.0521]}, "properties": {"id": "cr-osm-node-7185899197", "name": "Restaurant Pramoyn", "nameTh": null, "nameEn": "Restaurant Pramoyn", "cat": ["food"], "province": "cr", "slug": "restaurant-pramoyn-7185899197", "rank": 1}}, {"type": "Feature", "geometry": {"type": "Point", "coordinates": [100.40579, 20.26785]}, "properties": {"id": "cr-osm-way-758294486", "name": "Rin Bar", "nameTh": null, "nameEn": "Rin Bar", "cat": ["food"], "province": "cr", "slug": "rin-bar-758294486", "rank": 1}}, {"type": "Feature", "geometry": {"type": "Point", "coordinates": [100.40874, 20.23836]}, "properties": {"id": "cr-osm-node-5394993021", "name": "Roast coffee", "nameTh": null, "nameEn": "Roast coffee", "cat": ["food"], "province": "cr", "slug": "roast-coffee-5394993021", "rank": 1}}, {"type": "Feature", "geometry": {"type": "Point", "coordinates": [99.82438, 19.88209]}, "properties": {"id": "cr-osm-node-4558284402", "name": "Sa Par Cafe", "nameTh": null, "nameEn": "Sa Par Cafe", "cat": ["food"], "province": "cr", "slug": "sa-par-cafe-4558284402", "rank": 3}}, {"type": "Feature", "geometry": {"type": "Point", "coordinates": [99.46381, 19.11489]}, "properties": {"id": "cr-osm-node-4828002221", "name": "Sabuy coffee", "nameTh": null, "nameEn": "Sabuy coffee", "cat": ["food"], "province": "cr", "slug": "sabuy-coffee-4828002221", "rank": 1}}, {"type": "Feature", "geometry": {"type": "Point", "coordinates": [99.67164, 19.84065]}, "properties": {"id": "cr-osm-node-13520932101", "name": "SangKaew", "nameTh": null, "nameEn": "SangKaew", "cat": ["food"], "province": "cr", "slug": "sangkaew-13520932101", "rank": 3}}, {"type": "Feature", "geometry": {"type": "Point", "coordinates": [99.74483, 19.85342]}, "properties": {"id": "cr-osm-node-6210051386", "name": "Singha Park Cafe", "nameTh": null, "nameEn": "Singha Park Cafe", "cat": ["food"], "province": "cr", "slug": "singha-park-cafe-6210051386", "rank": 2}}, {"type": "Feature", "geometry": {"type": "Point", "coordinates": [99.73017, 19.86302]}, "properties": {"id": "cr-osm-node-7902240209", "name": "Singha Park Chiang Rai Cafe", "nameTh": null, "nameEn": "Singha Park Chiang Rai Cafe", "cat": ["food"], "province": "cr", "slug": "singha-park-chiang-rai-cafe-7902240209", "rank": 2}}, {"type": "Feature", "geometry": {"type": "Point", "coordinates": [99.63348, 20.16472]}, "properties": {"id": "cr-osm-node-6947416488", "name": "Small Noodle Shop (Soup & Salad)", "nameTh": null, "nameEn": "Small Noodle Shop (Soup & Salad)", "cat": ["food"], "province": "cr", "slug": "small-noodle-shop-soup-salad-6947416488", "rank": 1}}, {"type": "Feature", "geometry": {"type": "Point", "coordinates": [99.83661, 19.90371]}, "properties": {"id": "cr-osm-node-5470324922", "name": "Sound Brown Coffee", "nameTh": null, "nameEn": "Sound Brown Coffee", "cat": ["food"], "province": "cr", "slug": "sound-brown-coffee-5470324922", "rank": 2}}, {"type": "Feature", "geometry": {"type": "Point", "coordinates": [99.62769, 19.74657]}, "properties": {"id": "cr-osm-way-758290635", "name": "Sparrow & Co.", "nameTh": null, "nameEn": "Sparrow & Co.", "cat": ["food"], "province": "cr", "slug": "sparrow-co-758290635", "rank": 2}}, {"type": "Feature", "geometry": {"type": "Point", "coordinates": [99.8339, 19.90896]}, "properties": {"id": "cr-osm-node-3022782391", "name": "Stardust Bar & Grill", "nameTh": null, "nameEn": "Stardust Bar & Grill", "cat": ["food"], "province": "cr", "slug": "stardust-bar-grill-3022782391", "rank": 1}}, {"type": "Feature", "geometry": {"type": "Point", "coordinates": [99.8337, 19.92165]}, "properties": {"id": "cr-osm-node-7018618085", "name": "Stone Wall Cafe", "nameTh": null, "nameEn": "Stone Wall Cafe", "cat": ["food"], "province": "cr", "slug": "stone-wall-cafe-7018618085", "rank": 1}}, {"type": "Feature", "geometry": {"type": "Point", "coordinates": [100.41251, 20.14993]}, "properties": {"id": "cr-osm-node-5285338523", "name": "Sungwa Cafe", "nameTh": null, "nameEn": "Sungwa Cafe", "cat": ["food"], "province": "cr", "slug": "sungwa-cafe-5285338523", "rank": 1}}, {"type": "Feature", "geometry": {"type": "Point", "coordinates": [99.85893, 19.97772]}, "properties": {"id": "cr-osm-node-10770351663", "name": "TCOS Cafe", "nameTh": null, "nameEn": "TCOS Cafe", "cat": ["food"], "province": "cr", "slug": "tcos-cafe-10770351663", "rank": 2}}, {"type": "Feature", "geometry": {"type": "Point", "coordinates": [100.40602, 20.2562]}, "properties": {"id": "cr-osm-node-4693772294", "name": "Taxi Café", "nameTh": null, "nameEn": "Taxi Café", "cat": ["food"], "province": "cr", "slug": "taxi-caf-4693772294", "rank": 1}}, {"type": "Feature", "geometry": {"type": "Point", "coordinates": [99.46465, 19.64895]}, "properties": {"id": "cr-osm-node-5222645521", "name": "Thai food", "nameTh": null, "nameEn": "Thai food", "cat": ["food"], "province": "cr", "slug": "thai-food-5222645521", "rank": 1}}, {"type": "Feature", "geometry": {"type": "Point", "coordinates": [99.86378, 19.99204]}, "properties": {"id": "cr-osm-node-5182601121", "name": "The Box Cafe", "nameTh": null, "nameEn": "The Box Cafe", "cat": ["food"], "province": "cr", "slug": "the-box-cafe-5182601121", "rank": 1}}, {"type": "Feature", "geometry": {"type": "Point", "coordinates": [99.81292, 20.26918]}, "properties": {"id": "cr-osm-node-13521501802", "name": "The Cher", "nameTh": null, "nameEn": "The Cher", "cat": ["food"], "province": "cr", "slug": "the-cher-13521501802", "rank": 2}}, {"type": "Feature", "geometry": {"type": "Point", "coordinates": [99.82755, 19.89658]}, "properties": {"id": "cr-osm-way-751059215", "name": "The Roastery by Roj", "nameTh": null, "nameEn": "The Roastery by Roj", "cat": ["food"], "province": "cr", "slug": "the-roastery-by-roj-751059215", "rank": 3}}, {"type": "Feature", "geometry": {"type": "Point", "coordinates": [99.85096, 19.95466]}, "properties": {"id": "cr-osm-node-12683798696", "name": "Thunder Rabbit Coffee", "nameTh": null, "nameEn": "Thunder Rabbit Coffee", "cat": ["food"], "province": "cr", "slug": "thunder-rabbit-coffee-12683798696", "rank": 2}}, {"type": "Feature", "geometry": {"type": "Point", "coordinates": [99.83116, 19.90662]}, "properties": {"id": "cr-osm-node-2450215492", "name": "Ti Amo House", "nameTh": "ที อาโม่ เชียงราย เซ็นทรัล", "nameEn": "Ti Amo Chiangrai Central", "cat": ["food"], "province": "cr", "slug": "ti-amo-chiangrai-central-2450215492", "rank": 2}}, {"type": "Feature", "geometry": {"type": "Point", "coordinates": [99.68001, 19.81472]}, "properties": {"id": "cr-osm-node-5224050821", "name": "Wake Cup", "nameTh": null, "nameEn": "Wake Cup", "cat": ["food"], "province": "cr", "slug": "wake-cup-5224050821", "rank": 1}}, {"type": "Feature", "geometry": {"type": "Point", "coordinates": [99.83043, 19.90148]}, "properties": {"id": "cr-osm-node-6204637085", "name": "Wynn Coffee Shop", "nameTh": null, "nameEn": "Wynn Coffee Shop", "cat": ["food"], "province": "cr", "slug": "wynn-coffee-shop-6204637085", "rank": 1}}, {"type": "Feature", "geometry": {"type": "Point", "coordinates": [99.62612, 20.16548]}, "properties": {"id": "cr-osm-node-4520375490", "name": "Xin Zhi Dai Bakery", "nameTh": null, "nameEn": "Xin Zhi Dai Bakery", "cat": ["food"], "province": "cr", "slug": "xin-zhi-dai-bakery-4520375490", "rank": 2}}, {"type": "Feature", "geometry": {"type": "Point", "coordinates": [99.64898, 20.16245]}, "properties": {"id": "cr-osm-node-5229745321", "name": "Yoddoi Coffee & Tea", "nameTh": null, "nameEn": "Yoddoi Coffee & Tea", "cat": ["food"], "province": "cr", "slug": "yoddoi-coffee-tea-5229745321", "rank": 2}}, {"type": "Feature", "geometry": {"type": "Point", "coordinates": [99.83078, 19.90684]}, "properties": {"id": "cr-osm-way-963169297", "name": "Yoddoi Coffee & Tea", "nameTh": "ยอดดอยกาแฟและชา", "nameEn": "Yoddoi Coffee & Tea", "cat": ["food"], "province": "cr", "slug": "yoddoi-coffee-tea-963169297", "rank": 4}}, {"type": "Feature", "geometry": {"type": "Point", "coordinates": [99.80212, 19.88729]}, "properties": {"id": "cr-osm-node-4652615988", "name": "Zoomkungten Nonpueng", "nameTh": null, "nameEn": "Zoomkungten Nonpueng", "cat": ["food"], "province": "cr", "slug": "zoomkungten-nonpueng-4652615988", "rank": 3}}, {"type": "Feature", "geometry": {"type": "Point", "coordinates": [100.50472, 20.10399]}, "properties": {"id": "cr-osm-node-5358725222", "name": "คาเฟ่ อเมซอน", "nameTh": "คาเฟ่ อเมซอน", "nameEn": "Café Amazon", "cat": ["food"], "province": "cr", "slug": "caf-amazon-5358725222", "rank": 3}}, {"type": "Feature", "geometry": {"type": "Point", "coordinates": [99.83735, 19.91145]}, "properties": {"id": "cr-osm-node-5316376421", "name": "คาเฟ่ป่า", "nameTh": "คาเฟ่ป่า", "nameEn": "forest cafe", "cat": ["food"], "province": "cr", "slug": "forest-cafe-5316376421", "rank": 3}}, {"type": "Feature", "geometry": {"type": "Point", "coordinates": [99.66394, 20.24027]}, "properties": {"id": "cr-osm-node-3770738481", "name": "ฉัน กับ เธอ", "nameTh": "ฉัน กับ เธอ", "nameEn": "I and You Cafe", "cat": ["food"], "province": "cr", "slug": "i-and-you-cafe-3770738481", "rank": 2}}, {"type": "Feature", "geometry": {"type": "Point", "coordinates": [99.85052, 19.92365]}, "properties": {"id": "cr-osm-node-4555833893", "name": "ดามา คาเฟ่ เชียงราย", "nameTh": "ดามา คาเฟ่ เชียงราย", "nameEn": "DaMa Cafe Chingrai", "cat": ["food"], "province": "cr", "slug": "dama-cafe-chingrai-4555833893", "rank": 3}}, {"type": "Feature", "geometry": {"type": "Point", "coordinates": [99.77475, 20.23936]}, "properties": {"id": "cr-osm-node-9452135618", "name": "ตน", "nameTh": "คนภูเขา", "nameEn": "The Hill Tribes", "cat": ["food"], "province": "cr", "slug": "the-hill-tribes-9452135618", "rank": 4}}, {"type": "Feature", "geometry": {"type": "Point", "coordinates": [99.82758, 19.91228]}, "properties": {"id": "cr-osm-node-5436937745", "name": "บาลาบ", "nameTh": "บาลาบ", "nameEn": "Barrab", "cat": ["food"], "province": "cr", "slug": "barrab-5436937745", "rank": 3}}, {"type": "Feature", "geometry": {"type": "Point", "coordinates": [99.82507, 19.90671]}, "properties": {"id": "cr-osm-node-8440021025", "name": "บุหงา ตานี Cafe' & Bistro", "nameTh": "บุหงา ตานี Cafe' & Bistro", "nameEn": null, "cat": ["food"], "province": "cr", "slug": "cafe-bistro-8440021025", "rank": 3}}, {"type": "Feature", "geometry": {"type": "Point", "coordinates": [99.86424, 19.97531]}, "properties": {"id": "cr-osm-node-10279458810", "name": "บ้านดุ่เมืองใหม่", "nameTh": "บ้านดุ่เมืองใหม่", "nameEn": "Joy Bakery", "cat": ["food"], "province": "cr", "slug": "joy-bakery-10279458810", "rank": 4}}, {"type": "Feature", "geometry": {"type": "Point", "coordinates": [99.84782, 20.39878]}, "properties": {"id": "cr-osm-node-9451774317", "name": "ภู คุมะ", "nameTh": "ภู คุมะ", "nameEn": "Phukuma", "cat": ["food"], "province": "cr", "slug": "phukuma-9451774317", "rank": 4}}, {"type": "Feature", "geometry": {"type": "Point", "coordinates": [99.88558, 20.42746]}, "properties": {"id": "cr-osm-node-13154669401", "name": "ร้านกาแฟ BECAUSE COFFEE", "nameTh": "ร้านกาแฟ BECAUSE COFFEE", "nameEn": null, "cat": ["food"], "province": "cr", "slug": "because-coffee-13154669401", "rank": 2}}, {"type": "Feature", "geometry": {"type": "Point", "coordinates": [99.88439, 20.43797]}, "properties": {"id": "cr-osm-node-3727749988", "name": "ร้านกาแฟแม่สายน่าอยู่", "nameTh": "ร้านกาแฟแม่สายน่าอยู่", "nameEn": "Mae Sai Nayew Café", "cat": ["food"], "province": "cr", "slug": "mae-sai-nayew-caf-3727749988", "rank": 3}}, {"type": "Feature", "geometry": {"type": "Point", "coordinates": [99.50557, 19.35535]}, "properties": {"id": "cr-osm-node-5227714323", "name": "ร้านจันทร์ฉาย", "nameTh": "ร้านจันทร์ฉาย", "nameEn": "ChanChay", "cat": ["food"], "province": "cr", "slug": "chanchay-5227714323", "rank": 3}}, {"type": "Feature", "geometry": {"type": "Point", "coordinates": [100.50882, 20.10475]}, "properties": {"id": "cr-osm-node-4563527890", "name": "ร้านน้ำ น๋มเส้น", "nameTh": "ร้านน้ำ น๋มเส้น", "nameEn": null, "cat": ["food"], "province": "cr", "slug": "4563527890", "rank": 1}}, {"type": "Feature", "geometry": {"type": "Point", "coordinates": [100.50783, 19.93489]}, "properties": {"id": "cr-osm-node-619198717", "name": "ร้านบ้านดิน", "nameTh": "ร้านบ้านดิน", "nameEn": "Ban Dee Chinese Food", "cat": ["food"], "province": "cr", "slug": "ban-dee-chinese-food-619198717", "rank": 4}}, {"type": "Feature", "geometry": {"type": "Point", "coordinates": [100.50728, 19.93537]}, "properties": {"id": "cr-osm-node-8148394402", "name": "ร้านยีกวง คอฟฟี่&เฮ้าส์", "nameTh": "ร้านยีกวง คอฟฟี่&เฮ้าส์", "nameEn": null, "cat": ["food"], "province": "cr", "slug": "8148394402", "rank": 3}}, {"type": "Feature", "geometry": {"type": "Point", "coordinates": [99.62194, 20.15794]}, "properties": {"id": "cr-osm-node-5392225622", "name": "ร้านอาหาร", "nameTh": "ร้านอาหาร", "nameEn": "Mae Salong Restaurant", "cat": ["food"], "province": "cr", "slug": "mae-salong-restaurant-5392225622", "rank": 2}}, {"type": "Feature", "geometry": {"type": "Point", "coordinates": [99.50367, 19.36081]}, "properties": {"id": "cr-osm-node-4525816790", "name": "สำเริง", "nameTh": "สำเริง", "nameEn": null, "cat": ["food"], "province": "cr", "slug": "4525816790", "rank": 1}}, {"type": "Feature", "geometry": {"type": "Point", "coordinates": [99.84193, 19.88938]}, "properties": {"id": "cr-osm-node-4830028824", "name": "ส้มตำ อินเตอร์", "nameTh": "ส้มตำ อินเตอร์", "nameEn": "Somtam inter", "cat": ["food"], "province": "cr", "slug": "somtam-inter-4830028824", "rank": 3}}, {"type": "Feature", "geometry": {"type": "Point", "coordinates": [99.83713, 19.90077]}, "properties": {"id": "cr-osm-node-4627930691", "name": "ส้มตำติดปาก@เชียงราย", "nameTh": "ส้มตำติดปาก@เชียงราย", "nameEn": "Somtamtidpak@Chiangrai", "cat": ["food"], "province": "cr", "slug": "somtamtidpak-chiangrai-4627930691", "rank": 4}}, {"type": "Feature", "geometry": {"type": "Point", "coordinates": [99.82787, 19.89912]}, "properties": {"id": "cr-osm-node-6282356485", "name": "ออมละไม", "nameTh": "ออมละไม", "nameEn": "Om La-Mai (homemade ice cream)", "cat": ["food"], "province": "cr", "slug": "om-la-mai-homemade-ice-cream-6282356485", "rank": 2}}, {"type": "Feature", "geometry": {"type": "Point", "coordinates": [99.841, 19.65227]}, "properties": {"id": "cr-osm-node-8223464849", "name": "เก๊าเอง Café", "nameTh": "เก๊าเอง Café", "nameEn": null, "cat": ["food"], "province": "cr", "slug": "caf-8223464849", "rank": 1}}, {"type": "Feature", "geometry": {"type": "Point", "coordinates": [99.83645, 20.20768]}, "properties": {"id": "cr-osm-node-6249254885", "name": "เชียงรายโค่ยฟาร์ม", "nameTh": "เชียงรายโค่ยฟาร์ม", "nameEn": "Chiang Rai Koi Farm", "cat": ["food"], "province": "cr", "slug": "chiang-rai-koi-farm-6249254885", "rank": 2}}, {"type": "Feature", "geometry": {"type": "Point", "coordinates": [99.82908, 19.91192]}, "properties": {"id": "cr-osm-relation-7165835", "name": "โรงพยาบาลโอเวอร์บรุ๊ค", "nameTh": "โรงพยาบาลโอเวอร์บรุ๊ค", "nameEn": "Overbrook Hospital", "cat": ["medical"], "province": "cr", "slug": "overbrook-hospital-7165835", "rank": 4}}, {"type": "Feature", "geometry": {"type": "Point", "coordinates": [99.83626, 19.90089]}, "properties": {"id": "cr-osm-node-13475928474", "name": "White Bear", "nameTh": null, "nameEn": "White Bear", "cat": ["essentials"], "province": "cr", "slug": "white-bear-13475928474", "rank": 1}}, {"type": "Feature", "geometry": {"type": "Point", "coordinates": [99.66094, 20.15888]}, "properties": {"id": "cr-osm-node-6546922385", "name": "101 Tea Green View", "nameTh": null, "nameEn": "101 Tea Green View", "cat": ["hotel"], "province": "cr", "slug": "101-tea-green-view-6546922385", "rank": 3}}, {"type": "Feature", "geometry": {"type": "Point", "coordinates": [99.83507, 19.91084]}, "properties": {"id": "cr-osm-node-7028932546", "name": "A-Residence", "nameTh": null, "nameEn": "A-Residence", "cat": ["hotel"], "province": "cr", "slug": "a-residence-7028932546", "rank": 2}}, {"type": "Feature", "geometry": {"type": "Point", "coordinates": [99.62691, 20.16632]}, "properties": {"id": "cr-osm-node-9338015555", "name": "AMA Maesalong", "nameTh": null, "nameEn": "AMA Maesalong", "cat": ["hotel"], "province": "cr", "slug": "ama-maesalong-9338015555", "rank": 2}}, {"type": "Feature", "geometry": {"type": "Point", "coordinates": [99.8761, 20.44354]}, "properties": {"id": "cr-osm-node-5405019123", "name": "AQ Hotel", "nameTh": null, "nameEn": "AQ Hotel", "cat": ["hotel"], "province": "cr", "slug": "aq-hotel-5405019123", "rank": 2}}, {"type": "Feature", "geometry": {"type": "Point", "coordinates": [99.84141, 19.89893]}, "properties": {"id": "cr-osm-node-5177891324", "name": "Adchara Mansion", "nameTh": null, "nameEn": "Adchara Mansion", "cat": ["hotel"], "province": "cr", "slug": "adchara-mansion-5177891324", "rank": 2}}, {"type": "Feature", "geometry": {"type": "Point", "coordinates": [99.62699, 20.16695]}, "properties": {"id": "cr-osm-node-4700971990", "name": "Akha Guesthouse", "nameTh": null, "nameEn": "Akha Guesthouse", "cat": ["hotel"], "province": "cr", "slug": "akha-guesthouse-4700971990", "rank": 1}}, {"type": "Feature", "geometry": {"type": "Point", "coordinates": [99.83542, 19.90034]}, "properties": {"id": "cr-osm-way-256549538", "name": "B2 Night Bazaar Chiang Rai", "nameTh": null, "nameEn": "B2 Night Bazaar Chiang Rai", "cat": ["hotel"], "province": "cr", "slug": "b2-night-bazaar-chiang-rai-256549538", "rank": 3}}, {"type": "Feature", "geometry": {"type": "Point", "coordinates": [100.40605, 20.26707]}, "properties": {"id": "cr-osm-node-4324903962", "name": "Baan Fai Guest House", "nameTh": null, "nameEn": "Baan Fai Guest House", "cat": ["hotel"], "province": "cr", "slug": "baan-fai-guest-house-4324903962", "rank": 1}}, {"type": "Feature", "geometry": {"type": "Point", "coordinates": [99.63178, 20.16533]}, "properties": {"id": "cr-osm-node-7023547192", "name": "Baan Hom Muen Lee", "nameTh": null, "nameEn": "Baan Hom Muen Lee", "cat": ["hotel"], "province": "cr", "slug": "baan-hom-muen-lee-7023547192", "rank": 1}}, {"type": "Feature", "geometry": {"type": "Point", "coordinates": [99.8377, 19.91035]}, "properties": {"id": "cr-osm-node-11561548952", "name": "Baan Mai Kradan Hostel", "nameTh": null, "nameEn": "Baan Mai Kradan Hostel", "cat": ["hotel"], "province": "cr", "slug": "baan-mai-kradan-hostel-11561548952", "rank": 1}}, {"type": "Feature", "geometry": {"type": "Point", "coordinates": [99.84212, 19.9166]}, "properties": {"id": "cr-osm-node-3426154627", "name": "Baan Nuk Anong Hotel", "nameTh": null, "nameEn": "Baan Nuk Anong Hotel", "cat": ["hotel"], "province": "cr", "slug": "baan-nuk-anong-hotel-3426154627", "rank": 3}}, {"type": "Feature", "geometry": {"type": "Point", "coordinates": [99.85387, 20.00235]}, "properties": {"id": "cr-osm-node-10651317905", "name": "Babuh Boutique Homestay", "nameTh": null, "nameEn": "Babuh Boutique Homestay", "cat": ["hotel"], "province": "cr", "slug": "babuh-boutique-homestay-10651317905", "rank": 2}}, {"type": "Feature", "geometry": {"type": "Point", "coordinates": [99.83551, 19.90505]}, "properties": {"id": "cr-osm-node-4782425122", "name": "Backpack Hostel", "nameTh": null, "nameEn": "Backpack Hostel", "cat": ["hotel"], "province": "cr", "slug": "backpack-hostel-4782425122", "rank": 3}}, {"type": "Feature", "geometry": {"type": "Point", "coordinates": [100.09244, 20.262]}, "properties": {"id": "cr-osm-way-665569136", "name": "Bangon", "nameTh": null, "nameEn": "Bangon", "cat": ["hotel"], "province": "cr", "slug": "bangon-665569136", "rank": 1}}, {"type": "Feature", "geometry": {"type": "Point", "coordinates": [100.15599, 19.8522]}, "properties": {"id": "cr-osm-node-4599845693", "name": "Bansuan Resort", "nameTh": null, "nameEn": "Bansuan Resort", "cat": ["hotel"], "province": "cr", "slug": "bansuan-resort-4599845693", "rank": 2}}, {"type": "Feature", "geometry": {"type": "Point", "coordinates": [100.15582, 19.85297]}, "properties": {"id": "cr-osm-node-4601761802", "name": "Bansuan Resort", "nameTh": null, "nameEn": "Bansuan Resort", "cat": ["hotel"], "province": "cr", "slug": "bansuan-resort-4601761802", "rank": 1}}, {"type": "Feature", "geometry": {"type": "Point", "coordinates": [99.89701, 20.42204]}, "properties": {"id": "cr-osm-node-10244676325", "name": "Bansuan Resort Hotel, Mae Sai", "nameTh": null, "nameEn": "Bansuan Resort Hotel, Mae Sai", "cat": ["hotel"], "province": "cr", "slug": "bansuan-resort-hotel-mae-sai-10244676325", "rank": 2}}, {"type": "Feature", "geometry": {"type": "Point", "coordinates": [99.83091, 19.9046]}, "properties": {"id": "cr-osm-way-486075926", "name": "Buun Bun Dan Inn", "nameTh": null, "nameEn": "Boon Ban Dan", "cat": ["hotel"], "province": "cr", "slug": "boon-ban-dan-486075926", "rank": 1}}, {"type": "Feature", "geometry": {"type": "Point", "coordinates": [99.83083, 19.90642]}, "properties": {"id": "cr-osm-way-384839057", "name": "Chedi Chiangrai Boutique Hotel", "nameTh": null, "nameEn": "Chedi Chiangrai Boutique Hotel", "cat": ["hotel"], "province": "cr", "slug": "chedi-chiangrai-boutique-hotel-384839057", "rank": 3}}, {"type": "Feature", "geometry": {"type": "Point", "coordinates": [100.40597, 20.2693]}, "properties": {"id": "cr-osm-relation-7770427", "name": "Chiang Khong Teak Garden Riverfront", "nameTh": null, "nameEn": "Chiang Khong Teak Garden Riverfront", "cat": ["hotel"], "province": "cr", "slug": "chiang-khong-teak-garden-riverfront-7770427", "rank": 3}}, {"type": "Feature", "geometry": {"type": "Point", "coordinates": [99.83338, 19.90601]}, "properties": {"id": "cr-osm-way-484142603", "name": "City Home Guesthouse", "nameTh": "City Home Guesthouse", "nameEn": null, "cat": ["hotel"], "province": "cr", "slug": "city-home-guesthouse-484142603", "rank": 2}}, {"type": "Feature", "geometry": {"type": "Point", "coordinates": [99.8204, 19.89922]}, "properties": {"id": "cr-osm-node-10245740711", "name": "Cordelia Chiangrai", "nameTh": null, "nameEn": "Cordelia Chiangrai", "cat": ["hotel"], "province": "cr", "slug": "cordelia-chiangrai-10245740711", "rank": 1}}, {"type": "Feature", "geometry": {"type": "Point", "coordinates": [100.50589, 20.10467]}, "properties": {"id": "cr-osm-node-13282994901", "name": "Daisy Inn เดซี่อินน์. ที่พัก", "nameTh": "Daisy Inn เดซี่อินน์. ที่พัก", "nameEn": null, "cat": ["hotel"], "province": "cr", "slug": "daisy-inn-13282994901", "rank": 3}}, {"type": "Feature", "geometry": {"type": "Point", "coordinates": [100.4062, 20.2706]}, "properties": {"id": "cr-osm-way-546319095", "name": "Day Waterfront Hotel", "nameTh": null, "nameEn": "Day Waterfront Hotel", "cat": ["hotel"], "province": "cr", "slug": "day-waterfront-hotel-546319095", "rank": 2}}, {"type": "Feature", "geometry": {"type": "Point", "coordinates": [99.83682, 19.91061]}, "properties": {"id": "cr-osm-node-14062812601", "name": "Entry - Mora Boutique Hotel", "nameTh": null, "nameEn": "Entry - Mora Boutique Hotel", "cat": ["hotel"], "province": "cr", "slug": "entry-mora-boutique-hotel-14062812601", "rank": 3}}, {"type": "Feature", "geometry": {"type": "Point", "coordinates": [99.8404, 19.90759]}, "properties": {"id": "cr-osm-node-2315631889", "name": "Fun-D", "nameTh": null, "nameEn": "Fun-D", "cat": ["hotel"], "province": "cr", "slug": "fun-d-2315631889", "rank": 2}}, {"type": "Feature", "geometry": {"type": "Point", "coordinates": [100.40463, 20.26744]}, "properties": {"id": "cr-osm-node-2297130582", "name": "Funky Box Hostel", "nameTh": null, "nameEn": "Funky Box Hostel", "cat": ["hotel"], "province": "cr", "slug": "funky-box-hostel-2297130582", "rank": 1}}, {"type": "Feature", "geometry": {"type": "Point", "coordinates": [99.83444, 19.907]}, "properties": {"id": "cr-osm-node-4709226957", "name": "Golden Triangle Inn", "nameTh": null, "nameEn": "Golden Triangle Inn", "cat": ["hotel"], "province": "cr", "slug": "golden-triangle-inn-4709226957", "rank": 1}}, {"type": "Feature", "geometry": {"type": "Point", "coordinates": [99.83242, 19.90307]}, "properties": {"id": "cr-osm-node-4416687292", "name": "Good Morning Chiangrai", "nameTh": "Good Morning Chiangrai", "nameEn": null, "cat": ["hotel"], "province": "cr", "slug": "good-morning-chiangrai-4416687292", "rank": 3}}, {"type": "Feature", "geometry": {"type": "Point", "coordinates": [99.8516, 19.90522]}, "properties": {"id": "cr-osm-node-7901119527", "name": "Goodtime Resort Chiangrai", "nameTh": null, "nameEn": "Goodtime Resort Chiangrai", "cat": ["hotel"], "province": "cr", "slug": "goodtime-resort-chiangrai-7901119527", "rank": 2}}, {"type": "Feature", "geometry": {"type": "Point", "coordinates": [99.83503, 19.90075]}, "properties": {"id": "cr-osm-node-12531973317", "name": "Grow", "nameTh": null, "nameEn": "Grow", "cat": ["hotel"], "province": "cr", "slug": "grow-12531973317", "rank": 2}}, {"type": "Feature", "geometry": {"type": "Point", "coordinates": [99.72961, 19.76398]}, "properties": {"id": "cr-osm-node-10245740310", "name": "Gumpor Art Studio", "nameTh": null, "nameEn": "Gumpor Art Studio", "cat": ["hotel"], "province": "cr", "slug": "gumpor-art-studio-10245740310", "rank": 1}}, {"type": "Feature", "geometry": {"type": "Point", "coordinates": [99.5182, 19.2104]}, "properties": {"id": "cr-osm-way-550195249", "name": "H2O Hotel", "nameTh": null, "nameEn": "H2O Hotel", "cat": ["hotel"], "province": "cr", "slug": "h2o-hotel-550195249", "rank": 3}}, {"type": "Feature", "geometry": {"type": "Point", "coordinates": [99.51765, 19.20771]}, "properties": {"id": "cr-osm-node-6102933685", "name": "Haohug Mae Kachan Hotel", "nameTh": null, "nameEn": "Haohug Mae Kachan Hotel", "cat": ["hotel"], "province": "cr", "slug": "haohug-mae-kachan-hotel-6102933685", "rank": 2}}, {"type": "Feature", "geometry": {"type": "Point", "coordinates": [99.62551, 20.16533]}, "properties": {"id": "cr-osm-node-6017393486", "name": "Happy House", "nameTh": null, "nameEn": "Happy House", "cat": ["hotel"], "province": "cr", "slug": "happy-house-6017393486", "rank": 3}}, {"type": "Feature", "geometry": {"type": "Point", "coordinates": [99.83242, 19.89912]}, "properties": {"id": "cr-osm-node-12482416727", "name": "Happynest", "nameTh": null, "nameEn": "Happynest", "cat": ["hotel"], "province": "cr", "slug": "happynest-12482416727", "rank": 1}}, {"type": "Feature", "geometry": {"type": "Point", "coordinates": [100.08679, 20.27591]}, "properties": {"id": "cr-osm-node-5804413555", "name": "Hello Kitty", "nameTh": "Hotel Hello Kitty with swimming pool", "nameEn": "Hotel Hello Kitty with swimmin pool", "cat": ["hotel"], "province": "cr", "slug": "hotel-hello-kitty-with-swimmin-pool-5804413555", "rank": 2}}, {"type": "Feature", "geometry": {"type": "Point", "coordinates": [99.83302, 19.9024]}, "properties": {"id": "cr-osm-node-4544528292", "name": "Hi Chiangrai Hotel", "nameTh": null, "nameEn": "Hi Chiangrai Hotel", "cat": ["hotel"], "province": "cr", "slug": "hi-chiangrai-hotel-4544528292", "rank": 2}}, {"type": "Feature", "geometry": {"type": "Point", "coordinates": [99.82903, 19.90639]}, "properties": {"id": "cr-osm-way-959733182", "name": "Hop Inn Clock Tower", "nameTh": null, "nameEn": "Hop Inn Clock Tower", "cat": ["hotel"], "province": "cr", "slug": "hop-inn-clock-tower-959733182", "rank": 3}}, {"type": "Feature", "geometry": {"type": "Point", "coordinates": [99.88979, 20.38612]}, "properties": {"id": "cr-osm-node-4815821222", "name": "Jannuk Resort", "nameTh": null, "nameEn": "Jannuk Resort", "cat": ["hotel"], "province": "cr", "slug": "jannuk-resort-4815821222", "rank": 1}}, {"type": "Feature", "geometry": {"type": "Point", "coordinates": [99.83211, 19.90319]}, "properties": {"id": "cr-osm-way-484139933", "name": "Jansom House", "nameTh": null, "nameEn": "Jansom House", "cat": ["hotel"], "province": "cr", "slug": "jansom-house-484139933", "rank": 2}}, {"type": "Feature", "geometry": {"type": "Point", "coordinates": [99.83425, 19.91401]}, "properties": {"id": "cr-osm-node-1188707070", "name": "Jitaree Guest House", "nameTh": null, "nameEn": "Jitaree Guest House", "cat": ["hotel"], "province": "cr", "slug": "jitaree-guest-house-1188707070", "rank": 1}}, {"type": "Feature", "geometry": {"type": "Point", "coordinates": [99.84694, 19.96842]}, "properties": {"id": "cr-osm-node-5422202924", "name": "Kanapee Hotel", "nameTh": null, "nameEn": "Kanapee Hotel", "cat": ["hotel"], "province": "cr", "slug": "kanapee-hotel-5422202924", "rank": 1}}, {"type": "Feature", "geometry": {"type": "Point", "coordinates": [99.84071, 19.91535]}, "properties": {"id": "cr-osm-node-10245740318", "name": "Kenta House", "nameTh": null, "nameEn": "Kenta House", "cat": ["hotel"], "province": "cr", "slug": "kenta-house-10245740318", "rank": 1}}, {"type": "Feature", "geometry": {"type": "Point", "coordinates": [100.07696, 20.28334]}, "properties": {"id": "cr-osm-node-1188707454", "name": "Khiengdoi Bungalow", "nameTh": null, "nameEn": "Khiengdoi Bungalow", "cat": ["hotel"], "province": "cr", "slug": "khiengdoi-bungalow-1188707454", "rank": 1}}, {"type": "Feature", "geometry": {"type": "Point", "coordinates": [99.84572, 19.90848]}, "properties": {"id": "cr-osm-node-4650542891", "name": "Koon Cha Learn Hostel", "nameTh": null, "nameEn": "Koon Cha Learn Hostel", "cat": ["hotel"], "province": "cr", "slug": "koon-cha-learn-hostel-4650542891", "rank": 2}}, {"type": "Feature", "geometry": {"type": "Point", "coordinates": [99.82636, 19.89525]}, "properties": {"id": "cr-osm-way-391132812", "name": "La Luna", "nameTh": null, "nameEn": "La Luna", "cat": ["hotel"], "province": "cr", "slug": "la-luna-391132812", "rank": 4}}, {"type": "Feature", "geometry": {"type": "Point", "coordinates": [99.85427, 19.92267]}, "properties": {"id": "cr-osm-way-751053203", "name": "Le Méridien Chiang Rai Resort", "nameTh": "เลอเมอริเดียน เชียงราย", "nameEn": "Le Méridien Chiang Rai Resort", "cat": ["hotel"], "province": "cr", "slug": "le-m-ridien-chiang-rai-resort-751053203", "rank": 3}}, {"type": "Feature", "geometry": {"type": "Point", "coordinates": [99.8349, 19.90633]}, "properties": {"id": "cr-osm-way-1105521795", "name": "Le Patta", "nameTh": null, "nameEn": "Le Patta", "cat": ["hotel"], "province": "cr", "slug": "le-patta-1105521795", "rank": 2}}, {"type": "Feature", "geometry": {"type": "Point", "coordinates": [100.08789, 20.32288]}, "properties": {"id": "cr-osm-node-4748048121", "name": "Lemon house", "nameTh": null, "nameEn": "Lemon house", "cat": ["hotel"], "province": "cr", "slug": "lemon-house-4748048121", "rank": 1}}, {"type": "Feature", "geometry": {"type": "Point", "coordinates": [100.08848, 20.28808]}, "properties": {"id": "cr-osm-node-4910860121", "name": "Life & Live", "nameTh": null, "nameEn": "Life & Live", "cat": ["hotel"], "province": "cr", "slug": "life-live-4910860121", "rank": 1}}, {"type": "Feature", "geometry": {"type": "Point", "coordinates": [99.45757, 19.05145]}, "properties": {"id": "cr-osm-node-4787554123", "name": "Limeleaf Eco-lodge", "nameTh": null, "nameEn": "Limeleaf Eco-lodge", "cat": ["hotel"], "province": "cr", "slug": "limeleaf-eco-lodge-4787554123", "rank": 3}}, {"type": "Feature", "geometry": {"type": "Point", "coordinates": [99.62545, 20.16564]}, "properties": {"id": "cr-osm-node-1014203038", "name": "Little Home", "nameTh": null, "nameEn": "Little Home", "cat": ["hotel"], "province": "cr", "slug": "little-home-1014203038", "rank": 2}}, {"type": "Feature", "geometry": {"type": "Point", "coordinates": [99.51707, 19.19881]}, "properties": {"id": "cr-osm-node-4566656489", "name": "Long Kao Tawa", "nameTh": null, "nameEn": "Long Kao Tawa", "cat": ["hotel"], "province": "cr", "slug": "long-kao-tawa-4566656489", "rank": 1}}, {"type": "Feature", "geometry": {"type": "Point", "coordinates": [99.83597, 19.90503]}, "properties": {"id": "cr-osm-node-5340195121", "name": "Lub Moh", "nameTh": null, "nameEn": "Lub Moh", "cat": ["hotel"], "province": "cr", "slug": "lub-moh-5340195121", "rank": 1}}, {"type": "Feature", "geometry": {"type": "Point", "coordinates": [99.88153, 20.44443]}, "properties": {"id": "cr-osm-node-7153713785", "name": "Mae Sai Complex Hôtel", "nameTh": null, "nameEn": "Mae Sai Complex Hôtel", "cat": ["hotel"], "province": "cr", "slug": "mae-sai-complex-h-tel-7153713785", "rank": 1}}, {"type": "Feature", "geometry": {"type": "Point", "coordinates": [99.88114, 20.32437]}, "properties": {"id": "cr-osm-way-449294588", "name": "Maesai Orchid Hotel", "nameTh": null, "nameEn": "Maesai Orchid Hotel", "cat": ["hotel"], "province": "cr", "slug": "maesai-orchid-hotel-449294588", "rank": 1}}, {"type": "Feature", "geometry": {"type": "Point", "coordinates": [99.64354, 20.1749]}, "properties": {"id": "cr-osm-node-4493520491", "name": "Maesalong Mountain Home", "nameTh": null, "nameEn": "Maesalong Mountain Home", "cat": ["hotel"], "province": "cr", "slug": "maesalong-mountain-home-4493520491", "rank": 1}}, {"type": "Feature", "geometry": {"type": "Point", "coordinates": [99.87404, 20.44352]}, "properties": {"id": "cr-osm-node-6334532587", "name": "Maisai River Guesthouse", "nameTh": null, "nameEn": "Maisai River Guesthouse", "cat": ["hotel"], "province": "cr", "slug": "maisai-river-guesthouse-6334532587", "rank": 2}}, {"type": "Feature", "geometry": {"type": "Point", "coordinates": [99.87122, 20.02062]}, "properties": {"id": "cr-osm-node-4689420089", "name": "MeeDhouse", "nameTh": null, "nameEn": "MeeDhouse", "cat": ["hotel"], "province": "cr", "slug": "meedhouse-4689420089", "rank": 3}}, {"type": "Feature", "geometry": {"type": "Point", "coordinates": [99.6298, 20.16483]}, "properties": {"id": "cr-osm-node-3292273429", "name": "Mei Sin Hotel", "nameTh": null, "nameEn": "Mei Sin Hotel", "cat": ["hotel"], "province": "cr", "slug": "mei-sin-hotel-3292273429", "rank": 2}}, {"type": "Feature", "geometry": {"type": "Point", "coordinates": [99.83713, 19.9105]}, "properties": {"id": "cr-osm-way-960019823", "name": "Mora Boutique Hotel", "nameTh": null, "nameEn": "Mora Boutique Hotel", "cat": ["hotel"], "province": "cr", "slug": "mora-boutique-hotel-960019823", "rank": 2}}, {"type": "Feature", "geometry": {"type": "Point", "coordinates": [99.62765, 20.1654]}, "properties": {"id": "cr-osm-node-5393422822", "name": "Mr. Ho", "nameTh": null, "nameEn": "Mr. Ho", "cat": ["hotel"], "province": "cr", "slug": "mr-ho-5393422822", "rank": 1}}, {"type": "Feature", "geometry": {"type": "Point", "coordinates": [99.63045, 20.16531]}, "properties": {"id": "cr-osm-node-3291978474", "name": "My Place", "nameTh": null, "nameEn": "My Place", "cat": ["hotel"], "province": "cr", "slug": "my-place-3291978474", "rank": 2}}, {"type": "Feature", "geometry": {"type": "Point", "coordinates": [99.83551, 19.91045]}, "properties": {"id": "cr-osm-node-11736625016", "name": "Nak Nakara", "nameTh": null, "nameEn": "Nak Nakara", "cat": ["hotel"], "province": "cr", "slug": "nak-nakara-11736625016", "rank": 1}}, {"type": "Feature", "geometry": {"type": "Point", "coordinates": [100.40584, 20.26285]}, "properties": {"id": "cr-osm-node-1517583709", "name": "Namkhong 2 Resort & Guesthouse", "nameTh": null, "nameEn": "Namkhong 2 Resort & Guesthouse", "cat": ["hotel"], "province": "cr", "slug": "namkhong-2-resort-guesthouse-1517583709", "rank": 2}}, {"type": "Feature", "geometry": {"type": "Point", "coordinates": [99.81766, 19.93583]}, "properties": {"id": "cr-osm-node-9472984448", "name": "Nanadoo", "nameTh": null, "nameEn": "Nanadoo", "cat": ["hotel"], "province": "cr", "slug": "nanadoo-9472984448", "rank": 1}}, {"type": "Feature", "geometry": {"type": "Point", "coordinates": [99.77296, 20.1132]}, "properties": {"id": "cr-osm-node-5422227022", "name": "Natipon Resort", "nameTh": null, "nameEn": "Natipon Resort", "cat": ["hotel"], "province": "cr", "slug": "natipon-resort-5422227022", "rank": 1}}, {"type": "Feature", "geometry": {"type": "Point", "coordinates": [99.86623, 19.99391]}, "properties": {"id": "cr-osm-node-10245740316", "name": "Open Kitchen", "nameTh": null, "nameEn": "Open Kitchen", "cat": ["hotel"], "province": "cr", "slug": "open-kitchen-10245740316", "rank": 1}}, {"type": "Feature", "geometry": {"type": "Point", "coordinates": [99.63204, 20.1651]}, "properties": {"id": "cr-osm-node-4206938890", "name": "Osman House", "nameTh": null, "nameEn": "Osman House", "cat": ["hotel"], "province": "cr", "slug": "osman-house-4206938890", "rank": 2}}, {"type": "Feature", "geometry": {"type": "Point", "coordinates": [100.01773, 20.08126]}, "properties": {"id": "cr-osm-node-11556317718", "name": "Paa & Michaels Resort", "nameTh": null, "nameEn": "Paa & Michaels Resort", "cat": ["hotel"], "province": "cr", "slug": "paa-michaels-resort-11556317718", "rank": 2}}, {"type": "Feature", "geometry": {"type": "Point", "coordinates": [99.81701, 19.89258]}, "properties": {"id": "cr-osm-node-6387160135", "name": "PaiLin House Chiang Rai", "nameTh": null, "nameEn": "PaiLin House Chiang Rai", "cat": ["hotel"], "province": "cr", "slug": "pailin-house-chiang-rai-6387160135", "rank": 1}}, {"type": "Feature", "geometry": {"type": "Point", "coordinates": [99.76567, 19.8203]}, "properties": {"id": "cr-osm-node-4751436686", "name": "Pak Ping Ing Jai", "nameTh": null, "nameEn": "Pak Ping Ing Jai", "cat": ["hotel"], "province": "cr", "slug": "pak-ping-ing-jai-4751436686", "rank": 1}}, {"type": "Feature", "geometry": {"type": "Point", "coordinates": [99.81961, 19.88938]}, "properties": {"id": "cr-osm-node-4096962288", "name": "Pan Kled Villa Eco Hill Resort", "nameTh": null, "nameEn": "Pan Kled Villa Eco Hill Resort", "cat": ["hotel"], "province": "cr", "slug": "pan-kled-villa-eco-hill-resort-4096962288", "rank": 1}}, {"type": "Feature", "geometry": {"type": "Point", "coordinates": [99.5024, 19.82116]}, "properties": {"id": "cr-osm-node-5225920921", "name": "Pimandin Homestay", "nameTh": null, "nameEn": "Pimandin Homestay", "cat": ["hotel"], "province": "cr", "slug": "pimandin-homestay-5225920921", "rank": 3}}, {"type": "Feature", "geometry": {"type": "Point", "coordinates": [99.82495, 19.89378]}, "properties": {"id": "cr-osm-way-638746806", "name": "Pimann Inn", "nameTh": null, "nameEn": "Pimann Inn", "cat": ["hotel"], "province": "cr", "slug": "pimann-inn-638746806", "rank": 1}}, {"type": "Feature", "geometry": {"type": "Point", "coordinates": [99.83887, 19.88711]}, "properties": {"id": "cr-osm-node-10245740612", "name": "Pornkasem House", "nameTh": null, "nameEn": "Pornkasem House", "cat": ["hotel"], "province": "cr", "slug": "pornkasem-house-10245740612", "rank": 1}}, {"type": "Feature", "geometry": {"type": "Point", "coordinates": [100.44325, 19.84537]}, "properties": {"id": "cr-osm-node-6074976886", "name": "Puchi 99", "nameTh": null, "nameEn": "Puchi 99", "cat": ["hotel"], "province": "cr", "slug": "puchi-99-6074976886", "rank": 1}}, {"type": "Feature", "geometry": {"type": "Point", "coordinates": [100.1571, 19.65721]}, "properties": {"id": "cr-osm-node-6282957185", "name": "Rai Ruen Rom", "nameTh": null, "nameEn": "Rai Ruen Rom", "cat": ["hotel"], "province": "cr", "slug": "rai-ruen-rom-6282957185", "rank": 3}}, {"type": "Feature", "geometry": {"type": "Point", "coordinates": [99.7623, 19.52294]}, "properties": {"id": "cr-osm-way-402066155", "name": "Rimnaam Resort Hotel", "nameTh": null, "nameEn": "Rimnaam Resort Hotel", "cat": ["hotel"], "province": "cr", "slug": "rimnaam-resort-hotel-402066155", "rank": 2}}, {"type": "Feature", "geometry": {"type": "Point", "coordinates": [100.08885, 20.29059]}, "properties": {"id": "cr-osm-way-1114778424", "name": "Sabai@Chiang Saen", "nameTh": "สบาย@เชียงแสน", "nameEn": "Sabai@Chiang Saen", "cat": ["hotel"], "province": "cr", "slug": "sabai-chiang-saen-1114778424", "rank": 2}}, {"type": "Feature", "geometry": {"type": "Point", "coordinates": [99.82236, 19.90127]}, "properties": {"id": "cr-osm-node-12420693201", "name": "Sabun-Nga Hotel", "nameTh": null, "nameEn": "Sabun-Nga Hotel", "cat": ["hotel"], "province": "cr", "slug": "sabun-nga-hotel-12420693201", "rank": 2}}, {"type": "Feature", "geometry": {"type": "Point", "coordinates": [99.8171, 19.89486]}, "properties": {"id": "cr-osm-node-3339347495", "name": "Saikaew Resort", "nameTh": null, "nameEn": "Saikaew Resort", "cat": ["hotel"], "province": "cr", "slug": "saikaew-resort-3339347495", "rank": 1}}, {"type": "Feature", "geometry": {"type": "Point", "coordinates": [99.88394, 20.41231]}, "properties": {"id": "cr-osm-node-3143853229", "name": "Silamanee Resort & Spa", "nameTh": null, "nameEn": "Silamanee Resort & Spa", "cat": ["hotel"], "province": "cr", "slug": "silamanee-resort-spa-3143853229", "rank": 1}}, {"type": "Feature", "geometry": {"type": "Point", "coordinates": [99.83539, 19.94021]}, "properties": {"id": "cr-osm-node-13114007101", "name": "Sleep and Rest Makao", "nameTh": null, "nameEn": "Sleep and Rest Makao", "cat": ["hotel"], "province": "cr", "slug": "sleep-and-rest-makao-13114007101", "rank": 2}}, {"type": "Feature", "geometry": {"type": "Point", "coordinates": [99.82986, 19.90409]}, "properties": {"id": "cr-osm-way-751059223", "name": "Sook Jai Guesthouse", "nameTh": null, "nameEn": "Sook Jai Guesthouse", "cat": ["hotel"], "province": "cr", "slug": "sook-jai-guesthouse-751059223", "rank": 1}}, {"type": "Feature", "geometry": {"type": "Point", "coordinates": [99.82539, 19.90195]}, "properties": {"id": "cr-osm-node-6282254486", "name": "Stay In Chiangrai", "nameTh": null, "nameEn": "Stay In Chiangrai", "cat": ["hotel"], "province": "cr", "slug": "stay-in-chiangrai-6282254486", "rank": 1}}, {"type": "Feature", "geometry": {"type": "Point", "coordinates": [99.85474, 20.15591]}, "properties": {"id": "cr-osm-node-6124564685", "name": "Suansiri Resort", "nameTh": null, "nameEn": "Suansiri Resort", "cat": ["hotel"], "province": "cr", "slug": "suansiri-resort-6124564685", "rank": 3}}, {"type": "Feature", "geometry": {"type": "Point", "coordinates": [99.83274, 19.90601]}, "properties": {"id": "cr-osm-node-10245740613", "name": "Suree House", "nameTh": null, "nameEn": "Suree House", "cat": ["hotel"], "province": "cr", "slug": "suree-house-10245740613", "rank": 1}}, {"type": "Feature", "geometry": {"type": "Point", "coordinates": [100.0878, 20.27676]}, "properties": {"id": "cr-osm-node-4438620290", "name": "Tan Rak Home", "nameTh": null, "nameEn": "Tan Rak Home", "cat": ["hotel"], "province": "cr", "slug": "tan-rak-home-4438620290", "rank": 1}}, {"type": "Feature", "geometry": {"type": "Point", "coordinates": [99.83342, 19.90669]}, "properties": {"id": "cr-osm-way-487636026", "name": "Thailand Tour Hotel", "nameTh": null, "nameEn": "Thailand Tour Hotel", "cat": ["hotel"], "province": "cr", "slug": "thailand-tour-hotel-487636026", "rank": 1}}, {"type": "Feature", "geometry": {"type": "Point", "coordinates": [100.19878, 19.69291]}, "properties": {"id": "cr-osm-node-4975297321", "name": "Thararin Hotel", "nameTh": "โรงแรมธาราริน", "nameEn": "Thararin Hotel", "cat": ["hotel"], "province": "cr", "slug": "thararin-hotel-4975297321", "rank": 3}}, {"type": "Feature", "geometry": {"type": "Point", "coordinates": [99.80764, 19.8489]}, "properties": {"id": "cr-osm-node-4140359889", "name": "The Garage", "nameTh": null, "nameEn": "The garage", "cat": ["hotel"], "province": "cr", "slug": "the-garage-4140359889", "rank": 2}}, {"type": "Feature", "geometry": {"type": "Point", "coordinates": [100.08056, 20.35485]}, "properties": {"id": "cr-osm-node-361390988", "name": "The Imperial Golden Triangle Resort", "nameTh": null, "nameEn": "The Imperial Golden Triangle Resort", "cat": ["hotel"], "province": "cr", "slug": "the-imperial-golden-triangle-resort-361390988", "rank": 3}}, {"type": "Feature", "geometry": {"type": "Point", "coordinates": [99.86622, 19.99382]}, "properties": {"id": "cr-osm-node-10245740317", "name": "The Library", "nameTh": null, "nameEn": "The Library", "cat": ["hotel"], "province": "cr", "slug": "the-library-10245740317", "rank": 1}}, {"type": "Feature", "geometry": {"type": "Point", "coordinates": [99.83542, 19.90544]}, "properties": {"id": "cr-osm-node-4224625389", "name": "The North Hotel", "nameTh": null, "nameEn": "The North Hotel", "cat": ["hotel"], "province": "cr", "slug": "the-north-hotel-4224625389", "rank": 1}}, {"type": "Feature", "geometry": {"type": "Point", "coordinates": [99.82426, 19.87504]}, "properties": {"id": "cr-osm-node-10245740712", "name": "The Target Residence", "nameTh": null, "nameEn": "The Target Residence", "cat": ["hotel"], "province": "cr", "slug": "the-target-residence-10245740712", "rank": 1}}, {"type": "Feature", "geometry": {"type": "Point", "coordinates": [99.82708, 19.89974]}, "properties": {"id": "cr-osm-node-10245740319", "name": "The Unique Resident Chiang Rai", "nameTh": null, "nameEn": "The Unique Resident Chiang Rai", "cat": ["hotel"], "province": "cr", "slug": "the-unique-resident-chiang-rai-10245740319", "rank": 1}}, {"type": "Feature", "geometry": {"type": "Point", "coordinates": [99.83116, 19.90665]}, "properties": {"id": "cr-osm-node-4561324789", "name": "Ti Amo Hostel", "nameTh": null, "nameEn": "Ti Amo Hostel", "cat": ["hotel"], "province": "cr", "slug": "ti-amo-hostel-4561324789", "rank": 2}}, {"type": "Feature", "geometry": {"type": "Point", "coordinates": [99.83149, 19.90256]}, "properties": {"id": "cr-osm-node-4528072891", "name": "Tourist Inn", "nameTh": "Tourist Inn", "nameEn": null, "cat": ["hotel"], "province": "cr", "slug": "tourist-inn-4528072891", "rank": 4}}, {"type": "Feature", "geometry": {"type": "Point", "coordinates": [99.84036, 19.89932]}, "properties": {"id": "cr-osm-node-6057439286", "name": "Winter House (true !)", "nameTh": null, "nameEn": "Winter House (true !)", "cat": ["hotel"], "province": "cr", "slug": "winter-house-true-6057439286", "rank": 2}}, {"type": "Feature", "geometry": {"type": "Point", "coordinates": [100.08883, 20.32561]}, "properties": {"id": "cr-osm-node-4483208094", "name": "World house family", "nameTh": null, "nameEn": "World house family", "cat": ["hotel"], "province": "cr", "slug": "world-house-family-4483208094", "rank": 1}}, {"type": "Feature", "geometry": {"type": "Point", "coordinates": [99.83744, 19.90978]}, "properties": {"id": "cr-osm-way-711057892", "name": "Your Home", "nameTh": null, "nameEn": "Your Home", "cat": ["hotel"], "province": "cr", "slug": "your-home-711057892", "rank": 2}}, {"type": "Feature", "geometry": {"type": "Point", "coordinates": [99.80854, 20.01676]}, "properties": {"id": "cr-osm-node-5588708823", "name": "bura resort", "nameTh": null, "nameEn": "bura resort", "cat": ["hotel"], "province": "cr", "slug": "bura-resort-5588708823", "rank": 1}}, {"type": "Feature", "geometry": {"type": "Point", "coordinates": [99.82747, 19.91233]}, "properties": {"id": "cr-osm-node-4349464891", "name": "chat house", "nameTh": null, "nameEn": "chat house", "cat": ["hotel"], "province": "cr", "slug": "chat-house-4349464891", "rank": 2}}, {"type": "Feature", "geometry": {"type": "Point", "coordinates": [99.85122, 19.89308]}, "properties": {"id": "cr-osm-way-1376968719", "name": "คงการ์เด้น วิว รีสอร์ท", "nameTh": "คงการ์เด้น วิว รีสอร์ท", "nameEn": "Kong Garden View Resort Chiang Rai", "cat": ["hotel"], "province": "cr", "slug": "kong-garden-view-resort-chiang-rai-1376968719", "rank": 4}}, {"type": "Feature", "geometry": {"type": "Point", "coordinates": [99.84586, 19.90847]}, "properties": {"id": "cr-osm-node-4663103391", "name": "คูณเจริญ", "nameTh": "คูณเจริญ", "nameEn": "KoonChaLearn Backpackers", "cat": ["hotel"], "province": "cr", "slug": "koonchalearn-backpackers-4663103391", "rank": 4}}, {"type": "Feature", "geometry": {"type": "Point", "coordinates": [99.83136, 19.89817]}, "properties": {"id": "cr-osm-way-1074237705", "name": "นายญ่า", "nameTh": "นายญ่า", "nameEn": "Nai Ya", "cat": ["hotel"], "province": "cr", "slug": "nai-ya-1074237705", "rank": 4}}, {"type": "Feature", "geometry": {"type": "Point", "coordinates": [99.8317, 19.90254]}, "properties": {"id": "cr-osm-way-1014611409", "name": "บ้านจารุ", "nameTh": "บ้านจารุ", "nameEn": "Baan Jaru", "cat": ["hotel"], "province": "cr", "slug": "baan-jaru-1014611409", "rank": 3}}, {"type": "Feature", "geometry": {"type": "Point", "coordinates": [99.82673, 19.90742]}, "properties": {"id": "cr-osm-node-4356488197", "name": "บ้านนอนเพลิน", "nameTh": "บ้านนอนเพลิน", "nameEn": "Baan Norn Plearn", "cat": ["hotel"], "province": "cr", "slug": "baan-norn-plearn-4356488197", "rank": 4}}, {"type": "Feature", "geometry": {"type": "Point", "coordinates": [99.8363, 19.90278]}, "properties": {"id": "cr-osm-way-541553985", "name": "บ้านรินลดา", "nameTh": "บ้านรินลดา", "nameEn": "Rinlada House", "cat": ["hotel"], "province": "cr", "slug": "rinlada-house-541553985", "rank": 2}}, {"type": "Feature", "geometry": {"type": "Point", "coordinates": [100.08762, 20.28186]}, "properties": {"id": "cr-osm-way-542525064", "name": "พักพิงริมโขง", "nameTh": "พักพิงริมโขง", "nameEn": "Pak Ping Rim Khong Bed & Breakfast", "cat": ["hotel"], "province": "cr", "slug": "pak-ping-rim-khong-bed-breakfast-542525064", "rank": 3}}, {"type": "Feature", "geometry": {"type": "Point", "coordinates": [99.651, 20.16085]}, "properties": {"id": "cr-osm-node-3292273432", "name": "ภูเมฆตะวัน รีสอร์ท", "nameTh": "ภูเมฆตะวัน รีสอร์ท", "nameEn": "Phumaketawan Resort", "cat": ["hotel"], "province": "cr", "slug": "phumaketawan-resort-3292273432", "rank": 3}}, {"type": "Feature", "geometry": {"type": "Point", "coordinates": [99.81571, 19.84555]}, "properties": {"id": "cr-osm-node-4439000989", "name": "สบายดี", "nameTh": "สบายดี", "nameEn": "Sabuydee Place Chiang Rai", "cat": ["hotel"], "province": "cr", "slug": "sabuydee-place-chiang-rai-4439000989", "rank": 2}}, {"type": "Feature", "geometry": {"type": "Point", "coordinates": [99.85093, 19.91962]}, "properties": {"id": "cr-osm-node-2140748944", "name": "อัมรินทร์ รีสอร์ท", "nameTh": "อัมรินทร์ รีสอร์ท", "nameEn": "Amarin Resort", "cat": ["hotel"], "province": "cr", "slug": "amarin-resort-2140748944", "rank": 3}}, {"type": "Feature", "geometry": {"type": "Point", "coordinates": [99.83117, 19.90668]}, "properties": {"id": "cr-osm-node-4563720690", "name": "เชียงรายเซ็นทรัลเกสท์เฮ้าส์", "nameTh": "เชียงรายเซ็นทรัลเกสท์เฮ้าส์", "nameEn": "Chiangrai Central Guesthouse", "cat": ["hotel"], "province": "cr", "slug": "chiangrai-central-guesthouse-4563720690", "rank": 3}}, {"type": "Feature", "geometry": {"type": "Point", "coordinates": [99.62554, 20.16573]}, "properties": {"id": "cr-osm-node-1312974092", "name": "โรงแรม ซินแซ", "nameTh": "โรงแรม ซินแซ", "nameEn": "Shin Sane Guesthouse & Bungalow", "cat": ["hotel"], "province": "cr", "slug": "shin-sane-guesthouse-bungalow-1312974092", "rank": 3}}, {"type": "Feature", "geometry": {"type": "Point", "coordinates": [99.82562, 19.90731]}, "properties": {"id": "cr-osm-way-384839061", "name": "โรงแรมบีทู เชียงราย", "nameTh": "โรงแรมบีทู เชียงราย", "nameEn": "B2 Chinga Rai Hotel", "cat": ["hotel"], "province": "cr", "slug": "b2-chinga-rai-hotel-384839061", "rank": 3}}, {"type": "Feature", "geometry": {"type": "Point", "coordinates": [100.408, 20.26199]}, "properties": {"id": "cr-osm-way-547058929", "name": "โรงแรมบ้านริมน้ำ", "nameTh": "โรงแรมบ้านริมน้ำ", "nameEn": "Rimnam Guest House", "cat": ["hotel"], "province": "cr", "slug": "rimnam-guest-house-547058929", "rank": 2}}, {"type": "Feature", "geometry": {"type": "Point", "coordinates": [100.4082, 20.26078]}, "properties": {"id": "cr-osm-way-543650860", "name": "โรงแรมริมน้ำเฮ้าล์", "nameTh": "โรงแรมริมน้ำเฮ้าล์", "nameEn": "Rimnam House Hotel", "cat": ["hotel"], "province": "cr", "slug": "rimnam-house-hotel-543650860", "rank": 3}}, {"type": "Feature", "geometry": {"type": "Point", "coordinates": [99.83112, 19.90823]}, "properties": {"id": "cr-osm-way-330740050", "name": "โรงแรมเชียงราย", "nameTh": "โรงแรมเชียงราย", "nameEn": "Chiang Rai Hotel", "cat": ["hotel"], "province": "cr", "slug": "chiang-rai-hotel-330740050", "rank": 3}}, {"type": "Feature", "geometry": {"type": "Point", "coordinates": [99.8523, 19.92264]}, "properties": {"id": "cr-osm-way-1127661775", "name": "โรงแรมเดอะแกรนด์ดิโอส", "nameTh": "โรงแรมเดอะแกรนด์ดิโอส", "nameEn": "The Grandiose Hotel Chiang Rai", "cat": ["hotel"], "province": "cr", "slug": "the-grandiose-hotel-chiang-rai-1127661775", "rank": 4}}, {"type": "Feature", "geometry": {"type": "Point", "coordinates": [99.83407, 19.90384]}, "properties": {"id": "cr-osm-way-623835953", "name": "โรงแรมเวียงอินทร์", "nameTh": "โรงแรมเวียงอินทร์", "nameEn": "Wiang Inn Hotel", "cat": ["hotel"], "province": "cr", "slug": "wiang-inn-hotel-623835953", "rank": 4}}, {"type": "Feature", "geometry": {"type": "Point", "coordinates": [99.82703, 19.90294]}, "properties": {"id": "cr-osm-way-992102964", "name": "วิทยาลัยเทคนิคเชียงราย", "nameTh": "วิทยาลัยเทคนิคเชียงราย", "nameEn": "Chiang Rai Technical College", "cat": ["school"], "province": "cr", "slug": "chiang-rai-technical-college-992102964", "rank": 4}}, {"type": "Feature", "geometry": {"type": "Point", "coordinates": [99.84494, 19.98282]}, "properties": {"id": "cr-osm-way-169801125", "name": "หอประชุมใหญ่", "nameTh": "หอประชุมใหญ่", "nameEn": null, "cat": ["school"], "province": "cr", "slug": "169801125", "rank": 1}}, {"type": "Feature", "geometry": {"type": "Point", "coordinates": [99.82672, 19.90529]}, "properties": {"id": "cr-osm-way-623837097", "name": "โรงเรียนสามัคคีวิทยาคม", "nameTh": "โรงเรียนสามัคคีวิทยาคม", "nameEn": "Samakkhi Witthayakhom School", "cat": ["school"], "province": "cr", "slug": "samakkhi-witthayakhom-school-623837097", "rank": 4}}, {"type": "Feature", "geometry": {"type": "Point", "coordinates": [100.09404, 19.70222]}, "properties": {"id": "cr-osm-node-4404359891", "name": "ร้านอวบมือถือ", "nameTh": "ร้านอวบมือถือ", "nameEn": null, "cat": ["repair"], "province": "cr", "slug": "4404359891", "rank": 3}}, {"type": "Feature", "geometry": {"type": "Point", "coordinates": [99.83125, 19.90612]}, "properties": {"id": "cr-osm-node-4736153522", "name": "Lemme 184 Barbershop Gentlemen only", "nameTh": null, "nameEn": "Lemme 184 Barbershop Gentlemen only", "cat": ["beauty"], "province": "cr", "slug": "lemme-184-barbershop-gentlemen-only-4736153522", "rank": 2}}, {"type": "Feature", "geometry": {"type": "Point", "coordinates": [99.82072, 19.90106]}, "properties": {"id": "cr-osm-node-6635204799", "name": "Man Smiles Cut barbershop", "nameTh": null, "nameEn": "Man Smiles Cut barbershop", "cat": ["beauty"], "province": "cr", "slug": "man-smiles-cut-barbershop-6635204799", "rank": 1}}, {"type": "Feature", "geometry": {"type": "Point", "coordinates": [99.949, 19.82876]}, "properties": {"id": "cr-osm-node-7931699285", "name": "Museflower Retreat and Spa", "nameTh": null, "nameEn": "Museflower Retreat and Spa", "cat": ["beauty", "sport"], "province": "cr", "slug": "museflower-retreat-and-spa-7931699285", "rank": 3}}, {"type": "Feature", "geometry": {"type": "Point", "coordinates": [99.81631, 19.9042]}, "properties": {"id": "cr-osm-node-13957066301", "name": "Chiang Rai PET Hospital", "nameTh": null, "nameEn": "Chiang Rai PET Hospital", "cat": ["pets"], "province": "cr", "slug": "chiang-rai-pet-hospital-13957066301", "rank": 3}}, {"type": "Feature", "geometry": {"type": "Point", "coordinates": [99.86102, 19.99124]}, "properties": {"id": "cr-osm-way-393447653", "name": "บ้านดำ", "nameTh": "บ้านดำ", "nameEn": "Baan Dam Museum", "cat": ["museums-galleries"], "province": "cr", "slug": "baan-dam-museum-393447653", "rank": 4}}, {"type": "Feature", "geometry": {"type": "Point", "coordinates": [99.83573, 19.90916]}, "properties": {"id": "cr-osm-way-547713585", "name": "พิพิธภัณฑ์ชาวเขา", "nameTh": "พิพิธภัณฑ์ชาวเขา", "nameEn": "Hilltribe Museum", "cat": ["museums-galleries"], "province": "cr", "slug": "hilltribe-museum-547713585", "rank": 5}}]}