{"type": "FeatureCollection", "features": [{"type": "Feature", "geometry": {"type": "Point", "coordinates": [100.08349, 20.34699]}, "properties": {"id": "cr-osm-node-13356954201", "name": "Chewittitkong", "nameTh": null, "nameEn": "Chewittitkong", "cat": ["food"], "province": "cr", "slug": "chewittitkong-13356954201", "rank": 2}}, {"type": "Feature", "geometry": {"type": "Point", "coordinates": [100.03986, 19.99895]}, "properties": {"id": "cr-osm-node-4994531221", "name": "Chill Coffee & Bakery", "nameTh": null, "nameEn": "Chill Coffee & Bakery", "cat": ["food"], "province": "cr", "slug": "chill-coffee-bakery-4994531221", "rank": 1}}, {"type": "Feature", "geometry": {"type": "Point", "coordinates": [99.81683, 20.20012]}, "properties": {"id": "cr-osm-node-3968871249", "name": "Choui Fong", "nameTh": null, "nameEn": "Choui Fong", "cat": ["food"], "province": "cr", "slug": "choui-fong-3968871249", "rank": 4}}, {"type": "Feature", "geometry": {"type": "Point", "coordinates": [99.84959, 19.96914]}, "properties": {"id": "cr-osm-way-1197823633", "name": "Heaven Café : Marble", "nameTh": null, "nameEn": "Heaven Café : Marble", "cat": ["food"], "province": "cr", "slug": "heaven-caf-marble-1197823633", "rank": 3}}, {"type": "Feature", "geometry": {"type": "Point", "coordinates": [99.86027, 19.99235]}, "properties": {"id": "cr-osm-node-12860331935", "name": "Jack The Reaper", "nameTh": null, "nameEn": "Jack The Reaper", "cat": ["food"], "province": "cr", "slug": "jack-the-reaper-12860331935", "rank": 3}}, {"type": "Feature", "geometry": {"type": "Point", "coordinates": [99.83085, 19.90734]}, "properties": {"id": "cr-osm-way-959733189", "name": "Knifeshift", "nameTh": null, "nameEn": "Knifeshift", "cat": ["food"], "province": "cr", "slug": "knifeshift-959733189", "rank": 1}}, {"type": "Feature", "geometry": {"type": "Point", "coordinates": [99.83565, 19.94032]}, "properties": {"id": "cr-osm-node-13114007401", "name": "Makao Coffee Retro", "nameTh": "ม่ะเก่า Coffee & Retro", "nameEn": "Makao Coffee Retro", "cat": ["food"], "province": "cr", "slug": "makao-coffee-retro-13114007401", "rank": 4}}, {"type": "Feature", "geometry": {"type": "Point", "coordinates": [99.46381, 19.11489]}, "properties": {"id": "cr-osm-node-4828002221", "name": "Sabuy coffee", "nameTh": null, "nameEn": "Sabuy coffee", "cat": ["food"], "province": "cr", "slug": "sabuy-coffee-4828002221", "rank": 1}}, {"type": "Feature", "geometry": {"type": "Point", "coordinates": [99.8333, 19.90574]}, "properties": {"id": "cr-osm-node-9333272717", "name": "Soyi Pangkhon Coffee House", "nameTh": null, "nameEn": "Soyi Pangkhon Coffee House", "cat": ["food"], "province": "cr", "slug": "soyi-pangkhon-coffee-house-9333272717", "rank": 2}}, {"type": "Feature", "geometry": {"type": "Point", "coordinates": [99.62769, 19.74657]}, "properties": {"id": "cr-osm-way-758290635", "name": "Sparrow & Co.", "nameTh": null, "nameEn": "Sparrow & Co.", "cat": ["food"], "province": "cr", "slug": "sparrow-co-758290635", "rank": 2}}, {"type": "Feature", "geometry": {"type": "Point", "coordinates": [99.83199, 19.91869]}, "properties": {"id": "cr-osm-node-10973566605", "name": "Triple C", "nameTh": null, "nameEn": "Triple C", "cat": ["food"], "province": "cr", "slug": "triple-c-10973566605", "rank": 2}}, {"type": "Feature", "geometry": {"type": "Point", "coordinates": [99.62612, 20.16548]}, "properties": {"id": "cr-osm-node-4520375490", "name": "Xin Zhi Dai Bakery", "nameTh": null, "nameEn": "Xin Zhi Dai Bakery", "cat": ["food"], "province": "cr", "slug": "xin-zhi-dai-bakery-4520375490", "rank": 2}}, {"type": "Feature", "geometry": {"type": "Point", "coordinates": [99.83359, 19.9092]}, "properties": {"id": "cr-osm-way-960070519", "name": "ดอยช้างคาเฟ่ สวนตุง", "nameTh": "ดอยช้างคาเฟ่ สวนตุง", "nameEn": "Doi Chang Cafe Suan Tung", "cat": ["food"], "province": "cr", "slug": "doi-chang-cafe-suan-tung-960070519", "rank": 2}}, {"type": "Feature", "geometry": {"type": "Point", "coordinates": [99.51208, 19.28634]}, "properties": {"id": "cr-osm-way-776879402", "name": "เพลินนะ - เพลินนา", "nameTh": "เพลินนะ - เพลินนา", "nameEn": "Ploen-na Ploen-na", "cat": ["food"], "province": "cr", "slug": "ploen-na-ploen-na-776879402", "rank": 2}}]}