{"type": "FeatureCollection", "features": [{"type": "Feature", "geometry": {"type": "Point", "coordinates": [100.0755, 20.27816]}, "properties": {"id": "cr-osm-node-2206741791", "name": "LPG Station", "nameTh": null, "nameEn": "LPG Station", "cat": ["transport"], "province": "cr", "slug": "lpg-station-2206741791", "rank": 1}}, {"type": "Feature", "geometry": {"type": "Point", "coordinates": [99.75428, 19.80637]}, "properties": {"id": "cr-osm-node-3339667040", "name": "LPG Station", "nameTh": null, "nameEn": "LPG Station", "cat": ["transport"], "province": "cr", "slug": "lpg-station-3339667040", "rank": 1}}, {"type": "Feature", "geometry": {"type": "Point", "coordinates": [99.82359, 19.86741]}, "properties": {"id": "cr-osm-way-583670715", "name": "LPG Station", "nameTh": null, "nameEn": "LPG Station", "cat": ["transport"], "province": "cr", "slug": "lpg-station-583670715", "rank": 1}}, {"type": "Feature", "geometry": {"type": "Point", "coordinates": [99.87068, 20.01845]}, "properties": {"id": "cr-osm-way-641229985", "name": "LPG Station", "nameTh": null, "nameEn": "LPG Station", "cat": ["transport"], "province": "cr", "slug": "lpg-station-641229985", "rank": 1}}, {"type": "Feature", "geometry": {"type": "Point", "coordinates": [100.40831, 20.21536]}, "properties": {"id": "cr-osm-way-519014949", "name": "P T Fuel Station", "nameTh": null, "nameEn": "P T Fuel Station", "cat": ["transport"], "province": "cr", "slug": "p-t-fuel-station-519014949", "rank": 1}}, {"type": "Feature", "geometry": {"type": "Point", "coordinates": [99.82703, 19.87138]}, "properties": {"id": "cr-osm-way-558431976", "name": "PT", "nameTh": null, "nameEn": "PT", "cat": ["transport"], "province": "cr", "slug": "pt-558431976", "rank": 1}}, {"type": "Feature", "geometry": {"type": "Point", "coordinates": [99.84715, 19.94666]}, "properties": {"id": "cr-osm-way-584176176", "name": "PT", "nameTh": null, "nameEn": "PT", "cat": ["transport"], "province": "cr", "slug": "pt-584176176", "rank": 1}}, {"type": "Feature", "geometry": {"type": "Point", "coordinates": [99.51211, 19.19176]}, "properties": {"id": "cr-osm-way-643082532", "name": "PT", "nameTh": null, "nameEn": "PT", "cat": ["transport"], "province": "cr", "slug": "pt-643082532", "rank": 1}}, {"type": "Feature", "geometry": {"type": "Point", "coordinates": [99.86514, 20.12954]}, "properties": {"id": "cr-osm-node-2135560293", "name": "Unique Gas", "nameTh": null, "nameEn": "Unique Gas", "cat": ["transport"], "province": "cr", "slug": "unique-gas-2135560293", "rank": 1}}, {"type": "Feature", "geometry": {"type": "Point", "coordinates": [99.77346, 19.82635]}, "properties": {"id": "cr-osm-way-1013480694", "name": "สยามแก๊ส", "nameTh": "สยามแก๊ส", "nameEn": "Siam Gas", "cat": ["transport"], "province": "cr", "slug": "siam-gas-1013480694", "rank": 2}}, {"type": "Feature", "geometry": {"type": "Point", "coordinates": [99.88586, 20.36107]}, "properties": {"id": "cr-osm-node-2193386221", "name": "เวิลด์แก๊ส", "nameTh": "เวิลด์แก๊ส", "nameEn": "World Gas", "cat": ["transport"], "province": "cr", "slug": "world-gas-2193386221", "rank": 2}}]}