{"type": "FeatureCollection", "features": [{"type": "Feature", "geometry": {"type": "Point", "coordinates": [99.73195, 19.75267]}, "properties": {"id": "cr-osm-node-11345485570", "name": "KFC", "nameTh": null, "nameEn": "KFC", "cat": ["food"], "province": "cr", "slug": "kfc-11345485570", "rank": 1}}, {"type": "Feature", "geometry": {"type": "Point", "coordinates": [99.88359, 20.40749]}, "properties": {"id": "cr-osm-node-2193422313", "name": "KFC", "nameTh": "เค เอฟ ซี", "nameEn": "KFC", "cat": ["food"], "province": "cr", "slug": "kfc-2193422313", "rank": 3}}, {"type": "Feature", "geometry": {"type": "Point", "coordinates": [99.83719, 19.8886]}, "properties": {"id": "cr-osm-node-2334898014", "name": "KFC", "nameTh": "เค เอฟ ซี", "nameEn": "KFC", "cat": ["food"], "province": "cr", "slug": "kfc-2334898014", "rank": 3}}, {"type": "Feature", "geometry": {"type": "Point", "coordinates": [99.83422, 19.88657]}, "properties": {"id": "cr-osm-node-3145141929", "name": "KFC", "nameTh": "เค เอฟ ซี", "nameEn": "KFC", "cat": ["food"], "province": "cr", "slug": "kfc-3145141929", "rank": 3}}, {"type": "Feature", "geometry": {"type": "Point", "coordinates": [99.86963, 20.01181]}, "properties": {"id": "cr-osm-node-6039357353", "name": "KFC", "nameTh": null, "nameEn": "KFC", "cat": ["food"], "province": "cr", "slug": "kfc-6039357353", "rank": 1}}, {"type": "Feature", "geometry": {"type": "Point", "coordinates": [99.51481, 19.19297]}, "properties": {"id": "cr-osm-node-9331635017", "name": "KFC", "nameTh": null, "nameEn": "KFC", "cat": ["food"], "province": "cr", "slug": "kfc-9331635017", "rank": 1}}, {"type": "Feature", "geometry": {"type": "Point", "coordinates": [99.8442, 19.93112]}, "properties": {"id": "cr-osm-way-1125407054", "name": "KFC", "nameTh": null, "nameEn": "KFC", "cat": ["food"], "province": "cr", "slug": "kfc-1125407054", "rank": 1}}]}