{"type": "FeatureCollection", "features": [{"type": "Feature", "geometry": {"type": "Point", "coordinates": [99.66761, 20.23202]}, "properties": {"id": "cr-osm-node-11176920077", "name": "PT", "nameTh": null, "nameEn": "PT", "cat": ["transport"], "province": "cr", "slug": "pt-11176920077", "rank": 1}}, {"type": "Feature", "geometry": {"type": "Point", "coordinates": [99.6618, 20.2438]}, "properties": {"id": "cr-osm-node-11176920082", "name": "PT", "nameTh": null, "nameEn": "PT", "cat": ["transport"], "province": "cr", "slug": "pt-11176920082", "rank": 1}}, {"type": "Feature", "geometry": {"type": "Point", "coordinates": [99.79586, 19.84034]}, "properties": {"id": "cr-osm-node-11345485269", "name": "PT", "nameTh": null, "nameEn": "PT", "cat": ["transport"], "province": "cr", "slug": "pt-11345485269", "rank": 1}}, {"type": "Feature", "geometry": {"type": "Point", "coordinates": [99.48956, 19.53977]}, "properties": {"id": "cr-osm-node-11432117364", "name": "PT", "nameTh": null, "nameEn": "PT", "cat": ["transport"], "province": "cr", "slug": "pt-11432117364", "rank": 1}}, {"type": "Feature", "geometry": {"type": "Point", "coordinates": [99.51052, 19.33894]}, "properties": {"id": "cr-osm-node-11432552399", "name": "PT", "nameTh": null, "nameEn": "PT", "cat": ["transport"], "province": "cr", "slug": "pt-11432552399", "rank": 1}}, {"type": "Feature", "geometry": {"type": "Point", "coordinates": [99.78212, 19.89016]}, "properties": {"id": "cr-osm-node-11726714538", "name": "PT", "nameTh": null, "nameEn": "PT", "cat": ["transport"], "province": "cr", "slug": "pt-11726714538", "rank": 1}}, {"type": "Feature", "geometry": {"type": "Point", "coordinates": [99.74216, 19.53641]}, "properties": {"id": "cr-osm-node-1221355644", "name": "PT", "nameTh": null, "nameEn": "PT", "cat": ["transport"], "province": "cr", "slug": "pt-1221355644", "rank": 1}}, {"type": "Feature", "geometry": {"type": "Point", "coordinates": [99.86426, 20.13068]}, "properties": {"id": "cr-osm-node-2135560326", "name": "PT", "nameTh": "พีที", "nameEn": "PT", "cat": ["transport"], "province": "cr", "slug": "pt-2135560326", "rank": 2}}, {"type": "Feature", "geometry": {"type": "Point", "coordinates": [99.50257, 19.37127]}, "properties": {"id": "cr-osm-node-2136711246", "name": "PT", "nameTh": "พีที", "nameEn": "PT", "cat": ["transport"], "province": "cr", "slug": "pt-2136711246", "rank": 2}}, {"type": "Feature", "geometry": {"type": "Point", "coordinates": [99.50264, 19.37949]}, "properties": {"id": "cr-osm-node-2136718418", "name": "PT", "nameTh": "พีที", "nameEn": "PT", "cat": ["transport"], "province": "cr", "slug": "pt-2136718418", "rank": 2}}, {"type": "Feature", "geometry": {"type": "Point", "coordinates": [99.85996, 20.26949]}, "properties": {"id": "cr-osm-node-2173996549", "name": "PT", "nameTh": "พีที", "nameEn": "PT", "cat": ["transport"], "province": "cr", "slug": "pt-2173996549", "rank": 2}}, {"type": "Feature", "geometry": {"type": "Point", "coordinates": [99.8861, 20.35924]}, "properties": {"id": "cr-osm-node-2193386218", "name": "PT", "nameTh": "พีที", "nameEn": "PT", "cat": ["transport"], "province": "cr", "slug": "pt-2193386218", "rank": 2}}, {"type": "Feature", "geometry": {"type": "Point", "coordinates": [99.92713, 20.20536]}, "properties": {"id": "cr-osm-node-2206840771", "name": "PT", "nameTh": null, "nameEn": "PT", "cat": ["transport"], "province": "cr", "slug": "pt-2206840771", "rank": 1}}, {"type": "Feature", "geometry": {"type": "Point", "coordinates": [99.78038, 19.57142]}, "properties": {"id": "cr-osm-node-4045008192", "name": "PT", "nameTh": null, "nameEn": "PT", "cat": ["transport"], "province": "cr", "slug": "pt-4045008192", "rank": 1}}, {"type": "Feature", "geometry": {"type": "Point", "coordinates": [100.41419, 20.14534]}, "properties": {"id": "cr-osm-node-4261375912", "name": "PT", "nameTh": null, "nameEn": "PT", "cat": ["transport"], "province": "cr", "slug": "pt-4261375912", "rank": 2}}, {"type": "Feature", "geometry": {"type": "Point", "coordinates": [99.85781, 20.1508]}, "properties": {"id": "cr-osm-node-4527048034", "name": "PT", "nameTh": "พีที", "nameEn": "PT", "cat": ["transport"], "province": "cr", "slug": "pt-4527048034", "rank": 2}}, {"type": "Feature", "geometry": {"type": "Point", "coordinates": [99.91884, 19.69932]}, "properties": {"id": "cr-osm-node-5042589027", "name": "PT", "nameTh": "PT", "nameEn": null, "cat": ["transport"], "province": "cr", "slug": "pt-5042589027", "rank": 1}}, {"type": "Feature", "geometry": {"type": "Point", "coordinates": [100.12016, 19.67709]}, "properties": {"id": "cr-osm-way-1013512281", "name": "PT", "nameTh": "พีที", "nameEn": "P T", "cat": ["transport"], "province": "cr", "slug": "p-t-1013512281", "rank": 2}}, {"type": "Feature", "geometry": {"type": "Point", "coordinates": [99.84731, 19.87445]}, "properties": {"id": "cr-osm-way-1014990988", "name": "PT", "nameTh": null, "nameEn": "PT", "cat": ["transport"], "province": "cr", "slug": "pt-1014990988", "rank": 1}}, {"type": "Feature", "geometry": {"type": "Point", "coordinates": [100.12474, 20.04172]}, "properties": {"id": "cr-osm-way-1124891976", "name": "PT", "nameTh": null, "nameEn": "PT", "cat": ["transport"], "province": "cr", "slug": "pt-1124891976", "rank": 1}}, {"type": "Feature", "geometry": {"type": "Point", "coordinates": [99.78238, 19.8906]}, "properties": {"id": "cr-osm-way-1262529630", "name": "PT", "nameTh": null, "nameEn": "PT", "cat": ["transport"], "province": "cr", "slug": "pt-1262529630", "rank": 1}}, {"type": "Feature", "geometry": {"type": "Point", "coordinates": [99.74494, 19.58033]}, "properties": {"id": "cr-osm-way-1356060541", "name": "PT", "nameTh": null, "nameEn": "PT", "cat": ["transport"], "province": "cr", "slug": "pt-1356060541", "rank": 1}}, {"type": "Feature", "geometry": {"type": "Point", "coordinates": [99.75341, 19.80244]}, "properties": {"id": "cr-osm-way-1356383594", "name": "PT", "nameTh": null, "nameEn": "PT", "cat": ["transport"], "province": "cr", "slug": "pt-1356383594", "rank": 1}}, {"type": "Feature", "geometry": {"type": "Point", "coordinates": [99.85564, 20.25146]}, "properties": {"id": "cr-osm-way-1473783318", "name": "PT", "nameTh": null, "nameEn": "PT", "cat": ["transport"], "province": "cr", "slug": "pt-1473783318", "rank": 1}}, {"type": "Feature", "geometry": {"type": "Point", "coordinates": [99.74138, 19.54736]}, "properties": {"id": "cr-osm-way-1492980398", "name": "PT", "nameTh": null, "nameEn": "PT", "cat": ["transport"], "province": "cr", "slug": "pt-1492980398", "rank": 1}}, {"type": "Feature", "geometry": {"type": "Point", "coordinates": [99.85329, 20.17225]}, "properties": {"id": "cr-osm-way-276147924", "name": "PT", "nameTh": "พีที", "nameEn": "PT 上去Resort", "cat": ["transport"], "province": "cr", "slug": "pt-resort-276147924", "rank": 2}}, {"type": "Feature", "geometry": {"type": "Point", "coordinates": [99.85639, 20.2395]}, "properties": {"id": "cr-osm-way-317470891", "name": "PT", "nameTh": "พีที", "nameEn": "PT", "cat": ["transport"], "province": "cr", "slug": "pt-317470891", "rank": 2}}, {"type": "Feature", "geometry": {"type": "Point", "coordinates": [99.50662, 19.65111]}, "properties": {"id": "cr-osm-way-325687205", "name": "PT", "nameTh": null, "nameEn": "PT", "cat": ["transport"], "province": "cr", "slug": "pt-325687205", "rank": 1}}, {"type": "Feature", "geometry": {"type": "Point", "coordinates": [99.74952, 19.59978]}, "properties": {"id": "cr-osm-way-327232488", "name": "PT", "nameTh": null, "nameEn": "PT", "cat": ["transport"], "province": "cr", "slug": "pt-327232488", "rank": 1}}, {"type": "Feature", "geometry": {"type": "Point", "coordinates": [99.94774, 19.97208]}, "properties": {"id": "cr-osm-way-354676850", "name": "PT", "nameTh": null, "nameEn": "PT", "cat": ["transport"], "province": "cr", "slug": "pt-354676850", "rank": 1}}, {"type": "Feature", "geometry": {"type": "Point", "coordinates": [99.98149, 20.42399]}, "properties": {"id": "cr-osm-way-372684829", "name": "PT", "nameTh": null, "nameEn": "PT", "cat": ["transport"], "province": "cr", "slug": "pt-372684829", "rank": 1}}, {"type": "Feature", "geometry": {"type": "Point", "coordinates": [99.82675, 20.13319]}, "properties": {"id": "cr-osm-way-438885955", "name": "PT", "nameTh": null, "nameEn": "PT", "cat": ["transport"], "province": "cr", "slug": "pt-438885955", "rank": 1}}, {"type": "Feature", "geometry": {"type": "Point", "coordinates": [99.90904, 19.78828]}, "properties": {"id": "cr-osm-way-440958062", "name": "PT", "nameTh": null, "nameEn": "PT", "cat": ["transport"], "province": "cr", "slug": "pt-440958062", "rank": 1}}, {"type": "Feature", "geometry": {"type": "Point", "coordinates": [99.83899, 19.89639]}, "properties": {"id": "cr-osm-way-460263838", "name": "PT", "nameTh": null, "nameEn": "PT", "cat": ["transport"], "province": "cr", "slug": "pt-460263838", "rank": 1}}, {"type": "Feature", "geometry": {"type": "Point", "coordinates": [99.76498, 19.85988]}, "properties": {"id": "cr-osm-way-486079460", "name": "PT", "nameTh": null, "nameEn": "PT", "cat": ["transport"], "province": "cr", "slug": "pt-486079460", "rank": 1}}, {"type": "Feature", "geometry": {"type": "Point", "coordinates": [99.71457, 19.83901]}, "properties": {"id": "cr-osm-way-486082736", "name": "PT", "nameTh": "พีที", "nameEn": "P T", "cat": ["transport"], "province": "cr", "slug": "p-t-486082736", "rank": 2}}, {"type": "Feature", "geometry": {"type": "Point", "coordinates": [100.30856, 19.92795]}, "properties": {"id": "cr-osm-way-511739488", "name": "PT", "nameTh": null, "nameEn": "PT", "cat": ["transport"], "province": "cr", "slug": "pt-511739488", "rank": 1}}, {"type": "Feature", "geometry": {"type": "Point", "coordinates": [100.13766, 19.85383]}, "properties": {"id": "cr-osm-way-527451189", "name": "PT", "nameTh": null, "nameEn": "PT", "cat": ["transport"], "province": "cr", "slug": "pt-527451189", "rank": 1}}, {"type": "Feature", "geometry": {"type": "Point", "coordinates": [99.99149, 19.843]}, "properties": {"id": "cr-osm-way-539347847", "name": "PT", "nameTh": null, "nameEn": "PT", "cat": ["transport"], "province": "cr", "slug": "pt-539347847", "rank": 1}}, {"type": "Feature", "geometry": {"type": "Point", "coordinates": [99.54686, 19.65969]}, "properties": {"id": "cr-osm-way-540188536", "name": "PT", "nameTh": "พีที", "nameEn": "PT", "cat": ["transport"], "province": "cr", "slug": "pt-540188536", "rank": 2}}, {"type": "Feature", "geometry": {"type": "Point", "coordinates": [99.8691, 19.84366]}, "properties": {"id": "cr-osm-way-543635484", "name": "PT", "nameTh": null, "nameEn": "PT", "cat": ["transport"], "province": "cr", "slug": "pt-543635484", "rank": 1}}, {"type": "Feature", "geometry": {"type": "Point", "coordinates": [99.74891, 19.79443]}, "properties": {"id": "cr-osm-way-543635498", "name": "PT", "nameTh": null, "nameEn": "PT", "cat": ["transport"], "province": "cr", "slug": "pt-543635498", "rank": 1}}, {"type": "Feature", "geometry": {"type": "Point", "coordinates": [100.29625, 20.04938]}, "properties": {"id": "cr-osm-way-543648522", "name": "PT", "nameTh": null, "nameEn": "PT", "cat": ["transport"], "province": "cr", "slug": "pt-543648522", "rank": 1}}, {"type": "Feature", "geometry": {"type": "Point", "coordinates": [100.50627, 20.05233]}, "properties": {"id": "cr-osm-way-555852785", "name": "PT", "nameTh": null, "nameEn": "PT", "cat": ["transport"], "province": "cr", "slug": "pt-555852785", "rank": 1}}, {"type": "Feature", "geometry": {"type": "Point", "coordinates": [99.82703, 19.87138]}, "properties": {"id": "cr-osm-way-558431976", "name": "PT", "nameTh": null, "nameEn": "PT", "cat": ["transport"], "province": "cr", "slug": "pt-558431976", "rank": 1}}, {"type": "Feature", "geometry": {"type": "Point", "coordinates": [99.81263, 19.85359]}, "properties": {"id": "cr-osm-way-558431978", "name": "PT", "nameTh": null, "nameEn": "PT", "cat": ["transport"], "province": "cr", "slug": "pt-558431978", "rank": 1}}, {"type": "Feature", "geometry": {"type": "Point", "coordinates": [99.84715, 19.94666]}, "properties": {"id": "cr-osm-way-584176176", "name": "PT", "nameTh": null, "nameEn": "PT", "cat": ["transport"], "province": "cr", "slug": "pt-584176176", "rank": 1}}, {"type": "Feature", "geometry": {"type": "Point", "coordinates": [99.49562, 19.14032]}, "properties": {"id": "cr-osm-way-636542155", "name": "PT", "nameTh": null, "nameEn": "PT", "cat": ["transport"], "province": "cr", "slug": "pt-636542155", "rank": 1}}, {"type": "Feature", "geometry": {"type": "Point", "coordinates": [99.86623, 19.99826]}, "properties": {"id": "cr-osm-way-641234913", "name": "PT", "nameTh": null, "nameEn": "PT", "cat": ["transport"], "province": "cr", "slug": "pt-641234913", "rank": 1}}, {"type": "Feature", "geometry": {"type": "Point", "coordinates": [99.51211, 19.19176]}, "properties": {"id": "cr-osm-way-643082532", "name": "PT", "nameTh": null, "nameEn": "PT", "cat": ["transport"], "province": "cr", "slug": "pt-643082532", "rank": 1}}, {"type": "Feature", "geometry": {"type": "Point", "coordinates": [99.91383, 19.86195]}, "properties": {"id": "cr-osm-way-672844446", "name": "PT", "nameTh": null, "nameEn": "PT", "cat": ["transport"], "province": "cr", "slug": "pt-672844446", "rank": 1}}, {"type": "Feature", "geometry": {"type": "Point", "coordinates": [99.84377, 19.91431]}, "properties": {"id": "cr-osm-way-684663846", "name": "PT", "nameTh": null, "nameEn": "PT", "cat": ["transport"], "province": "cr", "slug": "pt-684663846", "rank": 1}}, {"type": "Feature", "geometry": {"type": "Point", "coordinates": [99.84521, 19.93358]}, "properties": {"id": "cr-osm-way-684839166", "name": "PT", "nameTh": "พีที", "nameEn": "PT", "cat": ["transport"], "province": "cr", "slug": "pt-684839166", "rank": 2}}, {"type": "Feature", "geometry": {"type": "Point", "coordinates": [100.13215, 20.19198]}, "properties": {"id": "cr-osm-way-758268992", "name": "PT", "nameTh": "พีที", "nameEn": "PT", "cat": ["transport"], "province": "cr", "slug": "pt-758268992", "rank": 2}}, {"type": "Feature", "geometry": {"type": "Point", "coordinates": [100.02491, 19.98151]}, "properties": {"id": "cr-osm-way-772906326", "name": "PT", "nameTh": null, "nameEn": "PT", "cat": ["transport"], "province": "cr", "slug": "pt-772906326", "rank": 1}}, {"type": "Feature", "geometry": {"type": "Point", "coordinates": [99.82332, 19.90714]}, "properties": {"id": "cr-osm-way-960685118", "name": "PT", "nameTh": null, "nameEn": "PT", "cat": ["transport"], "province": "cr", "slug": "pt-960685118", "rank": 1}}, {"type": "Feature", "geometry": {"type": "Point", "coordinates": [99.66178, 20.24411]}, "properties": {"id": "cr-osm-way-373633965", "name": "พีที", "nameTh": "พีที", "nameEn": "PT", "cat": ["transport"], "province": "cr", "slug": "pt-373633965", "rank": 2}}, {"type": "Feature", "geometry": {"type": "Point", "coordinates": [99.87343, 20.03086]}, "properties": {"id": "cr-osm-way-1459493705", "name": "สาขาหน้ารพ.ศูนย์การแพทย์มหาวิทยาลัยแม่ฟ้าหลวง", "nameTh": "สาขาหน้ารพ.ศูนย์การแพทย์มหาวิทยาลัยแม่ฟ้าหลวง", "nameEn": null, "cat": ["transport"], "province": "cr", "slug": "1459493705", "rank": 1}}]}