{"type": "FeatureCollection", "features": [{"type": "Feature", "geometry": {"type": "Point", "coordinates": [99.85502, 20.14971]}, "properties": {"id": "cr-osm-node-2148622832", "name": "ธนาคารกรุงเทพ", "nameTh": "ธนาคารกรุงเทพ", "nameEn": null, "cat": ["essentials"], "province": "cr", "slug": "2148622832", "rank": 1}}, {"type": "Feature", "geometry": {"type": "Point", "coordinates": [99.85562, 19.96608]}, "properties": {"id": "cr-osm-node-2151125545", "name": "ธนาคารกรุงเทพ", "nameTh": "ธนาคารกรุงเทพ", "nameEn": "Bangkok Bank", "cat": ["essentials"], "province": "cr", "slug": "bangkok-bank-2151125545", "rank": 2}}, {"type": "Feature", "geometry": {"type": "Point", "coordinates": [100.08445, 20.27383]}, "properties": {"id": "cr-osm-node-2212090169", "name": "ธนาคารกรุงเทพ", "nameTh": "ธนาคารกรุงเทพ", "nameEn": "Bangkok Bank", "cat": ["essentials"], "province": "cr", "slug": "bangkok-bank-2212090169", "rank": 2}}, {"type": "Feature", "geometry": {"type": "Point", "coordinates": [99.83714, 19.88835]}, "properties": {"id": "cr-osm-node-2334898030", "name": "ธนาคารกรุงเทพ", "nameTh": "ธนาคารกรุงเทพ", "nameEn": "Bangkok Bank", "cat": ["essentials"], "province": "cr", "slug": "bangkok-bank-2334898030", "rank": 2}}, {"type": "Feature", "geometry": {"type": "Point", "coordinates": [99.53952, 19.65416]}, "properties": {"id": "cr-osm-node-4530950597", "name": "ธนาคารกรุงเทพ", "nameTh": "ธนาคารกรุงเทพ", "nameEn": "Bangkok Bank", "cat": ["essentials"], "province": "cr", "slug": "bangkok-bank-4530950597", "rank": 2}}, {"type": "Feature", "geometry": {"type": "Point", "coordinates": [99.51699, 19.20447]}, "properties": {"id": "cr-osm-way-1459699555", "name": "ธนาคารกรุงเทพ", "nameTh": "ธนาคารกรุงเทพ", "nameEn": "Bangkok Bank", "cat": ["essentials"], "province": "cr", "slug": "bangkok-bank-1459699555", "rank": 2}}, {"type": "Feature", "geometry": {"type": "Point", "coordinates": [99.83112, 19.90852]}, "properties": {"id": "cr-osm-way-487637525", "name": "ธนาคารกรุงเทพ", "nameTh": "ธนาคารกรุงเทพ", "nameEn": "Bangkok Bank", "cat": ["essentials"], "province": "cr", "slug": "bangkok-bank-487637525", "rank": 2}}, {"type": "Feature", "geometry": {"type": "Point", "coordinates": [99.84137, 19.90737]}, "properties": {"id": "cr-osm-way-488638453", "name": "ธนาคารกรุงเทพ", "nameTh": "ธนาคารกรุงเทพ", "nameEn": "Bangkok Bank", "cat": ["essentials"], "province": "cr", "slug": "bangkok-bank-488638453", "rank": 2}}]}