{"type": "FeatureCollection", "features": [{"type": "Feature", "geometry": {"type": "Point", "coordinates": [99.8626847, 19.9276946]}, "properties": {"id": "cr-osm-way-764493736", "name": "ศูนย์จีน", "cat": ["whats-on"], "province": "cr"}}, {"type": "Feature", "geometry": {"type": "Point", "coordinates": [99.8657957, 19.9276976]}, "properties": {"id": "cr-osm-way-764493657", "name": "อาคาร 2 (หอประชุมพญามังราย)", "cat": ["whats-on"], "province": "cr"}}, {"type": "Feature", "geometry": {"type": "Point", "coordinates": [99.8349665, 19.8869494]}, "properties": {"id": "cr-osm-node-6725710285", "name": "เมเจอร์ ซีนีเพล็กซ์", "cat": ["whats-on"], "province": "cr"}}, {"type": "Feature", "geometry": {"type": "Point", "coordinates": [99.8248219, 19.9079864]}, "properties": {"id": "cr-osm-way-959660572", "name": "เลิฟอิส เสดดิ้งแพลนเนอร์", "cat": ["whats-on"], "province": "cr"}}]}