{"type": "FeatureCollection", "features": [{"type": "Feature", "geometry": {"type": "Point", "coordinates": [99.0327199, 18.7961921]}, "properties": {"title": "Stretch and Balance – Gentle Exercises for Better Mobility and Balance", "start": "2026-08-01 10:00:00", "recurring": true, "placeId": "cm-osm-way-122522956", "venue": "มหาวิทยาลัยพายัพ", "source": "payap-lll"}}, {"type": "Feature", "geometry": {"type": "Point", "coordinates": [98.9539181, 18.8009284]}, "properties": {"title": "🌅 Sunday Sunset Walk & Connect at CMU", "start": "2026-08-02 17:00:00", "recurring": true, "placeId": "cm-osm-way-189632187", "venue": "มหาวิทยาลัยเชียงใหม่", "source": "meetup-ical"}}, {"type": "Feature", "geometry": {"type": "Point", "coordinates": [99.0327199, 18.7961921]}, "properties": {"title": "Chiang Mai Photographers &#8211; Illusion Images", "start": "2026-08-03 10:00:00", "recurring": false, "placeId": "cm-osm-way-122522956", "venue": "มหาวิทยาลัยพายัพ", "source": "payap-lll"}}, {"type": "Feature", "geometry": {"type": "Point", "coordinates": [99.0327199, 18.7961921]}, "properties": {"title": "Exploring the Future", "start": "2026-08-06 11:00:00", "recurring": true, "placeId": "cm-osm-way-122522956", "venue": "มหาวิทยาลัยพายัพ", "source": "payap-lll"}}, {"type": "Feature", "geometry": {"type": "Point", "coordinates": [98.9924179, 18.7896396]}, "properties": {"title": "Love in Chiang Mai - Are We Dating—or Just Passing Through?", "start": "2026-08-06 18:00:00", "recurring": false, "placeId": "cm-osm-way-1005881892", "venue": "Spice Garden", "source": "meetup-ical"}}, {"type": "Feature", "geometry": {"type": "Point", "coordinates": [99.0327199, 18.7961921]}, "properties": {"title": "Caring and Sharing Group", "start": "2026-08-07 13:00:00", "recurring": true, "placeId": "cm-osm-way-122522956", "venue": "มหาวิทยาลัยพายัพ", "source": "payap-lll"}}, {"type": "Feature", "geometry": {"type": "Point", "coordinates": [99.0327199, 18.7961921]}, "properties": {"title": "Stretch and Balance – Gentle Exercises for Better Mobility and Balance", "start": "2026-08-08 10:00:00", "recurring": true, "placeId": "cm-osm-way-122522956", "venue": "มหาวิทยาลัยพายัพ", "source": "payap-lll"}}, {"type": "Feature", "geometry": {"type": "Point", "coordinates": [98.9539181, 18.8009284]}, "properties": {"title": "🌅 Sunday Sunset Walk & Connect at CMU", "start": "2026-08-09 17:00:00", "recurring": true, "placeId": "cm-osm-way-189632187", "venue": "มหาวิทยาลัยเชียงใหม่", "source": "meetup-ical"}}, {"type": "Feature", "geometry": {"type": "Point", "coordinates": [99.0327199, 18.7961921]}, "properties": {"title": "Exploring the Future", "start": "2026-08-13 11:00:00", "recurring": true, "placeId": "cm-osm-way-122522956", "venue": "มหาวิทยาลัยพายัพ", "source": "payap-lll"}}, {"type": "Feature", "geometry": {"type": "Point", "coordinates": [99.0327199, 18.7961921]}, "properties": {"title": "Caring and Sharing Group", "start": "2026-08-14 13:00:00", "recurring": true, "placeId": "cm-osm-way-122522956", "venue": "มหาวิทยาลัยพายัพ", "source": "payap-lll"}}, {"type": "Feature", "geometry": {"type": "Point", "coordinates": [98.9539181, 18.8009284]}, "properties": {"title": "🌅 Sunday Sunset Walk & Connect at CMU", "start": "2026-08-16 17:00:00", "recurring": true, "placeId": "cm-osm-way-189632187", "venue": "มหาวิทยาลัยเชียงใหม่", "source": "meetup-ical"}}, {"type": "Feature", "geometry": {"type": "Point", "coordinates": [99.0327199, 18.7961921]}, "properties": {"title": "Qigong for Balance &#038; Self-Empowerment", "start": "2026-08-18 10:00:00", "recurring": true, "placeId": "cm-osm-way-122522956", "venue": "มหาวิทยาลัยพายัพ", "source": "payap-lll"}}, {"type": "Feature", "geometry": {"type": "Point", "coordinates": [99.0327199, 18.7961921]}, "properties": {"title": "Exploring the Future", "start": "2026-08-20 11:00:00", "recurring": true, "placeId": "cm-osm-way-122522956", "venue": "มหาวิทยาลัยพายัพ", "source": "payap-lll"}}, {"type": "Feature", "geometry": {"type": "Point", "coordinates": [99.0327199, 18.7961921]}, "properties": {"title": "Caring and Sharing Group", "start": "2026-08-21 13:00:00", "recurring": true, "placeId": "cm-osm-way-122522956", "venue": "มหาวิทยาลัยพายัพ", "source": "payap-lll"}}, {"type": "Feature", "geometry": {"type": "Point", "coordinates": [99.0327199, 18.7961921]}, "properties": {"title": "Qigong for Balance &#038; Self-Empowerment", "start": "2026-08-25 10:00:00", "recurring": true, "placeId": "cm-osm-way-122522956", "venue": "มหาวิทยาลัยพายัพ", "source": "payap-lll"}}, {"type": "Feature", "geometry": {"type": "Point", "coordinates": [99.0327199, 18.7961921]}, "properties": {"title": "Seven Steps to a Good/Great Death", "start": "2026-08-26 10:00:00", "recurring": false, "placeId": "cm-osm-way-122522956", "venue": "มหาวิทยาลัยพายัพ", "source": "payap-lll"}}, {"type": "Feature", "geometry": {"type": "Point", "coordinates": [98.9764246, 18.8116068]}, "properties": {"title": "Guided Tour of Chiang Mai National Museum", "start": "2026-08-28 10:00:00", "recurring": false, "placeId": "cm-osm-way-200414775", "venue": "พิพิธภัณฑ์แห่งชาติ จังหวัดเชียงใหม่", "source": "payap-lll"}}, {"type": "Feature", "geometry": {"type": "Point", "coordinates": [99.0327199, 18.7961921]}, "properties": {"title": "Caring and Sharing Group", "start": "2026-08-28 13:00:00", "recurring": true, "placeId": "cm-osm-way-122522956", "venue": "มหาวิทยาลัยพายัพ", "source": "payap-lll"}}, {"type": "Feature", "geometry": {"type": "Point", "coordinates": [99.0327199, 18.7961921]}, "properties": {"title": "Qigong for Balance &#038; Self-Empowerment", "start": "2026-09-01 10:00:00", "recurring": true, "placeId": "cm-osm-way-122522956", "venue": "มหาวิทยาลัยพายัพ", "source": "payap-lll"}}, {"type": "Feature", "geometry": {"type": "Point", "coordinates": [99.0327199, 18.7961921]}, "properties": {"title": "I Love You So We Will Stay With You", "start": "2026-09-02 10:00:00", "recurring": false, "placeId": "cm-osm-way-122522956", "venue": "มหาวิทยาลัยพายัพ", "source": "payap-lll"}}, {"type": "Feature", "geometry": {"type": "Point", "coordinates": [99.0327199, 18.7961921]}, "properties": {"title": "Caring and Sharing Group", "start": "2026-09-04 13:00:00", "recurring": true, "placeId": "cm-osm-way-122522956", "venue": "มหาวิทยาลัยพายัพ", "source": "payap-lll"}}, {"type": "Feature", "geometry": {"type": "Point", "coordinates": [99.0327199, 18.7961921]}, "properties": {"title": "Qigong for Balance &#038; Self-Empowerment", "start": "2026-09-08 10:00:00", "recurring": true, "placeId": "cm-osm-way-122522956", "venue": "มหาวิทยาลัยพายัพ", "source": "payap-lll"}}, {"type": "Feature", "geometry": {"type": "Point", "coordinates": [99.0327199, 18.7961921]}, "properties": {"title": "Thailand’s coral reefs in a warming world with Dr. Chris Carpenter", "start": "2026-09-09 10:00:00", "recurring": false, "placeId": "cm-osm-way-122522956", "venue": "มหาวิทยาลัยพายัพ", "source": "payap-lll"}}, {"type": "Feature", "geometry": {"type": "Point", "coordinates": [99.0327199, 18.7961921]}, "properties": {"title": "Caring and Sharing Group", "start": "2026-09-11 13:00:00", "recurring": true, "placeId": "cm-osm-way-122522956", "venue": "มหาวิทยาลัยพายัพ", "source": "payap-lll"}}, {"type": "Feature", "geometry": {"type": "Point", "coordinates": [99.0327199, 18.7961921]}, "properties": {"title": "Qigong for Balance &#038; Self-Empowerment", "start": "2026-09-15 10:00:00", "recurring": true, "placeId": "cm-osm-way-122522956", "venue": "มหาวิทยาลัยพายัพ", "source": "payap-lll"}}, {"type": "Feature", "geometry": {"type": "Point", "coordinates": [99.0327199, 18.7961921]}, "properties": {"title": "Stars and Stupas: The Ancient Astronomy of Prathat Doi Suthep", "start": "2026-09-16 10:00:00", "recurring": false, "placeId": "cm-osm-way-122522956", "venue": "มหาวิทยาลัยพายัพ", "source": "payap-lll"}}, {"type": "Feature", "geometry": {"type": "Point", "coordinates": [99.0327199, 18.7961921]}, "properties": {"title": "Caring and Sharing Group", "start": "2026-09-18 13:00:00", "recurring": true, "placeId": "cm-osm-way-122522956", "venue": "มหาวิทยาลัยพายัพ", "source": "payap-lll"}}, {"type": "Feature", "geometry": {"type": "Point", "coordinates": [99.0327199, 18.7961921]}, "properties": {"title": "Qigong for Balance &#038; Self-Empowerment", "start": "2026-09-22 10:00:00", "recurring": true, "placeId": "cm-osm-way-122522956", "venue": "มหาวิทยาลัยพายัพ", "source": "payap-lll"}}, {"type": "Feature", "geometry": {"type": "Point", "coordinates": [99.0327199, 18.7961921]}, "properties": {"title": "Lanna Thai Music: An Interactive Lecture and Live Demonstration with Ajarn Bringkop Vora-urai and colleagues", "start": "2026-09-23 10:00:00", "recurring": false, "placeId": "cm-osm-way-122522956", "venue": "มหาวิทยาลัยพายัพ", "source": "payap-lll"}}, {"type": "Feature", "geometry": {"type": "Point", "coordinates": [99.0327199, 18.7961921]}, "properties": {"title": "Full Day Excursion to Lamphun: History, Art, and a Festival", "start": "2026-09-24 08:30:00", "recurring": false, "placeId": "cm-osm-way-122522956", "venue": "มหาวิทยาลัยพายัพ", "source": "payap-lll"}}, {"type": "Feature", "geometry": {"type": "Point", "coordinates": [99.0327199, 18.7961921]}, "properties": {"title": "Caring and Sharing Group", "start": "2026-09-25 13:00:00", "recurring": true, "placeId": "cm-osm-way-122522956", "venue": "มหาวิทยาลัยพายัพ", "source": "payap-lll"}}, {"type": "Feature", "geometry": {"type": "Point", "coordinates": [99.0327199, 18.7961921]}, "properties": {"title": "Caring and Sharing Group", "start": "2026-10-02 13:00:00", "recurring": true, "placeId": "cm-osm-way-122522956", "venue": "มหาวิทยาลัยพายัพ", "source": "payap-lll"}}, {"type": "Feature", "geometry": {"type": "Point", "coordinates": [99.0327199, 18.7961921]}, "properties": {"title": "Portraits in Drawing and Watercolor", "start": "2026-10-06 13:00:00", "recurring": true, "placeId": "cm-osm-way-122522956", "venue": "มหาวิทยาลัยพายัพ", "source": "payap-lll"}}, {"type": "Feature", "geometry": {"type": "Point", "coordinates": [99.0327199, 18.7961921]}, "properties": {"title": "Data and Cybersecurity: Staying Safe in a Digital World", "start": "2026-10-08 10:00:00", "recurring": false, "placeId": "cm-osm-way-122522956", "venue": "มหาวิทยาลัยพายัพ", "source": "payap-lll"}}, {"type": "Feature", "geometry": {"type": "Point", "coordinates": [99.0327199, 18.7961921]}, "properties": {"title": "Caring and Sharing Group", "start": "2026-10-09 13:00:00", "recurring": true, "placeId": "cm-osm-way-122522956", "venue": "มหาวิทยาลัยพายัพ", "source": "payap-lll"}}, {"type": "Feature", "geometry": {"type": "Point", "coordinates": [99.0327199, 18.7961921]}, "properties": {"title": "Amulets, Tattoos and Other Sacred Objects in Thai Buddhism", "start": "2026-10-14 10:00:00", "recurring": false, "placeId": "cm-osm-way-122522956", "venue": "มหาวิทยาลัยพายัพ", "source": "payap-lll"}}, {"type": "Feature", "geometry": {"type": "Point", "coordinates": [99.0327199, 18.7961921]}, "properties": {"title": "Caring and Sharing Group", "start": "2026-10-16 13:00:00", "recurring": true, "placeId": "cm-osm-way-122522956", "venue": "มหาวิทยาลัยพายัพ", "source": "payap-lll"}}, {"type": "Feature", "geometry": {"type": "Point", "coordinates": [99.0327199, 18.7961921]}, "properties": {"title": "Portraits in Drawing and Watercolor", "start": "2026-10-20 13:00:00", "recurring": true, "placeId": "cm-osm-way-122522956", "venue": "มหาวิทยาลัยพายัพ", "source": "payap-lll"}}, {"type": "Feature", "geometry": {"type": "Point", "coordinates": [99.0327199, 18.7961921]}, "properties": {"title": "Displacement, Buddhism and Sex Workers", "start": "2026-10-21 10:00:00", "recurring": false, "placeId": "cm-osm-way-122522956", "venue": "มหาวิทยาลัยพายัพ", "source": "payap-lll"}}, {"type": "Feature", "geometry": {"type": "Point", "coordinates": [99.0327199, 18.7961921]}, "properties": {"title": "Caring and Sharing Group", "start": "2026-10-23 13:00:00", "recurring": true, "placeId": "cm-osm-way-122522956", "venue": "มหาวิทยาลัยพายัพ", "source": "payap-lll"}}, {"type": "Feature", "geometry": {"type": "Point", "coordinates": [99.0327199, 18.7961921]}, "properties": {"title": "Portraits in Drawing and Watercolor", "start": "2026-10-27 13:00:00", "recurring": true, "placeId": "cm-osm-way-122522956", "venue": "มหาวิทยาลัยพายัพ", "source": "payap-lll"}}, {"type": "Feature", "geometry": {"type": "Point", "coordinates": [99.0327199, 18.7961921]}, "properties": {"title": "The Ho Chi Minh Trail: Then and Today", "start": "2026-10-29 10:00:00", "recurring": false, "placeId": "cm-osm-way-122522956", "venue": "มหาวิทยาลัยพายัพ", "source": "payap-lll"}}, {"type": "Feature", "geometry": {"type": "Point", "coordinates": [99.0327199, 18.7961921]}, "properties": {"title": "Caring and Sharing Group", "start": "2026-10-30 13:00:00", "recurring": true, "placeId": "cm-osm-way-122522956", "venue": "มหาวิทยาลัยพายัพ", "source": "payap-lll"}}, {"type": "Feature", "geometry": {"type": "Point", "coordinates": [99.0327199, 18.7961921]}, "properties": {"title": "Portraits in Drawing and Watercolor", "start": "2026-11-03 13:00:00", "recurring": true, "placeId": "cm-osm-way-122522956", "venue": "มหาวิทยาลัยพายัพ", "source": "payap-lll"}}, {"type": "Feature", "geometry": {"type": "Point", "coordinates": [99.0327199, 18.7961921]}, "properties": {"title": "Caring and Sharing Group", "start": "2026-11-06 13:00:00", "recurring": true, "placeId": "cm-osm-way-122522956", "venue": "มหาวิทยาลัยพายัพ", "source": "payap-lll"}}, {"type": "Feature", "geometry": {"type": "Point", "coordinates": [99.0327199, 18.7961921]}, "properties": {"title": "Portraits in Drawing and Watercolor", "start": "2026-11-10 13:00:00", "recurring": true, "placeId": "cm-osm-way-122522956", "venue": "มหาวิทยาลัยพายัพ", "source": "payap-lll"}}, {"type": "Feature", "geometry": {"type": "Point", "coordinates": [99.0327199, 18.7961921]}, "properties": {"title": "Caring and Sharing Group", "start": "2026-11-13 13:00:00", "recurring": true, "placeId": "cm-osm-way-122522956", "venue": "มหาวิทยาลัยพายัพ", "source": "payap-lll"}}, {"type": "Feature", "geometry": {"type": "Point", "coordinates": [99.0327199, 18.7961921]}, "properties": {"title": "Caring and Sharing Group", "start": "2026-11-20 13:00:00", "recurring": true, "placeId": "cm-osm-way-122522956", "venue": "มหาวิทยาลัยพายัพ", "source": "payap-lll"}}, {"type": "Feature", "geometry": {"type": "Point", "coordinates": [99.0327199, 18.7961921]}, "properties": {"title": "Many Ways of Knowing: A Biomimicry Journey", "start": "2026-11-26 09:00:00", "recurring": false, "placeId": "cm-osm-way-122522956", "venue": "มหาวิทยาลัยพายัพ", "source": "payap-lll"}}, {"type": "Feature", "geometry": {"type": "Point", "coordinates": [99.0327199, 18.7961921]}, "properties": {"title": "Caring and Sharing Group", "start": "2026-11-27 13:00:00", "recurring": true, "placeId": "cm-osm-way-122522956", "venue": "มหาวิทยาลัยพายัพ", "source": "payap-lll"}}, {"type": "Feature", "geometry": {"type": "Point", "coordinates": [99.0327199, 18.7961921]}, "properties": {"title": "Caring and Sharing Group", "start": "2026-12-04 13:00:00", "recurring": true, "placeId": "cm-osm-way-122522956", "venue": "มหาวิทยาลัยพายัพ", "source": "payap-lll"}}, {"type": "Feature", "geometry": {"type": "Point", "coordinates": [99.0327199, 18.7961921]}, "properties": {"title": "Caring and Sharing Group", "start": "2026-12-11 13:00:00", "recurring": true, "placeId": "cm-osm-way-122522956", "venue": "มหาวิทยาลัยพายัพ", "source": "payap-lll"}}, {"type": "Feature", "geometry": {"type": "Point", "coordinates": [99.0327199, 18.7961921]}, "properties": {"title": "Caring and Sharing Group", "start": "2026-12-18 13:00:00", "recurring": true, "placeId": "cm-osm-way-122522956", "venue": "มหาวิทยาลัยพายัพ", "source": "payap-lll"}}]}